<?xml version="1.0" encoding="UTF-8"?>
<gpx version="1.1" creator="fire-detection-zavidovici"
     xmlns="http://www.topografix.com/GPX/1/1"
     xmlns:xsi="http://www.w3.org/2001/XMLSchema-instance"
     xsi:schemaLocation="http://www.topografix.com/GPX/1/1 http://www.topografix.com/GPX/1/1/gpx.xsd">
  <metadata>
    <name>Granica opstine Zavidovici</name>
    <desc>Administrativna granica Grada (opstine) Zavidovici, Zenicko-dobojski kanton, Bosna i Hercegovina. Izvor: OpenStreetMap relacija 2528292 (boundary=administrative, admin_level=6), ODbL 1.0. GPX ne podrzava poligone, pa je granica zapisana kao zatvorena putanja (trk).</desc>
    <copyright author="OpenStreetMap contributors">
      <license>https://opendatacommons.org/licenses/odbl/1-0/</license>
    </copyright>
    <link href="https://www.openstreetmap.org/relation/2528292">
      <text>OpenStreetMap relation 2528292</text>
    </link>
    <time>2026-08-20T20:33:47Z</time>
    <bounds minlat="44.255557" minlon="18.059880" maxlat="44.516627" maxlon="18.492947" />
  </metadata>
  <trk>
    <name>Opstina Zavidovici - granica (puna rezolucija)</name>
    <desc>731 tocaka, puna OSM rezolucija. Zatvoreni prsten: zadnja tocka je jednaka prvoj.</desc>
    <type>boundary</type>
    <trkseg>
      <trkpt lat="44.348514" lon="18.059880" />
      <trkpt lat="44.345952" lon="18.061671" />
      <trkpt lat="44.343390" lon="18.064359" />
      <trkpt lat="44.338264" lon="18.068838" />
      <trkpt lat="44.335061" lon="18.072421" />
      <trkpt lat="44.330575" lon="18.073317" />
      <trkpt lat="44.324167" lon="18.072421" />
      <trkpt lat="44.322245" lon="18.072421" />
      <trkpt lat="44.318399" lon="18.067942" />
      <trkpt lat="44.314554" lon="18.068838" />
      <trkpt lat="44.310067" lon="18.071525" />
      <trkpt lat="44.306862" lon="18.072421" />
      <trkpt lat="44.302374" lon="18.073317" />
      <trkpt lat="44.294286" lon="18.075451" />
      <trkpt lat="44.291525" lon="18.075714" />
      <trkpt lat="44.290222" lon="18.075858" />
      <trkpt lat="44.291426" lon="18.081050" />
      <trkpt lat="44.291549" lon="18.082509" />
      <trkpt lat="44.292102" lon="18.083872" />
      <trkpt lat="44.292719" lon="18.086255" />
      <trkpt lat="44.293264" lon="18.087097" />
      <trkpt lat="44.294627" lon="18.087376" />
      <trkpt lat="44.295335" lon="18.089054" />
      <trkpt lat="44.296658" lon="18.091967" />
      <trkpt lat="44.297715" lon="18.093581" />
      <trkpt lat="44.299712" lon="18.096070" />
      <trkpt lat="44.299988" lon="18.099074" />
      <trkpt lat="44.300153" lon="18.102522" />
      <trkpt lat="44.297638" lon="18.104728" />
      <trkpt lat="44.296494" lon="18.105812" />
      <trkpt lat="44.295522" lon="18.107636" />
      <trkpt lat="44.295054" lon="18.111643" />
      <trkpt lat="44.295189" lon="18.115125" />
      <trkpt lat="44.295011" lon="18.117205" />
      <trkpt lat="44.294997" lon="18.120017" />
      <trkpt lat="44.295288" lon="18.121288" />
      <trkpt lat="44.295436" lon="18.122719" />
      <trkpt lat="44.295495" lon="18.124441" />
      <trkpt lat="44.295983" lon="18.129366" />
      <trkpt lat="44.295721" lon="18.131103" />
      <trkpt lat="44.294362" lon="18.134906" />
      <trkpt lat="44.293399" lon="18.137814" />
      <trkpt lat="44.289551" lon="18.142293" />
      <trkpt lat="44.286345" lon="18.144084" />
      <trkpt lat="44.283780" lon="18.144084" />
      <trkpt lat="44.282129" lon="18.143478" />
      <trkpt lat="44.279606" lon="18.143601" />
      <trkpt lat="44.277125" lon="18.146498" />
      <trkpt lat="44.276503" lon="18.147807" />
      <trkpt lat="44.273641" lon="18.151594" />
      <trkpt lat="44.271970" lon="18.152397" />
      <trkpt lat="44.270080" lon="18.153298" />
      <trkpt lat="44.268879" lon="18.154882" />
      <trkpt lat="44.268160" lon="18.155894" />
      <trkpt lat="44.267299" lon="18.157611" />
      <trkpt lat="44.267577" lon="18.159253" />
      <trkpt lat="44.267099" lon="18.160079" />
      <trkpt lat="44.266700" lon="18.162589" />
      <trkpt lat="44.267176" lon="18.162889" />
      <trkpt lat="44.267207" lon="18.163748" />
      <trkpt lat="44.267821" lon="18.163855" />
      <trkpt lat="44.267745" lon="18.164628" />
      <trkpt lat="44.267268" lon="18.164606" />
      <trkpt lat="44.267084" lon="18.166151" />
      <trkpt lat="44.266684" lon="18.166323" />
      <trkpt lat="44.267030" lon="18.168801" />
      <trkpt lat="44.267804" lon="18.170271" />
      <trkpt lat="44.267084" lon="18.171644" />
      <trkpt lat="44.267427" lon="18.173978" />
      <trkpt lat="44.268341" lon="18.174820" />
      <trkpt lat="44.268390" lon="18.176537" />
      <trkpt lat="44.268129" lon="18.178039" />
      <trkpt lat="44.267576" lon="18.179112" />
      <trkpt lat="44.267015" lon="18.179895" />
      <trkpt lat="44.267038" lon="18.181772" />
      <trkpt lat="44.267284" lon="18.181643" />
      <trkpt lat="44.267530" lon="18.181654" />
      <trkpt lat="44.267821" lon="18.181858" />
      <trkpt lat="44.268006" lon="18.182191" />
      <trkpt lat="44.267998" lon="18.182663" />
      <trkpt lat="44.267875" lon="18.182845" />
      <trkpt lat="44.267760" lon="18.182802" />
      <trkpt lat="44.267668" lon="18.182641" />
      <trkpt lat="44.267637" lon="18.182480" />
      <trkpt lat="44.267541" lon="18.182416" />
      <trkpt lat="44.267395" lon="18.182432" />
      <trkpt lat="44.267153" lon="18.182421" />
      <trkpt lat="44.267045" lon="18.182486" />
      <trkpt lat="44.266996" lon="18.182700" />
      <trkpt lat="44.266934" lon="18.182920" />
      <trkpt lat="44.267111" lon="18.182969" />
      <trkpt lat="44.267149" lon="18.183242" />
      <trkpt lat="44.267091" lon="18.183489" />
      <trkpt lat="44.266999" lon="18.183553" />
      <trkpt lat="44.266911" lon="18.183559" />
      <trkpt lat="44.266849" lon="18.183441" />
      <trkpt lat="44.266796" lon="18.183484" />
      <trkpt lat="44.266807" lon="18.183660" />
      <trkpt lat="44.266865" lon="18.183832" />
      <trkpt lat="44.267065" lon="18.183854" />
      <trkpt lat="44.267384" lon="18.184154" />
      <trkpt lat="44.267656" lon="18.184497" />
      <trkpt lat="44.267917" lon="18.184932" />
      <trkpt lat="44.267952" lon="18.185157" />
      <trkpt lat="44.267952" lon="18.185404" />
      <trkpt lat="44.267829" lon="18.185425" />
      <trkpt lat="44.267629" lon="18.185463" />
      <trkpt lat="44.267602" lon="18.185495" />
      <trkpt lat="44.267668" lon="18.185656" />
      <trkpt lat="44.267887" lon="18.185801" />
      <trkpt lat="44.268080" lon="18.186122" />
      <trkpt lat="44.268108" lon="18.186305" />
      <trkpt lat="44.268087" lon="18.186530" />
      <trkpt lat="44.267987" lon="18.186691" />
      <trkpt lat="44.267898" lon="18.186713" />
      <trkpt lat="44.267802" lon="18.186643" />
      <trkpt lat="44.267503" lon="18.186461" />
      <trkpt lat="44.267453" lon="18.186740" />
      <trkpt lat="44.267291" lon="18.187137" />
      <trkpt lat="44.266461" lon="18.187019" />
      <trkpt lat="44.266746" lon="18.188478" />
      <trkpt lat="44.266761" lon="18.189197" />
      <trkpt lat="44.266655" lon="18.189956" />
      <trkpt lat="44.266638" lon="18.190098" />
      <trkpt lat="44.266776" lon="18.190151" />
      <trkpt lat="44.266857" lon="18.190527" />
      <trkpt lat="44.266965" lon="18.191932" />
      <trkpt lat="44.267053" lon="18.192775" />
      <trkpt lat="44.267164" lon="18.193628" />
      <trkpt lat="44.266961" lon="18.194986" />
      <trkpt lat="44.266851" lon="18.195751" />
      <trkpt lat="44.266880" lon="18.196331" />
      <trkpt lat="44.266531" lon="18.196530" />
      <trkpt lat="44.266085" lon="18.197254" />
      <trkpt lat="44.265993" lon="18.197823" />
      <trkpt lat="44.265785" lon="18.198552" />
      <trkpt lat="44.264719" lon="18.201040" />
      <trkpt lat="44.264234" lon="18.202522" />
      <trkpt lat="44.264088" lon="18.203402" />
      <trkpt lat="44.263911" lon="18.203766" />
      <trkpt lat="44.263903" lon="18.205118" />
      <trkpt lat="44.264049" lon="18.206867" />
      <trkpt lat="44.261583" lon="18.207317" />
      <trkpt lat="44.261500" lon="18.207539" />
      <trkpt lat="44.261211" lon="18.207818" />
      <trkpt lat="44.260953" lon="18.207953" />
      <trkpt lat="44.260839" lon="18.208222" />
      <trkpt lat="44.260776" lon="18.208830" />
      <trkpt lat="44.260930" lon="18.209335" />
      <trkpt lat="44.260979" lon="18.209707" />
      <trkpt lat="44.261097" lon="18.209989" />
      <trkpt lat="44.261145" lon="18.210303" />
      <trkpt lat="44.261091" lon="18.210998" />
      <trkpt lat="44.261137" lon="18.211523" />
      <trkpt lat="44.261298" lon="18.212060" />
      <trkpt lat="44.261378" lon="18.212138" />
      <trkpt lat="44.261385" lon="18.212284" />
      <trkpt lat="44.260048" lon="18.217539" />
      <trkpt lat="44.260689" lon="18.222914" />
      <trkpt lat="44.260689" lon="18.228289" />
      <trkpt lat="44.258123" lon="18.235455" />
      <trkpt lat="44.255557" lon="18.241725" />
      <trkpt lat="44.255557" lon="18.247100" />
      <trkpt lat="44.257481" lon="18.254266" />
      <trkpt lat="44.259406" lon="18.256954" />
      <trkpt lat="44.261331" lon="18.259641" />
      <trkpt lat="44.267104" lon="18.268599" />
      <trkpt lat="44.267104" lon="18.273974" />
      <trkpt lat="44.269029" lon="18.282036" />
      <trkpt lat="44.272877" lon="18.288307" />
      <trkpt lat="44.274160" lon="18.292786" />
      <trkpt lat="44.276725" lon="18.296369" />
      <trkpt lat="44.281215" lon="18.300848" />
      <trkpt lat="44.284421" lon="18.306222" />
      <trkpt lat="44.288910" lon="18.311597" />
      <trkpt lat="44.294040" lon="18.329513" />
      <trkpt lat="44.294040" lon="18.333096" />
      <trkpt lat="44.291475" lon="18.337575" />
      <trkpt lat="44.290193" lon="18.339367" />
      <trkpt lat="44.293399" lon="18.343846" />
      <trkpt lat="44.294040" lon="18.349220" />
      <trkpt lat="44.292116" lon="18.354595" />
      <trkpt lat="44.289551" lon="18.358178" />
      <trkpt lat="44.284421" lon="18.366240" />
      <trkpt lat="44.285063" lon="18.370719" />
      <trkpt lat="44.286345" lon="18.375198" />
      <trkpt lat="44.288910" lon="18.379677" />
      <trkpt lat="44.290193" lon="18.385052" />
      <trkpt lat="44.294040" lon="18.396697" />
      <trkpt lat="44.293399" lon="18.399385" />
      <trkpt lat="44.292757" lon="18.411926" />
      <trkpt lat="44.294040" lon="18.414613" />
      <trkpt lat="44.296604" lon="18.419988" />
      <trkpt lat="44.299169" lon="18.427154" />
      <trkpt lat="44.302374" lon="18.430737" />
      <trkpt lat="44.310067" lon="18.437008" />
      <trkpt lat="44.310067" lon="18.452236" />
      <trkpt lat="44.311990" lon="18.456715" />
      <trkpt lat="44.313913" lon="18.459402" />
      <trkpt lat="44.316477" lon="18.463881" />
      <trkpt lat="44.319040" lon="18.466569" />
      <trkpt lat="44.322886" lon="18.466569" />
      <trkpt lat="44.323526" lon="18.471048" />
      <trkpt lat="44.323526" lon="18.485380" />
      <trkpt lat="44.325593" lon="18.492947" />
      <trkpt lat="44.330719" lon="18.489812" />
      <trkpt lat="44.332962" lon="18.487572" />
      <trkpt lat="44.334243" lon="18.486229" />
      <trkpt lat="44.336486" lon="18.482645" />
      <trkpt lat="44.340330" lon="18.477271" />
      <trkpt lat="44.347057" lon="18.472344" />
      <trkpt lat="44.348658" lon="18.469656" />
      <trkpt lat="44.349619" lon="18.465177" />
      <trkpt lat="44.351861" lon="18.461146" />
      <trkpt lat="44.350260" lon="18.457563" />
      <trkpt lat="44.349619" lon="18.456667" />
      <trkpt lat="44.348979" lon="18.454428" />
      <trkpt lat="44.350900" lon="18.449053" />
      <trkpt lat="44.353142" lon="18.444574" />
      <trkpt lat="44.352502" lon="18.439647" />
      <trkpt lat="44.348018" lon="18.433377" />
      <trkpt lat="44.349939" lon="18.428450" />
      <trkpt lat="44.351541" lon="18.425315" />
      <trkpt lat="44.352502" lon="18.420836" />
      <trkpt lat="44.351541" lon="18.417701" />
      <trkpt lat="44.350260" lon="18.412774" />
      <trkpt lat="44.348979" lon="18.404264" />
      <trkpt lat="44.350260" lon="18.402024" />
      <trkpt lat="44.354423" lon="18.400233" />
      <trkpt lat="44.355704" lon="18.398889" />
      <trkpt lat="44.357306" lon="18.399337" />
      <trkpt lat="44.358907" lon="18.401128" />
      <trkpt lat="44.360188" lon="18.403816" />
      <trkpt lat="44.362749" lon="18.407399" />
      <trkpt lat="44.365311" lon="18.403368" />
      <trkpt lat="44.368833" lon="18.397545" />
      <trkpt lat="44.370114" lon="18.396649" />
      <trkpt lat="44.372995" lon="18.401576" />
      <trkpt lat="44.379398" lon="18.411878" />
      <trkpt lat="44.380038" lon="18.412774" />
      <trkpt lat="44.380038" lon="18.416357" />
      <trkpt lat="44.377797" lon="18.419492" />
      <trkpt lat="44.375557" lon="18.423523" />
      <trkpt lat="44.377145" lon="18.426797" />
      <trkpt lat="44.378651" lon="18.429427" />
      <trkpt lat="44.381299" lon="18.428740" />
      <trkpt lat="44.384161" lon="18.427138" />
      <trkpt lat="44.386702" lon="18.425757" />
      <trkpt lat="44.387898" lon="18.427750" />
      <trkpt lat="44.387691" lon="18.429831" />
      <trkpt lat="44.389306" lon="18.432838" />
      <trkpt lat="44.391881" lon="18.434273" />
      <trkpt lat="44.393802" lon="18.430690" />
      <trkpt lat="44.395595" lon="18.426388" />
      <trkpt lat="44.396042" lon="18.425315" />
      <trkpt lat="44.397322" lon="18.422179" />
      <trkpt lat="44.399242" lon="18.417253" />
      <trkpt lat="44.402122" lon="18.409638" />
      <trkpt lat="44.404042" lon="18.405607" />
      <trkpt lat="44.404362" lon="18.402472" />
      <trkpt lat="44.405322" lon="18.398889" />
      <trkpt lat="44.408842" lon="18.394858" />
      <trkpt lat="44.410442" lon="18.393514" />
      <trkpt lat="44.413781" lon="18.393413" />
      <trkpt lat="44.414699" lon="18.390689" />
      <trkpt lat="44.416039" lon="18.389534" />
      <trkpt lat="44.417776" lon="18.386395" />
      <trkpt lat="44.419414" lon="18.383907" />
      <trkpt lat="44.421038" lon="18.379377" />
      <trkpt lat="44.419176" lon="18.376356" />
      <trkpt lat="44.416499" lon="18.372214" />
      <trkpt lat="44.414921" lon="18.368880" />
      <trkpt lat="44.418760" lon="18.360370" />
      <trkpt lat="44.419301" lon="18.356507" />
      <trkpt lat="44.419457" lon="18.353261" />
      <trkpt lat="44.419823" lon="18.350462" />
      <trkpt lat="44.419945" lon="18.347017" />
      <trkpt lat="44.421959" lon="18.339767" />
      <trkpt lat="44.425797" lon="18.333944" />
      <trkpt lat="44.426437" lon="18.331257" />
      <trkpt lat="44.428822" lon="18.326324" />
      <trkpt lat="44.429761" lon="18.318665" />
      <trkpt lat="44.432907" lon="18.318143" />
      <trkpt lat="44.436032" lon="18.318347" />
      <trkpt lat="44.438356" lon="18.318313" />
      <trkpt lat="44.441104" lon="18.318319" />
      <trkpt lat="44.443068" lon="18.317372" />
      <trkpt lat="44.444986" lon="18.320507" />
      <trkpt lat="44.449503" lon="18.317009" />
      <trkpt lat="44.451612" lon="18.315303" />
      <trkpt lat="44.454679" lon="18.314911" />
      <trkpt lat="44.456687" lon="18.314112" />
      <trkpt lat="44.458415" lon="18.314237" />
      <trkpt lat="44.463529" lon="18.314685" />
      <trkpt lat="44.464808" lon="18.318268" />
      <trkpt lat="44.465448" lon="18.321851" />
      <trkpt lat="44.465783" lon="18.326789" />
      <trkpt lat="44.467381" lon="18.324102" />
      <trkpt lat="44.470897" lon="18.322758" />
      <trkpt lat="44.473454" lon="18.321415" />
      <trkpt lat="44.476010" lon="18.319623" />
      <trkpt lat="44.482402" lon="18.317384" />
      <trkpt lat="44.486236" lon="18.314696" />
      <trkpt lat="44.488793" lon="18.311561" />
      <trkpt lat="44.492627" lon="18.310665" />
      <trkpt lat="44.496141" lon="18.310217" />
      <trkpt lat="44.499017" lon="18.307530" />
      <trkpt lat="44.501892" lon="18.306186" />
      <trkpt lat="44.505406" lon="18.303499" />
      <trkpt lat="44.508280" lon="18.301707" />
      <trkpt lat="44.509558" lon="18.297676" />
      <trkpt lat="44.510197" lon="18.292749" />
      <trkpt lat="44.511474" lon="18.289614" />
      <trkpt lat="44.514194" lon="18.283327" />
      <trkpt lat="44.514918" lon="18.283049" />
      <trkpt lat="44.515186" lon="18.282857" />
      <trkpt lat="44.515301" lon="18.282580" />
      <trkpt lat="44.515299" lon="18.282266" />
      <trkpt lat="44.515491" lon="18.281723" />
      <trkpt lat="44.516020" lon="18.281341" />
      <trkpt lat="44.516456" lon="18.281316" />
      <trkpt lat="44.516627" lon="18.279928" />
      <trkpt lat="44.516509" lon="18.278465" />
      <trkpt lat="44.516211" lon="18.278114" />
      <trkpt lat="44.515532" lon="18.277469" />
      <trkpt lat="44.514870" lon="18.276857" />
      <trkpt lat="44.514377" lon="18.275962" />
      <trkpt lat="44.514062" lon="18.274954" />
      <trkpt lat="44.513780" lon="18.274445" />
      <trkpt lat="44.513610" lon="18.273754" />
      <trkpt lat="44.513239" lon="18.273018" />
      <trkpt lat="44.512900" lon="18.272338" />
      <trkpt lat="44.512051" lon="18.271466" />
      <trkpt lat="44.512055" lon="18.270889" />
      <trkpt lat="44.511517" lon="18.266181" />
      <trkpt lat="44.510162" lon="18.262380" />
      <trkpt lat="44.508806" lon="18.259846" />
      <trkpt lat="44.508806" lon="18.250979" />
      <trkpt lat="44.508355" lon="18.251612" />
      <trkpt lat="44.505192" lon="18.254146" />
      <trkpt lat="44.503386" lon="18.256679" />
      <trkpt lat="44.500223" lon="18.255412" />
      <trkpt lat="44.498416" lon="18.251612" />
      <trkpt lat="44.495253" lon="18.248445" />
      <trkpt lat="44.492542" lon="18.244644" />
      <trkpt lat="44.492090" lon="18.240210" />
      <trkpt lat="44.493446" lon="18.235777" />
      <trkpt lat="44.494350" lon="18.231976" />
      <trkpt lat="44.496157" lon="18.226909" />
      <trkpt lat="44.496157" lon="18.223741" />
      <trkpt lat="44.495705" lon="18.221208" />
      <trkpt lat="44.496157" lon="18.216774" />
      <trkpt lat="44.495705" lon="18.211707" />
      <trkpt lat="44.494801" lon="18.205372" />
      <trkpt lat="44.494350" lon="18.204106" />
      <trkpt lat="44.492090" lon="18.196504" />
      <trkpt lat="44.492090" lon="18.193337" />
      <trkpt lat="44.494801" lon="18.187003" />
      <trkpt lat="44.497512" lon="18.185103" />
      <trkpt lat="44.502865" lon="18.173993" />
      <trkpt lat="44.500601" lon="18.172714" />
      <trkpt lat="44.498385" lon="18.170951" />
      <trkpt lat="44.496887" lon="18.169523" />
      <trkpt lat="44.494939" lon="18.168151" />
      <trkpt lat="44.493054" lon="18.166500" />
      <trkpt lat="44.490086" lon="18.161559" />
      <trkpt lat="44.488034" lon="18.158599" />
      <trkpt lat="44.487606" lon="18.157064" />
      <trkpt lat="44.487387" lon="18.154349" />
      <trkpt lat="44.487746" lon="18.151426" />
      <trkpt lat="44.487782" lon="18.150209" />
      <trkpt lat="44.487970" lon="18.148692" />
      <trkpt lat="44.487962" lon="18.146262" />
      <trkpt lat="44.487415" lon="18.142337" />
      <trkpt lat="44.486640" lon="18.140391" />
      <trkpt lat="44.485625" lon="18.139124" />
      <trkpt lat="44.484508" lon="18.138224" />
      <trkpt lat="44.483080" lon="18.137581" />
      <trkpt lat="44.480652" lon="18.137193" />
      <trkpt lat="44.479778" lon="18.137290" />
      <trkpt lat="44.478999" lon="18.137679" />
      <trkpt lat="44.477840" lon="18.139097" />
      <trkpt lat="44.476897" lon="18.140770" />
      <trkpt lat="44.476321" lon="18.139941" />
      <trkpt lat="44.476268" lon="18.139790" />
      <trkpt lat="44.476153" lon="18.139511" />
      <trkpt lat="44.475839" lon="18.139318" />
      <trkpt lat="44.475663" lon="18.139318" />
      <trkpt lat="44.475426" lon="18.139340" />
      <trkpt lat="44.474698" lon="18.139275" />
      <trkpt lat="44.474124" lon="18.139125" />
      <trkpt lat="44.473956" lon="18.139297" />
      <trkpt lat="44.473673" lon="18.139426" />
      <trkpt lat="44.473558" lon="18.140016" />
      <trkpt lat="44.473917" lon="18.140713" />
      <trkpt lat="44.474224" lon="18.141013" />
      <trkpt lat="44.474002" lon="18.141400" />
      <trkpt lat="44.473879" lon="18.141260" />
      <trkpt lat="44.473565" lon="18.141743" />
      <trkpt lat="44.473022" lon="18.142204" />
      <trkpt lat="44.472516" lon="18.142354" />
      <trkpt lat="44.472073" lon="18.142215" />
      <trkpt lat="44.471904" lon="18.142086" />
      <trkpt lat="44.471230" lon="18.141689" />
      <trkpt lat="44.471085" lon="18.141668" />
      <trkpt lat="44.470886" lon="18.141754" />
      <trkpt lat="44.470687" lon="18.142344" />
      <trkpt lat="44.470595" lon="18.142848" />
      <trkpt lat="44.470396" lon="18.143288" />
      <trkpt lat="44.470166" lon="18.143374" />
      <trkpt lat="44.469952" lon="18.143288" />
      <trkpt lat="44.469592" lon="18.143417" />
      <trkpt lat="44.469079" lon="18.143803" />
      <trkpt lat="44.468627" lon="18.144414" />
      <trkpt lat="44.468344" lon="18.144650" />
      <trkpt lat="44.467999" lon="18.144854" />
      <trkpt lat="44.467685" lon="18.144865" />
      <trkpt lat="44.467348" lon="18.144693" />
      <trkpt lat="44.467027" lon="18.144532" />
      <trkpt lat="44.466506" lon="18.144629" />
      <trkpt lat="44.466299" lon="18.144683" />
      <trkpt lat="44.465947" lon="18.144769" />
      <trkpt lat="44.465526" lon="18.144811" />
      <trkpt lat="44.465258" lon="18.144790" />
      <trkpt lat="44.464914" lon="18.144554" />
      <trkpt lat="44.464646" lon="18.144371" />
      <trkpt lat="44.464293" lon="18.144232" />
      <trkpt lat="44.463949" lon="18.144017" />
      <trkpt lat="44.463335" lon="18.143950" />
      <trkpt lat="44.462976" lon="18.143728" />
      <trkpt lat="44.462456" lon="18.143696" />
      <trkpt lat="44.462234" lon="18.143535" />
      <trkpt lat="44.461797" lon="18.143138" />
      <trkpt lat="44.461552" lon="18.142751" />
      <trkpt lat="44.461284" lon="18.142194" />
      <trkpt lat="44.461016" lon="18.141797" />
      <trkpt lat="44.460488" lon="18.141367" />
      <trkpt lat="44.459998" lon="18.140928" />
      <trkpt lat="44.459592" lon="18.140595" />
      <trkpt lat="44.459148" lon="18.140241" />
      <trkpt lat="44.458803" lon="18.139919" />
      <trkpt lat="44.458221" lon="18.139243" />
      <trkpt lat="44.457700" lon="18.138170" />
      <trkpt lat="44.457218" lon="18.137172" />
      <trkpt lat="44.457203" lon="18.136947" />
      <trkpt lat="44.457356" lon="18.134866" />
      <trkpt lat="44.457471" lon="18.133385" />
      <trkpt lat="44.457471" lon="18.132913" />
      <trkpt lat="44.457363" lon="18.132291" />
      <trkpt lat="44.457509" lon="18.131443" />
      <trkpt lat="44.457608" lon="18.130928" />
      <trkpt lat="44.457892" lon="18.129448" />
      <trkpt lat="44.458056" lon="18.128627" />
      <trkpt lat="44.458187" lon="18.128187" />
      <trkpt lat="44.458424" lon="18.127431" />
      <trkpt lat="44.458501" lon="18.127356" />
      <trkpt lat="44.458616" lon="18.127334" />
      <trkpt lat="44.458753" lon="18.127399" />
      <trkpt lat="44.458845" lon="18.127345" />
      <trkpt lat="44.458872" lon="18.127184" />
      <trkpt lat="44.458807" lon="18.126664" />
      <trkpt lat="44.458795" lon="18.126293" />
      <trkpt lat="44.458221" lon="18.126342" />
      <trkpt lat="44.457827" lon="18.126358" />
      <trkpt lat="44.457631" lon="18.126379" />
      <trkpt lat="44.457478" lon="18.126594" />
      <trkpt lat="44.457256" lon="18.126787" />
      <trkpt lat="44.457011" lon="18.126878" />
      <trkpt lat="44.456701" lon="18.126889" />
      <trkpt lat="44.456226" lon="18.126878" />
      <trkpt lat="44.455943" lon="18.126830" />
      <trkpt lat="44.455575" lon="18.126513" />
      <trkpt lat="44.455209" lon="18.125797" />
      <trkpt lat="44.455056" lon="18.125475" />
      <trkpt lat="44.454534" lon="18.125017" />
      <trkpt lat="44.454219" lon="18.124976" />
      <trkpt lat="44.453833" lon="18.124695" />
      <trkpt lat="44.453541" lon="18.124290" />
      <trkpt lat="44.453105" lon="18.123987" />
      <trkpt lat="44.452345" lon="18.123587" />
      <trkpt lat="44.452370" lon="18.123305" />
      <trkpt lat="44.452359" lon="18.122254" />
      <trkpt lat="44.452313" lon="18.121857" />
      <trkpt lat="44.452167" lon="18.121122" />
      <trkpt lat="44.451861" lon="18.119953" />
      <trkpt lat="44.451834" lon="18.119711" />
      <trkpt lat="44.451719" lon="18.119572" />
      <trkpt lat="44.451547" lon="18.119443" />
      <trkpt lat="44.451386" lon="18.119094" />
      <trkpt lat="44.451283" lon="18.118601" />
      <trkpt lat="44.451233" lon="18.118263" />
      <trkpt lat="44.451080" lon="18.117893" />
      <trkpt lat="44.450992" lon="18.117555" />
      <trkpt lat="44.450946" lon="18.117244" />
      <trkpt lat="44.450862" lon="18.116825" />
      <trkpt lat="44.450766" lon="18.116573" />
      <trkpt lat="44.450586" lon="18.116434" />
      <trkpt lat="44.450375" lon="18.116310" />
      <trkpt lat="44.450138" lon="18.116139" />
      <trkpt lat="44.449946" lon="18.115640" />
      <trkpt lat="44.449877" lon="18.115393" />
      <trkpt lat="44.449801" lon="18.115146" />
      <trkpt lat="44.449345" lon="18.114932" />
      <trkpt lat="44.449196" lon="18.114921" />
      <trkpt lat="44.448767" lon="18.114722" />
      <trkpt lat="44.448016" lon="18.114304" />
      <trkpt lat="44.447702" lon="18.114143" />
      <trkpt lat="44.447610" lon="18.114003" />
      <trkpt lat="44.447817" lon="18.113499" />
      <trkpt lat="44.448135" lon="18.112899" />
      <trkpt lat="44.448391" lon="18.112212" />
      <trkpt lat="44.448357" lon="18.111573" />
      <trkpt lat="44.448280" lon="18.111402" />
      <trkpt lat="44.448066" lon="18.111171" />
      <trkpt lat="44.447798" lon="18.110613" />
      <trkpt lat="44.446818" lon="18.110710" />
      <trkpt lat="44.446802" lon="18.110415" />
      <trkpt lat="44.446748" lon="18.109562" />
      <trkpt lat="44.446362" lon="18.109396" />
      <trkpt lat="44.446354" lon="18.109068" />
      <trkpt lat="44.445833" lon="18.108977" />
      <trkpt lat="44.445822" lon="18.108580" />
      <trkpt lat="44.445646" lon="18.107851" />
      <trkpt lat="44.445519" lon="18.107475" />
      <trkpt lat="44.445347" lon="18.106928" />
      <trkpt lat="44.444991" lon="18.106703" />
      <trkpt lat="44.444895" lon="18.106638" />
      <trkpt lat="44.444903" lon="18.106472" />
      <trkpt lat="44.444876" lon="18.106300" />
      <trkpt lat="44.444531" lon="18.106493" />
      <trkpt lat="44.444206" lon="18.106697" />
      <trkpt lat="44.443941" lon="18.107003" />
      <trkpt lat="44.443807" lon="18.107700" />
      <trkpt lat="44.443700" lon="18.108194" />
      <trkpt lat="44.443363" lon="18.108612" />
      <trkpt lat="44.442130" lon="18.109685" />
      <trkpt lat="44.440556" lon="18.110420" />
      <trkpt lat="44.440084" lon="18.110645" />
      <trkpt lat="44.439778" lon="18.110785" />
      <trkpt lat="44.439453" lon="18.110763" />
      <trkpt lat="44.439177" lon="18.110704" />
      <trkpt lat="44.438851" lon="18.110715" />
      <trkpt lat="44.438683" lon="18.110924" />
      <trkpt lat="44.438537" lon="18.111085" />
      <trkpt lat="44.438495" lon="18.111434" />
      <trkpt lat="44.438388" lon="18.111938" />
      <trkpt lat="44.438258" lon="18.112410" />
      <trkpt lat="44.438066" lon="18.112609" />
      <trkpt lat="44.437917" lon="18.112754" />
      <trkpt lat="44.437836" lon="18.112877" />
      <trkpt lat="44.437786" lon="18.113140" />
      <trkpt lat="44.437656" lon="18.113451" />
      <trkpt lat="44.437346" lon="18.113537" />
      <trkpt lat="44.437101" lon="18.113633" />
      <trkpt lat="44.436856" lon="18.113961" />
      <trkpt lat="44.436729" lon="18.114261" />
      <trkpt lat="44.436691" lon="18.114599" />
      <trkpt lat="44.436699" lon="18.114862" />
      <trkpt lat="44.436649" lon="18.115060" />
      <trkpt lat="44.436423" lon="18.115001" />
      <trkpt lat="44.435707" lon="18.114835" />
      <trkpt lat="44.434994" lon="18.114819" />
      <trkpt lat="44.434320" lon="18.114830" />
      <trkpt lat="44.433642" lon="18.114862" />
      <trkpt lat="44.433305" lon="18.114873" />
      <trkpt lat="44.432972" lon="18.115033" />
      <trkpt lat="44.432899" lon="18.115146" />
      <trkpt lat="44.432956" lon="18.115388" />
      <trkpt lat="44.433087" lon="18.115618" />
      <trkpt lat="44.432857" lon="18.115951" />
      <trkpt lat="44.432719" lon="18.116063" />
      <trkpt lat="44.432654" lon="18.116257" />
      <trkpt lat="44.432589" lon="18.116444" />
      <trkpt lat="44.432240" lon="18.116659" />
      <trkpt lat="44.431857" lon="18.117185" />
      <trkpt lat="44.431677" lon="18.117485" />
      <trkpt lat="44.431405" lon="18.117936" />
      <trkpt lat="44.431110" lon="18.118461" />
      <trkpt lat="44.430984" lon="18.118794" />
      <trkpt lat="44.431183" lon="18.120317" />
      <trkpt lat="44.431305" lon="18.121015" />
      <trkpt lat="44.431305" lon="18.121465" />
      <trkpt lat="44.431137" lon="18.122538" />
      <trkpt lat="44.430991" lon="18.123740" />
      <trkpt lat="44.430815" lon="18.124169" />
      <trkpt lat="44.430505" lon="18.126130" />
      <trkpt lat="44.429890" lon="18.125950" />
      <trkpt lat="44.429180" lon="18.125745" />
      <trkpt lat="44.428555" lon="18.125784" />
      <trkpt lat="44.427809" lon="18.125940" />
      <trkpt lat="44.427275" lon="18.126449" />
      <trkpt lat="44.426685" lon="18.127098" />
      <trkpt lat="44.425774" lon="18.128553" />
      <trkpt lat="44.425459" lon="18.129331" />
      <trkpt lat="44.424979" lon="18.130482" />
      <trkpt lat="44.423999" lon="18.131444" />
      <trkpt lat="44.422742" lon="18.131551" />
      <trkpt lat="44.421236" lon="18.131017" />
      <trkpt lat="44.420173" lon="18.130257" />
      <trkpt lat="44.419030" lon="18.129330" />
      <trkpt lat="44.418211" lon="18.128514" />
      <trkpt lat="44.417743" lon="18.127624" />
      <trkpt lat="44.417360" lon="18.126529" />
      <trkpt lat="44.416969" lon="18.124791" />
      <trkpt lat="44.416950" lon="18.124518" />
      <trkpt lat="44.416965" lon="18.124110" />
      <trkpt lat="44.417222" lon="18.123370" />
      <trkpt lat="44.417770" lon="18.122447" />
      <trkpt lat="44.417211" lon="18.121884" />
      <trkpt lat="44.416984" lon="18.121546" />
      <trkpt lat="44.417057" lon="18.120875" />
      <trkpt lat="44.417218" lon="18.120216" />
      <trkpt lat="44.416904" lon="18.119985" />
      <trkpt lat="44.416594" lon="18.119802" />
      <trkpt lat="44.416264" lon="18.119636" />
      <trkpt lat="44.415977" lon="18.120221" />
      <trkpt lat="44.415613" lon="18.121042" />
      <trkpt lat="44.415371" lon="18.121487" />
      <trkpt lat="44.415061" lon="18.121165" />
      <trkpt lat="44.414724" lon="18.120655" />
      <trkpt lat="44.414716" lon="18.120481" />
      <trkpt lat="44.414781" lon="18.120323" />
      <trkpt lat="44.414846" lon="18.120165" />
      <trkpt lat="44.414871" lon="18.120041" />
      <trkpt lat="44.414852" lon="18.119950" />
      <trkpt lat="44.414772" lon="18.119878" />
      <trkpt lat="44.414662" lon="18.119738" />
      <trkpt lat="44.414526" lon="18.119537" />
      <trkpt lat="44.414187" lon="18.118858" />
      <trkpt lat="44.414114" lon="18.118767" />
      <trkpt lat="44.413998" lon="18.118692" />
      <trkpt lat="44.413477" lon="18.118424" />
      <trkpt lat="44.413409" lon="18.118596" />
      <trkpt lat="44.413266" lon="18.118909" />
      <trkpt lat="44.413045" lon="18.119167" />
      <trkpt lat="44.412892" lon="18.119341" />
      <trkpt lat="44.412800" lon="18.119486" />
      <trkpt lat="44.412768" lon="18.119604" />
      <trkpt lat="44.412750" lon="18.119757" />
      <trkpt lat="44.412687" lon="18.119982" />
      <trkpt lat="44.412586" lon="18.120194" />
      <trkpt lat="44.412409" lon="18.120382" />
      <trkpt lat="44.411980" lon="18.120639" />
      <trkpt lat="44.411677" lon="18.120704" />
      <trkpt lat="44.411559" lon="18.120757" />
      <trkpt lat="44.411287" lon="18.120891" />
      <trkpt lat="44.410957" lon="18.121020" />
      <trkpt lat="44.410781" lon="18.121262" />
      <trkpt lat="44.410647" lon="18.121530" />
      <trkpt lat="44.410513" lon="18.121653" />
      <trkpt lat="44.410294" lon="18.121766" />
      <trkpt lat="44.409980" lon="18.121707" />
      <trkpt lat="44.409654" lon="18.121675" />
      <trkpt lat="44.409528" lon="18.121750" />
      <trkpt lat="44.409390" lon="18.121986" />
      <trkpt lat="44.409344" lon="18.122259" />
      <trkpt lat="44.409332" lon="18.122538" />
      <trkpt lat="44.409321" lon="18.122715" />
      <trkpt lat="44.409416" lon="18.123064" />
      <trkpt lat="44.409390" lon="18.123348" />
      <trkpt lat="44.409317" lon="18.123606" />
      <trkpt lat="44.409248" lon="18.123783" />
      <trkpt lat="44.409152" lon="18.123954" />
      <trkpt lat="44.408719" lon="18.124797" />
      <trkpt lat="44.408573" lon="18.124947" />
      <trkpt lat="44.408401" lon="18.125022" />
      <trkpt lat="44.408225" lon="18.125001" />
      <trkpt lat="44.407991" lon="18.124866" />
      <trkpt lat="44.407795" lon="18.124689" />
      <trkpt lat="44.407447" lon="18.124099" />
      <trkpt lat="44.407366" lon="18.123820" />
      <trkpt lat="44.407301" lon="18.123633" />
      <trkpt lat="44.407236" lon="18.123418" />
      <trkpt lat="44.407129" lon="18.123236" />
      <trkpt lat="44.407037" lon="18.123198" />
      <trkpt lat="44.406653" lon="18.123279" />
      <trkpt lat="44.406519" lon="18.123531" />
      <trkpt lat="44.406454" lon="18.123633" />
      <trkpt lat="44.406332" lon="18.123729" />
      <trkpt lat="44.406132" lon="18.123788" />
      <trkpt lat="44.405891" lon="18.123713" />
      <trkpt lat="44.405738" lon="18.123547" />
      <trkpt lat="44.405588" lon="18.123300" />
      <trkpt lat="44.405397" lon="18.123069" />
      <trkpt lat="44.405262" lon="18.123010" />
      <trkpt lat="44.405059" lon="18.123027" />
      <trkpt lat="44.404925" lon="18.123037" />
      <trkpt lat="44.404668" lon="18.122850" />
      <trkpt lat="44.404412" lon="18.122560" />
      <trkpt lat="44.404078" lon="18.122152" />
      <trkpt lat="44.403967" lon="18.121970" />
      <trkpt lat="44.403810" lon="18.121653" />
      <trkpt lat="44.403595" lon="18.121734" />
      <trkpt lat="44.403469" lon="18.121755" />
      <trkpt lat="44.403354" lon="18.121653" />
      <trkpt lat="44.403285" lon="18.121519" />
      <trkpt lat="44.403177" lon="18.121267" />
      <trkpt lat="44.403112" lon="18.121213" />
      <trkpt lat="44.403024" lon="18.121235" />
      <trkpt lat="44.402725" lon="18.121406" />
      <trkpt lat="44.402480" lon="18.121310" />
      <trkpt lat="44.402403" lon="18.121433" />
      <trkpt lat="44.402300" lon="18.121723" />
      <trkpt lat="44.402239" lon="18.121846" />
      <trkpt lat="44.402043" lon="18.122088" />
      <trkpt lat="44.401928" lon="18.122195" />
      <trkpt lat="44.401756" lon="18.122361" />
      <trkpt lat="44.401641" lon="18.122501" />
      <trkpt lat="44.401438" lon="18.122635" />
      <trkpt lat="44.400445" lon="18.123772" />
      <trkpt lat="44.398831" lon="18.124613" />
      <trkpt lat="44.397818" lon="18.124377" />
      <trkpt lat="44.397178" lon="18.127064" />
      <trkpt lat="44.393338" lon="18.127064" />
      <trkpt lat="44.390777" lon="18.121689" />
      <trkpt lat="44.388857" lon="18.117210" />
      <trkpt lat="44.386297" lon="18.111836" />
      <trkpt lat="44.384376" lon="18.105565" />
      <trkpt lat="44.383096" lon="18.101086" />
      <trkpt lat="44.381815" lon="18.094816" />
      <trkpt lat="44.379894" lon="18.085858" />
      <trkpt lat="44.376693" lon="18.081379" />
      <trkpt lat="44.372211" lon="18.077796" />
      <trkpt lat="44.370931" lon="18.076900" />
      <trkpt lat="44.365808" lon="18.072421" />
      <trkpt lat="44.363246" lon="18.070629" />
      <trkpt lat="44.359403" lon="18.073317" />
      <trkpt lat="44.357482" lon="18.073317" />
      <trkpt lat="44.354920" lon="18.069734" />
      <trkpt lat="44.352358" lon="18.065255" />
      <trkpt lat="44.348514" lon="18.059880" />
    </trkseg>
  </trk>
  <trk>
    <name>Opstina Zavidovici - granica (pojednostavljena)</name>
    <desc>223 tocaka, Douglas-Peucker 0.0005 stupnjeva (~55 m, greska povrsine 0.01%). Isti prsten koji koristi fire-detection-zavidovici.sh. Za uredaje s ogranicenjem broja tocaka.</desc>
    <type>boundary</type>
    <trkseg>
      <trkpt lat="44.348514" lon="18.059880" />
      <trkpt lat="44.335061" lon="18.072421" />
      <trkpt lat="44.330575" lon="18.073317" />
      <trkpt lat="44.322245" lon="18.072421" />
      <trkpt lat="44.318399" lon="18.067942" />
      <trkpt lat="44.314554" lon="18.068838" />
      <trkpt lat="44.310067" lon="18.071525" />
      <trkpt lat="44.290222" lon="18.075858" />
      <trkpt lat="44.292719" lon="18.086255" />
      <trkpt lat="44.294627" lon="18.087376" />
      <trkpt lat="44.296658" lon="18.091967" />
      <trkpt lat="44.299712" lon="18.096070" />
      <trkpt lat="44.300153" lon="18.102522" />
      <trkpt lat="44.296494" lon="18.105812" />
      <trkpt lat="44.295522" lon="18.107636" />
      <trkpt lat="44.295054" lon="18.111643" />
      <trkpt lat="44.295721" lon="18.131103" />
      <trkpt lat="44.293399" lon="18.137814" />
      <trkpt lat="44.289551" lon="18.142293" />
      <trkpt lat="44.286345" lon="18.144084" />
      <trkpt lat="44.279606" lon="18.143601" />
      <trkpt lat="44.273641" lon="18.151594" />
      <trkpt lat="44.270080" lon="18.153298" />
      <trkpt lat="44.267299" lon="18.157611" />
      <trkpt lat="44.266700" lon="18.162589" />
      <trkpt lat="44.267821" lon="18.163855" />
      <trkpt lat="44.266684" lon="18.166323" />
      <trkpt lat="44.267804" lon="18.170271" />
      <trkpt lat="44.267084" lon="18.171644" />
      <trkpt lat="44.267427" lon="18.173978" />
      <trkpt lat="44.268341" lon="18.174820" />
      <trkpt lat="44.268390" lon="18.176537" />
      <trkpt lat="44.267015" lon="18.179895" />
      <trkpt lat="44.267038" lon="18.181772" />
      <trkpt lat="44.267998" lon="18.182663" />
      <trkpt lat="44.267045" lon="18.182486" />
      <trkpt lat="44.266796" lon="18.183484" />
      <trkpt lat="44.268087" lon="18.186530" />
      <trkpt lat="44.266461" lon="18.187019" />
      <trkpt lat="44.266880" lon="18.196331" />
      <trkpt lat="44.264234" lon="18.202522" />
      <trkpt lat="44.264049" lon="18.206867" />
      <trkpt lat="44.261583" lon="18.207317" />
      <trkpt lat="44.260839" lon="18.208222" />
      <trkpt lat="44.261385" lon="18.212284" />
      <trkpt lat="44.260048" lon="18.217539" />
      <trkpt lat="44.260689" lon="18.228289" />
      <trkpt lat="44.255557" lon="18.241725" />
      <trkpt lat="44.255557" lon="18.247100" />
      <trkpt lat="44.257481" lon="18.254266" />
      <trkpt lat="44.267104" lon="18.268599" />
      <trkpt lat="44.267104" lon="18.273974" />
      <trkpt lat="44.269029" lon="18.282036" />
      <trkpt lat="44.272877" lon="18.288307" />
      <trkpt lat="44.274160" lon="18.292786" />
      <trkpt lat="44.281215" lon="18.300848" />
      <trkpt lat="44.284421" lon="18.306222" />
      <trkpt lat="44.288910" lon="18.311597" />
      <trkpt lat="44.294040" lon="18.329513" />
      <trkpt lat="44.294040" lon="18.333096" />
      <trkpt lat="44.290193" lon="18.339367" />
      <trkpt lat="44.293399" lon="18.343846" />
      <trkpt lat="44.294040" lon="18.349220" />
      <trkpt lat="44.292116" lon="18.354595" />
      <trkpt lat="44.284421" lon="18.366240" />
      <trkpt lat="44.286345" lon="18.375198" />
      <trkpt lat="44.288910" lon="18.379677" />
      <trkpt lat="44.294040" lon="18.396697" />
      <trkpt lat="44.292757" lon="18.411926" />
      <trkpt lat="44.299169" lon="18.427154" />
      <trkpt lat="44.302374" lon="18.430737" />
      <trkpt lat="44.310067" lon="18.437008" />
      <trkpt lat="44.310067" lon="18.452236" />
      <trkpt lat="44.311990" lon="18.456715" />
      <trkpt lat="44.316477" lon="18.463881" />
      <trkpt lat="44.319040" lon="18.466569" />
      <trkpt lat="44.322886" lon="18.466569" />
      <trkpt lat="44.323526" lon="18.485380" />
      <trkpt lat="44.325593" lon="18.492947" />
      <trkpt lat="44.330719" lon="18.489812" />
      <trkpt lat="44.334243" lon="18.486229" />
      <trkpt lat="44.340330" lon="18.477271" />
      <trkpt lat="44.347057" lon="18.472344" />
      <trkpt lat="44.351861" lon="18.461146" />
      <trkpt lat="44.348979" lon="18.454428" />
      <trkpt lat="44.353142" lon="18.444574" />
      <trkpt lat="44.352502" lon="18.439647" />
      <trkpt lat="44.348018" lon="18.433377" />
      <trkpt lat="44.351541" lon="18.425315" />
      <trkpt lat="44.352502" lon="18.420836" />
      <trkpt lat="44.350260" lon="18.412774" />
      <trkpt lat="44.348979" lon="18.404264" />
      <trkpt lat="44.350260" lon="18.402024" />
      <trkpt lat="44.354423" lon="18.400233" />
      <trkpt lat="44.355704" lon="18.398889" />
      <trkpt lat="44.357306" lon="18.399337" />
      <trkpt lat="44.362749" lon="18.407399" />
      <trkpt lat="44.368833" lon="18.397545" />
      <trkpt lat="44.370114" lon="18.396649" />
      <trkpt lat="44.380038" lon="18.412774" />
      <trkpt lat="44.380038" lon="18.416357" />
      <trkpt lat="44.375557" lon="18.423523" />
      <trkpt lat="44.378651" lon="18.429427" />
      <trkpt lat="44.386702" lon="18.425757" />
      <trkpt lat="44.389306" lon="18.432838" />
      <trkpt lat="44.391881" lon="18.434273" />
      <trkpt lat="44.404042" lon="18.405607" />
      <trkpt lat="44.405322" lon="18.398889" />
      <trkpt lat="44.410442" lon="18.393514" />
      <trkpt lat="44.413781" lon="18.393413" />
      <trkpt lat="44.414699" lon="18.390689" />
      <trkpt lat="44.419414" lon="18.383907" />
      <trkpt lat="44.421038" lon="18.379377" />
      <trkpt lat="44.414921" lon="18.368880" />
      <trkpt lat="44.418760" lon="18.360370" />
      <trkpt lat="44.419945" lon="18.347017" />
      <trkpt lat="44.421959" lon="18.339767" />
      <trkpt lat="44.425797" lon="18.333944" />
      <trkpt lat="44.428822" lon="18.326324" />
      <trkpt lat="44.429761" lon="18.318665" />
      <trkpt lat="44.441104" lon="18.318319" />
      <trkpt lat="44.443068" lon="18.317372" />
      <trkpt lat="44.444986" lon="18.320507" />
      <trkpt lat="44.451612" lon="18.315303" />
      <trkpt lat="44.456687" lon="18.314112" />
      <trkpt lat="44.463529" lon="18.314685" />
      <trkpt lat="44.464808" lon="18.318268" />
      <trkpt lat="44.465783" lon="18.326789" />
      <trkpt lat="44.467381" lon="18.324102" />
      <trkpt lat="44.476010" lon="18.319623" />
      <trkpt lat="44.482402" lon="18.317384" />
      <trkpt lat="44.486236" lon="18.314696" />
      <trkpt lat="44.488793" lon="18.311561" />
      <trkpt lat="44.496141" lon="18.310217" />
      <trkpt lat="44.499017" lon="18.307530" />
      <trkpt lat="44.508280" lon="18.301707" />
      <trkpt lat="44.510197" lon="18.292749" />
      <trkpt lat="44.514194" lon="18.283327" />
      <trkpt lat="44.516456" lon="18.281316" />
      <trkpt lat="44.516627" lon="18.279928" />
      <trkpt lat="44.516509" lon="18.278465" />
      <trkpt lat="44.514870" lon="18.276857" />
      <trkpt lat="44.512051" lon="18.271466" />
      <trkpt lat="44.511517" lon="18.266181" />
      <trkpt lat="44.508806" lon="18.259846" />
      <trkpt lat="44.508806" lon="18.250979" />
      <trkpt lat="44.503386" lon="18.256679" />
      <trkpt lat="44.500223" lon="18.255412" />
      <trkpt lat="44.498416" lon="18.251612" />
      <trkpt lat="44.492542" lon="18.244644" />
      <trkpt lat="44.492090" lon="18.240210" />
      <trkpt lat="44.496157" lon="18.226909" />
      <trkpt lat="44.496157" lon="18.216774" />
      <trkpt lat="44.494801" lon="18.205372" />
      <trkpt lat="44.492090" lon="18.196504" />
      <trkpt lat="44.492090" lon="18.193337" />
      <trkpt lat="44.494801" lon="18.187003" />
      <trkpt lat="44.497512" lon="18.185103" />
      <trkpt lat="44.502865" lon="18.173993" />
      <trkpt lat="44.493054" lon="18.166500" />
      <trkpt lat="44.488034" lon="18.158599" />
      <trkpt lat="44.487387" lon="18.154349" />
      <trkpt lat="44.487962" lon="18.146262" />
      <trkpt lat="44.486640" lon="18.140391" />
      <trkpt lat="44.484508" lon="18.138224" />
      <trkpt lat="44.479778" lon="18.137290" />
      <trkpt lat="44.476897" lon="18.140770" />
      <trkpt lat="44.475839" lon="18.139318" />
      <trkpt lat="44.474124" lon="18.139125" />
      <trkpt lat="44.473558" lon="18.140016" />
      <trkpt lat="44.474002" lon="18.141400" />
      <trkpt lat="44.472516" lon="18.142354" />
      <trkpt lat="44.470886" lon="18.141754" />
      <trkpt lat="44.470396" lon="18.143288" />
      <trkpt lat="44.467999" lon="18.144854" />
      <trkpt lat="44.465258" lon="18.144790" />
      <trkpt lat="44.462234" lon="18.143535" />
      <trkpt lat="44.457218" lon="18.137172" />
      <trkpt lat="44.457363" lon="18.132291" />
      <trkpt lat="44.458795" lon="18.126293" />
      <trkpt lat="44.455943" lon="18.126830" />
      <trkpt lat="44.452345" lon="18.123587" />
      <trkpt lat="44.450766" lon="18.116573" />
      <trkpt lat="44.447610" lon="18.114003" />
      <trkpt lat="44.448357" lon="18.111573" />
      <trkpt lat="44.447798" lon="18.110613" />
      <trkpt lat="44.446818" lon="18.110710" />
      <trkpt lat="44.444876" lon="18.106300" />
      <trkpt lat="44.442130" lon="18.109685" />
      <trkpt lat="44.438851" lon="18.110715" />
      <trkpt lat="44.436649" lon="18.115060" />
      <trkpt lat="44.432972" lon="18.115033" />
      <trkpt lat="44.430984" lon="18.118794" />
      <trkpt lat="44.430505" lon="18.126130" />
      <trkpt lat="44.427809" lon="18.125940" />
      <trkpt lat="44.423999" lon="18.131444" />
      <trkpt lat="44.421236" lon="18.131017" />
      <trkpt lat="44.418211" lon="18.128514" />
      <trkpt lat="44.416969" lon="18.124791" />
      <trkpt lat="44.417770" lon="18.122447" />
      <trkpt lat="44.416984" lon="18.121546" />
      <trkpt lat="44.417218" lon="18.120216" />
      <trkpt lat="44.416264" lon="18.119636" />
      <trkpt lat="44.415371" lon="18.121487" />
      <trkpt lat="44.413477" lon="18.118424" />
      <trkpt lat="44.412409" lon="18.120382" />
      <trkpt lat="44.409528" lon="18.121750" />
      <trkpt lat="44.408401" lon="18.125022" />
      <trkpt lat="44.407129" lon="18.123236" />
      <trkpt lat="44.405891" lon="18.123713" />
      <trkpt lat="44.403112" lon="18.121213" />
      <trkpt lat="44.400445" lon="18.123772" />
      <trkpt lat="44.397818" lon="18.124377" />
      <trkpt lat="44.397178" lon="18.127064" />
      <trkpt lat="44.393338" lon="18.127064" />
      <trkpt lat="44.386297" lon="18.111836" />
      <trkpt lat="44.383096" lon="18.101086" />
      <trkpt lat="44.379894" lon="18.085858" />
      <trkpt lat="44.376693" lon="18.081379" />
      <trkpt lat="44.363246" lon="18.070629" />
      <trkpt lat="44.359403" lon="18.073317" />
      <trkpt lat="44.357482" lon="18.073317" />
      <trkpt lat="44.348514" lon="18.059880" />
    </trkseg>
  </trk>
</gpx>
