{"type": "FeatureCollection", "features": [{"type": "Feature", "properties": {"name": "Općina Banovići, Tuzlanski kanton, Federacija Bosne i Hercegovine, Bosna i Hercegovina / Босна и Херцеговина", "source": "OpenStreetMap relation 2528157", "licence": "ODbL 1.0"}, "geometry": {"type": "Polygon", "coordinates": [[[18.314112, 44.4566868], [18.3149112, 44.4546795], [18.3153025, 44.4516117], [18.3170092, 44.4495032], [18.3205073, 44.4449862], [18.3173721, 44.4430676], [18.3183188, 44.4411044], [18.318313, 44.4383558], [18.3183471, 44.4360322], [18.3181431, 44.432907], [18.3186648, 44.4297611], [18.3263242, 44.4288218], [18.3312568, 44.426437], [18.3339442, 44.4257973], [18.3397668, 44.4219588], [18.3470173, 44.4199455], [18.3504623, 44.4198228], [18.3532609, 44.4194574], [18.3565073, 44.419301], [18.36037, 44.4187598], [18.36888, 44.4149208], [18.3722139, 44.4164988], [18.3763561, 44.419176], [18.3793769, 44.4210376], [18.3839066, 44.4194142], [18.3863954, 44.4177761], [18.3895339, 44.4160394], [18.3906888, 44.4146995], [18.3934129, 44.4137806], [18.3935143, 44.4104416], [18.3948579, 44.4088419], [18.398889, 44.4053222], [18.4024722, 44.4043622], [18.4056074, 44.4040423], [18.4096385, 44.4021223], [18.4172527, 44.3992423], [18.4221795, 44.3973221], [18.4253148, 44.396042], [18.4263876, 44.3955949], [18.4306896, 44.3938018], [18.4342727, 44.3918815], [18.4328383, 44.3893064], [18.4298314, 44.3876914], [18.4277505, 44.3878982], [18.4257571, 44.386702], [18.4271375, 44.3841605], [18.4287403, 44.3812989], [18.4294268, 44.3786515], [18.4267966, 44.3771449], [18.4235232, 44.3755565], [18.4194922, 44.3777975], [18.4163569, 44.3800383], [18.4127737, 44.3800383], [18.411878, 44.3793981], [18.4015764, 44.3729953], [18.3966495, 44.3701138], [18.3975453, 44.3688331], [18.4033679, 44.365311], [18.407399, 44.3627494], [18.4038158, 44.3601876], [18.4011285, 44.3589067], [18.3993369, 44.3573055], [18.398889, 44.3557043], [18.4002327, 44.3544233], [18.4020243, 44.3502598], [18.4042637, 44.3489786], [18.4127737, 44.3502598], [18.4177006, 44.3515409], [18.4208359, 44.3525017], [18.4253148, 44.3515409], [18.4284501, 44.3499395], [18.4333769, 44.3480178], [18.4396475, 44.3525017], [18.4445743, 44.3531422], [18.4490533, 44.3509003], [18.454428, 44.3489786], [18.4566675, 44.3496192], [18.4575633, 44.3502598], [18.4611464, 44.3518612], [18.4651775, 44.3496192], [18.4696564, 44.3486583], [18.4723438, 44.3470569], [18.4772707, 44.3403302], [18.4826454, 44.3364861], [18.4862286, 44.3342435], [18.4875723, 44.3329621], [18.4898117, 44.3307194], [18.492947, 44.325593], [18.4957488, 44.3247954], [18.4975068, 44.3237786], [18.5003086, 44.322798], [18.5061044, 44.3209742], [18.51376, 44.3183648], [18.5183863, 44.3175494], [18.521788, 44.3156489], [18.5228965, 44.3129573], [18.5239454, 44.310864], [18.5257057, 44.3108376], [18.5264229, 44.3096995], [18.527914, 44.3091375], [18.530213, 44.3067012], [18.5311741, 44.3051615], [18.5326397, 44.3036907], [18.5360414, 44.3040315], [18.5393836, 44.3024086], [18.5434656, 44.3009985], [18.5469239, 44.3002297], [18.5478537, 44.3010858], [18.5497078, 44.3023092], [18.5509012, 44.3032304], [18.5513208, 44.3046849], [18.5513832, 44.3055593], [18.5523131, 44.3060543], [18.5530077, 44.3065068], [18.5539064, 44.3066407], [18.5576595, 44.3077098], [18.5579743, 44.3121096], [18.5635133, 44.3130528], [18.5654551, 44.3146126], [18.5654355, 44.317219], [18.5687407, 44.3186103], [18.5699821, 44.3190383], [18.5706907, 44.3204661], [18.5692562, 44.3216626], [18.5662458, 44.3240335], [18.5642474, 44.3258708], [18.5621893, 44.3284766], [18.5619824, 44.3329112], [18.568009, 44.341457], [18.5680004, 44.3429797], [18.5676913, 44.3447111], [18.5670053, 44.3458972], [18.5669174, 44.347519], [18.566206, 44.3497651], [18.5645704, 44.3516401], [18.5626089, 44.3533125], [18.5658022, 44.3554284], [18.5663874, 44.36358], [18.5625066, 44.3633452], [18.5625661, 44.3645611], [18.5625465, 44.3667843], [18.5593262, 44.3682882], [18.5573023, 44.3690785], [18.5549409, 44.3720716], [18.551338, 44.376191], [18.5496371, 44.3801985], [18.550399, 44.3834704], [18.5506746, 44.3846536], [18.5522819, 44.3870582], [18.5566984, 44.3904493], [18.5642786, 44.392382], [18.5659539, 44.3976422], [18.5662885, 44.4026772], [18.5666937, 44.4077948], [18.5660927, 44.4127238], [18.5654124, 44.4156255], [18.5670283, 44.4182273], [18.5686413, 44.4206792], [18.5680628, 44.4260887], [18.5632013, 44.427854], [18.5574693, 44.4296616], [18.5530187, 44.4313479], [18.5484294, 44.4323945], [18.5409457, 44.4326091], [18.5396159, 44.4361106], [18.5390942, 44.4399401], [18.5377221, 44.4416322], [18.5351538, 44.4431259], [18.5356583, 44.4457063], [18.5389607, 44.4506238], [18.5357491, 44.4508668], [18.5313724, 44.450278], [18.5286226, 44.4475807], [18.5268565, 44.4463866], [18.5251498, 44.4463441], [18.5189249, 44.446585], [18.5171333, 44.4485035], [18.5095307, 44.4517163], [18.5019281, 44.446888], [18.4957199, 44.4437976], [18.493418, 44.4457282], [18.4885761, 44.4443641], [18.4828002, 44.4452106], [18.4824305, 44.443083], [18.479468, 44.4418869], [18.475196, 44.4418402], [18.4702945, 44.4451956], [18.4678141, 44.4501091], [18.4652203, 44.4486724], [18.4634033, 44.447851], [18.4627739, 44.4501155], [18.461966, 44.4572199], [18.4612742, 44.4600768], [18.4581985, 44.4621508], [18.4481691, 44.4587498], [18.4454193, 44.4563643], [18.4445859, 44.4549134], [18.4423464, 44.4510768], [18.4443877, 44.4487314], [18.4427943, 44.4466004], [18.4401809, 44.4445301], [18.4369717, 44.443083], [18.4316252, 44.4417898], [18.4284617, 44.438606], [18.4280536, 44.435495], [18.4280138, 44.4325296], [18.4255761, 44.429987], [18.4248181, 44.4292677], [18.4232401, 44.4277702], [18.4228742, 44.4281518], [18.4217432, 44.4293312], [18.4154727, 44.4322097], [18.4069627, 44.4376466], [18.4038274, 44.4418039], [18.3997964, 44.4450016], [18.3948695, 44.4472399], [18.3894948, 44.4475597], [18.3854637, 44.4501176], [18.3827763, 44.4529951], [18.3805369, 44.456512], [18.3791932, 44.4584301], [18.37561, 44.4625859], [18.3684437, 44.4648236], [18.3594858, 44.4692985], [18.3536632, 44.470577], [18.35008, 44.470577], [18.3464968, 44.4686593], [18.3424658, 44.4702574], [18.3388826, 44.4721751], [18.3361952, 44.473134], [18.3312684, 44.4702574], [18.3294768, 44.4670611], [18.3267894, 44.4657825], [18.321851, 44.4654475], [18.3182678, 44.4648082], [18.3146847, 44.4635295], [18.3142368, 44.4584147], [18.314112, 44.4566868]]]}}]}