{"type": "FeatureCollection", "features": [{"type": "Feature", "properties": {"name": "Општина Берковићи / Opština Berkovići, Република Српска / Republika Srpska, 88363, Bosna i Hercegovina / Босна и Херцеговина", "source": "OpenStreetMap relation 2528158", "licence": "ODbL 1.0"}, "geometry": {"type": "Polygon", "coordinates": [[[17.9288121, 43.1735516], [17.9289163, 43.1698645], [17.9290686, 43.1644748], [17.9353212, 43.1553753], [17.9382368, 43.152144], [17.9470115, 43.1429754], [17.9495442, 43.1392963], [17.9505028, 43.1379037], [17.9541061, 43.1328184], [17.9550809, 43.1306313], [17.9549843, 43.1299921], [17.9531225, 43.117672], [17.9818725, 43.1146433], [17.9999156, 43.1127241], [18.0030192, 43.1122361], [18.024048, 43.098231], [18.0259116, 43.0941953], [18.0273882, 43.0905021], [18.0308341, 43.0835359], [18.018401, 43.0788416], [18.0174484, 43.0782914], [18.0091862, 43.0735192], [18.0050156, 43.0700065], [18.0013377, 43.0645275], [17.9915972, 43.0617338], [17.9876297, 43.0512941], [17.9807725, 43.0437929], [17.9723893, 43.0427128], [17.9667565, 43.0411684], [17.9652486, 43.0365511], [17.9642742, 43.0335673], [17.9737698, 43.0070899], [17.9682724, 42.9990087], [17.9683104, 42.9990011], [17.9684447, 42.9989575], [17.9685228, 42.9988451], [17.9687433, 42.9987228], [17.9689797, 42.9984313], [17.9689981, 42.9983703], [17.9692609, 42.9982573], [17.969434, 42.9981448], [17.9696049, 42.9980403], [17.9697573, 42.9979542], [17.9698331, 42.9979257], [17.9709798, 42.998014], [17.9714621, 42.998108], [17.9719551, 42.9983001], [17.9723087, 42.9984372], [17.9728838, 42.9987454], [17.9733911, 42.9990172], [17.9736376, 42.9992054], [17.9738787, 42.9994562], [17.9741092, 42.9996599], [17.9745217, 42.9998912], [17.9748379, 43.0000479], [17.975213, 43.000236], [17.9753041, 43.0002948], [17.9755613, 43.0003967], [17.975706, 43.0005103], [17.9758881, 43.0006044], [17.9759953, 43.0007455], [17.9760543, 43.0008709], [17.9762364, 43.0010002], [17.9766008, 43.0013842], [17.976917, 43.0016899], [17.9769866, 43.0017722], [17.9772438, 43.0019368], [17.9780476, 43.0026735], [17.978637, 43.0032809], [17.9792479, 43.0039745], [17.9795158, 43.0042841], [17.9801266, 43.0048797], [17.980566, 43.0053617], [17.9810322, 43.0057731], [17.9819378, 43.0066979], [17.9823772, 43.0070114], [17.9828648, 43.0075404], [17.9830952, 43.0074228], [17.9832988, 43.007415], [17.9840597, 43.0070231], [17.9843544, 43.0069526], [17.984692, 43.0076148], [17.9851421, 43.0082574], [17.9861548, 43.0095897], [17.986412, 43.0099188], [17.9865138, 43.0099384], [17.9865728, 43.0099697], [17.9865728, 43.0100363], [17.9865299, 43.0100951], [17.9872212, 43.0110903], [17.9875802, 43.0115331], [17.9880356, 43.0120111], [17.9883464, 43.0123089], [17.9891127, 43.0133628], [17.9901897, 43.0125087], [17.9910256, 43.0117643], [17.9916472, 43.0110355], [17.9919955, 43.0105065], [17.9930082, 43.0095622], [17.9937959, 43.0088726], [17.9940317, 43.0087315], [17.9942192, 43.0086963], [17.9942621, 43.0085239], [17.9946265, 43.0082457], [17.9950766, 43.0080067], [17.9954302, 43.0077794], [17.995875, 43.0074542], [17.9962447, 43.0072034], [17.9967109, 43.0069369], [17.9973325, 43.0065803], [17.998238, 43.0061101], [17.9988489, 43.005781], [17.9991597, 43.0056634], [17.9993526, 43.0055811], [17.9996955, 43.005393], [18.0004457, 43.0050051], [18.0006815, 43.0049424], [18.0009065, 43.0048131], [18.0012548, 43.004672], [18.0022836, 43.0041038], [18.0021229, 43.004045], [18.0021443, 43.0037825], [18.0023372, 43.0036885], [18.0024765, 43.003712], [18.0028838, 43.0035826], [18.0029748, 43.0035356], [18.003157, 43.0035748], [18.0034839, 43.0036845], [18.0038054, 43.0036649], [18.0042287, 43.0035591], [18.0044377, 43.0035121], [18.0044966, 43.0034377], [18.0045663, 43.0033358], [18.0048878, 43.0032456], [18.0051986, 43.0032143], [18.0054879, 43.003179], [18.0057237, 43.0031359], [18.0059113, 43.0031359], [18.0066775, 43.0027872], [18.007567, 43.002603], [18.007985, 43.0024893], [18.0083065, 43.0023561], [18.0083708, 43.0022346], [18.0091156, 43.0018114], [18.0096889, 43.0014078], [18.0107177, 43.0007298], [18.0110017, 43.0005064], [18.0110232, 43.0003928], [18.0110821, 43.0003183], [18.0111357, 43.0002674], [18.0112161, 43.0003262], [18.0118323, 42.9998206], [18.0125878, 42.9992563], [18.0133005, 42.9988918], [18.0139221, 42.9985548], [18.01434, 42.9984686], [18.0158082, 42.9978847], [18.0165423, 42.9975045], [18.0171478, 42.9971675], [18.0178926, 42.9967246], [18.0182141, 42.9963954], [18.0183802, 42.9961367], [18.0188464, 42.9959721], [18.0191411, 42.9959447], [18.0193501, 42.9959643], [18.0195484, 42.9959917], [18.0218739, 42.9949845], [18.0227045, 42.9957292], [18.0235886, 42.9958428], [18.0239315, 42.9963249], [18.0243709, 42.9967089], [18.0244352, 42.996901], [18.0245317, 42.9970068], [18.0246817, 42.9971244], [18.0247514, 42.9971518], [18.0247728, 42.9973125], [18.0252497, 42.9974105], [18.0252872, 42.9975359], [18.0258706, 42.9981611], [18.0261392, 42.998449], [18.026316, 42.9986763], [18.0264286, 42.9987664], [18.0271627, 42.9998598], [18.0270984, 42.9999617], [18.0266429, 43.0001968], [18.0267018, 43.0002987], [18.0266, 43.0003771], [18.0264607, 43.000432], [18.0263589, 43.0004359], [18.0262625, 43.0004868], [18.0282075, 43.003085], [18.0283254, 43.0030301], [18.0285719, 43.0032848], [18.0285719, 43.0033671], [18.0284433, 43.0034141], [18.0286201, 43.0037002], [18.0299865, 43.0052167], [18.0310368, 43.0063962], [18.0312672, 43.0063962], [18.0314708, 43.0064902], [18.0316048, 43.0066234], [18.0316798, 43.0067724], [18.0317816, 43.0069408], [18.0321781, 43.0074071], [18.0322639, 43.0075913], [18.0323014, 43.0077794], [18.0332391, 43.0073366], [18.0336731, 43.0078186], [18.0338821, 43.007944], [18.0346323, 43.008853], [18.0351681, 43.0096288], [18.0361433, 43.0107259], [18.0363148, 43.0106006], [18.0374776, 43.0091822], [18.0395084, 43.0077167], [18.0411213, 43.0067018], [18.0426431, 43.0058241], [18.0446793, 43.0051697], [18.0463404, 43.0055811], [18.0467047, 43.0055106], [18.0469459, 43.0055968], [18.0478032, 43.0061728], [18.0484516, 43.0064158], [18.0488481, 43.0060474], [18.0490142, 43.0060239], [18.0492071, 43.0060043], [18.049459, 43.0060357], [18.0497537, 43.0060082], [18.0499626, 43.0060318], [18.0501502, 43.0060631], [18.0504663, 43.0060827], [18.0512862, 43.0062865], [18.051672, 43.0066901], [18.0515166, 43.0071054], [18.0515005, 43.0073993], [18.051254, 43.0078303], [18.0512219, 43.0080693], [18.0506592, 43.0086689], [18.0504288, 43.0087315], [18.0500805, 43.0092958], [18.0498716, 43.0099266], [18.0497376, 43.0104595], [18.0495072, 43.0104987], [18.0492928, 43.0105575], [18.0489606, 43.0107847], [18.048907, 43.0110551], [18.0487784, 43.0111099], [18.048548, 43.011874], [18.0483015, 43.0123912], [18.0480658, 43.0129475], [18.0480015, 43.0131356], [18.0476264, 43.0134921], [18.0481033, 43.0138565], [18.0482962, 43.0141386], [18.0483391, 43.0143463], [18.048532, 43.0146048], [18.0485855, 43.0147185], [18.0485963, 43.0147851], [18.0490249, 43.0150515], [18.0493571, 43.0155961], [18.0498662, 43.0161524], [18.0504985, 43.0167714], [18.0509004, 43.0173473], [18.0515809, 43.0186715], [18.051897, 43.0192944], [18.0538421, 43.0220015], [18.0546298, 43.0231963], [18.054737, 43.0233843], [18.0547263, 43.0234431], [18.054812, 43.0235528], [18.054812, 43.0235998], [18.0549995, 43.0236429], [18.0552085, 43.0237291], [18.0554336, 43.023874], [18.0555407, 43.023972], [18.0557604, 43.0245086], [18.0565428, 43.0258562], [18.0567035, 43.0258523], [18.0568268, 43.025911], [18.0569554, 43.0260716], [18.0571483, 43.0264398], [18.0572447, 43.0267101], [18.0574055, 43.026765], [18.0574751, 43.0268511], [18.0574805, 43.0269373], [18.0574001, 43.0270157], [18.057802, 43.0273329], [18.0579735, 43.0275993], [18.0580217, 43.02785], [18.0580002, 43.0280224], [18.057877, 43.0282535], [18.0578181, 43.0283945], [18.0578663, 43.0285943], [18.0580163, 43.0287823], [18.0582575, 43.0289507], [18.0584128, 43.0290486], [18.0584289, 43.029127], [18.0583914, 43.0292876], [18.058295, 43.0297615], [18.0583057, 43.0299691], [18.0583861, 43.0301532], [18.0584075, 43.0302942], [18.0584075, 43.0304], [18.0584289, 43.0305253], [18.058595, 43.0309366], [18.0586968, 43.0311834], [18.058804, 43.0315437], [18.0589058, 43.0318297], [18.0591255, 43.0321508], [18.0596292, 43.0328441], [18.0597685, 43.0331222], [18.060299, 43.0340544], [18.0609742, 43.0351158], [18.0615797, 43.0358952], [18.0616332, 43.0360284], [18.0619012, 43.0359657], [18.0621691, 43.0359305], [18.0622709, 43.0359344], [18.0623459, 43.0359618], [18.0623941, 43.0359266], [18.0624156, 43.0358756], [18.0625442, 43.0357973], [18.0631604, 43.0355231], [18.0634176, 43.0354135], [18.0636909, 43.0353273], [18.0638998, 43.0352607], [18.0653948, 43.0347829], [18.0655395, 43.0346693], [18.0657431, 43.0347085], [18.0667987, 43.0342972], [18.066847, 43.0342463], [18.0672756, 43.0341445], [18.069837, 43.0334121], [18.0718464, 43.032848], [18.0732556, 43.0319668], [18.0745952, 43.0313048], [18.0748042, 43.0311285], [18.0768565, 43.0324838], [18.0768189, 43.0325621], [18.0769958, 43.0326326], [18.0772262, 43.0327619], [18.0775263, 43.0328833], [18.0780996, 43.033181], [18.0782657, 43.0333533], [18.0783461, 43.0334669], [18.0784086, 43.0334937], [18.0785283, 43.0335452], [18.0788659, 43.0336392], [18.0792141, 43.0338037], [18.0795196, 43.0340191], [18.0795249, 43.0341484], [18.0795035, 43.0343168], [18.079541, 43.0344226], [18.0796, 43.0344656], [18.079675, 43.0344226], [18.0798357, 43.0345244], [18.0799215, 43.0346928], [18.0802322, 43.0349278], [18.0803608, 43.0350727], [18.0805698, 43.0351785], [18.0807091, 43.0354213], [18.0808377, 43.0355388], [18.0810467, 43.0356994], [18.0812289, 43.0358365], [18.0815451, 43.0360362], [18.0816683, 43.036185], [18.0819201, 43.0365689], [18.082113, 43.0370702], [18.0821506, 43.0374775], [18.0821077, 43.0378887], [18.082022, 43.0381472], [18.0819737, 43.0383], [18.0819952, 43.0384566], [18.0820755, 43.0384723], [18.082113, 43.0385976], [18.0821773, 43.038672], [18.0822845, 43.0390715], [18.0824238, 43.0393535], [18.0825953, 43.0396237], [18.0825739, 43.0399096], [18.0824828, 43.0403326], [18.0823059, 43.0408104], [18.0824238, 43.0415975], [18.0829704, 43.0422633], [18.0831633, 43.0425609], [18.0833669, 43.0428742], [18.0834098, 43.0430504], [18.0833455, 43.0432071], [18.083174, 43.0433441], [18.082815, 43.0434342], [18.0822256, 43.0434655], [18.0809771, 43.0435292], [18.0803014, 43.0434924], [18.0800166, 43.0434587], [18.0797178, 43.0433794], [18.0796506, 43.0433619], [18.0794877, 43.0433812], [18.0792148, 43.0433923], [18.0791069, 43.0433535], [18.0790167, 43.0433612], [18.0788653, 43.0433328], [18.0788064, 43.0433504], [18.0787421, 43.0433416], [18.0786443, 43.0433563], [18.0785733, 43.0433485], [18.0784206, 43.0433181], [18.0782665, 43.0433446], [18.0781392, 43.0434366], [18.0782384, 43.0434895], [18.078647, 43.0436099], [18.0791692, 43.0438202], [18.0803802, 43.0444664], [18.0806803, 43.0446622], [18.0808571, 43.0447953], [18.0811036, 43.0450851], [18.0819984, 43.0457587], [18.0829094, 43.0463735], [18.0833113, 43.0465693], [18.0835095, 43.0466084], [18.0839757, 43.047235], [18.0843561, 43.047885], [18.0847366, 43.0485037], [18.0847848, 43.0486173], [18.0836113, 43.0487582], [18.0835952, 43.0487798], [18.0843695, 43.0490597], [18.0845603, 43.0491996], [18.0846541, 43.0493367], [18.0847559, 43.0493797], [18.0848202, 43.0494404], [18.084922, 43.0494639], [18.0850774, 43.0494913], [18.085206, 43.0496049], [18.0852703, 43.0497439], [18.0853561, 43.0498359], [18.0854445, 43.0498868], [18.0855222, 43.0498907], [18.0856615, 43.0500121], [18.0857553, 43.0501276], [18.0858383, 43.0502666], [18.0859267, 43.050296], [18.0860178, 43.0504115], [18.0861946, 43.0505681], [18.0863929, 43.0506954], [18.0864947, 43.05076], [18.0865161, 43.050852], [18.0867144, 43.0509871], [18.0869073, 43.0509186], [18.0869502, 43.0509421], [18.086993, 43.0510184], [18.086843, 43.0510752], [18.0868537, 43.0511261], [18.0870573, 43.0513787], [18.0871216, 43.0513943], [18.0876816, 43.0521755], [18.0880674, 43.0526238], [18.0883112, 43.0528548], [18.0887345, 43.0531466], [18.0891712, 43.0534011], [18.0897339, 43.0537339], [18.0897419, 43.0537926], [18.0901063, 43.0539962], [18.090259, 43.0540412], [18.0903876, 43.0540334], [18.0906421, 43.0539238], [18.0911297, 43.0537515], [18.0915423, 43.0536654], [18.091971, 43.053591], [18.0921639, 43.0536047], [18.0927372, 43.053587], [18.0929971, 43.0536223], [18.093182, 43.0536282], [18.0933267, 43.0536105], [18.0933883, 43.053587], [18.0934847, 43.053587], [18.0944144, 43.0544484], [18.0947734, 43.0545914], [18.0949771, 43.0547323], [18.0952128, 43.0548028], [18.09532, 43.0548615], [18.095604, 43.0549124], [18.0957808, 43.0550475], [18.0959335, 43.0552765], [18.0959898, 43.0555154], [18.0961613, 43.055809], [18.0962363, 43.0559656], [18.0962443, 43.056132], [18.0962202, 43.0562671], [18.0960836, 43.0564981], [18.0960568, 43.0567037], [18.0960943, 43.0568642], [18.0961452, 43.0569601], [18.0962497, 43.05706], [18.0963595, 43.0571226], [18.096381, 43.0572224], [18.0965096, 43.0573223], [18.0966355, 43.0573438], [18.0967909, 43.0575024], [18.0968605, 43.0576335], [18.0970025, 43.0576844], [18.097099, 43.0576707], [18.0972088, 43.057753], [18.0974392, 43.0577295], [18.0975678, 43.0578195], [18.097608, 43.0579291], [18.0981707, 43.0576688], [18.0982725, 43.0576668], [18.0986208, 43.0574789], [18.0988003, 43.057291], [18.0989503, 43.0572401], [18.0992048, 43.0570991], [18.0994058, 43.0569719], [18.0995156, 43.0569347], [18.099604, 43.0568877], [18.0997273, 43.056872], [18.0999363, 43.0567507], [18.1000541, 43.0566665], [18.1001345, 43.0566684], [18.1003087, 43.0566821], [18.1004909, 43.0566782], [18.1006489, 43.0566391], [18.1007534, 43.0565921], [18.1010401, 43.0565627], [18.1018197, 43.0562926], [18.1024601, 43.056136], [18.1027467, 43.0561575], [18.1033254, 43.0561555], [18.1034889, 43.0562064], [18.1035987, 43.0561595], [18.1040756, 43.0562573], [18.1042766, 43.0562436], [18.1043784, 43.0562201], [18.1045391, 43.0562475], [18.104665, 43.0562867], [18.1048713, 43.0562475], [18.1050884, 43.0562475], [18.1053697, 43.0561908], [18.1057287, 43.0560302], [18.1060234, 43.0559931], [18.1062672, 43.0559598], [18.1063958, 43.0559324], [18.1065458, 43.0559402], [18.1069049, 43.0558815], [18.107296, 43.0558736], [18.1074862, 43.0558971], [18.1078667, 43.0560361], [18.108006, 43.056087], [18.1083382, 43.0563533], [18.1086383, 43.0565784], [18.1090375, 43.056829], [18.1092492, 43.0568701], [18.1094394, 43.0568466], [18.109777, 43.0567604], [18.1099493, 43.0568006], [18.1102222, 43.0569861], [18.110476, 43.0572574], [18.1105859, 43.0573515], [18.1107413, 43.0574259], [18.1111244, 43.0575434], [18.111537, 43.0576021], [18.1116817, 43.0576589], [18.1121398, 43.0578194], [18.1128177, 43.0580621], [18.1132249, 43.0582755], [18.1134232, 43.0584282], [18.1132731, 43.0586475], [18.1132222, 43.0588119], [18.113166, 43.0588941], [18.1197836, 43.0596928], [18.1205204, 43.059315], [18.1211366, 43.0591016], [18.1216188, 43.059039], [18.1227923, 43.0587042], [18.1233175, 43.0586142], [18.1236068, 43.0584889], [18.1239873, 43.0583871], [18.1246571, 43.0583284], [18.1247964, 43.0583793], [18.1262806, 43.05816], [18.1263664, 43.0581796], [18.126436, 43.0580895], [18.1269237, 43.0578664], [18.1283276, 43.0579368], [18.1286008, 43.0579329], [18.1286491, 43.0579525], [18.1291045, 43.0579643], [18.1294582, 43.0580073], [18.1296618, 43.0580895], [18.1298333, 43.0581639], [18.1299511, 43.0581444], [18.1301012, 43.0582305], [18.1303905, 43.0583323], [18.131339, 43.0585672], [18.1317891, 43.0586651], [18.1323678, 43.0586612], [18.1336967, 43.0595186], [18.1338092, 43.0596164], [18.136542, 43.0608497], [18.141324, 43.0612407], [18.1453994, 43.061574], [18.1461978, 43.0608497], [18.146238, 43.0607694], [18.1462273, 43.0606304], [18.1462648, 43.0605776], [18.1462219, 43.0604582], [18.1462166, 43.0602389], [18.1463211, 43.0601861], [18.146388, 43.0600451], [18.146372, 43.0599531], [18.146656, 43.0597965], [18.1467765, 43.0596575], [18.1468274, 43.0596497], [18.146889, 43.0596478], [18.1469721, 43.0596047], [18.1470257, 43.0595362], [18.1470337, 43.0594246], [18.147157, 43.0593483], [18.1472534, 43.0593365], [18.1473043, 43.0593483], [18.1474758, 43.0593169], [18.1475883, 43.0593502], [18.1479286, 43.0585085], [18.1481081, 43.0576295], [18.1482688, 43.0575179], [18.1482742, 43.0574259], [18.1482581, 43.0566664], [18.1478888, 43.05369], [18.1579371, 43.0529309], [18.1581682, 43.0529533], [18.1593065, 43.0528302], [18.1595511, 43.0528413], [18.1599898, 43.0529399], [18.1602529, 43.0529802], [18.1604841, 43.0530439], [18.1606849, 43.0530882], [18.1615374, 43.0530024], [18.161795, 43.0529636], [18.1622156, 43.0529387], [18.1624581, 43.052911], [18.1626248, 43.0529276], [18.162837, 43.0528889], [18.163538, 43.0524653], [18.1639889, 43.0522853], [18.1640684, 43.0521995], [18.1644246, 43.0520555], [18.1647997, 43.0520029], [18.164955, 43.0520167], [18.1654319, 43.0519443], [18.1656275, 43.0518934], [18.1658499, 43.0518934], [18.1663161, 43.0519208], [18.166943, 43.0522008], [18.1673101, 43.0523143], [18.1675083, 43.0523026], [18.1677655, 43.0522967], [18.1681245, 43.0522654], [18.1688292, 43.052097], [18.1689015, 43.0520618], [18.1689712, 43.0519854], [18.1691453, 43.0518934], [18.1693355, 43.0518562], [18.1697615, 43.0518386], [18.1699705, 43.0518014], [18.1701447, 43.0517524], [18.1703831, 43.0517172], [18.1704662, 43.0516976], [18.1709216, 43.0514744], [18.1712887, 43.0513061], [18.1720817, 43.0509067], [18.1724354, 43.0507853], [18.1725265, 43.050754], [18.1727971, 43.0506619], [18.1730141, 43.0507089], [18.17314, 43.0507383], [18.1735419, 43.0507853], [18.1740616, 43.0508851], [18.1745251, 43.0509028], [18.1754575, 43.0509341], [18.1757951, 43.0509243], [18.176213, 43.050983], [18.1772097, 43.0510457], [18.1777134, 43.051122], [18.1781447, 43.0510692], [18.1783805, 43.0510046], [18.1786029, 43.0510594], [18.1790932, 43.0510183], [18.1791762, 43.0510104], [18.180264, 43.050985], [18.1807195, 43.050936], [18.1809874, 43.0508988], [18.1816357, 43.0507226], [18.1819358, 43.0507031], [18.1822144, 43.0505778], [18.1831414, 43.0503781], [18.1837309, 43.0502528], [18.1844623, 43.0500237], [18.1845963, 43.049963], [18.1850303, 43.0498494], [18.1861127, 43.0497476], [18.1865896, 43.0496497], [18.1874951, 43.0494931], [18.1878515, 43.04936], [18.1882266, 43.0491642], [18.1885427, 43.0491387], [18.1896064, 43.0491231], [18.1899734, 43.0490448], [18.1905226, 43.0490115], [18.191029, 43.0490056], [18.1914577, 43.0489704], [18.1916104, 43.0489586], [18.1921114, 43.0488607], [18.1922748, 43.0487844], [18.1925186, 43.0487237], [18.1926714, 43.0487883], [18.1943057, 43.0484574], [18.1944611, 43.0484339], [18.1945897, 43.0483282], [18.1947129, 43.0484045], [18.195581, 43.0483105], [18.1959695, 43.0482949], [18.1962454, 43.0483458], [18.1963713, 43.048381], [18.1966339, 43.0483693], [18.1968991, 43.0483184], [18.197301, 43.0483145], [18.1977779, 43.048242], [18.1979065, 43.048287], [18.1980298, 43.0483771], [18.1983191, 43.0481441], [18.1988201, 43.0480638], [18.2030801, 43.0479679], [18.2030807, 43.0479302], [18.2031028, 43.0478867], [18.2031819, 43.0478465], [18.2032535, 43.047848], [18.2033085, 43.047873], [18.2071752, 43.047919], [18.2134539, 43.0515963], [18.2136549, 43.051704], [18.2137111, 43.0517441], [18.2137728, 43.0518097], [18.2137808, 43.0518567], [18.2136401, 43.0519438], [18.2135785, 43.0519693], [18.2093116, 43.0557586], [18.2096387, 43.0563381], [18.2096869, 43.0563733], [18.2097418, 43.056435], [18.2098074, 43.0564819], [18.2098624, 43.0565916], [18.2098972, 43.0566895], [18.2099454, 43.0567501], [18.2100084, 43.056941], [18.2100633, 43.0570232], [18.2101115, 43.0572699], [18.2101423, 43.0572914], [18.2101477, 43.057311], [18.2101182, 43.0574647], [18.2101289, 43.0575273], [18.210137, 43.0575958], [18.2102147, 43.0577055], [18.2102013, 43.0577759], [18.2101879, 43.0578993], [18.2101464, 43.058002], [18.2099441, 43.0583436], [18.2099186, 43.0584131], [18.2098918, 43.0585257], [18.2099146, 43.058603], [18.2098811, 43.0587166], [18.2098758, 43.0587812], [18.2098731, 43.0588301], [18.2100124, 43.0589681], [18.210003, 43.0590317], [18.2100097, 43.0590758], [18.210204, 43.0591257], [18.2103165, 43.0591237], [18.2103366, 43.0592451], [18.2103446, 43.0594888], [18.2103218, 43.0595837], [18.2102562, 43.059709], [18.2102696, 43.0597795], [18.2102683, 43.0598157], [18.2102508, 43.0598872], [18.2102508, 43.0599567], [18.2102415, 43.0600164], [18.2102535, 43.0600751], [18.2102267, 43.0601172], [18.2066194, 43.0667268], [18.2064064, 43.0675337], [18.2053388, 43.0716012], [18.2053395, 43.0716179], [18.2053422, 43.0716289], [18.2053806, 43.0717092], [18.2054029, 43.071931], [18.2055108, 43.072169], [18.2056586, 43.0724126], [18.2057874, 43.072688], [18.2060223, 43.0731585], [18.2063652, 43.0730685], [18.2065414, 43.0730298], [18.2077463, 43.0726589], [18.2077937, 43.0727558], [18.207968, 43.0730671], [18.2081631, 43.0733882], [18.208381, 43.0733744], [18.2085951, 43.0735641], [18.208626, 43.0736336], [18.2086554, 43.0736708], [18.2087626, 43.0737226], [18.2088724, 43.0738283], [18.2089166, 43.0738831], [18.2089354, 43.0739506], [18.2096374, 43.0736972], [18.2098798, 43.0735954], [18.2101745, 43.0734829], [18.2103581, 43.0733938], [18.2108591, 43.0733361], [18.2112208, 43.0732793], [18.2114378, 43.0732392], [18.2118557, 43.0731737], [18.2120701, 43.0731345], [18.2119508, 43.0729231], [18.2122013, 43.0728478], [18.2125671, 43.0727861], [18.213052, 43.0726795], [18.2134177, 43.0725728], [18.2136776, 43.0725161], [18.213971, 43.0724818], [18.2142134, 43.0724378], [18.2156334, 43.0720493], [18.2157071, 43.0720101], [18.2159147, 43.0719103], [18.215979, 43.0719416], [18.2163112, 43.0718174], [18.2166997, 43.0717234], [18.2169516, 43.0716432], [18.2170561, 43.0716275], [18.2172583, 43.0715473], [18.2173293, 43.0715473], [18.2173963, 43.0716128], [18.2174914, 43.071607], [18.2184573, 43.0712312], [18.218815, 43.071103], [18.2192396, 43.0710159], [18.2198103, 43.070919], [18.22033, 43.070828], [18.2205886, 43.0707615], [18.2209422, 43.0706362], [18.2217444, 43.0702642], [18.2219909, 43.0703131], [18.2231724, 43.0697866], [18.2234242, 43.0696672], [18.2241289, 43.0692973], [18.2250907, 43.0686671], [18.2257016, 43.0683754], [18.2263767, 43.0680858], [18.226784, 43.0679429], [18.2268268, 43.0679977], [18.2265375, 43.068119], [18.2271832, 43.0687962], [18.2271135, 43.0688354], [18.2274082, 43.0692033], [18.2276065, 43.0695361], [18.2280887, 43.0697396], [18.2281289, 43.0697866], [18.2283406, 43.0701389], [18.2286299, 43.0703405], [18.2291283, 43.0707535], [18.2294176, 43.0710177], [18.2319736, 43.0714209], [18.2320459, 43.0714228], [18.2319655, 43.0712623], [18.2319441, 43.0711469], [18.2319816, 43.0710098], [18.2320218, 43.0709198], [18.2320834, 43.0707124], [18.2321102, 43.0705636], [18.2322281, 43.0703483], [18.2323808, 43.0699862], [18.2328148, 43.0702094], [18.2328604, 43.0705577], [18.2328336, 43.0708631], [18.23293, 43.0708709], [18.23293, 43.0711606], [18.2329568, 43.0716655], [18.2331497, 43.0716635], [18.2332328, 43.0719982], [18.2332971, 43.0719757], [18.2333627, 43.0719327], [18.2333895, 43.071871], [18.2334177, 43.0718348], [18.2334659, 43.0718064], [18.2335101, 43.0718015], [18.2335396, 43.0718152], [18.2335583, 43.0718465], [18.2335704, 43.0718876], [18.2335744, 43.071915], [18.2335864, 43.0719522], [18.2336025, 43.0719855], [18.233711, 43.0721616], [18.2337646, 43.0722272], [18.2338102, 43.0723074], [18.2338691, 43.072419], [18.2339254, 43.0725051], [18.2339816, 43.0725668], [18.2340432, 43.0726], [18.2340794, 43.0726108], [18.2341504, 43.0726128], [18.2342147, 43.0726098], [18.2342562, 43.0726186], [18.2343018, 43.072646], [18.2343487, 43.0726871], [18.2343862, 43.0727126], [18.2344277, 43.0727302], [18.2344652, 43.0727478], [18.2344907, 43.0727762], [18.2345242, 43.0728476], [18.2345376, 43.0729122], [18.2345443, 43.0729719], [18.2345577, 43.0730169], [18.2345697, 43.073059], [18.2345684, 43.073103], [18.2345389, 43.073149], [18.234488, 43.0731754], [18.2344558, 43.0731891], [18.2344357, 43.0732048], [18.2343915, 43.0732165], [18.23435, 43.0732498], [18.234346, 43.0732752], [18.2343514, 43.0732997], [18.2343607, 43.0733203], [18.2343594, 43.0733398], [18.2343353, 43.0733692], [18.2343299, 43.0734113], [18.2343366, 43.0734543], [18.2343634, 43.0735091], [18.2344572, 43.0736334], [18.2345027, 43.0736813], [18.2345376, 43.0737312], [18.2345804, 43.0737714], [18.2346487, 43.0738174], [18.234768, 43.0738692], [18.234985, 43.0739553], [18.2350573, 43.0740023], [18.2351431, 43.0740444], [18.2351846, 43.074062], [18.235482, 43.0742323], [18.2355999, 43.0743154], [18.2357137, 43.0743937], [18.2358584, 43.074474], [18.2360379, 43.0745591], [18.2361853, 43.0746031], [18.2363755, 43.0746305], [18.2365389, 43.0746305], [18.2367492, 43.074654], [18.2368872, 43.074702], [18.2370064, 43.0747734], [18.2371377, 43.0748908], [18.2375394, 43.0751559], [18.2377626, 43.0752661], [18.2379434, 43.0753794], [18.238402, 43.0756848], [18.2414369, 43.0775407], [18.2461965, 43.0802733], [18.2468306, 43.0823222], [18.2474753, 43.0858998], [18.2500457, 43.0873231], [18.2537751, 43.0894033], [18.2549992, 43.0905742], [18.2552043, 43.0908015], [18.253969, 43.0908664], [18.2513511, 43.0908141], [18.2509861, 43.0908849], [18.2436349, 43.0929168], [18.2421651, 43.0934205], [18.2393105, 43.092169], [18.2385358, 43.0923085], [18.2377824, 43.0921922], [18.2374003, 43.0923395], [18.2372518, 43.0921457], [18.2367636, 43.0918125], [18.2363391, 43.0914483], [18.2361269, 43.0912003], [18.23514, 43.0907896], [18.2349065, 43.0907741], [18.234482, 43.0905493], [18.2333253, 43.0902548], [18.2321262, 43.0899759], [18.2314789, 43.0899836], [18.2311287, 43.0900379], [18.2309058, 43.0898906], [18.2302054, 43.0898519], [18.2295687, 43.0897821], [18.2268626, 43.0897821], [18.2252602, 43.0897511], [18.2246766, 43.0896581], [18.2243264, 43.0895806], [18.2240929, 43.0894489], [18.2239762, 43.0893481], [18.2239231, 43.0892086], [18.2234668, 43.0895109], [18.2231697, 43.0896039], [18.2229999, 43.0897666], [18.2227876, 43.0897976], [18.2225329, 43.0900534], [18.2221828, 43.0903556], [18.2219811, 43.0906423], [18.2219599, 43.0908593], [18.2218856, 43.0910453], [18.2218538, 43.0913398], [18.2218326, 43.0914715], [18.2217583, 43.0915955], [18.2216946, 43.0916575], [18.221546, 43.0916885], [18.2213656, 43.0916963], [18.2212277, 43.0916808], [18.2210579, 43.09189], [18.220782, 43.0920063], [18.2204742, 43.0921767], [18.2203257, 43.0924325], [18.2201771, 43.0926417], [18.2201028, 43.0928045], [18.2199755, 43.0930447], [18.2198269, 43.0934709], [18.2196571, 43.0936956], [18.21936, 43.0939281], [18.2189673, 43.0940676], [18.2185494, 43.0941715], [18.2182417, 43.0941793], [18.2176474, 43.0942723], [18.2173503, 43.0942762], [18.217154, 43.0942684], [18.2169364, 43.0942878], [18.2167401, 43.0943575], [18.2165332, 43.0945048], [18.2163793, 43.0945822], [18.2154985, 43.0949077], [18.2152844, 43.0949821], [18.2151568, 43.0950424], [18.2150931, 43.0951082], [18.2150856, 43.0951685], [18.2151193, 43.0952095], [18.2152169, 43.0952534], [18.2153144, 43.0952917], [18.2153857, 43.0953411], [18.2153895, 43.0953794], [18.2153782, 43.0954452], [18.2153407, 43.0955], [18.2152544, 43.0955301], [18.2150818, 43.0954835], [18.214928, 43.0954698], [18.2147967, 43.0954808], [18.2143915, 43.0955684], [18.2141813, 43.0956671], [18.2139787, 43.0957904], [18.2137686, 43.0958808], [18.2136523, 43.0959219], [18.213566, 43.0959794], [18.2135735, 43.0960123], [18.2136073, 43.0960315], [18.2140294, 43.0962219], [18.21408, 43.0962725], [18.2140613, 43.0963191], [18.2139938, 43.0963465], [18.2138568, 43.0963917], [18.2137555, 43.0964314], [18.2137049, 43.0964671], [18.2137067, 43.0965136], [18.2137386, 43.096541], [18.2138043, 43.0965575], [18.21393, 43.0965794], [18.2140069, 43.0966082], [18.2140238, 43.0966451], [18.2140088, 43.0966698], [18.213975, 43.0966917], [18.2139206, 43.0967136], [18.2138343, 43.0967246], [18.2137555, 43.0967246], [18.2136561, 43.0967082], [18.213566, 43.0966958], [18.2134666, 43.0966958], [18.2133541, 43.0967273], [18.213249, 43.0968136], [18.2132359, 43.0968849], [18.2132865, 43.0969287], [18.2133616, 43.0969657], [18.2134028, 43.0970027], [18.2134066, 43.0970342], [18.2133841, 43.0970725], [18.2133353, 43.097115], [18.2131627, 43.0972437], [18.2129076, 43.0973328], [18.2127237, 43.0973835], [18.2125868, 43.0974026], [18.2125268, 43.0973917], [18.2124405, 43.0973629], [18.2123392, 43.0973396], [18.2122472, 43.0973424], [18.2121891, 43.0973643], [18.2120822, 43.0974054], [18.211964, 43.097452], [18.2117858, 43.0975068], [18.2116263, 43.0975492], [18.2114725, 43.0975999], [18.2112492, 43.0977273], [18.2110091, 43.0979163], [18.2107765, 43.0981574], [18.2106283, 43.0983204], [18.2105983, 43.0983903], [18.210602, 43.0984547], [18.2105664, 43.0984999], [18.2105045, 43.0985423], [18.2104182, 43.098582], [18.2102006, 43.098667], [18.2099998, 43.0987081], [18.2098648, 43.0987355], [18.209741, 43.0987793], [18.2095703, 43.0988491], [18.2094183, 43.098919], [18.2092982, 43.0989916], [18.2092551, 43.099056], [18.2092457, 43.0991286], [18.2092119, 43.0992217], [18.2091651, 43.0992847], [18.2090844, 43.0993477], [18.2089493, 43.099445], [18.2087767, 43.0995683], [18.2086754, 43.0996505], [18.2086492, 43.0997148], [18.208636, 43.0997655], [18.208636, 43.0997847], [18.208546, 43.0998258], [18.2084935, 43.0998655], [18.2085291, 43.0999121], [18.2085404, 43.0999545], [18.2085066, 43.0999915], [18.2084316, 43.1000381], [18.2082177, 43.1002093], [18.2080582, 43.1003107], [18.2078894, 43.1003751], [18.2076174, 43.1004682], [18.2073266, 43.1005024], [18.2069702, 43.1005326], [18.2067469, 43.1005682], [18.2065162, 43.1006024], [18.2064468, 43.1006107], [18.2062723, 43.1006175], [18.2061335, 43.1006079], [18.206036, 43.1006024], [18.205959, 43.1006189], [18.2058915, 43.1006353], [18.205809, 43.1006175], [18.2056495, 43.1006175], [18.2055332, 43.1006367], [18.2054263, 43.1006668], [18.2053306, 43.1006928], [18.2052424, 43.1006983], [18.2051862, 43.1006874], [18.2051336, 43.100675], [18.2050436, 43.1007148], [18.2050061, 43.1007148], [18.2049817, 43.1006969], [18.204961, 43.1006723], [18.2049273, 43.1006449], [18.2048841, 43.1006339], [18.2047903, 43.100638], [18.2046196, 43.1007106], [18.2046084, 43.1007641], [18.204614, 43.100801], [18.2045971, 43.1008353], [18.2045127, 43.1008421], [18.2044226, 43.1008778], [18.2043739, 43.1009353], [18.2043326, 43.1009901], [18.2042819, 43.1010312], [18.2039537, 43.10119], [18.2038261, 43.1012763], [18.2037004, 43.101353], [18.2035728, 43.1014352], [18.2034509, 43.1014832], [18.203389, 43.101516], [18.2034547, 43.101579], [18.2034396, 43.1016722], [18.2033458, 43.1017215], [18.2033477, 43.1017612], [18.2034697, 43.1018434], [18.2034453, 43.1019187], [18.2032671, 43.1020132], [18.2030401, 43.1020749], [18.2028412, 43.1021557], [18.2025261, 43.1023488], [18.2016237, 43.1028186], [18.2014999, 43.1029392], [18.2015074, 43.1030255], [18.2016068, 43.1030871], [18.2015843, 43.1031474], [18.2014661, 43.1032323], [18.2014474, 43.1032747], [18.2014586, 43.1033309], [18.2014174, 43.1034651], [18.201378, 43.1035199], [18.2014361, 43.1035583], [18.201528, 43.1035884], [18.2015618, 43.1036541], [18.201513, 43.1037144], [18.2010591, 43.1040924], [18.2005694, 43.1044581], [18.2005038, 43.1044417], [18.2003274, 43.1043773], [18.2002637, 43.1043746], [18.2001455, 43.104391], [18.2000104, 43.104317], [18.199896, 43.1042924], [18.1997553, 43.1043417], [18.1991531, 43.1048772], [18.1990687, 43.1049361], [18.1988023, 43.1050279], [18.1986485, 43.1051539], [18.198549, 43.1053087], [18.1985096, 43.1054251], [18.1984459, 43.10551], [18.1984065, 43.1055716], [18.1983915, 43.1059825], [18.1983446, 43.1061181], [18.1982489, 43.1062455], [18.1981457, 43.1063455], [18.1980031, 43.1064482], [18.1979562, 43.1065071], [18.19796, 43.10654], [18.1979863, 43.1065619], [18.198065, 43.1065728], [18.1981044, 43.106581], [18.1981663, 43.1066372], [18.1981551, 43.1067153], [18.1978249, 43.1070494], [18.1976223, 43.1071768], [18.1974647, 43.1073124], [18.1971721, 43.1075384], [18.1970408, 43.1076014], [18.19681, 43.1077685], [18.1966037, 43.1078602], [18.1961591, 43.1080013], [18.1958927, 43.1081081], [18.1957801, 43.1081835], [18.1956995, 43.1082547], [18.1956432, 43.1082958], [18.1955325, 43.1083218], [18.1954875, 43.1083218], [18.1953806, 43.1083232], [18.1953168, 43.1083286], [18.1951254, 43.1083766], [18.1949716, 43.1084081], [18.1948684, 43.1084108], [18.1948065, 43.1084081], [18.1946996, 43.1083903], [18.1946058, 43.108382], [18.1945045, 43.1083875], [18.1944351, 43.1084026], [18.1942963, 43.1084368], [18.1942081, 43.1084848], [18.194073, 43.1085286], [18.194043, 43.108582], [18.1938348, 43.1086929], [18.1935853, 43.1088217], [18.1933508, 43.1089641], [18.1931932, 43.1090641], [18.1931144, 43.1090504], [18.1930131, 43.1089436], [18.1929606, 43.1089395], [18.192893, 43.1090819], [18.1928011, 43.1091353], [18.1926923, 43.1091339], [18.1925535, 43.1090312], [18.1924428, 43.1089997], [18.1923546, 43.1089983], [18.1922683, 43.1090038], [18.1921333, 43.10906], [18.1919326, 43.1092093], [18.1917862, 43.1093024], [18.1916962, 43.1093243], [18.1916024, 43.1093298], [18.1915424, 43.1093202], [18.1914729, 43.1092901], [18.1914073, 43.1092558], [18.1913191, 43.1092586], [18.1912234, 43.1093722], [18.1911053, 43.1094434], [18.1909946, 43.1094667], [18.1908633, 43.1094791], [18.1907939, 43.1094969], [18.1906963, 43.1095311], [18.1905293, 43.1096174], [18.1904656, 43.1096639], [18.1903905, 43.1096817], [18.1902798, 43.1097502], [18.1900847, 43.1098214], [18.1895895, 43.1103172], [18.1893606, 43.1104774], [18.1892743, 43.1105487], [18.1891899, 43.1106267], [18.1891036, 43.1107116], [18.1890192, 43.1107568], [18.1889141, 43.1107856], [18.1888391, 43.1108102], [18.1887509, 43.110902], [18.1887228, 43.110965], [18.1887078, 43.1110526], [18.1886797, 43.1111143], [18.1886515, 43.111154], [18.1884977, 43.1111978], [18.1882763, 43.111369], [18.1881394, 43.1115388], [18.1880831, 43.1116032], [18.1878767, 43.1117552], [18.1876516, 43.1118401], [18.1875203, 43.1118373], [18.1874021, 43.1118086], [18.1873158, 43.1117894], [18.1872502, 43.1117867], [18.1872014, 43.1117976], [18.1871564, 43.1118305], [18.1870101, 43.1119031], [18.1869406, 43.1119428], [18.1868937, 43.1120003], [18.18686, 43.1120428], [18.1867568, 43.1120633], [18.1865617, 43.1121551], [18.1862934, 43.112329], [18.1861246, 43.1124344], [18.1860646, 43.1125002], [18.1859333, 43.1125618], [18.1858826, 43.1126084], [18.1857888, 43.1127042], [18.1857363, 43.1127467], [18.1856012, 43.112848], [18.1854174, 43.1129631], [18.1852373, 43.1130493], [18.1851304, 43.1130904], [18.1850028, 43.1131123], [18.1848808, 43.1131], [18.1845826, 43.1130329], [18.1844869, 43.1130726], [18.1843987, 43.1131288], [18.1838397, 43.1136204], [18.183759, 43.1137751], [18.1837328, 43.1139135], [18.1824702, 43.1143914], [18.1764836, 43.1110502], [18.1671037, 43.1124879], [18.1641124, 43.1129668], [18.1624199, 43.1132378], [18.1553127, 43.1144181], [18.1552413, 43.1144921], [18.1551962, 43.1159697], [18.1551432, 43.1166417], [18.1482852, 43.1204586], [18.1331498, 43.1215934], [18.1317676, 43.1217541], [18.1310752, 43.1218355], [18.131124, 43.1219022], [18.1312178, 43.1219693], [18.131275, 43.1220207], [18.1313032, 43.1220624], [18.1313332, 43.1220966], [18.1313604, 43.1221158], [18.1314045, 43.1221357], [18.1314617, 43.1221747], [18.1314955, 43.122213], [18.131517, 43.1222534], [18.1315264, 43.1222856], [18.1315246, 43.1223123], [18.1315124, 43.1223534], [18.1314701, 43.1223924], [18.1313989, 43.1224403], [18.1312901, 43.1225252], [18.1312122, 43.1225998], [18.1311587, 43.1226635], [18.1311465, 43.1227217], [18.1311419, 43.1227642], [18.1314007, 43.1225978], [18.1315302, 43.1226902], [18.1315846, 43.1227683], [18.1315508, 43.1228614], [18.131593, 43.1229586], [18.1314261, 43.1230271], [18.1312516, 43.1230127], [18.1310837, 43.123014], [18.1310143, 43.1229394], [18.1308933, 43.1228908], [18.1307611, 43.12361], [18.1307755, 43.1239047], [18.1308117, 43.1242768], [18.1302771, 43.1245554], [18.1306419, 43.1250757], [18.1307195, 43.125249], [18.1306658, 43.1254402], [18.1306897, 43.1254949], [18.1305657, 43.1257699], [18.1304015, 43.1258517], [18.1299873, 43.125803], [18.1296219, 43.1257207], [18.1295545, 43.1260285], [18.1295139, 43.1261656], [18.1294881, 43.1261995], [18.1294785, 43.1262421], [18.1293798, 43.1262886], [18.1293613, 43.1264948], [18.1292751, 43.1266183], [18.1292466, 43.1266856], [18.1292539, 43.1267712], [18.1292665, 43.1268235], [18.1292558, 43.1269228], [18.1290151, 43.1270205], [18.1290012, 43.1271343], [18.1291391, 43.1271948], [18.1292658, 43.1272364], [18.1295662, 43.12722], [18.1300186, 43.1273357], [18.1304152, 43.1273583], [18.1304603, 43.1275593], [18.1299423, 43.1276155], [18.129929, 43.1278008], [18.1298097, 43.1278129], [18.1297918, 43.1279204], [18.1298143, 43.1279911], [18.1295742, 43.1279877], [18.1296366, 43.1284345], [18.1299284, 43.1293755], [18.1313345, 43.1291626], [18.1316529, 43.1303707], [18.1317769, 43.1304919], [18.13182, 43.1306302], [18.1319307, 43.1307644], [18.1320132, 43.1307206], [18.1322121, 43.1307315], [18.1322684, 43.1307822], [18.1329578, 43.1334641], [18.1331078, 43.1335497], [18.133196, 43.1337078], [18.1332345, 43.1338481], [18.1333977, 43.1339659], [18.1334587, 43.1340391], [18.133483, 43.1341158], [18.133483, 43.1341486], [18.1334737, 43.134176], [18.1333294, 43.1343119], [18.1331447, 43.134418], [18.1329449, 43.1344987], [18.1328051, 43.1345289], [18.1325684, 43.1350149], [18.1317725, 43.1365288], [18.1306848, 43.1385577], [18.1285135, 43.1425756], [18.1287588, 43.1422922], [18.1287967, 43.1422605], [18.128913, 43.1422126], [18.1289974, 43.1422085], [18.1290631, 43.1422153], [18.1291513, 43.1422153], [18.1292, 43.1422057], [18.1292263, 43.1422071], [18.1292732, 43.1422139], [18.1293163, 43.1422386], [18.129352, 43.1422796], [18.1294495, 43.1424083], [18.1297684, 43.1427313], [18.1298866, 43.1428326], [18.1299504, 43.1429339], [18.1298791, 43.1430284], [18.1298435, 43.1430859], [18.1298116, 43.1431187], [18.1297722, 43.1431392], [18.1297553, 43.1431707], [18.1297328, 43.1432214], [18.1297478, 43.1432734], [18.129684, 43.1433172], [18.1295846, 43.1434322], [18.1294589, 43.1435061], [18.1307477, 43.146234], [18.1303294, 43.146635], [18.1304682, 43.1469101], [18.1302862, 43.1469594], [18.1297609, 43.147188], [18.1287854, 43.1473673], [18.1287048, 43.1476629], [18.12061, 43.1529937], [18.1055724, 43.1594256], [18.1026309, 43.1607831], [18.096883, 43.1614289], [18.0965828, 43.1614837], [18.09599, 43.1617081], [18.0956524, 43.1618778], [18.0953672, 43.1620639], [18.0951676, 43.1620999], [18.0948042, 43.1621812], [18.0946636, 43.1622451], [18.0945893, 43.1623089], [18.0944832, 43.1623747], [18.0943425, 43.1623902], [18.0942258, 43.1624057], [18.0940772, 43.1624657], [18.093987, 43.162487], [18.0939154, 43.1624986], [18.0937934, 43.1625354], [18.0935918, 43.1626031], [18.0934856, 43.162634], [18.0932734, 43.162694], [18.0931222, 43.1627444], [18.0929179, 43.1628101], [18.0928012, 43.162843], [18.0927083, 43.1628895], [18.0926101, 43.1629398], [18.0923581, 43.1630482], [18.0922069, 43.1630617], [18.0920902, 43.1630578], [18.0918753, 43.1630559], [18.0916232, 43.1630598], [18.0913685, 43.1630811], [18.0912014, 43.1631004], [18.0910741, 43.1631043], [18.0909255, 43.1631294], [18.0907239, 43.1632165], [18.0905541, 43.1632707], [18.0903551, 43.1633326], [18.0901375, 43.1633849], [18.0899678, 43.1634333], [18.0898431, 43.1635049], [18.0897157, 43.1636016], [18.0895963, 43.1637293], [18.0895008, 43.1638803], [18.0894212, 43.1639964], [18.0893231, 43.1640796], [18.0891904, 43.1641376], [18.0889915, 43.1641628], [18.0887659, 43.1641744], [18.0884953, 43.164186], [18.0883335, 43.1642189], [18.0881398, 43.164277], [18.0878852, 43.1643892], [18.0874978, 43.1645556], [18.0872405, 43.1646485], [18.0870097, 43.164693], [18.0864419, 43.1647723], [18.086044, 43.1647936], [18.0857468, 43.1648052], [18.0855558, 43.1648149], [18.0854417, 43.1648149], [18.0852773, 43.1648265], [18.0850783, 43.1648749], [18.0848528, 43.1649407], [18.0846909, 43.1650065], [18.0846087, 43.1650761], [18.0845742, 43.1651342], [18.0845795, 43.1652484], [18.0845556, 43.1654786], [18.0844787, 43.1657495], [18.0844124, 43.1659256], [18.0843036, 43.1661365], [18.0841126, 43.1663223], [18.0838685, 43.1664887], [18.0836032, 43.1665913], [18.0834202, 43.1666532], [18.0833326, 43.1667151], [18.0832106, 43.1668506], [18.0831124, 43.1669996], [18.0830381, 43.1670576], [18.0829559, 43.1670905], [18.0828604, 43.1671021], [18.0826587, 43.1671273], [18.0824996, 43.1671582], [18.0823457, 43.1671892], [18.0820592, 43.1672182], [18.0818098, 43.1672337], [18.0816055, 43.1672221], [18.0814676, 43.1671931], [18.0813376, 43.1671718], [18.0812155, 43.1671679], [18.0810139, 43.1671892], [18.0806106, 43.1672511], [18.0802313, 43.1673208], [18.0797564, 43.1673904], [18.0794752, 43.1674175], [18.0791197, 43.1674678], [18.0789154, 43.1675123], [18.078719, 43.1675897], [18.0785731, 43.16764], [18.0784723, 43.1676439], [18.0784113, 43.167642], [18.0783556, 43.1676458], [18.0782707, 43.1676633], [18.0781991, 43.1676942], [18.0781036, 43.1677387], [18.0780187, 43.1677658], [18.0779046, 43.1677852], [18.0777985, 43.1677755], [18.0772705, 43.1676787], [18.0771007, 43.1676536], [18.0769628, 43.1676613], [18.0768115, 43.1676962], [18.0766603, 43.1677716], [18.0764162, 43.1679554], [18.0762571, 43.1680831], [18.076082, 43.168207], [18.0759307, 43.1682979], [18.0758697, 43.1683463], [18.0758485, 43.1684334], [18.0758114, 43.1686675], [18.0757583, 43.1687952], [18.0756363, 43.1689403], [18.0754824, 43.16907], [18.0752277, 43.1692306], [18.0748006, 43.1694744], [18.0746573, 43.1695537], [18.0745538, 43.1696408], [18.0744345, 43.1697994], [18.0743496, 43.169931], [18.0742567, 43.1700278], [18.0741028, 43.1701071], [18.0739224, 43.1701709], [18.0737394, 43.1702599], [18.0735935, 43.170318], [18.073482, 43.1703896], [18.0734157, 43.170438], [18.0730469, 43.1706527], [18.0727472, 43.1707959], [18.0722961, 43.170972], [18.0720786, 43.1710184], [18.0720233, 43.171034], [18.0719725, 43.1710571], [18.0718239, 43.1711461], [18.0715878, 43.1712932], [18.0715121, 43.1713309], [18.0714455, 43.1713419], [18.0713996, 43.171333], [18.0713649, 43.17132], [18.0712636, 43.1712523], [18.071167, 43.1711989], [18.0710235, 43.1711394], [18.0709353, 43.1711271], [18.070789, 43.1711161], [18.0705742, 43.171136], [18.0703408, 43.1711689], [18.07024, 43.1712154], [18.0701179, 43.1712425], [18.0700171, 43.1712444], [18.0698845, 43.1712773], [18.0695767, 43.1714089], [18.0692875, 43.1715404], [18.0690859, 43.1715985], [18.068879, 43.1716023], [18.0685712, 43.1716217], [18.0683271, 43.1716585], [18.0681706, 43.171703], [18.068038, 43.1717571], [18.0678284, 43.1718287], [18.0676559, 43.171879], [18.0675365, 43.171939], [18.067388, 43.1720319], [18.0670696, 43.1722486], [18.0669317, 43.1723589], [18.0668866, 43.172386], [18.0668309, 43.1723956], [18.0667698, 43.1723937], [18.0667075, 43.1723898], [18.066669, 43.1723918], [18.0665722, 43.1724063], [18.06647, 43.1724546], [18.0662724, 43.1725678], [18.0662034, 43.172593], [18.0661437, 43.1725988], [18.0660535, 43.1725959], [18.0659116, 43.1725852], [18.0656357, 43.172622], [18.0655322, 43.1726181], [18.0654473, 43.1726626], [18.0653465, 43.1727226], [18.0652709, 43.1727468], [18.065121, 43.1727719], [18.0650215, 43.1727681], [18.0649406, 43.172742], [18.0647266, 43.172675], [18.0646364, 43.1726517], [18.0643525, 43.1726401], [18.0642119, 43.1726459], [18.0641111, 43.1727001], [18.0640395, 43.1727543], [18.0639439, 43.172791], [18.0638697, 43.1727968], [18.0637821, 43.1728143], [18.0636919, 43.1728704], [18.063607, 43.1729207], [18.0634611, 43.1729903], [18.0633603, 43.1730174], [18.0632329, 43.1730716], [18.0630578, 43.1730948], [18.0628615, 43.1731335], [18.0626228, 43.173207], [18.0624052, 43.1732302], [18.0621691, 43.1732283], [18.0619197, 43.1732012], [18.0617287, 43.1731683], [18.0615748, 43.173118], [18.0614236, 43.1730929], [18.0612379, 43.173089], [18.0609514, 43.1730619], [18.0605906, 43.1729729], [18.0602722, 43.1729149], [18.0601051, 43.1729207], [18.0599936, 43.1729768], [18.059861, 43.1730329], [18.0597124, 43.1730464], [18.0595771, 43.1730232], [18.0593941, 43.172969], [18.0592349, 43.1729381], [18.0590492, 43.1729168], [18.0589298, 43.172853], [18.0588184, 43.1728007], [18.0586963, 43.1727814], [18.0586088, 43.1727968], [18.0585, 43.17288], [18.0583965, 43.1730542], [18.0582559, 43.1732805], [18.0581127, 43.1734082], [18.0579376, 43.1734663], [18.0576563, 43.1734779], [18.0574733, 43.1734276], [18.0573141, 43.1734121], [18.0571868, 43.1733908], [18.0570913, 43.1733599], [18.0569374, 43.1733057], [18.0567119, 43.173238], [18.0564917, 43.1732206], [18.0561096, 43.1732148], [18.0559558, 43.1732167], [18.0583258, 43.1831026], [18.0585195, 43.1832322], [18.058684, 43.1834257], [18.0587609, 43.1836385], [18.0589068, 43.1839131], [18.0590156, 43.183977], [18.0590156, 43.1842459], [18.0575432, 43.1863776], [18.0546355, 43.1859404], [18.0544074, 43.1858282], [18.0540412, 43.1856774], [18.0536964, 43.1855961], [18.0531074, 43.1855303], [18.052529, 43.1855303], [18.0520144, 43.185569], [18.0515421, 43.1855381], [18.0512025, 43.1854684], [18.0509797, 43.1853485], [18.0507621, 43.1851125], [18.0506136, 43.1849384], [18.0505764, 43.1847875], [18.0505817, 43.184625], [18.0505499, 43.184509], [18.0505287, 43.1844161], [18.0504809, 43.1843155], [18.0504703, 43.1841801], [18.0504836, 43.1841356], [18.0505021, 43.1841085], [18.0505181, 43.1840795], [18.0505234, 43.1840486], [18.0505128, 43.1840157], [18.0504756, 43.1839963], [18.0504305, 43.1839828], [18.0503828, 43.183977], [18.050335, 43.183977], [18.0502873, 43.1839789], [18.0502448, 43.1839925], [18.0501705, 43.1840311], [18.0501334, 43.1840563], [18.0501015, 43.1840834], [18.0500671, 43.1841085], [18.0500352, 43.1841337], [18.0499954, 43.184153], [18.0499556, 43.1841743], [18.0498654, 43.1842053], [18.049823, 43.1842169], [18.0497779, 43.1842246], [18.0497275, 43.1842323], [18.0496346, 43.1842362], [18.0493879, 43.1842362], [18.0493401, 43.1842343], [18.049295, 43.1842401], [18.0492473, 43.1842497], [18.0492075, 43.1842691], [18.0491756, 43.1842942], [18.0491465, 43.1843213], [18.0491173, 43.1843503], [18.0490854, 43.1843774], [18.0490483, 43.1843987], [18.0490032, 43.1844142], [18.0489554, 43.1844238], [18.048905, 43.1844296], [18.0488493, 43.1844316], [18.0488016, 43.1844316], [18.0487565, 43.1844219], [18.0487246, 43.1843929], [18.0487087, 43.1843639], [18.0486928, 43.1843329], [18.0486795, 43.184302], [18.048661, 43.184271], [18.0486291, 43.1842478], [18.0485814, 43.1842362], [18.0485363, 43.1842323], [18.0484089, 43.1842401], [18.0483638, 43.1842381], [18.0483161, 43.1842304], [18.048271, 43.1842207], [18.0482285, 43.1842111], [18.0481861, 43.1841994], [18.0481436, 43.1841898], [18.0480985, 43.1841878], [18.0480534, 43.1841898], [18.0479738, 43.1842285], [18.0479287, 43.184242], [18.047881, 43.1842536], [18.0478332, 43.1842594], [18.0477855, 43.1842613], [18.0477404, 43.1842517], [18.0476979, 43.1842343], [18.047674, 43.1842091], [18.0476555, 43.1841801], [18.0476502, 43.1841492], [18.0476502, 43.1841163], [18.0476369, 43.1840814], [18.0476024, 43.1840563], [18.0475653, 43.184035], [18.0475202, 43.1840253], [18.0474724, 43.1840195], [18.0472814, 43.1840157], [18.047231, 43.1840137], [18.0471806, 43.184006], [18.0471381, 43.1839925], [18.0470904, 43.1839809], [18.0470453, 43.1839789], [18.0469975, 43.1839789], [18.0469551, 43.1839905], [18.0469153, 43.184006], [18.0468782, 43.1840234], [18.046841, 43.1840428], [18.0468065, 43.1840718], [18.0467747, 43.1840989], [18.0467375, 43.1841221], [18.0466951, 43.1841356], [18.0466473, 43.1841395], [18.0466022, 43.1841395], [18.0465545, 43.1841317], [18.0465067, 43.1841259], [18.0464616, 43.1841221], [18.0464165, 43.1841201], [18.0463608, 43.1841221], [18.0463131, 43.1841317], [18.0462733, 43.184153], [18.0462361, 43.1841743], [18.0461963, 43.1841898], [18.0461512, 43.1842014], [18.0461061, 43.1842072], [18.0460584, 43.1842111], [18.0459602, 43.1842111], [18.0459125, 43.1842188], [18.0458674, 43.1842304], [18.0458329, 43.1842517], [18.0458037, 43.1842788], [18.0457745, 43.1843078], [18.045748, 43.1843349], [18.0456843, 43.184389], [18.0456472, 43.18442], [18.0456153, 43.1844451], [18.0455835, 43.1844683], [18.0455543, 43.1844935], [18.0455172, 43.1845186], [18.0454853, 43.1845438], [18.0454482, 43.184567], [18.0454031, 43.1845844], [18.0453659, 43.1846018], [18.0453235, 43.1846231], [18.045289, 43.1846463], [18.0452413, 43.1846521], [18.0451855, 43.1846463], [18.0451457, 43.1846289], [18.0451006, 43.1846328], [18.0450608, 43.184654], [18.045029, 43.1846811], [18.0450025, 43.1847101], [18.0449813, 43.1847392], [18.0449282, 43.1847972], [18.0448911, 43.1848262], [18.0448539, 43.1848475], [18.0448141, 43.1848649], [18.0447717, 43.1848784], [18.0447266, 43.1848881], [18.0446815, 43.1848958], [18.0446364, 43.1848997], [18.0445913, 43.1848997], [18.0445409, 43.1848939], [18.0444984, 43.1848862], [18.0444533, 43.1848726], [18.0444109, 43.1848572], [18.0443764, 43.1848339], [18.0443525, 43.1848069], [18.0443339, 43.1847778], [18.0443207, 43.184745], [18.04431, 43.1847101], [18.0443021, 43.1846773], [18.0442888, 43.1846463], [18.0442649, 43.1846173], [18.0442278, 43.1845979], [18.0441827, 43.1845941], [18.0441376, 43.1846076], [18.0441005, 43.1846289], [18.044066, 43.1846521], [18.0438511, 43.1847933], [18.0437025, 43.1849229], [18.0436707, 43.1849481], [18.0436335, 43.1849771], [18.043599, 43.1850003], [18.0435619, 43.1850235], [18.0435248, 43.1850487], [18.0434929, 43.1850738], [18.0434558, 43.185097], [18.0434107, 43.1851144], [18.0433682, 43.1851318], [18.0433284, 43.1851473], [18.0432886, 43.1851667], [18.0432489, 43.1851879], [18.0432117, 43.1852054], [18.0431666, 43.1852092], [18.0431189, 43.1852112], [18.0430711, 43.1852092], [18.0430233, 43.1851957], [18.0429809, 43.1851841], [18.0429305, 43.1851725], [18.0427925, 43.1851725], [18.0427421, 43.1851763], [18.0426917, 43.1851783], [18.042644, 43.1851783], [18.0425936, 43.1851821], [18.0425485, 43.1851821], [18.0425007, 43.1851841], [18.0423972, 43.1851879], [18.0423495, 43.1851918], [18.0422991, 43.1851957], [18.042254, 43.1852054], [18.0422089, 43.185217], [18.0421585, 43.1852286], [18.0421134, 43.1852382], [18.0420709, 43.1852498], [18.0420258, 43.1852653], [18.0419834, 43.1852827], [18.0419383, 43.1853021], [18.0418985, 43.1853214], [18.0418587, 43.1853369], [18.0417764, 43.1853756], [18.0417366, 43.1853988], [18.0416942, 43.1854239], [18.0416544, 43.1854433], [18.041612, 43.1854626], [18.0415748, 43.185482], [18.0415403, 43.1855052], [18.0415032, 43.1855323], [18.0414687, 43.1855555], [18.0414262, 43.185571], [18.0413785, 43.1855845], [18.0413307, 43.1855884], [18.041222, 43.1855884], [18.0411769, 43.1855845], [18.0409885, 43.185569], [18.0409354, 43.1855632], [18.040885, 43.1855594], [18.0408373, 43.1855594], [18.0407922, 43.1855613], [18.0407365, 43.1855632], [18.0406887, 43.1855652], [18.040641, 43.185569], [18.0405879, 43.185571], [18.0405401, 43.1855748], [18.0404924, 43.1855768], [18.0403465, 43.1855768], [18.0402934, 43.185571], [18.0402483, 43.1855632], [18.0402006, 43.1855535], [18.0401555, 43.1855439], [18.0401024, 43.1855361], [18.0400546, 43.1855265], [18.0400042, 43.1855168], [18.0399565, 43.185511], [18.0398981, 43.1855091], [18.0398371, 43.1855091], [18.0397893, 43.185511], [18.0397257, 43.1855149], [18.0396779, 43.1855168], [18.0396302, 43.1855207], [18.0395824, 43.1855226], [18.039532, 43.1855323], [18.0394869, 43.18554], [18.0394391, 43.1855497], [18.0393861, 43.1855594], [18.0393383, 43.185571], [18.0392428, 43.1856058], [18.039203, 43.1856251], [18.0391606, 43.1856464], [18.0391234, 43.1856677], [18.0390836, 43.1856832], [18.0390359, 43.1856948], [18.0389855, 43.1856948], [18.0389477, 43.1856846], [18.0389346, 43.185673], [18.0389196, 43.1856613], [18.0389018, 43.1856511], [18.0388868, 43.1856456], [18.0388633, 43.1856422], [18.0388446, 43.1856429], [18.0388296, 43.1856463], [18.0388127, 43.1856525], [18.0387948, 43.1856607], [18.0387817, 43.1856709], [18.0387676, 43.1856805], [18.0387517, 43.1856867], [18.0387348, 43.1856873], [18.0386466, 43.185688], [18.0386241, 43.1856894], [18.0386007, 43.1856949], [18.0385801, 43.185701], [18.038565, 43.1857079], [18.0385153, 43.1857338], [18.0385013, 43.1857427], [18.0384806, 43.1857516], [18.0384628, 43.1857557], [18.038445, 43.1857571], [18.0384253, 43.1857544], [18.0384093, 43.1857503], [18.0383925, 43.1857441], [18.0383587, 43.1857338], [18.0383371, 43.1857297], [18.0383165, 43.1857277], [18.0382949, 43.1857277], [18.0382761, 43.1857291], [18.0382602, 43.1857332], [18.0382414, 43.1857379], [18.0382227, 43.1857462], [18.0381899, 43.1857632], [18.0381777, 43.1857715], [18.0381664, 43.1857824], [18.038157, 43.1858022], [18.0376974, 43.1857612], [18.0369189, 43.1856942], [18.0360635, 43.1856224], [18.0233062, 43.1845292], [18.0231709, 43.1844924], [18.0228977, 43.1844044], [18.0225077, 43.1842835], [18.0221999, 43.1841984], [18.0218736, 43.1841278], [18.0217648, 43.184121], [18.0215566, 43.1841413], [18.0213443, 43.1841584], [18.0212541, 43.1841545], [18.0211639, 43.1841429], [18.0210737, 43.1841236], [18.0209995, 43.1840849], [18.0209252, 43.1840501], [18.0208509, 43.1840114], [18.0207713, 43.1839727], [18.0206864, 43.1839495], [18.0205909, 43.1839379], [18.0205007, 43.1839263], [18.0204105, 43.1839108], [18.0203203, 43.1838876], [18.020246, 43.183845], [18.0201876, 43.1837947], [18.0201399, 43.1837444], [18.0200974, 43.1836864], [18.0200603, 43.1836245], [18.0200125, 43.1835703], [18.0199701, 43.1835123], [18.0198958, 43.1833962], [18.019864, 43.1833343], [18.0197897, 43.1832105], [18.0197154, 43.1830945], [18.0196836, 43.1830287], [18.0196464, 43.1829706], [18.0196199, 43.1829087], [18.0195881, 43.1828468], [18.0195562, 43.1827888], [18.0195244, 43.1827269], [18.019473, 43.1825913], [18.0194111, 43.182419], [18.0193492, 43.1822904], [18.0192986, 43.1822576], [18.0192498, 43.1822206], [18.019124, 43.1821519], [18.0190259, 43.1821065], [18.0189556, 43.1820649], [18.0188892, 43.1820368], [18.0188455, 43.1820073], [18.0188362, 43.182002], [18.0188116, 43.1819846], [18.0188024, 43.1819793], [18.0187891, 43.1819662], [18.0187825, 43.1819599], [18.0187692, 43.1819464], [18.0187639, 43.1819396], [18.0187579, 43.1819329], [18.018752, 43.1819251], [18.0187466, 43.1819169], [18.018742, 43.1819096], [18.0187367, 43.1819024], [18.0187321, 43.1818951], [18.0187281, 43.1818859], [18.0187248, 43.1818772], [18.0187208, 43.18187], [18.0187161, 43.1818622], [18.0187102, 43.181855], [18.0187009, 43.1818501], [18.0186903, 43.1818477], [18.0186783, 43.1818477], [18.0186677, 43.1818511], [18.0186571, 43.1818661], [18.0186531, 43.1818748], [18.0186405, 43.181898], [18.0186339, 43.1819053], [18.0186173, 43.1819193], [18.0185711, 43.1819489], [18.0185498, 43.1819566], [18.0185286, 43.1819653], [18.0185074, 43.1819741], [18.0184875, 43.1819808], [18.0184411, 43.1819953], [18.0184185, 43.1820011], [18.0183973, 43.1820069], [18.0183747, 43.1820098], [18.0183522, 43.1820118], [18.0183296, 43.1820118], [18.0183058, 43.1820089], [18.0182832, 43.1820021], [18.018258, 43.1819992], [18.0182355, 43.1820021], [18.0182169, 43.1820127], [18.0182049, 43.1820273], [18.0181943, 43.1820418], [18.0181718, 43.1820447], [18.0181479, 43.1820418], [18.018128, 43.1820302], [18.0181094, 43.1820205], [18.0180882, 43.1820147], [18.0180643, 43.1820118], [18.0180431, 43.182006], [18.0180245, 43.1819982], [18.0180086, 43.1819857], [18.017994, 43.1819721], [18.0179768, 43.1819595], [18.0179556, 43.1819508], [18.017933, 43.181946], [18.0179105, 43.1819479], [18.0178906, 43.1819586], [18.01788, 43.1819741], [18.0178747, 43.1819915], [18.017868, 43.1820089], [18.0178614, 43.1820263], [18.0178494, 43.1820427], [18.0178362, 43.1820572], [18.0178203, 43.1820708], [18.0178017, 43.1820805], [18.0177805, 43.1820911], [18.0177579, 43.1820998], [18.0177367, 43.1821066], [18.0177168, 43.1821143], [18.0176916, 43.182123], [18.0176704, 43.1821308], [18.0176478, 43.1821404], [18.0176266, 43.1821482], [18.0176054, 43.1821549], [18.0175841, 43.1821617], [18.0175603, 43.1821665], [18.0175377, 43.1821665], [18.0175125, 43.1821636], [18.0174873, 43.1821569], [18.0174687, 43.1821491], [18.0174316, 43.1821269], [18.0174144, 43.1821162], [18.0173984, 43.1821046], [18.0173825, 43.1820921], [18.0173666, 43.1820805], [18.017352, 43.1820679], [18.0173414, 43.1820524], [18.0173334, 43.1820369], [18.0173255, 43.1820224], [18.0173202, 43.1820069], [18.0173149, 43.1819905], [18.0173096, 43.1819731], [18.0173056, 43.1819566], [18.0173029, 43.1819402], [18.0173016, 43.1819228], [18.0173003, 43.1819054], [18.017299, 43.1818889], [18.017295, 43.1818715], [18.0172897, 43.1818551], [18.017283, 43.1818386], [18.0172764, 43.1818232], [18.0172698, 43.1818087], [18.0172605, 43.1817903], [18.0172512, 43.1817738], [18.0172419, 43.1817574], [18.0172313, 43.1817419], [18.0172167, 43.1817148], [18.0172087, 43.1816984], [18.0171955, 43.1816655], [18.0171902, 43.1816326], [18.0171902, 43.1816007], [18.0171942, 43.1815852], [18.0172021, 43.1815697], [18.0172101, 43.1815552], [18.0172194, 43.1815407], [18.017222, 43.1815252], [18.017222, 43.1815088], [18.0172154, 43.1814924], [18.0172008, 43.1814788], [18.0171796, 43.1814691], [18.0171557, 43.1814682], [18.0171331, 43.181472], [18.0171132, 43.1814807], [18.0170933, 43.1814924], [18.0170628, 43.1815185], [18.0170443, 43.181532], [18.0170244, 43.1815398], [18.0170005, 43.1815436], [18.0169779, 43.1815456], [18.0169541, 43.1815446], [18.0169315, 43.1815407], [18.016909, 43.1815359], [18.0168904, 43.1815272], [18.0168546, 43.1815049], [18.0168426, 43.1814904], [18.0168267, 43.1814769], [18.0167936, 43.1814537], [18.016775, 43.181443], [18.0167564, 43.1814324], [18.0167339, 43.1814256], [18.016714, 43.1814169], [18.0166967, 43.1814053], [18.0166795, 43.1813927], [18.0166662, 43.1813792], [18.0166384, 43.1813531], [18.0166238, 43.1813405], [18.0166052, 43.1813308], [18.016584, 43.181326], [18.0165601, 43.1813241], [18.0165362, 43.181325], [18.0165137, 43.1813337], [18.0164964, 43.1813453], [18.0164805, 43.1813589], [18.0164659, 43.1813724], [18.01645, 43.1813869], [18.0164354, 43.1814014], [18.0164221, 43.181415], [18.0164022, 43.1814256], [18.0163797, 43.1814334], [18.0163585, 43.1814382], [18.0163359, 43.181443], [18.0163134, 43.1814459], [18.0162908, 43.1814498], [18.0162669, 43.1814508], [18.0162417, 43.1814546], [18.0162125, 43.1814595], [18.01619, 43.1814643], [18.0161449, 43.1814759], [18.0161237, 43.1814827], [18.0161011, 43.1814875], [18.0160759, 43.1814895], [18.0160534, 43.1814895], [18.0160255, 43.1814885], [18.015999, 43.1814856], [18.0159738, 43.1814837], [18.0159499, 43.1814827], [18.0159181, 43.1814778], [18.0158942, 43.181473], [18.0158199, 43.1814566], [18.0157987, 43.1814508], [18.0157801, 43.181443], [18.0157562, 43.1814343], [18.0157297, 43.1814256], [18.0157058, 43.1814179], [18.0156846, 43.1814111], [18.0156634, 43.1814043], [18.0156408, 43.1813976], [18.0156196, 43.1813908], [18.0155957, 43.1813831], [18.0155453, 43.1813695], [18.0155228, 43.1813627], [18.0154949, 43.1813569], [18.0154724, 43.1813511], [18.0154498, 43.1813444], [18.0154074, 43.1813347], [18.0153835, 43.181326], [18.0153609, 43.1813192], [18.0153371, 43.1813115], [18.0153145, 43.1813037], [18.015292, 43.181295], [18.0152734, 43.1812863], [18.0152522, 43.1812776], [18.0152309, 43.1812699], [18.015211, 43.1812621], [18.0151911, 43.1812534], [18.015146, 43.181236], [18.0151248, 43.1812293], [18.0151049, 43.1812235], [18.0150651, 43.1812099], [18.0150452, 43.1812012], [18.015024, 43.1811935], [18.0150028, 43.1811867], [18.0149816, 43.181179], [18.0149365, 43.1811635], [18.0149139, 43.1811567], [18.0148927, 43.1811509], [18.0148728, 43.1811451], [18.0148489, 43.1811393], [18.0148264, 43.1811335], [18.0148038, 43.1811267], [18.0147839, 43.1811161], [18.01476, 43.181089], [18.0147494, 43.1810745], [18.0147415, 43.1810571], [18.0147362, 43.1810416], [18.0147322, 43.1810223], [18.0147269, 43.1810049], [18.0147216, 43.1809884], [18.0147136, 43.1809729], [18.014699, 43.1809575], [18.0146844, 43.1809449], [18.0146659, 43.1809352], [18.014646, 43.1809284], [18.0146194, 43.1809226], [18.0145969, 43.1809197], [18.0145703, 43.1809178], [18.0145451, 43.1809139], [18.0145213, 43.1809062], [18.0145, 43.1808984], [18.0144735, 43.1808965], [18.014451, 43.1809023], [18.0144284, 43.1809052], [18.0144045, 43.1809043], [18.0143833, 43.1808936], [18.0143674, 43.180882], [18.0143475, 43.1808723], [18.0143249, 43.1808733], [18.0143037, 43.1808801], [18.0142812, 43.1808868], [18.0142613, 43.1808955], [18.01424, 43.1809052], [18.0142175, 43.180912], [18.0141949, 43.1809168], [18.0141711, 43.1809188], [18.0141512, 43.1809265], [18.0141379, 43.180941], [18.014122, 43.1809565], [18.0141061, 43.180971], [18.0140848, 43.1809836], [18.014061, 43.1809884], [18.0140371, 43.1809903], [18.0140132, 43.1809903], [18.0139774, 43.1809855], [18.0139522, 43.1809797], [18.013931, 43.180972], [18.0139137, 43.1809613], [18.0138978, 43.1809468], [18.0138859, 43.1809323], [18.0138753, 43.1809178], [18.0138607, 43.1809062], [18.0138394, 43.1808984], [18.0138156, 43.1808965], [18.0137917, 43.1809014], [18.0137771, 43.1809159], [18.0137705, 43.1809333], [18.0137585, 43.1809468], [18.0137373, 43.1809565], [18.0137121, 43.1809623], [18.0136895, 43.1809623], [18.013667, 43.1809584], [18.0136272, 43.1809391], [18.01361, 43.1809275], [18.013598, 43.1809149], [18.0135861, 43.1809014], [18.0135635, 43.1808955], [18.0135423, 43.1809033], [18.013529, 43.1809178], [18.0135171, 43.1809342], [18.0134932, 43.180942], [18.0134707, 43.1809429], [18.0134415, 43.180942], [18.0134163, 43.18094], [18.0133924, 43.1809362], [18.0133712, 43.1809313], [18.0133287, 43.180912], [18.0133102, 43.1808994], [18.0132969, 43.1808859], [18.013285, 43.1808723], [18.0132757, 43.1808588], [18.0132677, 43.1808433], [18.0132571, 43.1808269], [18.0132465, 43.1808124], [18.0132332, 43.1807988], [18.0132186, 43.1807862], [18.0132001, 43.1807766], [18.0131656, 43.1807688], [18.013147, 43.1807582], [18.0131284, 43.1807495], [18.0131112, 43.1807388], [18.01309, 43.1807243], [18.0130741, 43.1807118], [18.0130581, 43.1806992], [18.0130396, 43.1806876], [18.013021, 43.1806789], [18.0129998, 43.1806731], [18.0129759, 43.1806682], [18.0129533, 43.1806682], [18.0129308, 43.180674], [18.0129135, 43.1806856], [18.012895, 43.1806953], [18.0128751, 43.180704], [18.0128525, 43.1807069], [18.0128287, 43.1807031], [18.0128101, 43.1806934], [18.0127915, 43.1806856], [18.0127663, 43.1806827], [18.0127424, 43.1806827], [18.0127186, 43.1806847], [18.012692, 43.1806856], [18.0126695, 43.1806856], [18.0126482, 43.1806818], [18.012627, 43.180675], [18.0126098, 43.1806634], [18.0125766, 43.1806373], [18.0125647, 43.1806237], [18.0125527, 43.1806102], [18.0125461, 43.1805938], [18.0125328, 43.1805792], [18.0125143, 43.1805686], [18.0124957, 43.1805589], [18.0124758, 43.1805502], [18.0124533, 43.1805396], [18.0124334, 43.1805309], [18.0124121, 43.1805135], [18.0124068, 43.180497], [18.0124002, 43.1804806], [18.0123949, 43.1804651], [18.0123883, 43.1804496], [18.0123803, 43.1804351], [18.0123684, 43.1804177], [18.0123564, 43.1804042], [18.0123405, 43.1803897], [18.0123246, 43.1803771], [18.012306, 43.1803674], [18.0122835, 43.1803568], [18.0122636, 43.1803471], [18.0122463, 43.1803345], [18.0122304, 43.1803219], [18.0122185, 43.1803074], [18.0122105, 43.180291], [18.0122132, 43.1802755], [18.0121243, 43.1802987], [18.0121004, 43.1802987], [18.0120765, 43.1802958], [18.0120553, 43.180291], [18.0120341, 43.1802833], [18.0119969, 43.1802668], [18.0119744, 43.1802639], [18.0119479, 43.1802649], [18.0119253, 43.1802697], [18.0119028, 43.1802765], [18.0118815, 43.1802813], [18.011859, 43.1802823], [18.0118351, 43.1802813], [18.0118099, 43.1802765], [18.0117873, 43.1802784], [18.0117688, 43.18029], [18.0117568, 43.1803055], [18.0117476, 43.180321], [18.0117369, 43.1803374], [18.011717, 43.1803452], [18.0116892, 43.1803471], [18.011668, 43.1803413], [18.0116481, 43.1803316], [18.0116321, 43.18032], [18.0116229, 43.1803065], [18.0116109, 43.1802929], [18.011599, 43.1802784], [18.0115897, 43.1802639], [18.0115804, 43.1802455], [18.0115711, 43.1802301], [18.0115618, 43.1802136], [18.0115512, 43.1801962], [18.0115406, 43.1801798], [18.01153, 43.1801652], [18.0115008, 43.1801343], [18.0114823, 43.1801217], [18.011465, 43.1801091], [18.0114451, 43.1801004], [18.0114239, 43.1800937], [18.011404, 43.1800859], [18.0113416, 43.1800821], [18.0113191, 43.1800772], [18.0112952, 43.1800743], [18.0112713, 43.1800695], [18.0112501, 43.1800646], [18.0112289, 43.1800598], [18.0111838, 43.1800521], [18.0111599, 43.1800482], [18.0111374, 43.1800453], [18.0111122, 43.1800443], [18.011087, 43.1800443], [18.0110631, 43.1800482], [18.0110153, 43.180053], [18.0109915, 43.1800569], [18.0109676, 43.1800608], [18.010945, 43.1800656], [18.0109185, 43.1800714], [18.0108906, 43.1800772], [18.0108694, 43.1800821], [18.0108203, 43.1800927], [18.0107766, 43.1801033], [18.0107527, 43.1801101], [18.0107301, 43.1801149], [18.0107023, 43.1801217], [18.010681, 43.1801266], [18.0106572, 43.1801324], [18.0106346, 43.1801382], [18.0106107, 43.1801469], [18.0105882, 43.1801556], [18.0105683, 43.1801652], [18.0105444, 43.1801778], [18.0105219, 43.1801894], [18.0105006, 43.1801991], [18.0104807, 43.1802097], [18.0104622, 43.1802204], [18.010441, 43.1802301], [18.0104184, 43.1802378], [18.0103959, 43.1802426], [18.0103733, 43.1802455], [18.0103454, 43.1802436], [18.0103229, 43.1802368], [18.010299, 43.180232], [18.0102685, 43.180232], [18.010246, 43.1802349], [18.0102247, 43.1802417], [18.0102022, 43.1802455], [18.0101796, 43.1802513], [18.0101558, 43.1802523], [18.0100563, 43.1802533], [18.0100271, 43.1802484], [18.0100019, 43.1802446], [18.0099793, 43.1802388], [18.0099581, 43.1802301], [18.0099382, 43.1802223], [18.009917, 43.1802155], [18.0098944, 43.1802097], [18.0098414, 43.1802078], [18.0098162, 43.1802088], [18.0097883, 43.1802107], [18.0097631, 43.1802126], [18.0097379, 43.1802136], [18.009714, 43.1802097], [18.0096915, 43.1802039], [18.0096663, 43.1801991], [18.0096424, 43.1801981], [18.0096159, 43.1802001], [18.0095933, 43.1802068], [18.0095721, 43.1802146], [18.0095495, 43.1802223], [18.0095018, 43.1802252], [18.0094302, 43.1802252], [18.0094023, 43.1802204], [18.0093811, 43.1802165], [18.0093585, 43.1802107], [18.0093347, 43.1802039], [18.0093095, 43.1801981], [18.0092856, 43.1801952], [18.009263, 43.1801933], [18.0092405, 43.1801923], [18.0092166, 43.1801894], [18.0091901, 43.1801807], [18.0091715, 43.1801682], [18.0091543, 43.1801565], [18.0091344, 43.1801488], [18.0091118, 43.180143], [18.0090879, 43.180142], [18.0090601, 43.1801411], [18.0090349, 43.180144], [18.0090136, 43.1801498], [18.0089911, 43.1801517], [18.0089685, 43.1801517], [18.0089447, 43.1801478], [18.0089221, 43.1801469], [18.0088996, 43.1801517], [18.0088797, 43.1801633], [18.0088611, 43.180174], [18.0088452, 43.1801875], [18.0088253, 43.180201], [18.0087868, 43.1802252], [18.0087669, 43.1802359], [18.008747, 43.1802475], [18.0087271, 43.1802581], [18.0087085, 43.1802707], [18.0086886, 43.1802842], [18.0086688, 43.1802949], [18.0086515, 43.1803065], [18.0086343, 43.1803181], [18.0086157, 43.1803297], [18.0085958, 43.1803394], [18.0084313, 43.1804071], [18.0082575, 43.1805144], [18.0081315, 43.180617], [18.0080121, 43.1806905], [18.0078516, 43.1807476], [18.0078331, 43.1807572], [18.0077561, 43.1808056], [18.0075585, 43.1808849], [18.0074829, 43.1809207], [18.0074059, 43.1809478], [18.007317, 43.1809662], [18.007199, 43.1810136], [18.007012, 43.1810648], [18.0069536, 43.1810803], [18.0068912, 43.1811161], [18.0068382, 43.1811383], [18.0067904, 43.1811722], [18.006752, 43.1812534], [18.0066949, 43.1813047], [18.0066817, 43.1813511], [18.0065888, 43.1814401], [18.0065026, 43.1815813], [18.0063912, 43.1816471], [18.006354, 43.1816732], [18.0060303, 43.1818145], [18.0056748, 43.1819663], [18.0055992, 43.1820234], [18.0055541, 43.1821008], [18.0055448, 43.1821975], [18.0055249, 43.1823058], [18.0054639, 43.1824277], [18.0054122, 43.1826192], [18.0053618, 43.182773], [18.005318, 43.1828465], [18.0052769, 43.1829017], [18.0052185, 43.1830496], [18.0050792, 43.1832315], [18.004997, 43.1833021], [18.0049134, 43.1833756], [18.0048011, 43.1834525], [18.0045093, 43.1836278], [18.0044761, 43.183718], [18.0044254, 43.1838363], [18.0043328, 43.1840296], [18.0042102, 43.1841231], [18.0040963, 43.1841846], [18.0040793, 43.1842166], [18.0041089, 43.184333], [18.0041797, 43.1844886], [18.0047435, 43.1851519], [18.0050704, 43.1856226], [18.0057604, 43.1865437], [18.005872, 43.1868804], [18.0060699, 43.1872947], [18.0061713, 43.1874685], [18.006151, 43.1876239], [18.0061663, 43.1878717], [18.0061815, 43.1880752], [18.0062525, 43.1881898], [18.0063388, 43.1882934], [18.0062931, 43.1885338], [18.0060597, 43.1891812], [18.005938, 43.1894475], [18.0058416, 43.1896435], [18.0048421, 43.1896546], [18.0041217, 43.189614], [18.0032237, 43.1896509], [18.0030005, 43.189699], [18.0027164, 43.1897508], [18.0021786, 43.1898803], [18.0016814, 43.1900652], [18.0009204, 43.190387], [18.000545, 43.1905979], [18.0003065, 43.1906829], [18.0000681, 43.1907754], [17.9989519, 43.1912156], [17.9985055, 43.1914079], [17.9982569, 43.1915633], [17.9975821, 43.1919295], [17.997019, 43.1922513], [17.9966283, 43.1924325], [17.9963848, 43.1924362], [17.9953397, 43.1927173], [17.9950657, 43.1928357], [17.9949034, 43.1928911], [17.9944924, 43.1931612], [17.9929146, 43.1940636], [17.9932545, 43.1943078], [17.9928842, 43.1944631], [17.9923921, 43.1946369], [17.9920116, 43.1948404], [17.991697, 43.194992], [17.9913571, 43.1950105], [17.9910375, 43.1950068], [17.9910019, 43.1949624], [17.9908142, 43.1950253], [17.9907026, 43.1950364], [17.9905301, 43.1950327], [17.9904033, 43.1949994], [17.9902359, 43.1949254], [17.9900583, 43.1948884], [17.9898858, 43.1948626], [17.9897793, 43.1948663], [17.9896575, 43.1948958], [17.9895611, 43.1949254], [17.9893277, 43.1949624], [17.9892009, 43.1949661], [17.9889929, 43.1949661], [17.9888914, 43.1949587], [17.9888001, 43.1948663], [17.9886327, 43.1948589], [17.9885129, 43.1946227], [17.9882187, 43.1942095], [17.9878994, 43.1939009], [17.9875981, 43.1935138], [17.9875227, 43.1934118], [17.9874904, 43.1933255], [17.9874797, 43.1932261], [17.987451, 43.193132], [17.987433, 43.1930169], [17.9873326, 43.192792], [17.9871783, 43.192635], [17.986981, 43.1925487], [17.9868375, 43.192452], [17.9866617, 43.1923212], [17.98659, 43.1922296], [17.9864896, 43.1921093], [17.9863532, 43.1917432], [17.9862887, 43.1915967], [17.9862743, 43.1914555], [17.9862815, 43.1913038], [17.9863281, 43.1911965], [17.9859909, 43.190799], [17.9854384, 43.1901869], [17.9852555, 43.19003], [17.984825, 43.1894703], [17.9846815, 43.1892166], [17.9845775, 43.1890936], [17.9844878, 43.1889786], [17.984373, 43.1888687], [17.9842654, 43.1887458], [17.9841362, 43.1886699], [17.9834367, 43.1883011], [17.982877, 43.1879663], [17.9825864, 43.1877518], [17.9822672, 43.1873961], [17.9816214, 43.1869201], [17.9809613, 43.186376], [17.980556, 43.1862609], [17.9804304, 43.1862478], [17.9802654, 43.1861877], [17.9798098, 43.1860987], [17.9791031, 43.1858999], [17.9788555, 43.1857979], [17.9786367, 43.1856828], [17.978504, 43.1855808], [17.9783533, 43.1854605], [17.9782528, 43.1853637], [17.978138, 43.1852591], [17.9779407, 43.1850629], [17.9777972, 43.185008], [17.9776215, 43.1849975], [17.9774564, 43.1850053], [17.9772663, 43.1850289], [17.9770977, 43.1850786], [17.9768502, 43.1851701], [17.9748017, 43.1859732], [17.9721184, 43.1867422], [17.9713686, 43.1869907], [17.9709668, 43.1870665], [17.9706655, 43.1870535], [17.9697794, 43.1873412], [17.9693202, 43.1875138], [17.9686565, 43.1877911], [17.967957, 43.1880971], [17.9666045, 43.1886307], [17.9664323, 43.1887824], [17.9659516, 43.1889759], [17.964922, 43.189295], [17.9644987, 43.1894651], [17.9640144, 43.1897031], [17.9636772, 43.1897188], [17.9632, 43.1900248], [17.9630996, 43.1901216], [17.962913, 43.1902628], [17.9627875, 43.1905897], [17.9624969, 43.1907205], [17.9623426, 43.1908199], [17.9622888, 43.1908748], [17.9615462, 43.1910945], [17.9613489, 43.1911207], [17.9612126, 43.1911782], [17.9609687, 43.1911782], [17.9605346, 43.1913378], [17.9602619, 43.1914842], [17.9593759, 43.1917432], [17.9589525, 43.1918792], [17.9582709, 43.191989], [17.9580485, 43.192125], [17.9577472, 43.1922375], [17.9576108, 43.1924284], [17.9575965, 43.1925409], [17.9571768, 43.1927606], [17.9570046, 43.1929384], [17.9568503, 43.193043], [17.9565884, 43.193132], [17.9563158, 43.1931947], [17.9560575, 43.1932967], [17.9559427, 43.1933726], [17.9558387, 43.1934798], [17.9557813, 43.1935897], [17.9555122, 43.1935714], [17.9552862, 43.1936524], [17.9546692, 43.1935426], [17.9542207, 43.193281], [17.9534566, 43.1935609], [17.9532808, 43.1935975], [17.9530441, 43.1936237], [17.9526853, 43.1937047], [17.9524055, 43.1938067], [17.9522692, 43.1938643], [17.9520647, 43.1939375], [17.9512396, 43.1941467], [17.9507445, 43.194301], [17.9505616, 43.1943481], [17.9503894, 43.1943586], [17.9500916, 43.1943141], [17.9498692, 43.194288], [17.9497903, 43.1942827], [17.9496396, 43.1942827], [17.9491661, 43.1941467], [17.9486638, 43.1938904], [17.9485167, 43.1938355], [17.9480827, 43.1934877], [17.9475948, 43.1930718], [17.9471392, 43.1926586], [17.9469526, 43.1923996], [17.9467733, 43.1922532], [17.9465437, 43.1921015], [17.9463786, 43.191989], [17.9459194, 43.1917353], [17.9457042, 43.1917039], [17.9454495, 43.1916909], [17.9452881, 43.1916621], [17.9451589, 43.1916255], [17.9450513, 43.1915418], [17.9450334, 43.1914816], [17.9450226, 43.191445], [17.9442621, 43.1912828], [17.9436127, 43.1911285], [17.9434477, 43.1910501], [17.9431033, 43.1909925], [17.9428056, 43.1908016], [17.9425688, 43.1906525], [17.9423213, 43.190608], [17.9421778, 43.1906185], [17.9418621, 43.1907074], [17.9416289, 43.1907885], [17.9413096, 43.1908617], [17.9410621, 43.1908984], [17.9408146, 43.1909271], [17.9405132, 43.1909716], [17.9402872, 43.1909481], [17.9401401, 43.1909611], [17.9400827, 43.1909821], [17.939993, 43.1910056], [17.9398137, 43.1909271], [17.9394944, 43.1907807], [17.9392971, 43.1906577], [17.9391285, 43.1905008], [17.9389383, 43.1903648], [17.938698, 43.1902236], [17.9385724, 43.1901111], [17.9384684, 43.1900039], [17.9382782, 43.1898129], [17.9382029, 43.1897135], [17.9372235, 43.1892846], [17.9366065, 43.1890832], [17.9360505, 43.1888112], [17.9358567, 43.1886987], [17.9354334, 43.1885758], [17.9346191, 43.1883874], [17.9341599, 43.1882357], [17.9339124, 43.1881102], [17.9337007, 43.1883377], [17.9335608, 43.1884424], [17.9333568, 43.188495], [17.9333098, 43.1885592], [17.9330987, 43.1886212], [17.9328388, 43.1887647], [17.9325385, 43.1889967], [17.9321843, 43.1892455], [17.9317459, 43.187457], [17.9312459, 43.1850749], [17.9304118, 43.1811231], [17.9288121, 43.1735516]]]}}]}