{"type": "FeatureCollection", "features": [{"type": "Feature", "properties": {"name": "Grad Bihać, Unsko-sanski kanton, Federacija Bosne i Hercegovine, Bosna i Hercegovina / Босна и Херцеговина", "source": "OpenStreetMap relation 2528159", "licence": "ODbL 1.0"}, "geometry": {"type": "Polygon", "coordinates": [[[15.7286823, 44.8254901], [15.7310452, 44.8226914], [15.7334173, 44.8199678], [15.7370402, 44.8158207], [15.7427583, 44.8092328], [15.7400595, 44.8002609], [15.7452192, 44.7964239], [15.7467551, 44.7954137], [15.7476764, 44.7945176], [15.7483869, 44.7938254], [15.7486286, 44.793594], [15.7489469, 44.7932941], [15.7501395, 44.7920635], [15.7524882, 44.7895417], [15.7538859, 44.7879673], [15.7557089, 44.7861052], [15.7560868, 44.785732], [15.7559851, 44.7853501], [15.7560201, 44.7851622], [15.7562204, 44.7848731], [15.7566217, 44.7845015], [15.7568091, 44.7843089], [15.757286, 44.7838928], [15.7575285, 44.78362], [15.7580541, 44.7831154], [15.7587393, 44.7824906], [15.7595834, 44.7819383], [15.7600553, 44.7815152], [15.7611525, 44.7810949], [15.7617321, 44.7805979], [15.7618968, 44.7801495], [15.7620666, 44.779735], [15.7621447, 44.7791588], [15.7617533, 44.7781755], [15.7618078, 44.7773264], [15.7627078, 44.7768123], [15.7631129, 44.7764945], [15.7633763, 44.7761988], [15.7638524, 44.7758279], [15.7645883, 44.7754618], [15.7655295, 44.7749327], [15.7678077, 44.7732145], [15.768427, 44.7726925], [15.7688086, 44.7722501], [15.7690805, 44.7722256], [15.7693336, 44.7721109], [15.7695218, 44.7719279], [15.7698893, 44.7712413], [15.7702167, 44.7709476], [15.7703141, 44.7707355], [15.7703223, 44.7704752], [15.7705031, 44.7703267], [15.7704683, 44.770127], [15.7705587, 44.7696764], [15.770912, 44.7682958], [15.7709279, 44.7669942], [15.7712835, 44.765826], [15.7719718, 44.7650842], [15.7722814, 44.7647125], [15.7723494, 44.7645898], [15.7724271, 44.764488], [15.7732139, 44.763458], [15.7751277, 44.761603], [15.7779138, 44.7583821], [15.7790639, 44.7571276], [15.7812622, 44.7543268], [15.7815438, 44.7499127], [15.7886295, 44.7458663], [15.8022239, 44.7433692], [15.8061148, 44.7397106], [15.8100849, 44.7392135], [15.8124991, 44.737252], [15.814394, 44.734763], [15.8151332, 44.732624], [15.8145563, 44.7290248], [15.8219921, 44.7215209], [15.8239091, 44.720428], [15.8244273, 44.7202404], [15.8252241, 44.720023], [15.8311158, 44.7181576], [15.8318566, 44.7158397], [15.8350734, 44.7140572], [15.8424303, 44.7231707], [15.8473704, 44.7271418], [15.8493177, 44.7299854], [15.8492942, 44.7321514], [15.8493357, 44.7335078], [15.8528695, 44.7362743], [15.8602437, 44.7358644], [15.8614999, 44.734946], [15.8641191, 44.7338699], [15.8651482, 44.7333343], [15.86559, 44.732512], [15.8648441, 44.7331799], [15.8632598, 44.7333522], [15.8631103, 44.7331179], [15.8644277, 44.7329607], [15.8647379, 44.7327166], [15.8648778, 44.7324708], [15.8641777, 44.7311739], [15.864153, 44.7301423], [15.8651218, 44.7290796], [15.8660907, 44.7288999], [15.8726121, 44.7268856], [15.8739824, 44.728269], [15.8729727, 44.7295756], [15.8734415, 44.7307796], [15.8753526, 44.7287558], [15.8791389, 44.728269], [15.8808336, 44.7290888], [15.8815188, 44.7327521], [15.8841872, 44.7345452], [15.8837905, 44.7439455], [15.8886136, 44.7444129], [15.8892897, 44.7473773], [15.8904346, 44.7473037], [15.8942097, 44.7492702], [15.8944723, 44.7494161], [15.8945498, 44.7489293], [15.8946161, 44.7486823], [15.8949616, 44.7482398], [15.8962491, 44.7466346], [15.8978358, 44.7459816], [15.9001616, 44.7461736], [15.9009836, 44.7458378], [15.90206, 44.7457628], [15.9022876, 44.7456939], [15.9024444, 44.7455374], [15.9017273, 44.7439261], [15.901266, 44.7416552], [15.9014159, 44.7414537], [15.9032632, 44.7405604], [15.9034833, 44.740478], [15.9037544, 44.7403503], [15.9041545, 44.7387218], [15.904504, 44.7377828], [15.9055825, 44.7371191], [15.9072406, 44.7363595], [15.9107395, 44.7342081], [15.9122871, 44.7331807], [15.9131433, 44.7316977], [15.9138133, 44.7310593], [15.9132423, 44.7305593], [15.9147341, 44.7288613], [15.9156958, 44.7281709], [15.9161804, 44.7265552], [15.9187928, 44.7255499], [15.9185992, 44.7248634], [15.918882, 44.7243285], [15.9196143, 44.7237226], [15.9220232, 44.7205256], [15.9263408, 44.7176748], [15.9275834, 44.7144205], [15.927883, 44.7137275], [15.9279862, 44.713548], [15.9280118, 44.7133262], [15.9280799, 44.7132389], [15.9297015, 44.7096792], [15.9312175, 44.7080781], [15.9326409, 44.7074686], [15.937379, 44.7107449], [15.9453189, 44.7110084], [15.9464972, 44.7109081], [15.9469201, 44.7108854], [15.9472636, 44.7108997], [15.9476234, 44.7109618], [15.9478982, 44.7111182], [15.9474827, 44.7114571], [15.948039, 44.7115237], [15.9527164, 44.7115371], [15.9535106, 44.7114865], [15.9543771, 44.7112565], [15.954865, 44.7110563], [15.9554115, 44.7106527], [15.955645, 44.7103278], [15.9557197, 44.7100028], [15.9556561, 44.7084684], [15.9559303, 44.707901], [15.9563348, 44.7073499], [15.9565926, 44.7055866], [15.9565778, 44.7049066], [15.9564276, 44.7042587], [15.9561108, 44.7033029], [15.9556428, 44.7028057], [15.9536261, 44.7022466], [15.9531811, 44.7019495], [15.9528039, 44.7014036], [15.9527612, 44.7008527], [15.9532843, 44.6995876], [15.9539565, 44.6984099], [15.9558769, 44.6965979], [15.9568549, 44.6956728], [15.9576166, 44.6946697], [15.9589349, 44.6927491], [15.9592123, 44.6925173], [15.9626585, 44.6922789], [15.9639385, 44.6920353], [15.9645698, 44.691811], [15.9652417, 44.6914051], [15.9656203, 44.6910333], [15.9658708, 44.6906379], [15.9659897, 44.6902142], [15.9659472, 44.6885818], [15.9660503, 44.6876493], [15.9667201, 44.686326], [15.9677985, 44.6847257], [15.9682, 44.6838277], [15.9684713, 44.6829435], [15.9685385, 44.6820406], [15.9680457, 44.680725], [15.9677042, 44.6791825], [15.9677798, 44.6786169], [15.9680209, 44.6782243], [15.9698483, 44.6765528], [15.97151, 44.6749989], [15.9719122, 44.6744088], [15.9722223, 44.6737698], [15.9732891, 44.6728134], [15.9738275, 44.6725653], [15.9744984, 44.6722059], [15.9764248, 44.6707586], [15.9764682, 44.670726], [15.9771314, 44.6704052], [15.9778132, 44.6701926], [15.9789185, 44.6699479], [15.9800029, 44.6698259], [15.9812794, 44.6699128], [15.9825411, 44.6698471], [15.9834943, 44.6695969], [15.9838437, 44.6695052], [15.9857133, 44.6687387], [15.9865901, 44.6684481], [15.987081, 44.6682288], [15.9875076, 44.6679696], [15.9878312, 44.6676971], [15.9880266, 44.6674217], [15.9883509, 44.6669541], [15.9889699, 44.6664918], [15.9901208, 44.6658581], [15.9904392, 44.6656888], [15.9907742, 44.6654682], [15.9913031, 44.6650875], [15.992322, 44.6646151], [15.9930714, 44.6640425], [15.9934989, 44.6635021], [15.9937977, 44.6629812], [15.9939497, 44.6623398], [15.9940654, 44.6618398], [15.9950677, 44.6612875], [15.996082, 44.6603276], [15.9965986, 44.6599561], [15.9970429, 44.6597698], [15.9984898, 44.659675], [16.0006025, 44.6590622], [16.0021869, 44.658347], [16.0032655, 44.6581336], [16.0043131, 44.6576295], [16.0058202, 44.6574059], [16.0069816, 44.6571723], [16.007756, 44.6568483], [16.0081611, 44.6566344], [16.0092102, 44.6563369], [16.0102688, 44.6559785], [16.0111731, 44.6553696], [16.0121197, 44.6545805], [16.0125219, 44.6545353], [16.0129659, 44.6544853], [16.0140198, 44.6547314], [16.0167312, 44.655653], [16.0191975, 44.6565733], [16.0205786, 44.6568958], [16.0213769, 44.6569129], [16.0220661, 44.6567914], [16.0260771, 44.6555841], [16.0277949, 44.6553513], [16.0290036, 44.6549367], [16.0303072, 44.6543803], [16.0309121, 44.6540285], [16.031542, 44.6535965], [16.0318508, 44.6529976], [16.0318905, 44.6492409], [16.0320095, 44.6482439], [16.032373, 44.6475773], [16.0334261, 44.6461562], [16.0349493, 44.6442955], [16.0360491, 44.6431535], [16.0390181, 44.6410896], [16.0410968, 44.6382721], [16.0420431, 44.6366327], [16.0425002, 44.6359383], [16.0429851, 44.6333941], [16.0430176, 44.6327361], [16.0428386, 44.6318928], [16.0426125, 44.630828], [16.0427104, 44.6299593], [16.0429169, 44.629425], [16.0441758, 44.6279454], [16.0453842, 44.6268691], [16.0469703, 44.6257373], [16.0483199, 44.6247092], [16.0489446, 44.6245109], [16.0492479, 44.6245127], [16.0495981, 44.6247248], [16.0500296, 44.6253742], [16.0507041, 44.6261153], [16.0508661, 44.6262708], [16.0509807, 44.626335], [16.0513196, 44.6264377], [16.0518166, 44.6264835], [16.0524561, 44.6263762], [16.053546, 44.625971], [16.0545759, 44.6256788], [16.0549068, 44.6253632], [16.0551329, 44.6247772], [16.05519, 44.6243427], [16.0552607, 44.6239666], [16.0552651, 44.6213845], [16.0553206, 44.6198343], [16.0554053, 44.6173063], [16.0555197, 44.6152734], [16.0554192, 44.6146292], [16.0548433, 44.6130301], [16.0547878, 44.6126487], [16.0547927, 44.6122624], [16.0549375, 44.6118917], [16.0552187, 44.611379], [16.055818, 44.6106757], [16.0565515, 44.610025], [16.0577024, 44.609118], [16.0579037, 44.6088572], [16.0580177, 44.6085642], [16.0580042, 44.608233], [16.0576004, 44.6078283], [16.0570656, 44.6073638], [16.0565646, 44.6070142], [16.0563471, 44.6066422], [16.055685, 44.6067063], [16.0555735, 44.6066508], [16.0554533, 44.6064909], [16.0549828, 44.6065954], [16.0550866, 44.6067116], [16.054691, 44.6070009], [16.0544395, 44.60723], [16.054145, 44.6074119], [16.0538477, 44.6074994], [16.053362, 44.6077675], [16.0535983, 44.6079142], [16.0535772, 44.6080718], [16.0530074, 44.6088387], [16.0524758, 44.6094091], [16.0521386, 44.6095469], [16.0517477, 44.6096033], [16.0506629, 44.6095673], [16.049053, 44.6093306], [16.047545, 44.609002], [16.0466627, 44.6087052], [16.0467832, 44.6078013], [16.0470121, 44.6074208], [16.0473884, 44.6068493], [16.0475279, 44.6056058], [16.0483559, 44.6040999], [16.0478228, 44.6029791], [16.0473437, 44.6026259], [16.0469216, 44.6024215], [16.0449436, 44.6014065], [16.044111, 44.6008727], [16.0430964, 44.600545], [16.0431684, 44.5999145], [16.0436014, 44.5991487], [16.0441536, 44.5984596], [16.0447154, 44.598359], [16.0466218, 44.5981419], [16.0479507, 44.5977097], [16.0492768, 44.5971452], [16.0501156, 44.5966761], [16.0507169, 44.5965092], [16.0511016, 44.5963724], [16.0508816, 44.596229], [16.0505476, 44.5961532], [16.0492718, 44.5959475], [16.0482583, 44.5954195], [16.0471118, 44.5946887], [16.0462979, 44.5938385], [16.0453604, 44.5938136], [16.0451667, 44.5933336], [16.0445703, 44.5926767], [16.043803, 44.5920199], [16.0412542, 44.5887667], [16.0405674, 44.5886022], [16.0396964, 44.5882947], [16.0383949, 44.5883198], [16.0367316, 44.5879741], [16.0357136, 44.5878667], [16.0335865, 44.5883453], [16.0328868, 44.5883592], [16.0307535, 44.5882892], [16.0296851, 44.588151], [16.0284022, 44.5885494], [16.0275653, 44.5887464], [16.0260652, 44.5888226], [16.024349, 44.5894857], [16.0238138, 44.5894423], [16.0231464, 44.5893077], [16.0224311, 44.589059], [16.0221017, 44.5887193], [16.0216095, 44.5880086], [16.0208044, 44.5872051], [16.0205137, 44.5870508], [16.0201114, 44.5869903], [16.0195329, 44.5867736], [16.0188308, 44.5864199], [16.0181227, 44.5856552], [16.0174522, 44.5853454], [16.0171444, 44.5847777], [16.0165648, 44.5839805], [16.0164227, 44.5824961], [16.0165321, 44.5818081], [16.0168885, 44.5809576], [16.017357, 44.5796348], [16.0176736, 44.578136], [16.0181266, 44.5761839], [16.0185029, 44.5739941], [16.0187936, 44.5707961], [16.0190115, 44.5699852], [16.0192584, 44.5689842], [16.0194628, 44.5676235], [16.0194773, 44.5661342], [16.0194745, 44.5656381], [16.0191371, 44.5647886], [16.0186097, 44.5627888], [16.0220492, 44.560306], [16.022427, 44.5599633], [16.0231978, 44.5592641], [16.0252845, 44.5582665], [16.0292296, 44.5562285], [16.0359992, 44.5523022], [16.037871, 44.5514065], [16.0386825, 44.5508682], [16.045818, 44.5467643], [16.0476918, 44.5446617], [16.0500813, 44.5428345], [16.0505007, 44.5425131], [16.0532737, 44.5407881], [16.0530522, 44.5405128], [16.0531027, 44.540169], [16.056464, 44.5378202], [16.0688236, 44.5364348], [16.0699639, 44.5367627], [16.0707514, 44.5361332], [16.0730641, 44.5364313], [16.0785357, 44.535805], [16.0793021, 44.5357128], [16.0801919, 44.5353655], [16.0821114, 44.5347146], [16.0836676, 44.5342304], [16.0842594, 44.5337143], [16.0850084, 44.5343088], [16.08715, 44.5338759], [16.0911188, 44.5329799], [16.0919602, 44.5327364], [16.0926723, 44.5324621], [16.0935857, 44.5319606], [16.0946255, 44.5308361], [16.0963665, 44.5301288], [16.0992102, 44.5301432], [16.1004278, 44.5287029], [16.1028346, 44.5279954], [16.1052902, 44.5274406], [16.1061426, 44.5267028], [16.1079037, 44.5255553], [16.109469, 44.5241248], [16.1125462, 44.5225546], [16.1144682, 44.5204291], [16.1154545, 44.5194008], [16.1158992, 44.5184223], [16.1170139, 44.5175207], [16.1178042, 44.5167354], [16.1186138, 44.515677], [16.1196541, 44.5155849], [16.1206401, 44.5142948], [16.1205663, 44.5132034], [16.1220827, 44.5134751], [16.1223082, 44.5128283], [16.1224063, 44.5121354], [16.1226849, 44.5113817], [16.121887, 44.5102135], [16.1203825, 44.507647], [16.1219392, 44.5059459], [16.1221686, 44.5054018], [16.1214234, 44.504559], [16.1220674, 44.5038933], [16.1229355, 44.5018099], [16.1233284, 44.5007998], [16.1233126, 44.5000189], [16.1239087, 44.4998211], [16.1254991, 44.4980236], [16.1255857, 44.4976945], [16.125905, 44.4974008], [16.1262368, 44.4972716], [16.1265646, 44.4970132], [16.1267116, 44.4969927], [16.127083, 44.4966779], [16.1274699, 44.4962008], [16.1276883, 44.4956941], [16.1277907, 44.4951996], [16.1278693, 44.4951516], [16.1282542, 44.4950678], [16.1288393, 44.4948456], [16.1291835, 44.4945975], [16.1301268, 44.4935827], [16.130768, 44.4927226], [16.131207, 44.4917999], [16.1313632, 44.491268], [16.1311127, 44.490782], [16.131075, 44.4904343], [16.1312518, 44.4900951], [16.1316249, 44.4901024], [16.1318587, 44.4897615], [16.1317675, 44.4890801], [16.1318965, 44.4885744], [16.1307173, 44.4879385], [16.1302344, 44.487554], [16.1297732, 44.4870094], [16.1297532, 44.4866719], [16.1302249, 44.4863881], [16.1334378, 44.4852159], [16.1337113, 44.4850324], [16.1362505, 44.4840716], [16.1372819, 44.4837532], [16.1379407, 44.4827416], [16.1388261, 44.4819342], [16.1398283, 44.4809219], [16.1404869, 44.4803457], [16.1411558, 44.4799833], [16.1405948, 44.4797425], [16.140404, 44.479465], [16.140317, 44.4791865], [16.1401001, 44.4784388], [16.1398814, 44.4776202], [16.1397904, 44.4759215], [16.1396743, 44.4756825], [16.1393428, 44.4753283], [16.1389059, 44.4748196], [16.138116, 44.4740079], [16.1379295, 44.4738722], [16.1370205, 44.4732241], [16.136673, 44.472691], [16.1359208, 44.4720482], [16.1356624, 44.4717866], [16.1354847, 44.4708469], [16.1354287, 44.4702043], [16.1355728, 44.4695359], [16.1356603, 44.4692819], [16.1361161, 44.4680122], [16.136338, 44.4673132], [16.1367708, 44.4659813], [16.1371726, 44.4652304], [16.1375042, 44.4646879], [16.1376366, 44.4642833], [16.1376966, 44.4638616], [16.1376363, 44.4634901], [16.1374425, 44.4630207], [16.1368956, 44.4623603], [16.1366384, 44.4621875], [16.1356942, 44.4619104], [16.1348995, 44.4616896], [16.1337535, 44.4612887], [16.1330647, 44.4610407], [16.1328135, 44.4609163], [16.1325855, 44.4606629], [16.1325739, 44.4603869], [16.1325711, 44.4598821], [16.1325104, 44.4590642], [16.132597, 44.4584523], [16.1326952, 44.4579352], [16.132724, 44.4575396], [16.1327183, 44.4572295], [16.1326548, 44.4570132], [16.1323113, 44.4567402], [16.1319259, 44.4565126], [16.1315666, 44.456222], [16.1312562, 44.455709], [16.1312115, 44.455401], [16.131275, 44.4551775], [16.1322593, 44.4544761], [16.132522, 44.4542495], [16.1329295, 44.4540478], [16.1335105, 44.4536587], [16.1338923, 44.4535937], [16.1348611, 44.4535048], [16.1354047, 44.4535272], [16.1358931, 44.4535329], [16.1364679, 44.4535103], [16.1370429, 44.4535611], [16.1371375, 44.4536626], [16.1376494, 44.4538374], [16.1387522, 44.4540292], [16.1390752, 44.4540291], [16.1393902, 44.4538091], [16.140091, 44.4533634], [16.1404218, 44.4531293], [16.1407367, 44.4528723], [16.1408665, 44.4525563], [16.1409414, 44.4520094], [16.1410948, 44.4516116], [16.141209, 44.4513267], [16.1413208, 44.4510965], [16.1418155, 44.4506722], [16.1421578, 44.4503054], [16.1424314, 44.4498569], [16.1428939, 44.4491911], [16.1434058, 44.4485395], [16.1434077, 44.4483461], [16.1430532, 44.4478186], [16.1428366, 44.4473657], [16.1425588, 44.4469356], [16.142401, 44.4464648], [16.1425427, 44.4460264], [16.142785, 44.4457286], [16.142846, 44.445431], [16.1426057, 44.4451346], [16.142316, 44.4449002], [16.1421683, 44.4446674], [16.1420952, 44.4442066], [16.1419275, 44.4438248], [16.142071, 44.4435807], [16.1424396, 44.4433214], [16.1424555, 44.4432137], [16.1422429, 44.4429204], [16.1418292, 44.4425397], [16.1416087, 44.4424266], [16.1411499, 44.4422647], [16.1408312, 44.4421703], [16.1405773, 44.4421197], [16.1401049, 44.4420464], [16.139719, 44.4419562], [16.1394276, 44.4418886], [16.1390811, 44.4416628], [16.1387661, 44.4414654], [16.1385534, 44.4412115], [16.1384588, 44.4407321], [16.1385139, 44.4403202], [16.1386713, 44.4399366], [16.1387736, 44.4396093], [16.1389862, 44.4391467], [16.1392145, 44.4386841], [16.1393719, 44.4382948], [16.1393752, 44.4382846], [16.1395293, 44.4378096], [16.1396238, 44.4374543], [16.139734, 44.4369577], [16.1398284, 44.4364613], [16.1398912, 44.4359423], [16.1400723, 44.4354571], [16.140143, 44.4350114], [16.1401543, 44.4347888], [16.1401666, 44.4345487], [16.1404028, 44.4340297], [16.1406152, 44.4336799], [16.1409773, 44.4333414], [16.1409536, 44.4330762], [16.1407724, 44.4326588], [16.1406543, 44.4323992], [16.1407252, 44.4321679], [16.1407645, 44.431254], [16.1408587, 44.4306335], [16.1410791, 44.4302104], [16.1412838, 44.429821], [16.1413939, 44.4293359], [16.1415119, 44.4289522], [16.141496, 44.4285968], [16.1414646, 44.4281681], [16.1409231, 44.4279985], [16.1408996, 44.4276343], [16.1409448, 44.4274629], [16.1410706, 44.4269326], [16.1413146, 44.4261428], [16.1415112, 44.4257817], [16.1417633, 44.4254544], [16.1421308, 44.4249232], [16.1423578, 44.424788], [16.1424128, 44.4247199], [16.1428888, 44.4245685], [16.1433139, 44.4244106], [16.1437075, 44.4242243], [16.1440931, 44.4240099], [16.1445496, 44.4237165], [16.1449432, 44.4234908], [16.145132, 44.4233159], [16.1451949, 44.4230902], [16.1450061, 44.4229605], [16.1446203, 44.4228364], [16.1442816, 44.4227406], [16.1438486, 44.4225939], [16.143518, 44.4224359], [16.1433133, 44.4223119], [16.1433054, 44.4220411], [16.1434629, 44.4216969], [16.1436518, 44.4215446], [16.1440374, 44.4213301], [16.14436, 44.4212003], [16.1447537, 44.4209634], [16.1450212, 44.4207264], [16.1451629, 44.4205346], [16.1453124, 44.420275], [16.1454697, 44.4199703], [16.1455956, 44.4197503], [16.1457765, 44.4195078], [16.1459812, 44.4194344], [16.1462805, 44.4194907], [16.1465165, 44.419705], [16.1466495, 44.4198346], [16.1467135, 44.4198969], [16.1469575, 44.4200717], [16.147477, 44.4201563], [16.1478628, 44.4202126], [16.1482485, 44.4203084], [16.1490987, 44.4205791], [16.1494295, 44.4207539], [16.1496264, 44.4209626], [16.1496658, 44.4211601], [16.1496579, 44.4213745], [16.1497289, 44.421555], [16.1498155, 44.4218596], [16.1499101, 44.4219951], [16.1499889, 44.4221755], [16.1501858, 44.4223222], [16.1505242, 44.4223391], [16.150839, 44.4223108], [16.151083, 44.4222712], [16.1513428, 44.4221978], [16.1516185, 44.4221753], [16.1519569, 44.4222712], [16.1523663, 44.4225136], [16.1526734, 44.4226264], [16.1528781, 44.4226377], [16.1530749, 44.4226037], [16.1532794, 44.4224344], [16.1533895, 44.4221636], [16.1535941, 44.4217855], [16.1536963, 44.4215487], [16.1538379, 44.4211763], [16.154074, 44.4209279], [16.1543494, 44.4206853], [16.154916, 44.4204144], [16.1556401, 44.420104], [16.15649, 44.4197766], [16.1570411, 44.4196015], [16.1574031, 44.4195055], [16.1578281, 44.4193024], [16.1580248, 44.4191049], [16.1582057, 44.4188735], [16.1583945, 44.4185858], [16.1584023, 44.4183262], [16.1584414, 44.4180555], [16.1584728, 44.4177846], [16.1585199, 44.4175307], [16.1585198, 44.417243], [16.1585826, 44.4169609], [16.15874, 44.4168086], [16.1590626, 44.4165602], [16.1593773, 44.4163853], [16.1595505, 44.4161821], [16.1597235, 44.4158944], [16.1598572, 44.4157251], [16.160054, 44.4156631], [16.1602507, 44.415725], [16.1602745, 44.4158999], [16.1603532, 44.4160973], [16.1604872, 44.4162721], [16.1606682, 44.4163793], [16.1609674, 44.4164583], [16.1612744, 44.4164863], [16.1615734, 44.416396], [16.1616443, 44.4162719], [16.1618172, 44.4160349], [16.1619353, 44.4158543], [16.1621791, 44.4156625], [16.1624703, 44.4154254], [16.1627219, 44.4152505], [16.1629187, 44.4150755], [16.1630838, 44.4148781], [16.1629972, 44.4146016], [16.1628948, 44.4144663], [16.1629654, 44.4142293], [16.1632095, 44.41406], [16.1636972, 44.4139019], [16.1641143, 44.4137494], [16.1644764, 44.4135688], [16.1647044, 44.4134163], [16.164846, 44.4131399], [16.1648459, 44.4128635], [16.1649559, 44.4125193], [16.165113, 44.4121582], [16.1652781, 44.4118309], [16.165341, 44.4116278], [16.1654197, 44.4114246], [16.165569, 44.4111595], [16.1657499, 44.4109451], [16.1658991, 44.4106234], [16.165907, 44.410426], [16.1657179, 44.4101835], [16.1655052, 44.4098959], [16.165387, 44.4095799], [16.1653317, 44.4093204], [16.1653867, 44.4090947], [16.1655677, 44.4088747], [16.1657406, 44.408666], [16.1659451, 44.4084289], [16.1662992, 44.4082257], [16.1665823, 44.4079886], [16.1667947, 44.4078362], [16.1670149, 44.4076049], [16.1670384, 44.407334], [16.1669753, 44.4070971], [16.1669436, 44.4066965], [16.1668725, 44.4064484], [16.1667464, 44.4060817], [16.1668408, 44.4059181], [16.1670768, 44.4057432], [16.1674151, 44.4056358], [16.1678007, 44.4056752], [16.1682493, 44.4057032], [16.1683832, 44.4057991], [16.1686822, 44.4058554], [16.1691073, 44.4059681], [16.1695088, 44.4060582], [16.1698156, 44.4059904], [16.1701382, 44.4059227], [16.1704136, 44.4057927], [16.1706811, 44.4056742], [16.1708698, 44.4055105], [16.1711688, 44.4053299], [16.1712631, 44.4051381], [16.1714991, 44.4050083], [16.1717036, 44.4048615], [16.1718371, 44.4045286], [16.1719077, 44.4041844], [16.1719233, 44.4039136], [16.1719468, 44.4037839], [16.1719623, 44.4034735], [16.1720014, 44.403152], [16.1720327, 44.4029207], [16.1721744, 44.4027908], [16.1723238, 44.4026385], [16.1724259, 44.4023846], [16.1723077, 44.4022943], [16.1720324, 44.4023001], [16.1717963, 44.4024187], [16.1715761, 44.4025429], [16.1713635, 44.4024583], [16.171332, 44.4023399], [16.1712374, 44.4021988], [16.1709621, 44.402182], [16.1708441, 44.4023739], [16.1706396, 44.4025207], [16.1703957, 44.4025714], [16.1702776, 44.4024869], [16.1701358, 44.4024135], [16.1697738, 44.4023742], [16.1696321, 44.4022276], [16.1696162, 44.4019681], [16.1695845, 44.401528], [16.1695056, 44.4011896], [16.169411, 44.4010429], [16.1690096, 44.4010205], [16.1686791, 44.4010149], [16.1683644, 44.401173], [16.1680183, 44.4013424], [16.1675619, 44.4014159], [16.1673101, 44.4013764], [16.1669874, 44.4013145], [16.1666412, 44.4012074], [16.1665309, 44.4010721], [16.1664835, 44.4008239], [16.1663967, 44.4004346], [16.1664123, 44.4002484], [16.1663808, 44.4000171], [16.1662469, 44.3998537], [16.1660501, 44.3996167], [16.1657509, 44.3994588], [16.165326, 44.3994025], [16.1649481, 44.39916], [16.1649795, 44.3991037], [16.1646881, 44.3988103], [16.1644362, 44.3984775], [16.1642708, 44.3983196], [16.1641291, 44.398111], [16.1638694, 44.397908], [16.1637118, 44.3976597], [16.1633733, 44.3974229], [16.1630349, 44.3972425], [16.1626729, 44.397096], [16.1621849, 44.3969042], [16.1618386, 44.3967463], [16.1615552, 44.3967521], [16.1613979, 44.3965772], [16.1610515, 44.3963404], [16.160595, 44.396143], [16.1600676, 44.3958047], [16.1599338, 44.3955903], [16.1595481, 44.3952519], [16.1592095, 44.3950094], [16.1589735, 44.3949699], [16.1586588, 44.3949475], [16.1583755, 44.3948855], [16.1581473, 44.3948348], [16.1578404, 44.394722], [16.1575727, 44.3946262], [16.1572738, 44.3945529], [16.1570772, 44.3946263], [16.1563926, 44.3945587], [16.1551494, 44.3945478], [16.1544806, 44.3945536], [16.1539298, 44.3946156], [16.1537883, 44.3949204], [16.1537019, 44.3951799], [16.1537648, 44.3955748], [16.1538753, 44.3959358], [16.1539619, 44.3963476], [16.153907, 44.3967143], [16.153734, 44.3969965], [16.1532856, 44.3971038], [16.1527504, 44.3970812], [16.1523963, 44.3969911], [16.1519085, 44.3969517], [16.1509563, 44.3968785], [16.1500985, 44.3967828], [16.1495398, 44.3964669], [16.1491225, 44.3961003], [16.1488472, 44.3956884], [16.1482647, 44.3954856], [16.1477532, 44.3953388], [16.1475015, 44.3952204], [16.147517, 44.3948424], [16.1475405, 44.3945096], [16.147454, 44.3941654], [16.1474146, 44.3939454], [16.14721, 44.3937593], [16.1467692, 44.3937085], [16.1463365, 44.3936522], [16.1458251, 44.3935621], [16.1452586, 44.3935339], [16.1446684, 44.3935396], [16.1441963, 44.3935679], [16.1437793, 44.3935736], [16.1432757, 44.3934326], [16.1429688, 44.3931957], [16.1427328, 44.3929193], [16.1425439, 44.3926653], [16.1423314, 44.3923551], [16.1420087, 44.3922085], [16.1413635, 44.392028], [16.1409386, 44.3920449], [16.1402227, 44.3919943], [16.1396326, 44.3922482], [16.1391605, 44.3924852], [16.1386255, 44.3928576], [16.1380354, 44.3933371], [16.1376736, 44.393653], [16.1372331, 44.3941383], [16.136871, 44.3943978], [16.1363518, 44.3948661], [16.1360372, 44.39512], [16.1357067, 44.3954979], [16.135148, 44.3953062], [16.1341014, 44.3950298], [16.1334641, 44.3949508], [16.1327746, 44.3950008], [16.1327638, 44.3950016], [16.1321343, 44.3951539], [16.1316229, 44.3953119], [16.1312059, 44.3954811], [16.1311114, 44.3957689], [16.1308282, 44.3958422], [16.1304819, 44.3957745], [16.1301829, 44.3956448], [16.1297344, 44.3954642], [16.129168, 44.3953401], [16.128743, 44.3951483], [16.128145, 44.3948266], [16.1277649, 44.3946861], [16.1276416, 44.3946405], [16.1279327, 44.3940819], [16.1285071, 44.392807], [16.1288218, 44.3922147], [16.1289084, 44.3919156], [16.1285859, 44.3917914], [16.1283734, 44.3916504], [16.1284994, 44.3913909], [16.1285927, 44.391332], [16.128696, 44.3912668], [16.1288534, 44.3909339], [16.1290422, 44.3906914], [16.1292546, 44.3904601], [16.1295222, 44.3902288], [16.1295929, 44.3900539], [16.1294671, 44.3899129], [16.1292783, 44.3897492], [16.1291367, 44.389659], [16.1289399, 44.3894164], [16.1287827, 44.3890892], [16.128759, 44.3887676], [16.128822, 44.3884742], [16.1289636, 44.388085], [16.1293805, 44.3877127], [16.1294987, 44.3873459], [16.1295459, 44.3869059], [16.1295301, 44.3865674], [16.1294672, 44.3862627], [16.1294122, 44.3857944], [16.1296246, 44.3854729], [16.1298922, 44.3851569], [16.1301045, 44.384779], [16.1302619, 44.3844348], [16.1302854, 44.384119], [16.1303878, 44.383882], [16.1300967, 44.3838142], [16.1298921, 44.3836112], [16.129782, 44.3834137], [16.1297427, 44.3831485], [16.1297977, 44.3827762], [16.1298764, 44.3824828], [16.1301045, 44.3821443], [16.1302698, 44.3817945], [16.1303484, 44.381535], [16.1301911, 44.3811853], [16.1300888, 44.3808919], [16.1301517, 44.3804068], [16.1303563, 44.3798426], [16.1305294, 44.3794759], [16.1309226, 44.3790189], [16.1311509, 44.3787594], [16.1312688, 44.3785619], [16.1313082, 44.3783476], [16.1313239, 44.3780824], [16.1317645, 44.378009], [16.1324644, 44.3779526], [16.1331883, 44.3779301], [16.1338804, 44.3778623], [16.134313, 44.3776197], [16.1345648, 44.3774449], [16.1348793, 44.3773884], [16.1358547, 44.3773206], [16.1373021, 44.377157], [16.1389225, 44.377061], [16.1390876, 44.376999], [16.1394181, 44.3768917], [16.1395911, 44.3767394], [16.1398506, 44.3765363], [16.140173, 44.3764628], [16.1405191, 44.3765024], [16.1409677, 44.3766377], [16.141353, 44.3768126], [16.1417071, 44.3770213], [16.1421947, 44.3771905], [16.1425094, 44.3772469], [16.1430364, 44.3772016], [16.1433588, 44.3770888], [16.1434769, 44.376993], [16.1434297, 44.3766882], [16.1433509, 44.3763103], [16.1434766, 44.3759154], [16.1437677, 44.3756614], [16.1440272, 44.3755317], [16.1444835, 44.3755485], [16.1448926, 44.3756951], [16.1452622, 44.3759152], [16.1457656, 44.3761069], [16.1461277, 44.37631], [16.1466311, 44.3764227], [16.1469142, 44.3765976], [16.1475828, 44.3766821], [16.1483695, 44.3767836], [16.1489279, 44.3769584], [16.1493685, 44.3770316], [16.1496282, 44.3772797], [16.1498486, 44.377387], [16.1502497, 44.377387], [16.1505643, 44.3771725], [16.1508158, 44.3770766], [16.151225, 44.3770877], [16.1516891, 44.3771045], [16.1520745, 44.3770932], [16.1523342, 44.3772794], [16.1527196, 44.3777306], [16.1531132, 44.37821], [16.1533414, 44.3785203], [16.1538214, 44.3788192], [16.154144, 44.37909], [16.1541677, 44.3793833], [16.154451, 44.3796597], [16.1547814, 44.3798852], [16.1549547, 44.380094], [16.1552536, 44.3801955], [16.1555053, 44.3802349], [16.1558908, 44.3800204], [16.1563391, 44.3798398], [16.1568345, 44.3796704], [16.1573301, 44.3795011], [16.1574637, 44.3793545], [16.1576051, 44.379078], [16.1579433, 44.3787394], [16.1581714, 44.3786885], [16.1584074, 44.3788183], [16.1586591, 44.3788915], [16.15895, 44.3783724], [16.1594061, 44.3782707], [16.1600589, 44.3780731], [16.1630085, 44.3775025], [16.1638025, 44.3769382], [16.1644316, 44.3764585], [16.164856, 44.3758772], [16.1650997, 44.3754823], [16.165266, 44.3753068], [16.1657087, 44.3748398], [16.1662607, 44.3742637], [16.1663838, 44.3742979], [16.1667245, 44.3744722], [16.1672596, 44.3746012], [16.1673702, 44.3745668], [16.1687274, 44.3748263], [16.1697226, 44.3730549], [16.1700245, 44.3726215], [16.1700941, 44.3722563], [16.1706465, 44.3716391], [16.1711566, 44.3708722], [16.171737, 44.370247], [16.171945, 44.3691193], [16.1723079, 44.3691909], [16.1729774, 44.3694541], [16.173111, 44.3693142], [16.1722423, 44.3690066], [16.1727965, 44.3687184], [16.1741908, 44.3682125], [16.1745585, 44.3680456], [16.1749813, 44.3675878], [16.1748943, 44.3673193], [16.1751931, 44.3670439], [16.1752764, 44.3669346], [16.1753422, 44.3669671], [16.1760103, 44.3668533], [16.1761157, 44.3669124], [16.1768379, 44.3665972], [16.1774812, 44.3667621], [16.1775646, 44.3665397], [16.1785755, 44.3663948], [16.1785679, 44.3663285], [16.1790519, 44.3662189], [16.1793479, 44.3661242], [16.1801761, 44.3659704], [16.1804265, 44.3659447], [16.1806303, 44.3659668], [16.1807487, 44.3659797], [16.1808938, 44.3658634], [16.1815363, 44.3657257], [16.1856103, 44.3648504], [16.1862126, 44.364933], [16.1863604, 44.364833], [16.1870261, 44.3649876], [16.1881826, 44.3646313], [16.1881222, 44.3645193], [16.1898342, 44.3642967], [16.1919459, 44.3640239], [16.1939659, 44.3637625], [16.1957449, 44.3635228], [16.1971197, 44.3633475], [16.1983662, 44.3631826], [16.1992871, 44.3628128], [16.2012868, 44.3620195], [16.2032333, 44.3612373], [16.2049887, 44.3605393], [16.2061864, 44.3600637], [16.2065963, 44.3594794], [16.2078098, 44.3577206], [16.2085887, 44.3565923], [16.2097061, 44.3550738], [16.2103833, 44.3541534], [16.2116403, 44.3524212], [16.2137368, 44.3519763], [16.2161868, 44.3500861], [16.2187051, 44.3481376], [16.2178044, 44.3458674], [16.2178042, 44.3458584], [16.2170598, 44.3440574], [16.2177137, 44.3435728], [16.2181958, 44.343499], [16.2183338, 44.343088], [16.2175087, 44.3423385], [16.2172324, 44.3419443], [16.2166419, 44.341593], [16.2162647, 44.3414299], [16.2151969, 44.3411189], [16.2145321, 44.3410372], [16.212867, 44.3405278], [16.2123706, 44.3400212], [16.2119342, 44.3396861], [16.2102937, 44.3387005], [16.2096681, 44.3382751], [16.2090669, 44.3381178], [16.2087939, 44.3381055], [16.2076324, 44.3376498], [16.2074573, 44.3374452], [16.2068059, 44.3369819], [16.2055262, 44.3364981], [16.2054246, 44.3363575], [16.2053439, 44.3362064], [16.2046737, 44.3355487], [16.2045487, 44.3353418], [16.2042588, 44.3349652], [16.2041114, 44.3346878], [16.2039051, 44.3344149], [16.2031539, 44.3337472], [16.2028582, 44.3334623], [16.2024623, 44.3331132], [16.2019263, 44.3325389], [16.2018254, 44.3323234], [16.2016849, 44.3321612], [16.2015091, 44.3319527], [16.2014557, 44.331947], [16.2005423, 44.3310449], [16.1999658, 44.3302184], [16.1991739, 44.3290848], [16.1991206, 44.3287709], [16.1991785, 44.3285431], [16.1987534, 44.3279096], [16.1985863, 44.3275525], [16.1983526, 44.3272321], [16.1982194, 44.327202], [16.1978548, 44.3266473], [16.1976894, 44.326496], [16.197465, 44.3260956], [16.197394, 44.3259487], [16.1973144, 44.3257844], [16.1971763, 44.3255806], [16.1971686, 44.3253539], [16.1970732, 44.3250567], [16.1968999, 44.3247442], [16.1967313, 44.3243517], [16.1963886, 44.3234552], [16.1963034, 44.3229206], [16.1961387, 44.3228047], [16.1956781, 44.3216552], [16.1955385, 44.3213361], [16.1949454, 44.3203], [16.1947361, 44.3198249], [16.1944781, 44.3189088], [16.194368, 44.3178453], [16.1944513, 44.3175506], [16.194574, 44.317475], [16.1946301, 44.3172935], [16.1946432, 44.3170114], [16.1946867, 44.3167005], [16.1947642, 44.3164622], [16.1949443, 44.3162389], [16.1950247, 44.3158652], [16.1950433, 44.3155211], [16.1948584, 44.315192], [16.1945211, 44.314567], [16.1941345, 44.3138811], [16.1939395, 44.3134901], [16.1936599, 44.3131516], [16.1931628, 44.312665], [16.1928792, 44.3124279], [16.1924385, 44.3121884], [16.1920246, 44.3118241], [16.1917002, 44.3115429], [16.1913462, 44.3113128], [16.1910556, 44.3110986], [16.1907832, 44.3109515], [16.1901962, 44.3105255], [16.1900002, 44.3103766], [16.1898909, 44.3103519], [16.1887142, 44.3095373], [16.1886491, 44.3092657], [16.1884233, 44.3084744], [16.1882956, 44.308245], [16.1882921, 44.3080729], [16.1885651, 44.3077466], [16.188571, 44.3076819], [16.1881286, 44.3076612], [16.1880102, 44.3074959], [16.1881768, 44.3067494], [16.1882572, 44.3066552], [16.1881636, 44.306596], [16.1880264, 44.3061311], [16.1881243, 44.3058927], [16.1880778, 44.3056873], [16.1882514, 44.3054375], [16.1879709, 44.3052024], [16.1878093, 44.3051169], [16.1876648, 44.3048276], [16.1875356, 44.3044368], [16.1875854, 44.3031442], [16.1877306, 44.3030786], [16.1878319, 44.3022737], [16.187787, 44.3015592], [16.187566, 44.3010913], [16.1873199, 44.3001567], [16.1872429, 44.2988614], [16.1872463, 44.2983714], [16.1872755, 44.2978013], [16.1872292, 44.2972489], [16.1872404, 44.2971458], [16.1874711, 44.2968594], [16.1875431, 44.2966988], [16.1873359, 44.2964056], [16.1871373, 44.296266], [16.1870499, 44.2957803], [16.187075, 44.295235], [16.1870768, 44.2952258], [16.1871487, 44.2948506], [16.1871418, 44.2947049], [16.1871659, 44.294581], [16.1874365, 44.2945568], [16.1875769, 44.2944906], [16.1876849, 44.2943741], [16.1876618, 44.2942748], [16.1880052, 44.2935951], [16.1881921, 44.2934643], [16.1883658, 44.2931841], [16.1883225, 44.2931367], [16.1882705, 44.2929286], [16.1888067, 44.2925596], [16.1889569, 44.2923212], [16.1890236, 44.2920151], [16.189074, 44.2919139], [16.1893739, 44.291796], [16.1898772, 44.2917109], [16.1900564, 44.2916235], [16.1901267, 44.2915316], [16.1901451, 44.2913627], [16.1902836, 44.2912763], [16.19048, 44.291272], [16.1907025, 44.2911932], [16.1907588, 44.2911554], [16.190788, 44.2911602], [16.1907913, 44.2910955], [16.1906994, 44.2909676], [16.1908296, 44.2908177], [16.1909114, 44.2906825], [16.1909118, 44.2903939], [16.1908674, 44.2900917], [16.1905521, 44.290032], [16.1906198, 44.2898941], [16.1906148, 44.2896067], [16.1908346, 44.2892084], [16.190912, 44.2885849], [16.1906511, 44.2881876], [16.1905654, 44.2881694], [16.1905203, 44.2879173], [16.1905693, 44.2878228], [16.1907239, 44.2876828], [16.1907274, 44.2872766], [16.1908495, 44.2870048], [16.1911473, 44.2868633], [16.1912865, 44.2866554], [16.1912307, 44.2863754], [16.1909464, 44.2862242], [16.1909254, 44.2861079], [16.1910777, 44.2859376], [16.1916855, 44.2859037], [16.191913, 44.2856909], [16.1919671, 44.2855031], [16.1919672, 44.2853135], [16.1918023, 44.2849833], [16.191791, 44.2847691], [16.1918184, 44.2846141], [16.1918046, 44.2844399], [16.1918758, 44.2842411], [16.1922281, 44.2836547], [16.1922609, 44.2835351], [16.1922339, 44.2834032], [16.1921715, 44.2832216], [16.1920729, 44.2830719], [16.192068, 44.2825527], [16.1919163, 44.2824508], [16.1918634, 44.2818472], [16.1915964, 44.2815018], [16.1913488, 44.2811449], [16.1911243, 44.2804217], [16.1911432, 44.2803478], [16.1911117, 44.2801822], [16.1910863, 44.2798967], [16.1910233, 44.2798011], [16.19134, 44.2794299], [16.1914428, 44.27925], [16.1914615, 44.2789775], [16.191467, 44.2788183], [16.1913297, 44.2786138], [16.1915603, 44.278441], [16.1913348, 44.2781306], [16.1913661, 44.2778209], [16.1912476, 44.2776938], [16.1912179, 44.2775006], [16.1912269, 44.2774837], [16.1913009, 44.2773445], [16.191264, 44.2771874], [16.1911387, 44.277029], [16.190957, 44.2769144], [16.1911184, 44.2766883], [16.1911898, 44.2764164], [16.1912, 44.2759955], [16.1910824, 44.2755631], [16.1909163, 44.2755546], [16.1907561, 44.2754539], [16.1908713, 44.2751119], [16.190932, 44.2747833], [16.1908817, 44.2746994], [16.1907633, 44.2746101], [16.1908067, 44.2742806], [16.1907065, 44.2739705], [16.1907263, 44.2736345], [16.1909143, 44.2727073], [16.1911333, 44.2721565], [16.1910199, 44.271967], [16.190977, 44.2712789], [16.1915007, 44.2703082], [16.1916966, 44.2698573], [16.191899, 44.2695261], [16.1918046, 44.2692339], [16.1921097, 44.2689135], [16.1937541, 44.2673111], [16.1939945, 44.2668885], [16.1940267, 44.2662007], [16.1940549, 44.2660103], [16.1940294, 44.265479], [16.1945477, 44.2650275], [16.1945523, 44.2648649], [16.1945783, 44.2646413], [16.1949602, 44.2643278], [16.1948522, 44.2638654], [16.1948276, 44.2637729], [16.1948027, 44.2636624], [16.1946656, 44.2634292], [16.1946644, 44.2631727], [16.1947064, 44.2628545], [16.1952248, 44.2625138], [16.1953585, 44.2623132], [16.1955599, 44.2620569], [16.1957811, 44.2615781], [16.1959112, 44.2608179], [16.1958068, 44.2605298], [16.1957851, 44.2603833], [16.1958051, 44.2602925], [16.1959293, 44.2600515], [16.1964585, 44.2595538], [16.1970344, 44.2591551], [16.1974549, 44.2589701], [16.1978866, 44.2591096], [16.1981003, 44.2590864], [16.1985496, 44.2590224], [16.1990805, 44.2588832], [16.1997268, 44.2582581], [16.2001659, 44.2575751], [16.2006482, 44.2573574], [16.2009053, 44.2569527], [16.2008029, 44.2566573], [16.2000949, 44.2564114], [16.1998709, 44.2562212], [16.19982, 44.2559587], [16.1999049, 44.2556747], [16.2002217, 44.2552018], [16.2002786, 44.2548324], [16.1998395, 44.2542784], [16.1997973, 44.253988], [16.1999281, 44.2536575], [16.1997634, 44.2531287], [16.1996348, 44.252326], [16.199746, 44.2519863], [16.1999759, 44.2517324], [16.2004949, 44.2513621], [16.2010751, 44.2511234], [16.2013707, 44.2505226], [16.2016336, 44.2503254], [16.2020421, 44.2500816], [16.2024915, 44.2500644], [16.2038065, 44.2505621], [16.2055891, 44.2510114], [16.2069304, 44.2512891], [16.2072658, 44.2515055], [16.2096242, 44.2556088], [16.2129918, 44.2576187], [16.215237, 44.2584227], [16.2174821, 44.2604326], [16.2197272, 44.2624424], [16.2242174, 44.2644522], [16.2259012, 44.2652561], [16.2298301, 44.2660599], [16.2326365, 44.2660599], [16.2360042, 44.2668638], [16.2382493, 44.2668638], [16.2365654, 44.2692753], [16.233759, 44.2724905], [16.2331978, 44.2749018], [16.2320752, 44.2777148], [16.2303914, 44.2805278], [16.2303914, 44.2841441], [16.2292688, 44.2857514], [16.2264625, 44.2873585], [16.2230948, 44.2889657], [16.2208497, 44.2897692], [16.2191659, 44.291778], [16.2225335, 44.2941885], [16.2259012, 44.2957955], [16.2287076, 44.2970006], [16.2315139, 44.2978041], [16.2360042, 44.2990092], [16.2382493, 44.300616], [16.2388105, 44.3050345], [16.2388105, 44.3086494], [16.2404944, 44.3122641], [16.2427395, 44.3134689], [16.2433007, 44.3166817], [16.2472297, 44.318288], [16.2505973, 44.3198943], [16.2556488, 44.3202959], [16.2595777, 44.3202959], [16.2612616, 44.3194927], [16.2651905, 44.3190912], [16.2691194, 44.3170833], [16.2741709, 44.318288], [16.2769773, 44.3190912], [16.2809062, 44.3190912], [16.2848351, 44.3215005], [16.2870802, 44.3251144], [16.2893253, 44.3283266], [16.2910092, 44.331137], [16.2932543, 44.3331444], [16.2960606, 44.3331444], [16.2999896, 44.3339474], [16.3033572, 44.3355532], [16.3033572, 44.3395677], [16.3056023, 44.3423776], [16.3061636, 44.3443846], [16.3061636, 44.3475957], [16.3072862, 44.3500039], [16.3095313, 44.3552214], [16.3100925, 44.3584319], [16.3078474, 44.362846], [16.3078474, 44.367661], [16.3061636, 44.3704696], [16.3056023, 44.3740805], [16.3039185, 44.3764876], [16.3022347, 44.3804992], [16.3016734, 44.3833072], [16.3016734, 44.3873184], [16.2999896, 44.3901261], [16.2999896, 44.3925325], [16.298867, 44.3953399], [16.2971832, 44.3977461], [16.2943768, 44.4001523], [16.2932543, 44.4033603], [16.2915704, 44.4069691], [16.2887641, 44.4105778], [16.2870802, 44.4137852], [16.2859577, 44.4157898], [16.2893253, 44.4181952], [16.2932543, 44.4169925], [16.2949381, 44.4161907], [16.3005509, 44.4157898], [16.302796, 44.4173934], [16.3033572, 44.4193978], [16.3016734, 44.422204], [16.3005509, 44.4242082], [16.3011121, 44.427415], [16.2999896, 44.4306215], [16.2966219, 44.4390378], [16.292693, 44.4414423], [16.2904479, 44.441843], [16.2876415, 44.4434459], [16.2870802, 44.4470522], [16.2859577, 44.4506584], [16.2831513, 44.453463], [16.2786611, 44.4558668], [16.276416, 44.4610748], [16.2769773, 44.4626772], [16.2786611, 44.4662824], [16.2792224, 44.4686857], [16.2797837, 44.4730915], [16.2820288, 44.4754946], [16.2831513, 44.478298], [16.2837126, 44.4803003], [16.2853964, 44.4839044], [16.2859577, 44.4887095], [16.2876415, 44.4907115], [16.2887641, 44.4943149], [16.2904463, 44.4974958], [16.2871745, 44.4987923], [16.2816181, 44.4999246], [16.275268, 44.5033214], [16.2736805, 44.5055859], [16.2657429, 44.5123787], [16.2601865, 44.5157747], [16.2578052, 44.5174727], [16.2538364, 44.5203026], [16.2506614, 44.5214345], [16.2435175, 44.5220004], [16.2347861, 44.52483], [16.2268484, 44.5253959], [16.2228796, 44.5259618], [16.2165295, 44.5282254], [16.2109732, 44.529923], [16.2070044, 44.5316206], [16.2006542, 44.5338839], [16.1974792, 44.5350155], [16.1911291, 44.5367129], [16.1863665, 44.5384103], [16.1800164, 44.5412391], [16.1768413, 44.5423706], [16.1665224, 44.5474621], [16.1609661, 44.5502905], [16.157791, 44.5531187], [16.1554097, 44.5553812], [16.1506471, 44.5593404], [16.1490596, 44.5610371], [16.144297, 44.5649959], [16.144297, 44.5706508], [16.1435033, 44.5729126], [16.1395344, 44.577436], [16.1371532, 44.5808283], [16.1331843, 44.5830897], [16.1300093, 44.5842204], [16.1252467, 44.5842204], [16.1212779, 44.5847857], [16.1173091, 44.585351], [16.1149278, 44.5859164], [16.110959, 44.5876123], [16.1054026, 44.5898735], [16.1022276, 44.5915693], [16.0998463, 44.595526], [16.0990525, 44.6113501], [16.0966712, 44.6153054], [16.0942899, 44.6186955], [16.0927024, 44.6220854], [16.0911149, 44.6254751], [16.0895273, 44.6271699], [16.0895273, 44.6322539], [16.0887336, 44.6350782], [16.0863523, 44.6390319], [16.083971, 44.6424206], [16.0831772, 44.648068], [16.0815897, 44.6514562], [16.0800022, 44.6548442], [16.0776209, 44.6576673], [16.0760334, 44.661055], [16.0736521, 44.6655715], [16.0712708, 44.6683941], [16.0696832, 44.674039], [16.0736521, 44.6757323], [16.0784146, 44.6762968], [16.0911149, 44.6768612], [16.0998463, 44.6796833], [16.0998463, 44.6712166], [16.10064, 44.6683941], [16.1014338, 44.6638778], [16.1022276, 44.6627487], [16.1061964, 44.6604904], [16.1069901, 44.6593612], [16.1101652, 44.6571027], [16.1125465, 44.6542795], [16.1149278, 44.6525855], [16.1181028, 44.6514562], [16.1204841, 44.6508915], [16.1244529, 44.6497621], [16.130803, 44.6463739], [16.1323906, 44.6463739], [16.1379469, 44.6469386], [16.1387407, 44.6475033], [16.141122, 44.6508915], [16.141122, 44.6525855], [16.1403282, 44.6559735], [16.1379469, 44.658232], [16.1371532, 44.6616195], [16.1403282, 44.6638778], [16.144297, 44.6644424], [16.1458846, 44.666136], [16.1490596, 44.6683941], [16.1506471, 44.6695231], [16.1522347, 44.6706521], [16.154616, 44.6734745], [16.1569972, 44.6746034], [16.1609661, 44.6802477], [16.1657286, 44.6819409], [16.1657286, 44.6830696], [16.1633474, 44.6858914], [16.1625536, 44.6887131], [16.1617598, 44.6915346], [16.1617598, 44.6920989], [16.1601723, 44.694356], [16.1569972, 44.7011267], [16.1538222, 44.7045118], [16.1522347, 44.709589], [16.1514409, 44.7101531], [16.1498534, 44.7141018], [16.1466783, 44.7157939], [16.1450908, 44.7191782], [16.1427095, 44.7214342], [16.1387407, 44.7231262], [16.1363594, 44.7242541], [16.1315968, 44.72651], [16.1284218, 44.7282018], [16.1236592, 44.7304575], [16.1228654, 44.7321492], [16.1244529, 44.7355324], [16.127628, 44.737224], [16.1252467, 44.7394793], [16.1204841, 44.7439897], [16.1165153, 44.7473723], [16.114134, 44.7496272], [16.1101652, 44.7530095], [16.1038151, 44.7580825], [16.1022276, 44.7592097], [16.0942899, 44.7648457], [16.0903211, 44.7659729], [16.083971, 44.7699177], [16.0807959, 44.7727352], [16.0815897, 44.7755527], [16.083971, 44.7783699], [16.0847648, 44.7823139], [16.0831772, 44.7851309], [16.0784146, 44.7896377], [16.0760334, 44.7896377], [16.070477, 44.7907644], [16.0649207, 44.7913277], [16.0609518, 44.7913277], [16.0553955, 44.7935809], [16.0482516, 44.795834], [16.0450766, 44.7963973], [16.0419015, 44.7963973], [16.0379327, 44.795834], [16.0299951, 44.795834], [16.0260262, 44.7980871], [16.0244387, 44.8009033], [16.0180886, 44.8037193], [16.0157073, 44.8048457], [16.0117385, 44.8054089], [16.0093572, 44.8054089], [16.0061821, 44.805972], [16.0014196, 44.8070984], [15.999832, 44.8099141], [16.0006258, 44.8110404], [16.0022133, 44.814419], [16.0006258, 44.8166713], [15.9990383, 44.8189236], [15.9982445, 44.8234278], [15.999832, 44.8245538], [16.0022133, 44.8268057], [16.0022133, 44.8335609], [16.0014196, 44.8346867], [16.0025895, 44.8367943], [16.0028292, 44.8378099], [16.0033979, 44.8387952], [16.0031352, 44.839447], [16.0024847, 44.8399122], [16.0024962, 44.8406422], [16.0017782, 44.8411931], [16.0050589, 44.846958], [15.996169, 44.8532199], [16.0192486, 44.8656643], [16.0288367, 44.8617652], [16.0447264, 44.8618856], [16.0526431, 44.8593024], [16.0559219, 44.8572665], [16.0575841, 44.8634229], [16.0579738, 44.8637603], [16.0588147, 44.863871], [16.0605569, 44.8635735], [16.0626124, 44.8626703], [16.063932, 44.8619632], [16.0650897, 44.8618651], [16.0675224, 44.8635803], [16.0700383, 44.8648079], [16.0728092, 44.8652224], [16.0744968, 44.8655281], [16.077552, 44.865516], [16.0824351, 44.8667083], [16.0822588, 44.865443], [16.084442, 44.8658632], [16.0862664, 44.8658703], [16.0895112, 44.8670601], [16.086614, 44.8710618], [16.085135, 44.8719437], [16.0828829, 44.872659], [16.0808339, 44.8726435], [16.0790129, 44.8731233], [16.0778313, 44.8742611], [16.07614, 44.8751159], [16.074719, 44.8759881], [16.0730894, 44.8773403], [16.0721473, 44.8783535], [16.0710617, 44.8802354], [16.0706918, 44.880685], [16.0700853, 44.8810507], [16.066571, 44.8822952], [16.064246, 44.883422], [16.0627514, 44.8838827], [16.0613927, 44.8843675], [16.0598137, 44.8851829], [16.0592753, 44.8860666], [16.0585925, 44.8869295], [16.0569249, 44.8880896], [16.0537738, 44.890024], [16.0522146, 44.890698], [16.0506102, 44.8913239], [16.0492801, 44.8924568], [16.0480478, 44.8947641], [16.0454866, 44.8970598], [16.0427879, 44.8982462], [16.0399099, 44.8996299], [16.0345454, 44.9020644], [16.0299497, 44.9033769], [16.0282987, 44.9040535], [16.0264047, 44.904325], [16.0227551, 44.9044085], [16.0190835, 44.9040013], [16.0165593, 44.9031067], [16.0154518, 44.9030234], [16.0134461, 44.9030269], [16.0118402, 44.9036141], [16.0100472, 44.9041601], [16.0086701, 44.9040356], [16.0079787, 44.9037199], [16.0067521, 44.9021224], [16.0057197, 44.9016857], [16.0048202, 44.9015172], [16.003798, 44.9010427], [16.002239, 44.9010911], [16.000505, 44.9015834], [15.9972311, 44.9019832], [15.9947524, 44.9030019], [15.9926772, 44.9039366], [15.9921407, 44.9050109], [15.9918377, 44.9063776], [15.9920232, 44.9090594], [15.9912769, 44.9098995], [15.9898785, 44.9106106], [15.9888159, 44.9107763], [15.9878433, 44.9108715], [15.9869586, 44.9107798], [15.9839966, 44.9103819], [15.9827617, 44.9102866], [15.9822343, 44.9101309], [15.9818998, 44.9099888], [15.9816164, 44.9099332], [15.9814577, 44.9099119], [15.9805234, 44.9100017], [15.9801383, 44.9099882], [15.9771531, 44.9094701], [15.9740721, 44.9102638], [15.9729223, 44.9102854], [15.9705091, 44.9101856], [15.9664503, 44.9104832], [15.9650552, 44.9100779], [15.9614081, 44.9080266], [15.9587173, 44.9063626], [15.9556689, 44.9059584], [15.95429, 44.9053359], [15.9521136, 44.9042624], [15.9507922, 44.9038504], [15.9486458, 44.9037911], [15.9470482, 44.9040036], [15.946236, 44.9040337], [15.9454082, 44.9039624], [15.9449317, 44.9038898], [15.9447665, 44.9038105], [15.9444116, 44.9035326], [15.9436173, 44.9026948], [15.9428958, 44.9025014], [15.9416193, 44.9013612], [15.9409295, 44.9009309], [15.9374245, 44.8987405], [15.9371401, 44.8984161], [15.9365507, 44.8982285], [15.9359398, 44.8977248], [15.9346463, 44.8972053], [15.9339266, 44.8971827], [15.9334, 44.8971328], [15.9327739, 44.8970085], [15.9322552, 44.8967748], [15.9316522, 44.8962437], [15.9313492, 44.8960027], [15.9308072, 44.895759], [15.9302484, 44.8956641], [15.9299212, 44.8955691], [15.9290883, 44.8951085], [15.9285822, 44.8948782], [15.9270525, 44.8944838], [15.9250325, 44.8938277], [15.9248058, 44.8937169], [15.9244174, 44.8934327], [15.9236049, 44.8926749], [15.9231939, 44.892043], [15.9220215, 44.8900961], [15.9206105, 44.8890215], [15.9191457, 44.8884261], [15.9161787, 44.8871922], [15.9139485, 44.8857582], [15.9117075, 44.8855155], [15.9071886, 44.8846409], [15.9067295, 44.8843633], [15.9055187, 44.8841771], [15.9046182, 44.8842527], [15.9019174, 44.8842229], [15.9007696, 44.8841754], [15.9006762, 44.8844835], [15.902385, 44.8865848], [15.9019925, 44.8874492], [15.9019856, 44.8878272], [15.901919, 44.8881735], [15.9011067, 44.8881582], [15.9006656, 44.8895614], [15.9002167, 44.8903707], [15.900161, 44.8907772], [15.8999867, 44.8917603], [15.9000016, 44.8921121], [15.8994773, 44.892441], [15.8989417, 44.8927377], [15.8987387, 44.8931423], [15.8981893, 44.8938636], [15.8974524, 44.894446], [15.8965209, 44.8950796], [15.8958675, 44.8953561], [15.895137, 44.8959012], [15.8940142, 44.8964302], [15.8934717, 44.8965865], [15.8925416, 44.8967412], [15.8909563, 44.8972415], [15.8886146, 44.8980478], [15.8883947, 44.8984063], [15.8877995, 44.8984346], [15.8875513, 44.8981998], [15.8864729, 44.8987989], [15.8860352, 44.8995856], [15.8856534, 44.8996815], [15.8844762, 44.8997169], [15.8833496, 44.9003275], [15.8820815, 44.9003788], [15.8790991, 44.9005083], [15.8791023, 44.9011287], [15.8790022, 44.901697], [15.8786284, 44.9021745], [15.8782969, 44.9025461], [15.8782377, 44.9028818], [15.8775885, 44.9038313], [15.8759809, 44.9029895], [15.8754463, 44.9028348], [15.8757604, 44.9024727], [15.876007, 44.9021637], [15.8752282, 44.9019753], [15.874949, 44.90253], [15.8747148, 44.9028455], [15.8728108, 44.9022318], [15.873083, 44.9016946], [15.8718829, 44.901416], [15.8702847, 44.9010758], [15.8692992, 44.9008159], [15.8693473, 44.9004405], [15.8686579, 44.9004802], [15.8684151, 44.9004626], [15.8676687, 44.900108], [15.8669942, 44.8997128], [15.8668524, 44.8996738], [15.8666479, 44.9000164], [15.8662859, 44.9004759], [15.8659204, 44.9004476], [15.8657655, 44.9004629], [15.8655897, 44.9005959], [15.8652978, 44.9008687], [15.8644357, 44.9009428], [15.8639057, 44.9009209], [15.8636228, 44.9011679], [15.8633334, 44.9016463], [15.862207, 44.9014263], [15.8618924, 44.9017619], [15.8614379, 44.9024683], [15.8607216, 44.9018952], [15.860314, 44.9025162], [15.8590515, 44.9035134], [15.8586013, 44.9036729], [15.8577293, 44.9046208], [15.8560379, 44.9070941], [15.85599, 44.9072239], [15.8560067, 44.9073864], [15.8557882, 44.90744], [15.8551862, 44.907826], [15.8546606, 44.9081556], [15.8542219, 44.9086761], [15.8539253, 44.9090966], [15.8534415, 44.909516], [15.8530141, 44.9097175], [15.8526466, 44.9100484], [15.8523128, 44.9105053], [15.8520315, 44.9110946], [15.8519404, 44.9115576], [15.8518602, 44.9116769], [15.8517007, 44.9117611], [15.850996, 44.9120517], [15.8500812, 44.9123197], [15.8495572, 44.912467], [15.8487074, 44.9128673], [15.8478664, 44.9131403], [15.8471096, 44.9132322], [15.8464428, 44.9134517], [15.845927, 44.9137185], [15.8454112, 44.9140704], [15.8448649, 44.9145154], [15.8445698, 44.9146473], [15.8442695, 44.9146425], [15.8439984, 44.9145835], [15.845403, 44.9169798], [15.8459724, 44.9192872], [15.8469496, 44.9214479], [15.8476096, 44.9232558], [15.8494734, 44.9275453], [15.8489454, 44.9276901], [15.8484855, 44.9277232], [15.8485974, 44.9282909], [15.8484124, 44.9284581], [15.8481486, 44.9285272], [15.8479021, 44.9285536], [15.84765, 44.9288303], [15.8475334, 44.9291921], [15.8474347, 44.9294468], [15.8470507, 44.9296889], [15.846612, 44.9302778], [15.8466298, 44.930837], [15.8470208, 44.9314259], [15.8475787, 44.9317284], [15.8480389, 44.9319358], [15.8483709, 44.9321678], [15.8487029, 44.9332496], [15.8493771, 44.9342546], [15.8496362, 44.93449], [15.8499544, 44.9342945], [15.8503151, 44.9342797], [15.850649, 44.9343796], [15.8509532, 44.9345351], [15.8511658, 44.9349342], [15.8515843, 44.9353501], [15.8519378, 44.9356832], [15.8521338, 44.9360542], [15.8527262, 44.9366863], [15.8538065, 44.936568], [15.8545859, 44.936789], [15.8553069, 44.9368725], [15.8563826, 44.9367882], [15.8578105, 44.9369484], [15.8573526, 44.9372803], [15.8568556, 44.9380586], [15.8567315, 44.9393237], [15.8565944, 44.9398244], [15.8565348, 44.9402134], [15.8564698, 44.9406496], [15.8565187, 44.9408239], [15.8566846, 44.9410074], [15.8559968, 44.9409732], [15.855316, 44.9411711], [15.8520959, 44.9430982], [15.8517253, 44.9435977], [15.8513692, 44.9446612], [15.8512599, 44.9453023], [15.8512224, 44.9456897], [15.8507986, 44.9460103], [15.8492401, 44.9463152], [15.8486385, 44.9464555], [15.8481308, 44.9464214], [15.8473044, 44.9465008], [15.8460602, 44.9462882], [15.8445357, 44.9462518], [15.8437129, 44.9460574], [15.8428353, 44.9460878], [15.8412484, 44.9463611], [15.8403391, 44.9464701], [15.8396666, 44.9464332], [15.8389118, 44.94619], [15.8384527, 44.9461547], [15.8378654, 44.9461963], [15.8369773, 44.9464242], [15.8364757, 44.9464367], [15.8355569, 44.9464887], [15.8352553, 44.9462598], [15.8344964, 44.9459099], [15.834195, 44.945537], [15.8335106, 44.9445498], [15.8334894, 44.9443524], [15.8334681, 44.9441549], [15.8335665, 44.9439027], [15.8336177, 44.943681], [15.8336036, 44.9435336], [15.8334427, 44.9434946], [15.8330344, 44.9435647], [15.8326199, 44.9435612], [15.8322024, 44.9436164], [15.8320225, 44.9433586], [15.8315233, 44.9428575], [15.8309303, 44.9423553], [15.8302513, 44.9415343], [15.8298862, 44.941036], [15.8291042, 44.9404856], [15.8280091, 44.9400464], [15.8257197, 44.9395347], [15.8246789, 44.9389677], [15.8234992, 44.9388625], [15.8221718, 44.9389786], [15.8215755, 44.9393444], [15.8212593, 44.9398254], [15.8207724, 44.9399825], [15.8206408, 44.9400249], [15.8204077, 44.9396267], [15.8205175, 44.9386511], [15.8203292, 44.9379511], [15.8200581, 44.9375048], [15.8191441, 44.9373789], [15.8179162, 44.937407], [15.817286, 44.9372869], [15.8173996, 44.9368738], [15.8171099, 44.9362611], [15.8169979, 44.9355935], [15.8173083, 44.9349961], [15.8174471, 44.9348084], [15.8175324, 44.9346458], [15.8174876, 44.9345113], [15.817177, 44.934497], [15.8166984, 44.9344655], [15.8163678, 44.934387], [15.8162143, 44.9342803], [15.8162755, 44.9341769], [15.8162148, 44.9340545], [15.8157603, 44.9339122], [15.8156739, 44.9338189], [15.8157536, 44.9337143], [15.8160916, 44.9336899], [15.8162821, 44.9335805], [15.8162829, 44.9333586], [15.816176, 44.9329379], [15.8159938, 44.9329037], [15.8159714, 44.9330932], [15.8158031, 44.9332158], [15.8155737, 44.9330263], [15.8153448, 44.9330314], [15.8151348, 44.9331417], [15.814969, 44.9330837], [15.8149684, 44.9329727], [15.8151608, 44.9328366], [15.81521, 44.9327384], [15.8151673, 44.9326255], [15.8150464, 44.9325843], [15.8147985, 44.9327465], [15.814582, 44.9326861], [15.8145794, 44.9325599], [15.8145581, 44.9324108], [15.8144049, 44.9323086], [15.8144369, 44.932181], [15.8148112, 44.932072], [15.8149651, 44.9319917], [15.8148948, 44.9319221], [15.8146692, 44.9318869], [15.8145097, 44.9317027], [15.8142691, 44.9315736], [15.8141143, 44.9312804], [15.813805, 44.9310784], [15.8136366, 44.9311101], [15.8135024, 44.9311904], [15.8132771, 44.9311991], [15.8125774, 44.931089], [15.812528, 44.9311727], [15.8120028, 44.931157], [15.8117214, 44.9310942], [15.8112767, 44.9310174], [15.8109589, 44.9309991], [15.8107447, 44.9309564], [15.8105381, 44.9309878], [15.8104202, 44.9309982], [15.8103206, 44.9309249], [15.8101325, 44.930555], [15.8100554, 44.9305218], [15.8096721, 44.9306562], [15.8094504, 44.9307295], [15.8093268, 44.9306737], [15.8092082, 44.9306702], [15.8090453, 44.930712], [15.8086894, 44.9305201], [15.8080626, 44.9303788], [15.8076562, 44.9304974], [15.8074778, 44.9304433], [15.8067575, 44.9306143], [15.8065995, 44.9308269], [15.8064359, 44.9310485], [15.8063226, 44.9310857], [15.8062023, 44.9310408], [15.8060645, 44.9309715], [15.8055563, 44.9308533], [15.8053504, 44.9308212], [15.8052719, 44.9305661], [15.8050982, 44.9304655], [15.8046437, 44.9304347], [15.8044572, 44.9303153], [15.8043378, 44.9302909], [15.8042206, 44.930436], [15.8041409, 44.9304604], [15.8040289, 44.9303487], [15.8038501, 44.9303597], [15.8037183, 44.930483], [15.8036363, 44.9304724], [15.8035617, 44.9304335], [15.8035284, 44.9302837], [15.8034618, 44.9303002], [15.803394, 44.9303408], [15.8033419, 44.9302781], [15.8033107, 44.9301134], [15.8031536, 44.9300279], [15.8027393, 44.9299866], [15.8024693, 44.9298479], [15.8023532, 44.9296503], [15.8023887, 44.9292998], [15.8021839, 44.9291019], [15.8021398, 44.9289202], [15.802197, 44.9287543], [15.8024138, 44.928672], [15.8024771, 44.9285838], [15.8023677, 44.9282378], [15.8024012, 44.92812], [15.8025294, 44.9279709], [15.802497, 44.9279127], [15.8022384, 44.9277474], [15.8019541, 44.9273771], [15.8018327, 44.9273187], [15.8017473, 44.9273304], [15.8014832, 44.9275496], [15.8010993, 44.9277079], [15.8005162, 44.9278691], [15.7997189, 44.9280121], [15.7994823, 44.9281218], [15.7993356, 44.9283142], [15.7987412, 44.9281992], [15.7983554, 44.9283749], [15.7984136, 44.9284852], [15.7977973, 44.9290945], [15.7972829, 44.9295905], [15.7967377, 44.9298503], [15.7962874, 44.9300232], [15.7954516, 44.9307968], [15.7946023, 44.9313459], [15.794227, 44.9317321], [15.793921, 44.9320159], [15.7933295, 44.9322554], [15.7924046, 44.9325848], [15.7915746, 44.9326722], [15.7908404, 44.9327217], [15.7902435, 44.9328501], [15.7881209, 44.9338428], [15.7862623, 44.9341684], [15.7848156, 44.934336], [15.7848403, 44.934904], [15.7844447, 44.9358732], [15.7840618, 44.9367489], [15.7841535, 44.9370652], [15.7849135, 44.937528], [15.7853912, 44.9378003], [15.7860293, 44.9381352], [15.7861637, 44.9383745], [15.7866915, 44.9387741], [15.7867971, 44.938996], [15.7865512, 44.9393887], [15.7862679, 44.9396553], [15.7861419, 44.94035], [15.785898, 44.9406511], [15.7859814, 44.9409592], [15.786159, 44.9413941], [15.786054, 44.9417395], [15.7858459, 44.9420485], [15.7852803, 44.9428238], [15.7846551, 44.9432136], [15.7838561, 44.9439231], [15.7834617, 44.9445436], [15.7829027, 44.945067], [15.7820372, 44.9455734], [15.7814419, 44.945728], [15.7811856, 44.9461964], [15.7805471, 44.9463059], [15.7807898, 44.9468893], [15.7812492, 44.9472051], [15.7811631, 44.9476851], [15.7806031, 44.9480072], [15.7797396, 44.9485341], [15.7795555, 44.9488388], [15.779474, 44.9496956], [15.7792793, 44.949879], [15.7790231, 44.950072], [15.7789168, 44.9502629], [15.7789497, 44.9506648], [15.7785617, 44.9510623], [15.7784729, 44.9513082], [15.7783097, 44.9520708], [15.7788589, 44.9535433], [15.7804324, 44.9581929], [15.7815824, 44.9591722], [15.7816565, 44.9596182], [15.7814546, 44.9597556], [15.7811007, 44.9598417], [15.7808704, 44.9600409], [15.7801199, 44.9608545], [15.779489, 44.9622392], [15.7793474, 44.9640239], [15.7796243, 44.9660863], [15.7794386, 44.9667776], [15.7792185, 44.967035], [15.7788788, 44.9672343], [15.7783337, 44.9674626], [15.7782116, 44.9676606], [15.7782942, 44.9680487], [15.7783847, 44.9683729], [15.7785276, 44.968435], [15.7787703, 44.9683673], [15.7789278, 44.9683553], [15.7790209, 44.9684247], [15.7790518, 44.9685623], [15.7788467, 44.9688639], [15.7785983, 44.9688298], [15.777866, 44.9689549], [15.7771587, 44.9690273], [15.7764934, 44.9689918], [15.7760129, 44.9690795], [15.7758496, 44.9691909], [15.7757765, 44.9694157], [15.7757411, 44.9696095], [15.7754152, 44.9700583], [15.7751639, 44.9705712], [15.7748602, 44.9708557], [15.7743399, 44.9710544], [15.7735711, 44.9711496], [15.772916, 44.9714043], [15.7726442, 44.9714534], [15.7724822, 44.9713196], [15.7722622, 44.9712131], [15.7721323, 44.9713337], [15.7719966, 44.9714955], [15.7714813, 44.9716003], [15.7711723, 44.9716023], [15.7706783, 44.9716827], [15.7700037, 44.9714916], [15.7694283, 44.971185], [15.7687791, 44.9708654], [15.7682452, 44.9709314], [15.7680356, 44.9710228], [15.7677553, 44.9709144], [15.7655068, 44.970217], [15.7653864, 44.9702256], [15.7651418, 44.9703043], [15.7644562, 44.9703472], [15.7639995, 44.9704329], [15.7629616, 44.9703887], [15.7628101, 44.970311], [15.7626442, 44.9703469], [15.762511, 44.9702837], [15.7621942, 44.9700575], [15.7618072, 44.9700246], [15.760448, 44.9694622], [15.7600209, 44.9691085], [15.7594142, 44.9691255], [15.7592119, 44.969164], [15.7582204, 44.969143], [15.7568774, 44.9698055], [15.7564885, 44.9698654], [15.7550537, 44.9703035], [15.7535064, 44.9697732], [15.7517057, 44.9685787], [15.7509392, 44.9683138], [15.7500515, 44.9682909], [15.7495114, 44.9678805], [15.7492163, 44.9676744], [15.7486749, 44.967283], [15.7483672, 44.966109], [15.7476557, 44.964464], [15.7479116, 44.9637379], [15.7479111, 44.9637373], [15.7464964, 44.9617026], [15.7459603, 44.9614226], [15.7455743, 44.9609798], [15.7454973, 44.9604223], [15.7457017, 44.959566], [15.746054, 44.9588753], [15.7461376, 44.9584833], [15.7462281, 44.9581272], [15.7460914, 44.9578446], [15.7457769, 44.9575452], [15.7457625, 44.9574059], [15.7459115, 44.9566894], [15.7460996, 44.9560402], [15.746039, 44.9557706], [15.7458382, 44.95543], [15.7457397, 44.9551606], [15.7455972, 44.9549276], [15.7455764, 44.9547883], [15.7457374, 44.9544947], [15.7458498, 44.954368], [15.7463327, 44.9539823], [15.7466225, 44.95385], [15.7472091, 44.9536481], [15.747806, 44.9532482], [15.748505, 44.9529107], [15.7489483, 44.9524083], [15.7491327, 44.9519661], [15.7497149, 44.9514178], [15.7499212, 44.950719], [15.7498549, 44.95049], [15.7494839, 44.9502315], [15.7489872, 44.9500458], [15.7484254, 44.9497165], [15.7480272, 44.9493051], [15.7477463, 44.948659], [15.7475066, 44.9482556], [15.7475047, 44.9481027], [15.7472188, 44.9475601], [15.7472839, 44.9472087], [15.7470008, 44.9468776], [15.7467813, 44.9465685], [15.746125, 44.9462803], [15.7459074, 44.9461153], [15.7455445, 44.9459827], [15.7453458, 44.9457995], [15.7451845, 44.9455801], [15.7451822, 44.9455783], [15.7449324, 44.9453814], [15.7444537, 44.9450449], [15.7443663, 44.9448424], [15.7443509, 44.9448115], [15.7443249, 44.9447577], [15.7434591, 44.9426666], [15.7432966, 44.9424775], [15.7432328, 44.9423204], [15.7433099, 44.942028], [15.7432934, 44.9418611], [15.7432236, 44.9417328], [15.7431348, 44.9416602], [15.7422135, 44.9413883], [15.7415796, 44.9410629], [15.7414094, 44.9409425], [15.7412739, 44.9408129], [15.7410781, 44.9406786], [15.7408672, 44.9404697], [15.7406768, 44.9403178], [15.740194, 44.9398548], [15.7400789, 44.9397121], [15.7396974, 44.9390452], [15.7392953, 44.9384437], [15.739116, 44.938108], [15.7383273, 44.9370102], [15.7377994, 44.9366564], [15.7372406, 44.9363096], [15.7363409, 44.9359285], [15.7366951, 44.9356359], [15.7367187, 44.935632], [15.7371194, 44.9356701], [15.7375949, 44.9355846], [15.7380327, 44.9355202], [15.7393986, 44.9351344], [15.7396074, 44.9347095], [15.7397274, 44.9344291], [15.7399748, 44.9338597], [15.7400311, 44.9327872], [15.7406697, 44.932088], [15.7416649, 44.9296092], [15.7429896, 44.9267715], [15.7435276, 44.9254353], [15.7443578, 44.9232595], [15.7453555, 44.9203171], [15.7459126, 44.9189385], [15.7468673, 44.9176361], [15.7472204, 44.9170978], [15.7476815, 44.9159873], [15.7479665, 44.9154191], [15.7489619, 44.9143692], [15.7517353, 44.9088405], [15.7532507, 44.9058477], [15.7544769, 44.9034259], [15.7550193, 44.9017041], [15.7568922, 44.8966038], [15.758465, 44.8927123], [15.7602208, 44.8873699], [15.7600205, 44.8830625], [15.7599046, 44.8771792], [15.7599039, 44.8769763], [15.7599359, 44.8768616], [15.760147, 44.8745834], [15.7601616, 44.8710433], [15.760233, 44.8696378], [15.7615992, 44.8686521], [15.7640073, 44.8669146], [15.7686024, 44.863799], [15.7787962, 44.8565949], [15.7831464, 44.853605], [15.7885472, 44.8498928], [15.793263, 44.8466115], [15.7942775, 44.8457975], [15.7945892, 44.8454198], [15.7945207, 44.8449174], [15.7939037, 44.8443718], [15.793428, 44.8436657], [15.7934601, 44.8434227], [15.7930758, 44.8430353], [15.7929384, 44.8428969], [15.780529, 44.839564], [15.761758, 44.8296057], [15.7476503, 44.8269546], [15.7286823, 44.8254901]]]}}]}