{"type": "FeatureCollection", "features": [{"type": "Feature", "properties": {"name": "Општина Билећа / Opština Bileća, Република Српска / Republika Srpska, 89230, Bosna i Hercegovina / Босна и Херцеговина", "source": "OpenStreetMap relation 2528161", "licence": "ODbL 1.0"}, "geometry": {"type": "Polygon", "coordinates": [[[18.1579371, 43.0529309], [18.16192, 43.0515302], [18.1831341, 43.0440722], [18.182752, 43.043423], [18.1826689, 43.0433476], [18.1825564, 43.0432106], [18.1824385, 43.0430422], [18.1823568, 43.0428777], [18.1822269, 43.0425174], [18.1822001, 43.0424225], [18.1821867, 43.0423343], [18.1821425, 43.0421552], [18.1820742, 43.0420416], [18.1820085, 43.0419838], [18.1819777, 43.0419006], [18.1819683, 43.0418096], [18.1819469, 43.0417626], [18.1818987, 43.0416931], [18.1818585, 43.0416089], [18.1818116, 43.0415354], [18.18175, 43.0414747], [18.1816977, 43.0413964], [18.1816709, 43.0413641], [18.1816415, 43.041275], [18.181624, 43.0412368], [18.181604, 43.0411849], [18.1815986, 43.0411252], [18.1815263, 43.0409637], [18.1815276, 43.0409451], [18.1815638, 43.0409274], [18.1817084, 43.0408824], [18.181762, 43.0408628], [18.1817754, 43.0408393], [18.1818196, 43.040806], [18.1818504, 43.0407855], [18.1818839, 43.0407365], [18.1818799, 43.0406964], [18.1818397, 43.0406327], [18.1817473, 43.0405583], [18.1816026, 43.0404937], [18.1815919, 43.0404839], [18.1815517, 43.0404536], [18.1814874, 43.0404487], [18.1813963, 43.0404722], [18.1812691, 43.0405485], [18.1812262, 43.0406034], [18.1811927, 43.0406553], [18.1811204, 43.0406778], [18.1810855, 43.040665], [18.1809676, 43.0405936], [18.1808699, 43.0404722], [18.1808256, 43.0404252], [18.1807922, 43.0403713], [18.180681, 43.0402548], [18.1806019, 43.040154], [18.1804452, 43.040057], [18.1803635, 43.0400277], [18.1803139, 43.0400306], [18.1802778, 43.0399905], [18.1802751, 43.0399327], [18.180259, 43.0398837], [18.1802389, 43.0397878], [18.180184, 43.0396928], [18.1801532, 43.0396204], [18.1800969, 43.0394931], [18.1800982, 43.0394539], [18.1800634, 43.039355], [18.1800554, 43.0392728], [18.1800447, 43.0391847], [18.1800272, 43.0391377], [18.1799844, 43.0390828], [18.1799509, 43.038983], [18.1799589, 43.0389017], [18.179979, 43.0388293], [18.179975, 43.0386775], [18.1799589, 43.0386315], [18.1799536, 43.0385913], [18.1799388, 43.0385326], [18.1798745, 43.0383857], [18.1798116, 43.0381762], [18.1797486, 43.0380548], [18.1797312, 43.0380225], [18.1797312, 43.0380048], [18.179758, 43.0379892], [18.1798209, 43.0379667], [18.179971, 43.037952], [18.1799763, 43.0379392], [18.1799763, 43.0379206], [18.1799469, 43.0378707], [18.1799562, 43.0378276], [18.1799938, 43.0377738], [18.1800219, 43.0377366], [18.1800447, 43.037716], [18.1800755, 43.0377092], [18.1801049, 43.0377072], [18.1801358, 43.0377121], [18.1801679, 43.0377199], [18.1802081, 43.0377062], [18.1802657, 43.0376788], [18.1803367, 43.0376533], [18.1803769, 43.0376152], [18.1803501, 43.0375828], [18.1803059, 43.0375447], [18.1802711, 43.0374888], [18.180184, 43.0374203], [18.1800835, 43.037387], [18.1798826, 43.0372979], [18.1797687, 43.0372176], [18.1796923, 43.0371628], [18.1796106, 43.0371031], [18.1794418, 43.0369885], [18.1793159, 43.0368397], [18.1792315, 43.0366517], [18.1792288, 43.0365822], [18.1792208, 43.0364715], [18.1792021, 43.0363883], [18.179194, 43.0363364], [18.1792208, 43.0362718], [18.1792757, 43.0362307], [18.1793065, 43.0361592], [18.1794043, 43.0360916], [18.1794298, 43.0360192], [18.1794901, 43.0358968], [18.1795664, 43.0357509], [18.1796026, 43.0356363], [18.1796039, 43.0354591], [18.179608, 43.035369], [18.1796428, 43.0352985], [18.1796669, 43.0352388], [18.1796589, 43.0351722], [18.1796053, 43.0350792], [18.1795611, 43.0349362], [18.179541, 43.0347893], [18.1795383, 43.0346885], [18.1795329, 43.0346464], [18.1795182, 43.0346219], [18.1794941, 43.0346268], [18.179466, 43.0346151], [18.1794311, 43.0345965], [18.1793936, 43.0345612], [18.179257, 43.0344574], [18.1791619, 43.0343918], [18.1791203, 43.0343566], [18.1790721, 43.0343282], [18.1790266, 43.0343007], [18.1789797, 43.03424], [18.1789502, 43.0342097], [18.1789194, 43.0341852], [18.1788698, 43.0341686], [18.1788578, 43.0341402], [18.178843, 43.0341108], [18.1788176, 43.0340883], [18.1787921, 43.0340804], [18.1787319, 43.0340481], [18.1785577, 43.034005], [18.1785242, 43.0339894], [18.1784331, 43.0339522], [18.1783005, 43.0339042], [18.1781907, 43.033863], [18.1781022, 43.0338112], [18.1780178, 43.033723], [18.1779643, 43.03363], [18.1777968, 43.0333059], [18.1777339, 43.033207], [18.1776575, 43.0329436], [18.1776213, 43.0328868], [18.1775919, 43.0328594], [18.1775383, 43.0328163], [18.1774298, 43.0327105], [18.1773963, 43.0326733], [18.1773574, 43.0326263], [18.1773427, 43.032595], [18.1773413, 43.0325695], [18.177115, 43.0324648], [18.17687, 43.0322973], [18.1766193, 43.032126], [18.1765255, 43.0319977], [18.1758772, 43.0306924], [18.1758169, 43.0307149], [18.17577, 43.0307198], [18.1757124, 43.0306992], [18.1756119, 43.0306757], [18.175561, 43.0306493], [18.1754914, 43.0306121], [18.1754472, 43.0306052], [18.1752328, 43.0305621], [18.1751538, 43.0305191], [18.1749595, 43.0304466], [18.1746166, 43.0303565], [18.1745188, 43.0303271], [18.1744331, 43.0302821], [18.1743728, 43.0302341], [18.1743259, 43.030238], [18.1742656, 43.0302194], [18.1742107, 43.0301734], [18.1741518, 43.0301381], [18.1740366, 43.0301156], [18.1739548, 43.0300735], [18.1738544, 43.030005], [18.1737887, 43.0299354], [18.1736481, 43.0298277], [18.1735998, 43.0297983], [18.1735195, 43.029769], [18.17349, 43.0297376], [18.1734552, 43.0296475], [18.1734525, 43.0296103], [18.1734672, 43.0295682], [18.1734728, 43.0294457], [18.1735031, 43.0293335], [18.173541, 43.0292311], [18.1736679, 43.0290496], [18.1737646, 43.0288876], [18.1738896, 43.0287117], [18.1740165, 43.0285511], [18.1740715, 43.0284804], [18.1741435, 43.0282589], [18.1741719, 43.028209], [18.1742136, 43.0281619], [18.1743405, 43.0281218], [18.1745102, 43.0280639], [18.1745732, 43.0280541], [18.1746844, 43.0280227], [18.1747487, 43.028008], [18.1748183, 43.028012], [18.1749054, 43.0280071], [18.1750019, 43.0279787], [18.1751505, 43.0279395], [18.1751921, 43.0279248], [18.1754332, 43.0278396], [18.1755819, 43.0278004], [18.1756127, 43.02768], [18.1755283, 43.0276692], [18.1754787, 43.0276584], [18.1753957, 43.027632], [18.1753381, 43.027587], [18.1752992, 43.027539], [18.1752564, 43.0275037], [18.1752001, 43.0274724], [18.1751505, 43.0274028], [18.175168, 43.0273931], [18.1751465, 43.0273715], [18.1751345, 43.0273451], [18.1751371, 43.0273157], [18.1751546, 43.0272785], [18.1751438, 43.0272276], [18.175105, 43.0271659], [18.1750795, 43.0271169], [18.1750782, 43.0270787], [18.1750849, 43.0270435], [18.175097, 43.0269886], [18.1750769, 43.0268603], [18.1750782, 43.0268358], [18.1750876, 43.0267947], [18.1750916, 43.0267506], [18.1750782, 43.0267007], [18.1750635, 43.0266615], [18.1750461, 43.0266282], [18.1750407, 43.0265861], [18.1750608, 43.0265499], [18.1751197, 43.0264862], [18.1751961, 43.0264363], [18.1752309, 43.0264069], [18.1752698, 43.0263893], [18.1753301, 43.0263433], [18.1754319, 43.0262904], [18.1755698, 43.0261738], [18.1755792, 43.0261445], [18.1755685, 43.0260896], [18.1755297, 43.025979], [18.1755404, 43.0259486], [18.1755698, 43.0258654], [18.1755873, 43.0258438], [18.1756301, 43.0258046], [18.1757601, 43.0256607], [18.1806965, 43.0079149], [18.1848424, 43.0039618], [18.1907153, 42.9999416], [18.1965773, 42.9958888], [18.1957601, 42.9886968], [18.1964047, 42.9882172], [18.1991441, 42.9862023], [18.2018267, 42.9842177], [18.2027853, 42.9812019], [18.2041154, 42.9763576], [18.1967537, 42.9707742], [18.1963786, 42.9707732], [18.1961241, 42.9707566], [18.1957811, 42.9707125], [18.1955159, 42.9706399], [18.1952399, 42.970538], [18.1950028, 42.9703782], [18.1947269, 42.9701734], [18.1945742, 42.969995], [18.1945069, 42.9697409], [18.1923992, 42.9664167], [18.189383, 42.960061], [18.1988856, 42.9584236], [18.1991803, 42.9582157], [18.1994081, 42.9581118], [18.1996358, 42.9579334], [18.1999385, 42.957551], [18.2008495, 42.9570412], [18.2075394, 42.9538489], [18.2125279, 42.949728], [18.2127248, 42.9492917], [18.2129753, 42.9491505], [18.2131428, 42.949075], [18.2133437, 42.9490514], [18.2137161, 42.9491083], [18.2142118, 42.9491877], [18.2147603, 42.949312], [18.216923, 42.9483762], [18.2172297, 42.948133], [18.2176423, 42.9480173], [18.217862, 42.9480104], [18.2278179, 42.9439639], [18.2334656, 42.9384487], [18.2346766, 42.9357497], [18.2365628, 42.9315599], [18.243518, 42.9291352], [18.2440307, 42.9287884], [18.2511162, 42.9239954], [18.2555208, 42.919632], [18.262012, 42.9150615], [18.2786268, 42.9087983], [18.303921, 42.8825846], [18.3135279, 42.8763679], [18.3174979, 42.8738021], [18.3200455, 42.8719465], [18.321843, 42.8710187], [18.3227964, 42.8700221], [18.3264538, 42.8661616], [18.3298298, 42.8626446], [18.3330652, 42.8597002], [18.338701, 42.8547556], [18.339732, 42.8496253], [18.3431558, 42.8459121], [18.3419864, 42.8429356], [18.342166, 42.8428201], [18.34226, 42.8427593], [18.3423595, 42.842654], [18.3424893, 42.8424312], [18.3426136, 42.842417], [18.3427905, 42.8423805], [18.3429701, 42.8423278], [18.3432049, 42.8422063], [18.3434315, 42.8420685], [18.3440172, 42.8415722], [18.3445063, 42.8412075], [18.344929, 42.8409441], [18.3455452, 42.8406646], [18.3460066, 42.840462], [18.3466448, 42.8401337], [18.3469294, 42.8399312], [18.3471224, 42.8397421], [18.347308, 42.8396533], [18.3475991, 42.8394943], [18.3477319, 42.8393854], [18.3483102, 42.8390401], [18.3485134, 42.8389012], [18.3487498, 42.8387178], [18.3489929, 42.8385433], [18.3517978, 42.8327493], [18.3516982, 42.8327189], [18.3517006, 42.832636], [18.3517539, 42.8325744], [18.351814, 42.8325364], [18.3519063, 42.8325147], [18.3534795, 42.8292797], [18.3642243, 42.8262926], [18.3661357, 42.8264773], [18.3660681, 42.826229], [18.366075, 42.8261176], [18.3661233, 42.8260112], [18.3662615, 42.8259317], [18.3664659, 42.825884], [18.3665833, 42.825878], [18.3666794, 42.8258896], [18.3667926, 42.8259702], [18.3668838, 42.8260811], [18.3668949, 42.8263562], [18.3669287, 42.8265061], [18.3764897, 42.8273566], [18.3892491, 42.8182449], [18.38896, 42.8167445], [18.3889229, 42.8162716], [18.3989865, 42.8074443], [18.4050871, 42.8031277], [18.3900859, 42.7946312], [18.3900887, 42.7945785], [18.3900528, 42.7945542], [18.3900196, 42.7945278], [18.3900168, 42.7944569], [18.3900279, 42.7944204], [18.3900528, 42.79439], [18.3901577, 42.7943109], [18.3902185, 42.7942541], [18.3902434, 42.7942237], [18.3902572, 42.7941893], [18.390271, 42.7941548], [18.3903014, 42.7940859], [18.3903263, 42.7940554], [18.3903594, 42.7940291], [18.3903871, 42.7939966], [18.3904119, 42.7939662], [18.3904313, 42.7939318], [18.3904672, 42.7938628], [18.390481, 42.7937878], [18.390481, 42.7937493], [18.3904506, 42.7936053], [18.3904534, 42.7935425], [18.3904755, 42.7935121], [18.3905418, 42.7934127], [18.3905584, 42.7933742], [18.3905584, 42.7933397], [18.3905501, 42.7933012], [18.3905363, 42.7932668], [18.3905252, 42.7932343], [18.3905252, 42.7931978], [18.3905308, 42.7931613], [18.3905584, 42.7931309], [18.3905998, 42.7931086], [18.3906413, 42.7930904], [18.3906827, 42.7930721], [18.3907656, 42.7930235], [18.3908126, 42.7929991], [18.390854, 42.7929768], [18.3908899, 42.7929545], [18.3909314, 42.7929342], [18.3909673, 42.7929079], [18.3910032, 42.7928836], [18.3910336, 42.7928511], [18.391064, 42.7928227], [18.3910889, 42.7927943], [18.3911082, 42.7927619], [18.3911276, 42.7927274], [18.3911524, 42.7926828], [18.3911524, 42.7926463], [18.3912325, 42.7926017], [18.3912491, 42.7925673], [18.3912712, 42.7925328], [18.3913127, 42.7925125], [18.3913541, 42.7924922], [18.3914011, 42.792474], [18.3914508, 42.7924557], [18.391495, 42.7924375], [18.3915365, 42.7924192], [18.3915834, 42.7923969], [18.3916221, 42.7923726], [18.3916636, 42.7923463], [18.3916967, 42.7923199], [18.3917244, 42.7922895], [18.3917409, 42.792255], [18.3917879, 42.7921942], [18.3918294, 42.7921293], [18.3918487, 42.7920969], [18.3918763, 42.7920644], [18.3919095, 42.792036], [18.3919454, 42.7920097], [18.3919813, 42.7919854], [18.3920255, 42.7919671], [18.392078, 42.7919489], [18.392125, 42.7919367], [18.3922245, 42.7919367], [18.3922687, 42.7919225], [18.3923488, 42.7918738], [18.392382, 42.7918455], [18.3924566, 42.7918069], [18.3925533, 42.7917846], [18.3925975, 42.7917684], [18.3926361, 42.7917481], [18.3926748, 42.7917218], [18.3927135, 42.7916995], [18.3927964, 42.791665], [18.3928461, 42.7916508], [18.3928931, 42.7916386], [18.3929539, 42.7916305], [18.3930616, 42.7916163], [18.3931086, 42.7916062], [18.3931528, 42.79159], [18.3932274, 42.7915413], [18.3932965, 42.7914825], [18.3933269, 42.7914501], [18.3933573, 42.7914197], [18.3934208, 42.7913548], [18.3934512, 42.7913244], [18.3934899, 42.7913061], [18.3935838, 42.7912838], [18.3936336, 42.7912777], [18.3937413, 42.7912757], [18.3937883, 42.7912737], [18.3938436, 42.7912717], [18.3938961, 42.7912656], [18.3939486, 42.7912554], [18.3940563, 42.7912189], [18.3941033, 42.7912007], [18.394142, 42.7911784], [18.3941834, 42.7911581], [18.3942221, 42.7911378], [18.3942553, 42.7911115], [18.3944072, 42.7910263], [18.3944459, 42.7910081], [18.3944818, 42.7909817], [18.3945177, 42.7909574], [18.3945647, 42.7909432], [18.3946117, 42.7909371], [18.3946614, 42.790931], [18.3947111, 42.7909331], [18.3948051, 42.7909594], [18.3948548, 42.7909675], [18.3949073, 42.7909675], [18.394957, 42.7909554], [18.394993, 42.790929], [18.3950344, 42.7909087], [18.3950731, 42.7908864], [18.3951145, 42.7908621], [18.3951505, 42.7908378], [18.3952195, 42.7907871], [18.3952527, 42.7907587], [18.3952803, 42.7907303], [18.3953079, 42.7907019], [18.3953411, 42.7906735], [18.395377, 42.7906512], [18.3954268, 42.7906512], [18.3954765, 42.7906573], [18.3955621, 42.7906593], [18.3958219, 42.7905661], [18.3958605, 42.7905012], [18.3959158, 42.7904363], [18.3959711, 42.7903755], [18.3960318, 42.7903146], [18.3960982, 42.7902619], [18.3961645, 42.7902051], [18.3962971, 42.7900957], [18.3964297, 42.7899983], [18.3965071, 42.7899537], [18.3965955, 42.7899132], [18.3966287, 42.7898422], [18.3966535, 42.7898483], [18.3967502, 42.7898402], [18.3967861, 42.7898138], [18.3968082, 42.7897814], [18.3968221, 42.7897449], [18.3968414, 42.7896739], [18.3968552, 42.7896394], [18.3968718, 42.789607], [18.3968911, 42.7895705], [18.3969105, 42.7895381], [18.3969298, 42.7895056], [18.3969547, 42.7894752], [18.3969823, 42.7894428], [18.3970155, 42.7894164], [18.3970514, 42.7893921], [18.3970901, 42.7893718], [18.3971728, 42.7893302], [18.3972978, 42.7892843], [18.3973486, 42.789247], [18.3973955, 42.789204], [18.3974424, 42.789161], [18.3975245, 42.7890721], [18.3976143, 42.7889918], [18.3976573, 42.7889517], [18.3977042, 42.7889144], [18.3977628, 42.7888828], [18.3978253, 42.7888599], [18.3978957, 42.7888542], [18.3979621, 42.7888742], [18.3980051, 42.7889115], [18.398052, 42.7889488], [18.3981028, 42.7889803], [18.3981653, 42.7890004], [18.3982278, 42.7890119], [18.3982825, 42.7890348], [18.3984466, 42.7891208], [18.398517, 42.7891266], [18.3985873, 42.7891151], [18.3986459, 42.789095], [18.398685, 42.789052], [18.3987631, 42.7890033], [18.3988335, 42.7889918], [18.3989038, 42.7889947], [18.3990484, 42.7889861], [18.3991187, 42.7889746], [18.3991578, 42.7889316], [18.399189, 42.7888828], [18.3992203, 42.7887796], [18.3992359, 42.7887309], [18.3992594, 42.788685], [18.3992984, 42.788642], [18.3993571, 42.7886162], [18.3994274, 42.7886018], [18.3994977, 42.7885932], [18.3995759, 42.7885846], [18.3996423, 42.7885731], [18.3997048, 42.7885559], [18.3997595, 42.7885273], [18.3998064, 42.7884355], [18.3998377, 42.7883896], [18.3998768, 42.7883409], [18.3999119, 42.7883007], [18.3999471, 42.7882577], [18.399994, 42.7882176], [18.4000487, 42.7881832], [18.4001151, 42.7881688], [18.4001737, 42.788143], [18.4002245, 42.7881057], [18.4002558, 42.788057], [18.4002558, 42.7879595], [18.4002128, 42.7878104], [18.4002128, 42.7877616], [18.4002323, 42.7877129], [18.4002753, 42.7876699], [18.4003261, 42.7876383], [18.4003964, 42.7876297], [18.4004668, 42.7876183], [18.4005019, 42.7875724], [18.4005332, 42.7875236], [18.4005762, 42.7874835], [18.4006348, 42.7874433], [18.4006856, 42.787406], [18.4008497, 42.78732], [18.4010431, 42.7871765], [18.4010818, 42.7871116], [18.4010873, 42.7870386], [18.4011094, 42.7869697], [18.4011592, 42.7869007], [18.4012255, 42.786848], [18.4012918, 42.7867993], [18.4013802, 42.7867669], [18.4014741, 42.7867182], [18.401557, 42.7866777], [18.4016233, 42.786629], [18.4016897, 42.7865763], [18.4018167, 42.7864546], [18.4018775, 42.7863978], [18.4019328, 42.7863411], [18.4019991, 42.7862883], [18.4020709, 42.7862356], [18.4021538, 42.7861991], [18.4022422, 42.7861748], [18.4023362, 42.7861626], [18.4024301, 42.7861626], [18.4025241, 42.7861545], [18.4025904, 42.7861059], [18.4027009, 42.7859882], [18.4027783, 42.7859396], [18.4028446, 42.7858869], [18.4028943, 42.785826], [18.402933, 42.7857571], [18.4029938, 42.7857044], [18.4030767, 42.7856597], [18.4031651, 42.7856273], [18.403259, 42.785607], [18.4033585, 42.7855786], [18.4034359, 42.7855259], [18.4035132, 42.7854854], [18.4035851, 42.7854367], [18.4036631, 42.7853978], [18.4037114, 42.7853764], [18.4038949, 42.7853186], [18.4040009, 42.785283], [18.4041923, 42.7852194], [18.404242, 42.7851789], [18.4043332, 42.785041], [18.4044327, 42.7849173], [18.4045238, 42.78482], [18.4045984, 42.7847571], [18.404709, 42.7846821], [18.4048747, 42.7846273], [18.4050681, 42.7845685], [18.4052035, 42.7845077], [18.4052505, 42.7844671], [18.4052864, 42.7844185], [18.4053306, 42.7843536], [18.4053444, 42.7843009], [18.4053804, 42.784242], [18.4054411, 42.7842116], [18.4054964, 42.784169], [18.4055406, 42.7841265], [18.4055572, 42.7840798], [18.4055544, 42.7840129], [18.4055461, 42.7839703], [18.4054992, 42.7838993], [18.4055019, 42.7838466], [18.4055489, 42.7837675], [18.4056567, 42.7836743], [18.405828, 42.7835485], [18.4061291, 42.7833214], [18.4061816, 42.7832748], [18.4062811, 42.7832099], [18.406411, 42.7831085], [18.4065104, 42.7830375], [18.4066458, 42.7829807], [18.4067978, 42.7829321], [18.4070906, 42.7828976], [18.4071818, 42.7828733], [18.4072868, 42.782855], [18.4073669, 42.782851], [18.4074415, 42.7828753], [18.407483, 42.7829118], [18.4075659, 42.7829949], [18.407867, 42.7831207], [18.4080273, 42.7831511], [18.4081433, 42.7831085], [18.40824, 42.7830456], [18.4083754, 42.7829807], [18.4085688, 42.7829422], [18.4087567, 42.7829199], [18.4085661, 42.7824182], [18.4091297, 42.7822762], [18.4094834, 42.782041], [18.4094944, 42.7818423], [18.410579, 42.7811647], [18.411205, 42.7809932], [18.4305929, 42.775681], [18.4432531, 42.7768053], [18.4476607, 42.7804534], [18.4483796, 42.7811188], [18.4487548, 42.7813253], [18.4490048, 42.7815776], [18.4493799, 42.78183], [18.4495159, 42.781933], [18.4522871, 42.7840325], [18.4579275, 42.7867115], [18.46399, 42.7875753], [18.4626678, 42.7896033], [18.4619425, 42.792886], [18.4615183, 42.7961652], [18.4597202, 42.8006774], [18.4568266, 42.8063806], [18.4527722, 42.8130106], [18.4503926, 42.8167857], [18.4601977, 42.8220368], [18.4651147, 42.824041], [18.4715397, 42.826571], [18.4761138, 42.8283517], [18.4664181, 42.837393], [18.4655224, 42.8385618], [18.4656137, 42.8386474], [18.4656187, 42.838718], [18.4656492, 42.8387776], [18.4657101, 42.8388185], [18.4657608, 42.8388706], [18.4658115, 42.8389264], [18.4658623, 42.8389822], [18.4659384, 42.8390119], [18.4660043, 42.8390454], [18.4660551, 42.8391012], [18.4661007, 42.8391533], [18.4661362, 42.8392128], [18.4661768, 42.8392686], [18.4662123, 42.8393244], [18.4662681, 42.8394472], [18.4662732, 42.8395141], [18.4662631, 42.8395811], [18.4662225, 42.8396369], [18.4662022, 42.8397039], [18.4661971, 42.8397671], [18.4662123, 42.8398341], [18.4662428, 42.8398899], [18.4662783, 42.8399494], [18.4663341, 42.8399978], [18.4663798, 42.8400498], [18.4663899, 42.8401168], [18.4663899, 42.8403065], [18.4664, 42.8404367], [18.4663696, 42.8405037], [18.4663392, 42.8405706], [18.4662986, 42.8406339], [18.4662884, 42.8407009], [18.4662935, 42.8407641], [18.4663189, 42.8408273], [18.4663392, 42.8408943], [18.4663595, 42.8409575], [18.4663798, 42.8410171], [18.4663747, 42.8412812], [18.4663645, 42.8413481], [18.4663341, 42.8414114], [18.4662935, 42.8414709], [18.4662428, 42.841523], [18.4661667, 42.8415565], [18.4660855, 42.8415825], [18.4660043, 42.8416085], [18.4659333, 42.8416532], [18.4659029, 42.8417127], [18.4658775, 42.8418615], [18.4658775, 42.8419247], [18.4658572, 42.841988], [18.4657912, 42.8420438], [18.4657202, 42.8420921], [18.4656796, 42.8421516], [18.4656593, 42.8422223], [18.4656644, 42.8422856], [18.4656847, 42.8423562], [18.4657202, 42.8424195], [18.4657507, 42.842479], [18.4657862, 42.8425348], [18.4658268, 42.8425906], [18.4658623, 42.8426576], [18.4658978, 42.8427245], [18.4659282, 42.8427915], [18.4659688, 42.8428547], [18.4660043, 42.8429142], [18.4660398, 42.84297], [18.4660906, 42.8431039], [18.4660956, 42.8431746], [18.4660956, 42.8432453], [18.4660703, 42.8434239], [18.46605, 42.8434871], [18.4660398, 42.8435578], [18.4660398, 42.8436917], [18.4660449, 42.8437624], [18.46605, 42.843833], [18.4660551, 42.8439], [18.4660551, 42.8439632], [18.4660297, 42.8440228], [18.4659536, 42.8441492], [18.465913, 42.8442087], [18.4658369, 42.8443352], [18.4657963, 42.844391], [18.4657253, 42.8444431], [18.465639, 42.8444691], [18.4655579, 42.8445026], [18.4654919, 42.844551], [18.465431, 42.8446365], [18.4654057, 42.8447035], [18.4654006, 42.8448932], [18.4654158, 42.8449601], [18.4654665, 42.8450085], [18.4656086, 42.8450717], [18.4656847, 42.8450978], [18.4658521, 42.8451536], [18.4659282, 42.8451796], [18.4660145, 42.8452019], [18.4661007, 42.8452317], [18.4661768, 42.8452614], [18.4662377, 42.8453061], [18.4662935, 42.8453507], [18.4663544, 42.8453954], [18.466466, 42.8454958], [18.4665573, 42.8456111], [18.4665827, 42.8456706], [18.4666081, 42.8457339], [18.4666131, 42.8458045], [18.4666081, 42.8458678], [18.4665827, 42.845931], [18.4665522, 42.8460017], [18.4665015, 42.8460612], [18.4664356, 42.8461207], [18.4663798, 42.8461691], [18.4662276, 42.8462546], [18.4661768, 42.8463067], [18.4661312, 42.8463699], [18.4661109, 42.8464332], [18.4660601, 42.8465596], [18.4660449, 42.8466229], [18.4660398, 42.8466898], [18.4660398, 42.8468907], [18.4660551, 42.8469539], [18.4661109, 42.8470767], [18.4661515, 42.8471325], [18.4661971, 42.8471845], [18.4662783, 42.847218], [18.4663442, 42.8472515], [18.4664102, 42.8472887], [18.466466, 42.8473408], [18.4665066, 42.8473966], [18.466537, 42.8474523], [18.4665624, 42.8475119], [18.4665827, 42.8475788], [18.4665928, 42.8476458], [18.4666081, 42.8477127], [18.4666283, 42.847776], [18.4666689, 42.8478317], [18.4673437, 42.848438], [18.4674908, 42.8485757], [18.4675263, 42.8486389], [18.4675466, 42.8487021], [18.4675517, 42.8487654], [18.4675517, 42.8488955], [18.4675416, 42.8489625], [18.4675314, 42.8490257], [18.4675314, 42.849089], [18.4675416, 42.8491559], [18.4675771, 42.8492191], [18.4676126, 42.8492749], [18.4676481, 42.8493307], [18.4676532, 42.8493977], [18.4676177, 42.8494572], [18.4675416, 42.8494944], [18.4674807, 42.849539], [18.4674502, 42.849606], [18.4674249, 42.8496766], [18.4673741, 42.8500412], [18.4673741, 42.8501044], [18.4673894, 42.8502383], [18.4674046, 42.8503015], [18.467435, 42.8504391], [18.4674655, 42.8504987], [18.467506, 42.8505656], [18.4675466, 42.8506214], [18.4675923, 42.8506735], [18.4676887, 42.8507218], [18.4677141, 42.850785], [18.4677242, 42.850852], [18.4677039, 42.8509227], [18.4676684, 42.8509859], [18.4676532, 42.8510491], [18.4676532, 42.8511124], [18.4676633, 42.8511793], [18.4676938, 42.8512425], [18.4677293, 42.851302], [18.46778, 42.8513616], [18.4678206, 42.8514173], [18.4678764, 42.8514731], [18.4679221, 42.8515326], [18.4679525, 42.8515884], [18.4679728, 42.8516665], [18.4679829, 42.8518004], [18.4680641, 42.8522468], [18.468059, 42.8523137], [18.4680641, 42.8523769], [18.4680793, 42.8524402], [18.4680996, 42.8524997], [18.4681301, 42.8525629], [18.4681605, 42.8526187], [18.4682062, 42.8526856], [18.4682468, 42.8527414], [18.4683026, 42.8527898], [18.4683685, 42.8528344], [18.4684497, 42.8528939], [18.4685664, 42.8529981], [18.4686171, 42.8530687], [18.4686425, 42.853132], [18.4686577, 42.8532026], [18.4686577, 42.8532696], [18.4686425, 42.8533402], [18.4686425, 42.8534035], [18.4686577, 42.8534704], [18.4687084, 42.8535262], [18.4688911, 42.8537531], [18.4689621, 42.8538684], [18.4689925, 42.8539279], [18.4690281, 42.8539874], [18.4690534, 42.8540469], [18.4690839, 42.8541138], [18.4691143, 42.8541696], [18.4691397, 42.8542291], [18.4692107, 42.8543482], [18.4692462, 42.8544077], [18.4692969, 42.8544635], [18.4693426, 42.8545192], [18.4694694, 42.8546271], [18.4695455, 42.8546717], [18.4696166, 42.8547126], [18.4697586, 42.8547945], [18.4698855, 42.85488], [18.4699362, 42.8549321], [18.4699819, 42.8549879], [18.4700275, 42.8550436], [18.4700884, 42.8550846], [18.4701645, 42.8551217], [18.4702406, 42.8551552], [18.470474, 42.8552259], [18.4706312, 42.8552928], [18.4706972, 42.8553375], [18.4707581, 42.8553858], [18.4707885, 42.8554453], [18.4707987, 42.8555085], [18.4708393, 42.8555755], [18.4709001, 42.855635], [18.4709712, 42.8556833], [18.4710371, 42.8557168], [18.4711031, 42.8557503], [18.4711589, 42.8558024], [18.4711944, 42.8558581], [18.4712248, 42.8559176], [18.4712654, 42.8559772], [18.4712959, 42.8560329], [18.4713466, 42.8560924], [18.4714886, 42.8562524], [18.4715495, 42.8563119], [18.4716053, 42.8563677], [18.4716662, 42.856416], [18.4717372, 42.8564569], [18.4718235, 42.8564867], [18.4719097, 42.8565127], [18.4719858, 42.8565387], [18.4720518, 42.8565722], [18.4721177, 42.8566168], [18.4722344, 42.8567135], [18.4722852, 42.8567656], [18.472341, 42.8568214], [18.4724018, 42.8568697], [18.4725084, 42.8569776], [18.4725591, 42.8570334], [18.4725997, 42.8570929], [18.4726352, 42.8571487], [18.4726758, 42.8572044], [18.4727113, 42.8572602], [18.4727468, 42.8573272], [18.4727824, 42.857383], [18.4728382, 42.857435], [18.4729701, 42.8575243], [18.4730259, 42.8575726], [18.473173, 42.8577326], [18.4732187, 42.8577846], [18.4732491, 42.8578478], [18.4732694, 42.8579111], [18.4732948, 42.8579706], [18.4733506, 42.8580226], [18.4734216, 42.8580487], [18.4734977, 42.8580673], [18.4736651, 42.858097], [18.4737412, 42.858123], [18.4738122, 42.8581565], [18.4738681, 42.8582123], [18.4739695, 42.8583202], [18.4740253, 42.8583685], [18.4747711, 42.858759], [18.4749335, 42.8589821], [18.4749487, 42.8590491], [18.4750197, 42.8593577], [18.4749893, 42.8597482], [18.4752683, 42.8598524], [18.4754966, 42.8599639], [18.475659, 42.8601238], [18.47573, 42.8602689], [18.4757401, 42.860373], [18.4758822, 42.8603953], [18.4759431, 42.860518], [18.4761866, 42.8605961], [18.4762982, 42.8606705], [18.4763388, 42.8607672], [18.4763439, 42.8608304], [18.4763591, 42.8609011], [18.4763895, 42.8609568], [18.47642, 42.8610126], [18.4764504, 42.8610759], [18.4764605, 42.8611391], [18.4764605, 42.861206], [18.4764352, 42.8612692], [18.4764098, 42.8613287], [18.4764098, 42.8613919], [18.4764149, 42.8614626], [18.4764352, 42.8615221], [18.4764555, 42.8615853], [18.4765113, 42.8616448], [18.476562, 42.8616932], [18.4765671, 42.8617564], [18.4765925, 42.8618196], [18.4766077, 42.8618828], [18.4766787, 42.8619163], [18.4767616, 42.8619602], [18.4768118, 42.8619838], [18.4768836, 42.8620128], [18.476941, 42.8620364], [18.4769984, 42.8620522], [18.4771024, 42.8620601], [18.4771706, 42.8620601], [18.4772316, 42.8620575], [18.4773499, 42.8620653], [18.4774073, 42.8620759], [18.4774683, 42.8620916], [18.4775257, 42.8621153], [18.4776154, 42.8621758], [18.4776477, 42.8622152], [18.4777123, 42.8622967], [18.4777374, 42.8623388], [18.4777661, 42.8623809], [18.4777948, 42.8624203], [18.4778773, 42.8625439], [18.4779096, 42.8625807], [18.4780351, 42.8626912], [18.4780818, 42.8627201], [18.4781392, 42.8627464], [18.4782002, 42.8627648], [18.4783293, 42.8627858], [18.4783903, 42.8627911], [18.4790575, 42.8627727], [18.479219, 42.8626517], [18.4793015, 42.8626412], [18.4793817, 42.8626745], [18.479493, 42.8627209], [18.479589, 42.8625992], [18.4796809, 42.8624541], [18.4798288, 42.8625781], [18.480123, 42.8624756], [18.4808118, 42.8620575], [18.482193, 42.8609977], [18.4864836, 42.8618164], [18.489142, 42.8633262], [18.4913743, 42.8648434], [18.4911768, 42.877119], [18.4889445, 42.8800635], [18.509238, 42.8866359], [18.5040835, 42.8926725], [18.4994565, 42.9055762], [18.4946977, 42.9153786], [18.4940991, 42.9159211], [18.4885757, 42.9234998], [18.4858493, 42.9254332], [18.4839265, 42.9274926], [18.4825489, 42.9283542], [18.4845897, 42.9332627], [18.4852825, 42.9336995], [18.4852318, 42.9343229], [18.4854449, 42.9344417], [18.4854556, 42.9346991], [18.4852834, 42.9349618], [18.4852404, 42.9352454], [18.4850754, 42.9353295], [18.4842897, 42.9355265], [18.4843722, 42.9367241], [18.4843437, 42.9368162], [18.4843006, 42.936883], [18.4842981, 42.9370065], [18.4843209, 42.9370873], [18.4843552, 42.9371672], [18.4844351, 42.9372619], [18.48452, 42.9372675], [18.4845822, 42.9372665], [18.484605, 42.9372665], [18.4846672, 42.9372823], [18.4846849, 42.9372907], [18.4847204, 42.9373092], [18.4847623, 42.937312], [18.4847851, 42.9373083], [18.4848283, 42.9373083], [18.4848612, 42.937325], [18.484879, 42.9373325], [18.4851073, 42.9374857], [18.485517, 42.93778], [18.4858493, 42.9380131], [18.4859482, 42.9381059], [18.4860027, 42.9382044], [18.4860319, 42.9383056], [18.4860535, 42.9383269], [18.4860903, 42.9385832], [18.4860903, 42.9388339], [18.486018, 42.9389797], [18.4859317, 42.9390651], [18.485867, 42.9391004], [18.4845695, 42.9430558], [18.4852291, 42.9500078], [18.4862031, 42.9584887], [18.4859641, 42.9585277], [18.4858727, 42.9585389], [18.4858068, 42.9585834], [18.4857459, 42.9586317], [18.4856952, 42.9586874], [18.4856495, 42.9587431], [18.4856089, 42.9587988], [18.4855836, 42.9588656], [18.4855633, 42.9589361], [18.4855633, 42.9590735], [18.4855937, 42.9591366], [18.4856343, 42.9591961], [18.4856647, 42.9592555], [18.485685, 42.959326], [18.4857408, 42.9595859], [18.4857662, 42.9596527], [18.4858372, 42.9597678], [18.4858677, 42.9598235], [18.4858778, 42.9598941], [18.4858778, 42.9599609], [18.4858474, 42.9600871], [18.485822, 42.9601503], [18.4858119, 42.9602171], [18.4858119, 42.9602839], [18.4858271, 42.960347], [18.4858626, 42.9604064], [18.485888, 42.9604658], [18.4859793, 42.9606663], [18.4859945, 42.9607295], [18.4860351, 42.9608743], [18.4860402, 42.9610116], [18.4860452, 42.9610785], [18.486096, 42.9611304], [18.4861568, 42.9611824], [18.4861873, 42.9612455], [18.4861974, 42.9613087], [18.4862076, 42.9613718], [18.4862431, 42.9614312], [18.486309, 42.9614832], [18.486512, 42.961602], [18.4865627, 42.9616502], [18.486598, 42.961749], [18.486537, 42.9619853], [18.4862105, 42.9626548], [18.4861388, 42.9627782], [18.4859451, 42.963424], [18.4865729, 42.9647182], [18.4866661, 42.9648284], [18.486641, 42.9648731], [18.4865406, 42.965364], [18.4866016, 42.9654821], [18.4867092, 42.965616], [18.4867845, 42.9656947], [18.4868921, 42.9661778], [18.4910311, 42.9741834], [18.4929425, 42.9778801], [18.4941195, 42.9864611], [18.4982188, 42.9956643], [18.5104355, 42.9992858], [18.5116531, 43.0054004], [18.5118629, 43.0056871], [18.5119921, 43.0061121], [18.5120495, 43.0064636], [18.5129607, 43.0078488], [18.5132405, 43.0078698], [18.5134844, 43.0084836], [18.5134127, 43.0088037], [18.5136279, 43.0095434], [18.5138791, 43.0100523], [18.5141087, 43.0103619], [18.514367, 43.010514], [18.5143741, 43.0106767], [18.5145894, 43.0110649], [18.5147472, 43.0112538], [18.5149338, 43.0114374], [18.5152534, 43.0121526], [18.5154184, 43.0124411], [18.5155403, 43.0128084], [18.5154686, 43.012992], [18.5156715, 43.0133592], [18.5157831, 43.0136189], [18.515773, 43.0138749], [18.5159353, 43.0144424], [18.5168891, 43.0164085], [18.5177668, 43.0181445], [18.5184771, 43.0195317], [18.5187003, 43.0199472], [18.5352294, 43.0281255], [18.5358423, 43.0336015], [18.5338284, 43.0351609], [18.530133, 43.0387936], [18.5265905, 43.0410151], [18.515326, 43.0454194], [18.5142385, 43.0526387], [18.5087312, 43.0540895], [18.5085988, 43.0541499], [18.5086176, 43.0542387], [18.508647, 43.0543122], [18.5086652, 43.0544246], [18.5086477, 43.0544899], [18.5086197, 43.0545614], [18.5085981, 43.0546554], [18.5085568, 43.0547125], [18.5084828, 43.0547738], [18.5084283, 43.0548336], [18.508394, 43.054901], [18.5083842, 43.0549587], [18.5084073, 43.0550363], [18.5084087, 43.0550929], [18.5083877, 43.0551358], [18.5083109, 43.0551946], [18.508227, 43.0552512], [18.5081781, 43.0552686], [18.5080887, 43.0552655], [18.5078217, 43.055214], [18.5076135, 43.0551854], [18.5073703, 43.0553452], [18.5019436, 43.0571158], [18.4974038, 43.060455], [18.4959811, 43.0620929], [18.4934299, 43.0658389], [18.4934774, 43.0658502], [18.4935446, 43.0658679], [18.4935698, 43.0658827], [18.4935916, 43.0659221], [18.4936029, 43.065982], [18.4936336, 43.0660293], [18.4936766, 43.0660585], [18.493762, 43.0660777], [18.4939276, 43.0660943], [18.4940595, 43.0661123], [18.494104, 43.0661257], [18.4941484, 43.0661564], [18.4942013, 43.066217], [18.4942754, 43.0663488], [18.4943159, 43.066395], [18.4943698, 43.0664094], [18.4944054, 43.0664109], [18.494435, 43.0663979], [18.4944696, 43.0664065], [18.4944948, 43.0664184], [18.4945526, 43.0664441], [18.4946505, 43.0665101], [18.4947775, 43.0666101], [18.4948842, 43.0667188], [18.4951466, 43.0669852], [18.495277, 43.0670848], [18.4954312, 43.0672003], [18.4955418, 43.0673332], [18.4956347, 43.0675209], [18.4957019, 43.0675743], [18.495779, 43.0676075], [18.496032, 43.0676869], [18.4961585, 43.0677476], [18.4962395, 43.067827], [18.4963067, 43.0679093], [18.4964846, 43.0681706], [18.4967752, 43.0684753], [18.4970538, 43.0687568], [18.4973147, 43.0689879], [18.4975124, 43.0691106], [18.4977792, 43.0692261], [18.4978998, 43.069307], [18.4980441, 43.0693777], [18.4982773, 43.0694499], [18.4984295, 43.0694961], [18.4985204, 43.0695539], [18.4986093, 43.0696694], [18.498637, 43.0697618], [18.4986251, 43.0698715], [18.4986054, 43.0699913], [18.4986271, 43.0700621], [18.4986706, 43.0700967], [18.4987457, 43.0701155], [18.4988168, 43.0701242], [18.498884, 43.0701502], [18.498969, 43.070179], [18.499052, 43.070192], [18.4991963, 43.0701964], [18.4993525, 43.0701935], [18.4994809, 43.0702079], [18.4996153, 43.070205], [18.4997517, 43.0702166], [18.4998822, 43.0702657], [18.5000363, 43.070335], [18.5002478, 43.0704375], [18.5004039, 43.0705559], [18.5004455, 43.0706079], [18.5004455, 43.0706555], [18.5004553, 43.070706], [18.5004791, 43.0707349], [18.5005542, 43.0707667], [18.5006154, 43.070797], [18.500651, 43.0708302], [18.500734, 43.0709356], [18.5008032, 43.0709905], [18.5009356, 43.0710338], [18.5011194, 43.0710771], [18.5013191, 43.0710944], [18.501495, 43.0711175], [18.5016827, 43.0711623], [18.5017954, 43.071194], [18.5019733, 43.0712013], [18.5021768, 43.0711854], [18.5023093, 43.0711897], [18.5024535, 43.0711897], [18.5025603, 43.0711608], [18.5027698, 43.0710612], [18.5031789, 43.0708894], [18.5034062, 43.0708244], [18.5036434, 43.0708129], [18.5038054, 43.0708345], [18.5040308, 43.0708937], [18.5041474, 43.0709241], [18.5042383, 43.0709154], [18.5043707, 43.0708649], [18.5045071, 43.0708389], [18.5046415, 43.0708504], [18.5047877, 43.0708851], [18.5049459, 43.070888], [18.5051, 43.070862], [18.5052601, 43.0708591], [18.5053787, 43.0708071], [18.505519, 43.0707291], [18.5056752, 43.0706728], [18.505774, 43.0706165], [18.5058056, 43.0705645], [18.5058313, 43.0704851], [18.5058471, 43.0704173], [18.5058906, 43.0703725], [18.5059697, 43.070348], [18.5061139, 43.0703292], [18.5062642, 43.0703306], [18.5064144, 43.0703566], [18.5066179, 43.0703985], [18.5067741, 43.0704288], [18.5068947, 43.0704404], [18.5070093, 43.0704332], [18.5071246, 43.0704011], [18.5072148, 43.0703643], [18.5072581, 43.0703617], [18.5073336, 43.0703908], [18.5074188, 43.070423], [18.5074649, 43.070445], [18.5074803, 43.070473], [18.5075167, 43.0705108], [18.5075977, 43.0705302], [18.5076271, 43.0705522], [18.5076431, 43.0706114], [18.5076767, 43.0706655], [18.5077186, 43.0706936], [18.5077696, 43.0707053], [18.5078332, 43.0706981], [18.5079122, 43.0706951], [18.5079625, 43.0707058], [18.5080554, 43.0707676], [18.5081952, 43.0708426], [18.5083426, 43.0708855], [18.5084419, 43.0708983], [18.5085725, 43.0708998], [18.5086878, 43.0708896], [18.5087298, 43.0708824], [18.5064225, 43.0744049], [18.497481, 43.0774771], [18.4965402, 43.0775117], [18.4953306, 43.077812], [18.4940577, 43.0782682], [18.4935416, 43.0786145], [18.4942748, 43.0805603], [18.485806, 43.0843902], [18.4764835, 43.0785761], [18.4619295, 43.0778714], [18.4537557, 43.0803458], [18.4529414, 43.0804902], [18.4503826, 43.0813993], [18.4410932, 43.0817397], [18.431059, 43.0680189], [18.4104504, 43.0739697], [18.4158608, 43.0788721], [18.4083342, 43.0883073], [18.4017686, 43.0946214], [18.4022776, 43.0972124], [18.4150792, 43.1045517], [18.4055171, 43.1216765], [18.4101504, 43.1310982], [18.4132741, 43.1374495], [18.399829, 43.1334317], [18.3843394, 43.1346118], [18.378147, 43.1363818], [18.3716728, 43.138133], [18.3671304, 43.1362624], [18.3555057, 43.1314752], [18.3468119, 43.1225686], [18.3445935, 43.1202958], [18.3433972, 43.1128608], [18.3424916, 43.1001269], [18.347534, 43.0940528], [18.3447724, 43.0932201], [18.3438779, 43.0927547], [18.343632, 43.092126], [18.3421673, 43.0904686], [18.3392827, 43.0877251], [18.3349492, 43.0846271], [18.3349265, 43.0846249], [18.3348929, 43.0846155], [18.3348623, 43.0845917], [18.3348257, 43.0845657], [18.3348099, 43.0845383], [18.3348079, 43.084521], [18.3341399, 43.0840626], [18.3329649, 43.0819009], [18.3327662, 43.0815343], [18.3328067, 43.0814441], [18.3327247, 43.0814462], [18.3326427, 43.081439], [18.3325122, 43.0814145], [18.3323156, 43.0813849], [18.3321644, 43.0813221], [18.3319875, 43.0812383], [18.3318798, 43.0811979], [18.331696, 43.0811575], [18.3242514, 43.0727937], [18.315961, 43.0747293], [18.3116296, 43.0765742], [18.3115619, 43.0765469], [18.3115491, 43.0765562], [18.3109501, 43.0767216], [18.3105174, 43.0769683], [18.3101433, 43.0771961], [18.3086096, 43.077967], [18.3076292, 43.0788621], [18.3070086, 43.0793327], [18.3064078, 43.0791191], [18.3048029, 43.0789487], [18.3029806, 43.0791682], [18.3004903, 43.0785878], [18.2993992, 43.078276], [18.2982964, 43.0782038], [18.297739, 43.0779901], [18.2965887, 43.0777563], [18.2953831, 43.0777274], [18.2952882, 43.0776985], [18.291026, 43.0779907], [18.290943, 43.0779402], [18.2908392, 43.0779842], [18.2907947, 43.0780593], [18.288911, 43.0781806], [18.2855312, 43.0799649], [18.2834401, 43.080704], [18.2800288, 43.0810972], [18.2798093, 43.0812034], [18.2797115, 43.0812054], [18.2796081, 43.0812361], [18.2795662, 43.0812728], [18.27727, 43.0818221], [18.2712679, 43.0855182], [18.2552043, 43.0908015], [18.2549992, 43.0905742], [18.2537751, 43.0894033], [18.2500457, 43.0873231], [18.2474753, 43.0858998], [18.2468306, 43.0823222], [18.2461965, 43.0802733], [18.2414369, 43.0775407], [18.238402, 43.0756848], [18.2379434, 43.0753794], [18.2377626, 43.0752661], [18.2375394, 43.0751559], [18.2371377, 43.0748908], [18.2370064, 43.0747734], [18.2368872, 43.074702], [18.2367492, 43.074654], [18.2365389, 43.0746305], [18.2363755, 43.0746305], [18.2361853, 43.0746031], [18.2360379, 43.0745591], [18.2358584, 43.074474], [18.2357137, 43.0743937], [18.2355999, 43.0743154], [18.235482, 43.0742323], [18.2351846, 43.074062], [18.2351431, 43.0740444], [18.2350573, 43.0740023], [18.234985, 43.0739553], [18.234768, 43.0738692], [18.2346487, 43.0738174], [18.2345804, 43.0737714], [18.2345376, 43.0737312], [18.2345027, 43.0736813], [18.2344572, 43.0736334], [18.2343634, 43.0735091], [18.2343366, 43.0734543], [18.2343299, 43.0734113], [18.2343353, 43.0733692], [18.2343594, 43.0733398], [18.2343607, 43.0733203], [18.2343514, 43.0732997], [18.234346, 43.0732752], [18.23435, 43.0732498], [18.2343915, 43.0732165], [18.2344357, 43.0732048], [18.2344558, 43.0731891], [18.234488, 43.0731754], [18.2345389, 43.073149], [18.2345684, 43.073103], [18.2345697, 43.073059], [18.2345577, 43.0730169], [18.2345443, 43.0729719], [18.2345376, 43.0729122], [18.2345242, 43.0728476], [18.2344907, 43.0727762], [18.2344652, 43.0727478], [18.2344277, 43.0727302], [18.2343862, 43.0727126], [18.2343487, 43.0726871], [18.2343018, 43.072646], [18.2342562, 43.0726186], [18.2342147, 43.0726098], [18.2341504, 43.0726128], [18.2340794, 43.0726108], [18.2340432, 43.0726], [18.2339816, 43.0725668], [18.2339254, 43.0725051], [18.2338691, 43.072419], [18.2338102, 43.0723074], [18.2337646, 43.0722272], [18.233711, 43.0721616], [18.2336025, 43.0719855], [18.2335864, 43.0719522], [18.2335744, 43.071915], [18.2335704, 43.0718876], [18.2335583, 43.0718465], [18.2335396, 43.0718152], [18.2335101, 43.0718015], [18.2334659, 43.0718064], [18.2334177, 43.0718348], [18.2333895, 43.071871], [18.2333627, 43.0719327], [18.2332971, 43.0719757], [18.2332328, 43.0719982], [18.2331497, 43.0716635], [18.2329568, 43.0716655], [18.23293, 43.0711606], [18.23293, 43.0708709], [18.2328336, 43.0708631], [18.2328604, 43.0705577], [18.2328148, 43.0702094], [18.2323808, 43.0699862], [18.2322281, 43.0703483], [18.2321102, 43.0705636], [18.2320834, 43.0707124], [18.2320218, 43.0709198], [18.2319816, 43.0710098], [18.2319441, 43.0711469], [18.2319655, 43.0712623], [18.2320459, 43.0714228], [18.2319736, 43.0714209], [18.2294176, 43.0710177], [18.2291283, 43.0707535], [18.2286299, 43.0703405], [18.2283406, 43.0701389], [18.2281289, 43.0697866], [18.2280887, 43.0697396], [18.2276065, 43.0695361], [18.2274082, 43.0692033], [18.2271135, 43.0688354], [18.2271832, 43.0687962], [18.2265375, 43.068119], [18.2268268, 43.0679977], [18.226784, 43.0679429], [18.2263767, 43.0680858], [18.2257016, 43.0683754], [18.2250907, 43.0686671], [18.2241289, 43.0692973], [18.2234242, 43.0696672], [18.2231724, 43.0697866], [18.2219909, 43.0703131], [18.2217444, 43.0702642], [18.2209422, 43.0706362], [18.2205886, 43.0707615], [18.22033, 43.070828], [18.2198103, 43.070919], [18.2192396, 43.0710159], [18.218815, 43.071103], [18.2184573, 43.0712312], [18.2174914, 43.071607], [18.2173963, 43.0716128], [18.2173293, 43.0715473], [18.2172583, 43.0715473], [18.2170561, 43.0716275], [18.2169516, 43.0716432], [18.2166997, 43.0717234], [18.2163112, 43.0718174], [18.215979, 43.0719416], [18.2159147, 43.0719103], [18.2157071, 43.0720101], [18.2156334, 43.0720493], [18.2142134, 43.0724378], [18.213971, 43.0724818], [18.2136776, 43.0725161], [18.2134177, 43.0725728], [18.213052, 43.0726795], [18.2125671, 43.0727861], [18.2122013, 43.0728478], [18.2119508, 43.0729231], [18.2120701, 43.0731345], [18.2118557, 43.0731737], [18.2114378, 43.0732392], [18.2112208, 43.0732793], [18.2108591, 43.0733361], [18.2103581, 43.0733938], [18.2101745, 43.0734829], [18.2098798, 43.0735954], [18.2096374, 43.0736972], [18.2089354, 43.0739506], [18.2089166, 43.0738831], [18.2088724, 43.0738283], [18.2087626, 43.0737226], [18.2086554, 43.0736708], [18.208626, 43.0736336], [18.2085951, 43.0735641], [18.208381, 43.0733744], [18.2081631, 43.0733882], [18.207968, 43.0730671], [18.2077937, 43.0727558], [18.2077463, 43.0726589], [18.2065414, 43.0730298], [18.2063652, 43.0730685], [18.2060223, 43.0731585], [18.2057874, 43.072688], [18.2056586, 43.0724126], [18.2055108, 43.072169], [18.2054029, 43.071931], [18.2053806, 43.0717092], [18.2053422, 43.0716289], [18.2053395, 43.0716179], [18.2053388, 43.0716012], [18.2064064, 43.0675337], [18.2066194, 43.0667268], [18.2102267, 43.0601172], [18.2102535, 43.0600751], [18.2102415, 43.0600164], [18.2102508, 43.0599567], [18.2102508, 43.0598872], [18.2102683, 43.0598157], [18.2102696, 43.0597795], [18.2102562, 43.059709], [18.2103218, 43.0595837], [18.2103446, 43.0594888], [18.2103366, 43.0592451], [18.2103165, 43.0591237], [18.210204, 43.0591257], [18.2100097, 43.0590758], [18.210003, 43.0590317], [18.2100124, 43.0589681], [18.2098731, 43.0588301], [18.2098758, 43.0587812], [18.2098811, 43.0587166], [18.2099146, 43.058603], [18.2098918, 43.0585257], [18.2099186, 43.0584131], [18.2099441, 43.0583436], [18.2101464, 43.058002], [18.2101879, 43.0578993], [18.2102013, 43.0577759], [18.2102147, 43.0577055], [18.210137, 43.0575958], [18.2101289, 43.0575273], [18.2101182, 43.0574647], [18.2101477, 43.057311], [18.2101423, 43.0572914], [18.2101115, 43.0572699], [18.2100633, 43.0570232], [18.2100084, 43.056941], [18.2099454, 43.0567501], [18.2098972, 43.0566895], [18.2098624, 43.0565916], [18.2098074, 43.0564819], [18.2097418, 43.056435], [18.2096869, 43.0563733], [18.2096387, 43.0563381], [18.2093116, 43.0557586], [18.2135785, 43.0519693], [18.2136401, 43.0519438], [18.2137808, 43.0518567], [18.2137728, 43.0518097], [18.2137111, 43.0517441], [18.2136549, 43.051704], [18.2134539, 43.0515963], [18.2071752, 43.047919], [18.2033085, 43.047873], [18.2032535, 43.047848], [18.2031819, 43.0478465], [18.2031028, 43.0478867], [18.2030807, 43.0479302], [18.2030801, 43.0479679], [18.1988201, 43.0480638], [18.1983191, 43.0481441], [18.1980298, 43.0483771], [18.1979065, 43.048287], [18.1977779, 43.048242], [18.197301, 43.0483145], [18.1968991, 43.0483184], [18.1966339, 43.0483693], [18.1963713, 43.048381], [18.1962454, 43.0483458], [18.1959695, 43.0482949], [18.195581, 43.0483105], [18.1947129, 43.0484045], [18.1945897, 43.0483282], [18.1944611, 43.0484339], [18.1943057, 43.0484574], [18.1926714, 43.0487883], [18.1925186, 43.0487237], [18.1922748, 43.0487844], [18.1921114, 43.0488607], [18.1916104, 43.0489586], [18.1914577, 43.0489704], [18.191029, 43.0490056], [18.1905226, 43.0490115], [18.1899734, 43.0490448], [18.1896064, 43.0491231], [18.1885427, 43.0491387], [18.1882266, 43.0491642], [18.1878515, 43.04936], [18.1874951, 43.0494931], [18.1865896, 43.0496497], [18.1861127, 43.0497476], [18.1850303, 43.0498494], [18.1845963, 43.049963], [18.1844623, 43.0500237], [18.1837309, 43.0502528], [18.1831414, 43.0503781], [18.1822144, 43.0505778], [18.1819358, 43.0507031], [18.1816357, 43.0507226], [18.1809874, 43.0508988], [18.1807195, 43.050936], [18.180264, 43.050985], [18.1791762, 43.0510104], [18.1790932, 43.0510183], [18.1786029, 43.0510594], [18.1783805, 43.0510046], [18.1781447, 43.0510692], [18.1777134, 43.051122], [18.1772097, 43.0510457], [18.176213, 43.050983], [18.1757951, 43.0509243], [18.1754575, 43.0509341], [18.1745251, 43.0509028], [18.1740616, 43.0508851], [18.1735419, 43.0507853], [18.17314, 43.0507383], [18.1730141, 43.0507089], [18.1727971, 43.0506619], [18.1725265, 43.050754], [18.1724354, 43.0507853], [18.1720817, 43.0509067], [18.1712887, 43.0513061], [18.1709216, 43.0514744], [18.1704662, 43.0516976], [18.1703831, 43.0517172], [18.1701447, 43.0517524], [18.1699705, 43.0518014], [18.1697615, 43.0518386], [18.1693355, 43.0518562], [18.1691453, 43.0518934], [18.1689712, 43.0519854], [18.1689015, 43.0520618], [18.1688292, 43.052097], [18.1681245, 43.0522654], [18.1677655, 43.0522967], [18.1675083, 43.0523026], [18.1673101, 43.0523143], [18.166943, 43.0522008], [18.1663161, 43.0519208], [18.1658499, 43.0518934], [18.1656275, 43.0518934], [18.1654319, 43.0519443], [18.164955, 43.0520167], [18.1647997, 43.0520029], [18.1644246, 43.0520555], [18.1640684, 43.0521995], [18.1639889, 43.0522853], [18.163538, 43.0524653], [18.162837, 43.0528889], [18.1626248, 43.0529276], [18.1624581, 43.052911], [18.1622156, 43.0529387], [18.161795, 43.0529636], [18.1615374, 43.0530024], [18.1606849, 43.0530882], [18.1604841, 43.0530439], [18.1602529, 43.0529802], [18.1599898, 43.0529399], [18.1595511, 43.0528413], [18.1593065, 43.0528302], [18.1581682, 43.0529533], [18.1579371, 43.0529309]]]}}]}