{"type": "FeatureCollection", "features": [{"type": "Feature", "properties": {"name": "Općina Bosanski Petrovac, Unsko-sanski kanton, Federacija Bosne i Hercegovine, 77250, Bosna i Hercegovina / Босна и Херцеговина", "source": "OpenStreetMap relation 2528168", "licence": "ODbL 1.0"}, "geometry": {"type": "Polygon", "coordinates": [[[16.0696832, 44.674039], [16.0712708, 44.6683941], [16.0736521, 44.6655715], [16.0760334, 44.661055], [16.0776209, 44.6576673], [16.0800022, 44.6548442], [16.0815897, 44.6514562], [16.0831772, 44.648068], [16.083971, 44.6424206], [16.0863523, 44.6390319], [16.0887336, 44.6350782], [16.0895273, 44.6322539], [16.0895273, 44.6271699], [16.0911149, 44.6254751], [16.0927024, 44.6220854], [16.0942899, 44.6186955], [16.0966712, 44.6153054], [16.0990525, 44.6113501], [16.0998463, 44.595526], [16.1022276, 44.5915693], [16.1054026, 44.5898735], [16.110959, 44.5876123], [16.1149278, 44.5859164], [16.1173091, 44.585351], [16.1212779, 44.5847857], [16.1252467, 44.5842204], [16.1300093, 44.5842204], [16.1331843, 44.5830897], [16.1371532, 44.5808283], [16.1395344, 44.577436], [16.1435033, 44.5729126], [16.144297, 44.5706508], [16.144297, 44.5649959], [16.1490596, 44.5610371], [16.1506471, 44.5593404], [16.1554097, 44.5553812], [16.157791, 44.5531187], [16.1609661, 44.5502905], [16.1665224, 44.5474621], [16.1768413, 44.5423706], [16.1800164, 44.5412391], [16.1863665, 44.5384103], [16.1911291, 44.5367129], [16.1974792, 44.5350155], [16.2006542, 44.5338839], [16.2070044, 44.5316206], [16.2109732, 44.529923], [16.2165295, 44.5282254], [16.2228796, 44.5259618], [16.2268484, 44.5253959], [16.2347861, 44.52483], [16.2435175, 44.5220004], [16.2506614, 44.5214345], [16.2538364, 44.5203026], [16.2578052, 44.5174727], [16.2601865, 44.5157747], [16.2657429, 44.5123787], [16.2736805, 44.5055859], [16.275268, 44.5033214], [16.2816181, 44.4999246], [16.2871745, 44.4987923], [16.2904463, 44.4974958], [16.2943184, 44.4959614], [16.3006685, 44.494829], [16.3070186, 44.4919979], [16.3149562, 44.4908655], [16.3252751, 44.4880342], [16.329244, 44.4846365], [16.3316253, 44.4840702], [16.3363878, 44.4806722], [16.3403567, 44.4778405], [16.3490881, 44.4778405], [16.3562319, 44.4761413], [16.3578195, 44.4761413], [16.3705197, 44.4750086], [16.3721072, 44.4750086], [16.376076, 44.4772741], [16.3840137, 44.4778405], [16.3863949, 44.4778405], [16.3911575, 44.4784068], [16.3991738, 44.4740348], [16.4001957, 44.4733616], [16.4010875, 44.4732826], [16.415561, 44.4762025], [16.4267618, 44.4731509], [16.4464548, 44.4646358], [16.4500238, 44.4630925], [16.4464168, 44.4790109], [16.4436952, 44.4920301], [16.4426982, 44.4960108], [16.442153, 44.4973803], [16.4416042, 44.498472], [16.4413077, 44.4990566], [16.4412189, 44.499183], [16.4404974, 44.5002068], [16.4364679, 44.5054904], [16.4356078, 44.5066283], [16.4347704, 44.507705], [16.4371665, 44.5081451], [16.439511, 44.5084138], [16.4487668, 44.5098678], [16.4516618, 44.5110197], [16.4608791, 44.514823], [16.4687679, 44.5180417], [16.48108, 44.523112], [16.483882, 44.5234786], [16.4882823, 44.52399], [16.494191, 44.5246768], [16.4972863, 44.5248561], [16.4995006, 44.5249843], [16.5115877, 44.5252047], [16.5210868, 44.5254192], [16.5218124, 44.5254356], [16.5327605, 44.52608], [16.5491592, 44.5270047], [16.5535279, 44.5272511], [16.5559267, 44.5273864], [16.5672514, 44.52646], [16.5685391, 44.5263547], [16.5695184, 44.5263428], [16.5729066, 44.5263016], [16.5770655, 44.5261462], [16.5874098, 44.5255355], [16.5960742, 44.5251264], [16.5973256, 44.5250925], [16.5995608, 44.525032], [16.6047383, 44.5249101], [16.6063768, 44.5248715], [16.6094903, 44.5249354], [16.6170272, 44.5252111], [16.6203179, 44.524681], [16.6246715, 44.5239738], [16.6302753, 44.5230563], [16.6331719, 44.5228694], [16.6369055, 44.5226762], [16.6408604, 44.5224581], [16.6514535, 44.5215632], [16.6547379, 44.5207958], [16.6558603, 44.5257291], [16.6561582, 44.5263215], [16.6562829, 44.5265647], [16.6562681, 44.5266618], [16.6561845, 44.526762], [16.6560236, 44.527103], [16.6559331, 44.5274467], [16.6558228, 44.5277354], [16.6559253, 44.5288474], [16.655581, 44.5307823], [16.6551297, 44.5309168], [16.6547124, 44.5311482], [16.6542608, 44.5315562], [16.6539063, 44.5326408], [16.6542202, 44.533648], [16.653899, 44.5344962], [16.6542372, 44.5354856], [16.6530673, 44.5367629], [16.6527672, 44.537751], [16.6520367, 44.5384323], [16.6521197, 44.5391384], [16.6520339, 44.5414402], [16.6436021, 44.5499828], [16.6436699, 44.5503106], [16.6423327, 44.5507126], [16.6215362, 44.5543877], [16.6207278, 44.5543017], [16.6184997, 44.5548901], [16.6145956, 44.5563567], [16.6143196, 44.5559659], [16.613102, 44.556315], [16.6128925, 44.5559381], [16.6106778, 44.5565575], [16.6105269, 44.5562982], [16.6084126, 44.5571195], [16.6081736, 44.5567505], [16.6080727, 44.5563254], [16.5981739, 44.5585912], [16.5874174, 44.5662254], [16.5642042, 44.585423], [16.5524374, 44.5882956], [16.5391713, 44.6026989], [16.5369262, 44.6054962], [16.5346811, 44.6082934], [16.532436, 44.6110904], [16.5307522, 44.6142869], [16.5279458, 44.6170836], [16.5273845, 44.6190812], [16.5234556, 44.6222772], [16.5217718, 44.6250736], [16.5212105, 44.6278698], [16.5212105, 44.6322636], [16.5173445, 44.6323522], [16.5141694, 44.6315049], [16.5129788, 44.6337643], [16.5078193, 44.6374357], [16.5042474, 44.6391302], [16.502263, 44.6399774], [16.4990879, 44.639695], [16.495516, 44.6388478], [16.4911503, 44.6374357], [16.4891659, 44.6365885], [16.4848002, 44.6365885], [16.4824189, 44.6374357], [16.4800376, 44.6385654], [16.4760688, 44.6399774], [16.4717031, 44.6416717], [16.4669405, 44.6439308], [16.4637654, 44.6444955], [16.4605904, 44.6461897], [16.4562247, 44.6478839], [16.4530496, 44.648731], [16.4502714, 44.6504251], [16.448287, 44.6515544], [16.4463026, 44.6535308], [16.4443182, 44.6560717], [16.438365, 44.6603063], [16.434793, 44.6611532], [16.4324117, 44.6628469], [16.4292367, 44.6642583], [16.4272523, 44.6653874], [16.4240772, 44.667081], [16.4197115, 44.6693391], [16.4177271, 44.6715971], [16.4169334, 44.6735727], [16.4149489, 44.6749839], [16.4121708, 44.6761128], [16.4097895, 44.6769594], [16.4066144, 44.677806], [16.4034394, 44.6794993], [16.3998674, 44.6806281], [16.3974861, 44.6811925], [16.3951049, 44.68345], [16.3927236, 44.6842966], [16.3903423, 44.6848609], [16.387961, 44.6862718], [16.3851828, 44.6885291], [16.3839922, 44.690222], [16.3835953, 44.6930435], [16.3816109, 44.6947363], [16.3808171, 44.6981217], [16.3800233, 44.7006607], [16.374467, 44.7046099], [16.3724826, 44.7057383], [16.3669262, 44.7099692], [16.3625605, 44.7127897], [16.3613699, 44.7136358], [16.3585917, 44.7156101], [16.3558136, 44.7161741], [16.3534323, 44.7167382], [16.3498603, 44.7181482], [16.3482728, 44.7189943], [16.3454946, 44.7198403], [16.340732, 44.7204043], [16.3379539, 44.7209683], [16.3351757, 44.7232243], [16.3327944, 44.7260441], [16.3320006, 44.7280179], [16.3312069, 44.7311195], [16.3327944, 44.7328112], [16.3335882, 44.7342209], [16.3343819, 44.7364763], [16.3343819, 44.7381678], [16.3312069, 44.7409869], [16.33081, 44.7415507], [16.3304131, 44.7432421], [16.3292225, 44.7452153], [16.3276349, 44.7466247], [16.3264443, 44.7477522], [16.3248568, 44.7491616], [16.3228724, 44.750289], [16.3212848, 44.7514164], [16.3196973, 44.7525438], [16.3165321, 44.7527715], [16.3141508, 44.7524896], [16.3109757, 44.7527715], [16.303435, 44.7527715], [16.299863, 44.753617], [16.2970849, 44.7547444], [16.293116, 44.7550262], [16.289941, 44.7561535], [16.2879566, 44.7567172], [16.2843846, 44.7575626], [16.2816065, 44.7592536], [16.2776376, 44.7595354], [16.276447, 44.7592536], [16.2720813, 44.756999], [16.2697, 44.7572808], [16.2677156, 44.7578445], [16.2645405, 44.7575626], [16.2593811, 44.760099], [16.2569998, 44.7603808], [16.2534278, 44.7603808], [16.2506497, 44.7609444], [16.2478715, 44.7626352], [16.2439027, 44.7626352], [16.2419183, 44.7617898], [16.2379495, 44.7612262], [16.2351713, 44.7606626], [16.2312025, 44.7595354], [16.2276305, 44.7589717], [16.2248524, 44.7575626], [16.2204867, 44.7564353], [16.2173116, 44.7567172], [16.2149303, 44.7575626], [16.2117553, 44.7581263], [16.2097708, 44.7586899], [16.2054051, 44.7598172], [16.202627, 44.7609444], [16.19588, 44.7609444], [16.192308, 44.7606626], [16.1907205, 44.7612262], [16.1879423, 44.7617898], [16.1863548, 44.7620716], [16.1831798, 44.7623534], [16.1792109, 44.7623534], [16.1768297, 44.7617898], [16.175639, 44.7603808], [16.1720671, 44.756999], [16.1720671, 44.755308], [16.1712733, 44.7527715], [16.168892, 44.7507985], [16.168892, 44.7488255], [16.1684951, 44.7462886], [16.1684951, 44.7437517], [16.1673045, 44.7426241], [16.1669076, 44.7389593], [16.1665107, 44.7381136], [16.1649232, 44.7361401], [16.1629388, 44.7330389], [16.1609544, 44.7313472], [16.1573824, 44.7307833], [16.1550012, 44.7316291], [16.1518261, 44.7330389], [16.148651, 44.7327569], [16.1466666, 44.7330389], [16.1426978, 44.7341666], [16.1407134, 44.7344486], [16.1359508, 44.7352944], [16.131982, 44.7358582], [16.127628, 44.737224], [16.1244529, 44.7355324], [16.1228654, 44.7321492], [16.1236592, 44.7304575], [16.1284218, 44.7282018], [16.1315968, 44.72651], [16.1363594, 44.7242541], [16.1387407, 44.7231262], [16.1427095, 44.7214342], [16.1450908, 44.7191782], [16.1466783, 44.7157939], [16.1498534, 44.7141018], [16.1514409, 44.7101531], [16.1522347, 44.709589], [16.1538222, 44.7045118], [16.1569972, 44.7011267], [16.1601723, 44.694356], [16.1617598, 44.6920989], [16.1617598, 44.6915346], [16.1625536, 44.6887131], [16.1633474, 44.6858914], [16.1657286, 44.6830696], [16.1657286, 44.6819409], [16.1609661, 44.6802477], [16.1569972, 44.6746034], [16.154616, 44.6734745], [16.1522347, 44.6706521], [16.1506471, 44.6695231], [16.1490596, 44.6683941], [16.1458846, 44.666136], [16.144297, 44.6644424], [16.1403282, 44.6638778], [16.1371532, 44.6616195], [16.1379469, 44.658232], [16.1403282, 44.6559735], [16.141122, 44.6525855], [16.141122, 44.6508915], [16.1387407, 44.6475033], [16.1379469, 44.6469386], [16.1323906, 44.6463739], [16.130803, 44.6463739], [16.1244529, 44.6497621], [16.1204841, 44.6508915], [16.1181028, 44.6514562], [16.1149278, 44.6525855], [16.1125465, 44.6542795], [16.1101652, 44.6571027], [16.1069901, 44.6593612], [16.1061964, 44.6604904], [16.1022276, 44.6627487], [16.1014338, 44.6638778], [16.10064, 44.6683941], [16.0998463, 44.6712166], [16.0998463, 44.6796833], [16.0911149, 44.6768612], [16.0784146, 44.6762968], [16.0736521, 44.6757323], [16.0696832, 44.674039]]]}}]}