{"type": "FeatureCollection", "features": [{"type": "Feature", "properties": {"name": "Grad Bosanska Krupa, Unsko-sanski kanton, Federacija Bosne i Hercegovine, Bosna i Hercegovina / Босна и Херцеговина", "source": "OpenStreetMap relation 2528164", "licence": "ODbL 1.0"}, "geometry": {"type": "Polygon", "coordinates": [[[15.996169, 44.8532199], [16.0050589, 44.846958], [16.0017782, 44.8411931], [16.0024962, 44.8406422], [16.0024847, 44.8399122], [16.0031352, 44.839447], [16.0033979, 44.8387952], [16.0028292, 44.8378099], [16.0025895, 44.8367943], [16.0014196, 44.8346867], [16.0022133, 44.8335609], [16.0022133, 44.8268057], [15.999832, 44.8245538], [15.9982445, 44.8234278], [15.9990383, 44.8189236], [16.0006258, 44.8166713], [16.0022133, 44.814419], [16.0006258, 44.8110404], [15.999832, 44.8099141], [16.0014196, 44.8070984], [16.0061821, 44.805972], [16.0093572, 44.8054089], [16.0117385, 44.8054089], [16.0157073, 44.8048457], [16.0180886, 44.8037193], [16.0244387, 44.8009033], [16.0260262, 44.7980871], [16.0299951, 44.795834], [16.0379327, 44.795834], [16.0419015, 44.7963973], [16.0450766, 44.7963973], [16.0482516, 44.795834], [16.0553955, 44.7935809], [16.0609518, 44.7913277], [16.0649207, 44.7913277], [16.070477, 44.7907644], [16.0760334, 44.7896377], [16.0784146, 44.7896377], [16.0831772, 44.7851309], [16.0847648, 44.7823139], [16.083971, 44.7783699], [16.0815897, 44.7755527], [16.0807959, 44.7727352], [16.083971, 44.7699177], [16.0903211, 44.7659729], [16.0942899, 44.7648457], [16.1022276, 44.7592097], [16.1038151, 44.7580825], [16.1101652, 44.7530095], [16.114134, 44.7496272], [16.1165153, 44.7473723], [16.1204841, 44.7439897], [16.1252467, 44.7394793], [16.127628, 44.737224], [16.131982, 44.7358582], [16.1359508, 44.7352944], [16.1407134, 44.7344486], [16.1426978, 44.7341666], [16.1466666, 44.7330389], [16.148651, 44.7327569], [16.1518261, 44.7330389], [16.1550012, 44.7316291], [16.1573824, 44.7307833], [16.1609544, 44.7313472], [16.1629388, 44.7330389], [16.1649232, 44.7361401], [16.1665107, 44.7381136], [16.1669076, 44.7389593], [16.1673045, 44.7426241], [16.1684951, 44.7437517], [16.1684951, 44.7462886], [16.168892, 44.7488255], [16.168892, 44.7507985], [16.1712733, 44.7527715], [16.1720671, 44.755308], [16.1720671, 44.756999], [16.175639, 44.7603808], [16.1768297, 44.7617898], [16.1792109, 44.7623534], [16.1831798, 44.7623534], [16.1863548, 44.7620716], [16.1879423, 44.7617898], [16.1907205, 44.7612262], [16.192308, 44.7606626], [16.19588, 44.7609444], [16.202627, 44.7609444], [16.2054051, 44.7598172], [16.2097708, 44.7586899], [16.2117553, 44.7581263], [16.2149303, 44.7575626], [16.2173116, 44.7567172], [16.2204867, 44.7564353], [16.2248524, 44.7575626], [16.2276305, 44.7589717], [16.2312025, 44.7595354], [16.2351713, 44.7606626], [16.2379495, 44.7612262], [16.2419183, 44.7617898], [16.2439027, 44.7626352], [16.2478715, 44.7626352], [16.2506497, 44.7609444], [16.2534278, 44.7603808], [16.2569998, 44.7603808], [16.2593811, 44.760099], [16.2645405, 44.7575626], [16.2677156, 44.7578445], [16.2697, 44.7572808], [16.2720813, 44.756999], [16.276447, 44.7592536], [16.2776376, 44.7595354], [16.2816065, 44.7592536], [16.2843846, 44.7575626], [16.2879566, 44.7567172], [16.289941, 44.7561535], [16.293116, 44.7550262], [16.2970849, 44.7547444], [16.299863, 44.753617], [16.303435, 44.7527715], [16.3109757, 44.7527715], [16.3141508, 44.7524896], [16.3165321, 44.7527715], [16.3181196, 44.7561535], [16.320104, 44.7578445], [16.3208978, 44.7592536], [16.3205009, 44.762917], [16.3169289, 44.764326], [16.3169289, 44.7710886], [16.3149445, 44.7739061], [16.3177227, 44.7786955], [16.3177227, 44.7843296], [16.3205009, 44.7868648], [16.3255072, 44.7887551], [16.3267421, 44.789996], [16.3279225, 44.7917346], [16.3289258, 44.7928195], [16.3295826, 44.7929786], [16.3295145, 44.7930896], [16.3297747, 44.7931904], [16.3302479, 44.7928157], [16.331875, 44.7934533], [16.3317684, 44.793823], [16.3354217, 44.7954255], [16.3359838, 44.7958783], [16.3363531, 44.7964614], [16.3363745, 44.7969837], [16.3362546, 44.79733], [16.3362542, 44.7975952], [16.3365542, 44.797865], [16.3373471, 44.798389], [16.3378749, 44.798649], [16.3385063, 44.7988194], [16.3387595, 44.7989222], [16.3391247, 44.7990023], [16.339281, 44.7998209], [16.3398134, 44.800358], [16.3410937, 44.8004276], [16.3421564, 44.8003433], [16.3428421, 44.8003434], [16.34362, 44.8003853], [16.3443011, 44.8002869], [16.3448922, 44.8008944], [16.3452757, 44.8011938], [16.3454548, 44.8015542], [16.3458396, 44.8019716], [16.3458886, 44.8023998], [16.3458177, 44.8028851], [16.3459906, 44.8035789], [16.3464103, 44.8044022], [16.3467776, 44.8049547], [16.3468739, 44.8053608], [16.3469777, 44.805519], [16.347003, 44.8056587], [16.3468695, 44.806096], [16.3469918, 44.8066239], [16.3474842, 44.8072826], [16.3479181, 44.8081602], [16.3481278, 44.80859], [16.3480594, 44.8088604], [16.3477819, 44.8091771], [16.348132, 44.8099008], [16.3489351, 44.8104292], [16.3497938, 44.8103008], [16.3499768, 44.8101564], [16.3505929, 44.8105923], [16.3508143, 44.8107264], [16.3510966, 44.8104522], [16.3513934, 44.8102885], [16.3520523, 44.8105822], [16.3516814, 44.8113852], [16.3519998, 44.8113971], [16.3522431, 44.811357], [16.3535799, 44.8114831], [16.3543096, 44.811477], [16.3552433, 44.8119467], [16.355247, 44.8120658], [16.3557783, 44.8120805], [16.3568069, 44.8119567], [16.3577802, 44.8118221], [16.3581428, 44.8118243], [16.3585135, 44.8115752], [16.3589014, 44.8114784], [16.3593546, 44.8114373], [16.359801, 44.8115006], [16.3601521, 44.8114823], [16.3606133, 44.8117535], [16.3610223, 44.811895], [16.3608597, 44.8110802], [16.3610724, 44.8108674], [16.3614662, 44.8106452], [16.3619309, 44.8105201], [16.3625029, 44.8106059], [16.3635925, 44.810913], [16.3639152, 44.8109646], [16.3643966, 44.8109347], [16.3649135, 44.8105888], [16.3651368, 44.8102477], [16.3653518, 44.8100144], [16.3653635, 44.808718], [16.3654671, 44.8082788], [16.3655899, 44.8079911], [16.3660024, 44.8078146], [16.3664722, 44.8076789], [16.3670653, 44.807733], [16.3674161, 44.8078461], [16.3677705, 44.8075524], [16.3682919, 44.8071242], [16.3684553, 44.8068889], [16.3692477, 44.8066811], [16.3705116, 44.806471], [16.3710987, 44.8063978], [16.371901, 44.8065629], [16.3725714, 44.8066507], [16.3735798, 44.806615], [16.3746975, 44.8068095], [16.3754164, 44.8068332], [16.3759748, 44.8067116], [16.3765858, 44.806268], [16.3771505, 44.8059248], [16.3775226, 44.805716], [16.3791665, 44.8054542], [16.3790908, 44.8058088], [16.3792435, 44.8059478], [16.3799034, 44.8060438], [16.3801585, 44.8061926], [16.3801893, 44.8064582], [16.3800959, 44.8068053], [16.3794409, 44.807277], [16.3788041, 44.8075993], [16.3783864, 44.8080852], [16.3784615, 44.8084481], [16.378499, 44.8090912], [16.3783382, 44.8096357], [16.3777716, 44.8100035], [16.3772714, 44.81032], [16.3767861, 44.810748], [16.3766791, 44.811103], [16.3766632, 44.8121448], [16.3768974, 44.8129365], [16.3772185, 44.8135946], [16.3775048, 44.8140313], [16.3776698, 44.8142291], [16.3788275, 44.8139487], [16.3789103, 44.8146496], [16.3790122, 44.814934], [16.3793151, 44.8152877], [16.3801231, 44.8155653], [16.3806658, 44.8162288], [16.3814938, 44.8166528], [16.3822444, 44.8172497], [16.3829399, 44.8182197], [16.3828553, 44.81843], [16.382071, 44.8190269], [16.381937, 44.8194203], [16.3814892, 44.8197272], [16.3810222, 44.8198578], [16.3804324, 44.8198883], [16.3804173, 44.820079], [16.3806497, 44.8204581], [16.381052, 44.8210474], [16.3816104, 44.8223029], [16.382137, 44.8229201], [16.3818836, 44.8235899], [16.3817641, 44.824219], [16.3812765, 44.8250566], [16.3808921, 44.8268623], [16.3804776, 44.8271929], [16.3805792, 44.827532], [16.3807987, 44.8278576], [16.3807466, 44.8286165], [16.3805045, 44.8287867], [16.3790835, 44.8289087], [16.378196, 44.8291393], [16.377938, 44.8293767], [16.3776824, 44.8298056], [16.3776754, 44.8302888], [16.3777761, 44.8310517], [16.3777272, 44.8312739], [16.3771175, 44.8316892], [16.3762542, 44.832191], [16.3758327, 44.8324758], [16.376928, 44.8332455], [16.3777556, 44.8341644], [16.3777142, 44.8344247], [16.3781251, 44.8349238], [16.3783253, 44.8352138], [16.3788173, 44.8362933], [16.3790623, 44.837286], [16.3794448, 44.838102], [16.3792068, 44.8385516], [16.3792275, 44.8395908], [16.3797145, 44.8404644], [16.3794287, 44.8415689], [16.3823048, 44.8414256], [16.3824312, 44.8418771], [16.3826884, 44.8421728], [16.3829798, 44.8426422], [16.3830608, 44.8435997], [16.3830398, 44.8446547], [16.3835655, 44.8458879], [16.3843159, 44.848538], [16.3743433, 44.8469276], [16.3740279, 44.8423322], [16.3740831, 44.8402813], [16.3739056, 44.8384014], [16.373517, 44.8367067], [16.3733027, 44.8357601], [16.3731369, 44.8351722], [16.3728789, 44.8343028], [16.3726914, 44.8336876], [16.3723397, 44.833051], [16.3665331, 44.8323075], [16.3651149, 44.8307227], [16.3642926, 44.82896], [16.3631771, 44.8269614], [16.361659, 44.8255944], [16.3602887, 44.8246449], [16.3577462, 44.8235981], [16.3550447, 44.8227329], [16.3522541, 44.8221602], [16.3496722, 44.8210695], [16.3478624, 44.8208682], [16.3469544, 44.8207995], [16.3394812, 44.8211246], [16.3386116, 44.8208695], [16.3376427, 44.8207625], [16.3343553, 44.8221932], [16.3326791, 44.8227776], [16.3320915, 44.8233287], [16.330705, 44.8251765], [16.3301298, 44.8262628], [16.3293396, 44.8273395], [16.3281659, 44.8284776], [16.3273803, 44.8296282], [16.3264674, 44.8312768], [16.3241507, 44.8331145], [16.3188867, 44.8369421], [16.316038, 44.8376752], [16.3154658, 44.8386632], [16.3152995, 44.8398174], [16.3149675, 44.8406529], [16.3147707, 44.8413513], [16.3139569, 44.8474031], [16.3140087, 44.8514484], [16.3134168, 44.8515229], [16.3121279, 44.8523733], [16.3072062, 44.8541455], [16.3072086, 44.8561959], [16.306977, 44.857391], [16.3066993, 44.8586877], [16.3059177, 44.8607937], [16.3055418, 44.8618205], [16.3052251, 44.8625812], [16.3049106, 44.8631869], [16.3044045, 44.8637762], [16.304073, 44.8641454], [16.3029018, 44.8649514], [16.3004125, 44.8659797], [16.2996713, 44.8662136], [16.2979949, 44.8663155], [16.2948902, 44.8661095], [16.2931452, 44.866107], [16.2916752, 44.8663346], [16.2904538, 44.8668283], [16.2890572, 44.8685925], [16.2885615, 44.8694866], [16.2872498, 44.871856], [16.2868739, 44.8725299], [16.2867712, 44.87313], [16.2859954, 44.8742957], [16.2847994, 44.8764032], [16.2839296, 44.8775818], [16.2821907, 44.8786821], [16.2806811, 44.8795466], [16.2790575, 44.8799209], [16.2766878, 44.8801766], [16.2743788, 44.8804802], [16.2733564, 44.8809204], [16.2730733, 44.8810423], [16.2716858, 44.8816343], [16.2690897, 44.8824694], [16.2650316, 44.8837908], [16.2637038, 44.8840234], [16.2625997, 44.8843723], [16.2600634, 44.8860213], [16.2582976, 44.8872937], [16.2566159, 44.8874729], [16.2546608, 44.886957], [16.2529132, 44.8865516], [16.2511915, 44.8870832], [16.2495871, 44.8890719], [16.2478855, 44.8921236], [16.2477381, 44.8924107], [16.2453967, 44.8940433], [16.2441607, 44.8940932], [16.2402886, 44.8944633], [16.2387143, 44.8951942], [16.2370127, 44.8974151], [16.2367112, 44.8983618], [16.2358905, 44.9008603], [16.2358169, 44.9010833], [16.233787, 44.9023787], [16.2316499, 44.9039636], [16.2295866, 44.9052067], [16.2284511, 44.9084806], [16.2267059, 44.9104875], [16.2259087, 44.9118753], [16.2257078, 44.9123236], [16.2251618, 44.9135215], [16.2246962, 44.9146103], [16.2243277, 44.915571], [16.2243445, 44.9165459], [16.2249909, 44.918498], [16.2241535, 44.921088], [16.223588, 44.9226527], [16.2231118, 44.9238701], [16.2225591, 44.9253903], [16.2216681, 44.9273018], [16.2212762, 44.9280393], [16.2202479, 44.9298938], [16.2188813, 44.9323837], [16.2167174, 44.9346056], [16.2146608, 44.9349068], [16.2128955, 44.9352885], [16.2095359, 44.9362465], [16.2078979, 44.9370147], [16.2070304, 44.937719], [16.2049838, 44.9393787], [16.2030075, 44.9413277], [16.2021768, 44.9422096], [16.2009408, 44.943874], [16.2003446, 44.9456308], [16.2001336, 44.9477549], [16.2001537, 44.9484164], [16.2004853, 44.949009], [16.2011715, 44.94943], [16.2038526, 44.9503821], [16.209038, 44.9530993], [16.2106592, 44.9541518], [16.2116908, 44.9549672], [16.211861, 44.9553641], [16.2118449, 44.9561998], [16.2094734, 44.9585227], [16.2078589, 44.9611489], [16.2066262, 44.9630592], [16.2053467, 44.9646518], [16.2044758, 44.9653581], [16.204248, 44.9659221], [16.2044691, 44.9665051], [16.206787, 44.9709035], [16.2078187, 44.9728182], [16.2083345, 44.9750409], [16.2082052, 44.9763687], [16.2092269, 44.981773], [16.2092972, 44.9821639], [16.2092325, 44.9827721], [16.2091749, 44.9834046], [16.2104952, 44.9838502], [16.2119294, 44.9843674], [16.2128832, 44.9847094], [16.2154008, 44.9851641], [16.2155663, 44.9852095], [16.2159356, 44.9852046], [16.2179683, 44.9855452], [16.2182299, 44.9856286], [16.2194186, 44.9860365], [16.2198368, 44.9861633], [16.220315, 44.986326], [16.2207617, 44.9865061], [16.2212312, 44.9866661], [16.2215308, 44.9867527], [16.2218328, 44.986838], [16.2220513, 44.986869], [16.2224791, 44.986915], [16.2227457, 44.9869203], [16.2228438, 44.9869144], [16.2231988, 44.986841], [16.2235321, 44.986745], [16.2239575, 44.9865626], [16.2241853, 44.9863541], [16.2242841, 44.9861954], [16.2243544, 44.9859253], [16.2244064, 44.9855012], [16.2247949, 44.9848367], [16.2248602, 44.9847846], [16.225155, 44.9846294], [16.2258785, 44.9845062], [16.2269521, 44.9845607], [16.2271162, 44.9845879], [16.2278163, 44.9845856], [16.2282098, 44.9846637], [16.229131, 44.9846175], [16.2299382, 44.9848509], [16.2310469, 44.9851802], [16.2317721, 44.9853662], [16.2331957, 44.9857358], [16.233256, 44.9857393], [16.2336797, 44.985686], [16.2339661, 44.9855924], [16.2344217, 44.9853875], [16.2351083, 44.9849042], [16.2354282, 44.9845358], [16.2355471, 44.9842385], [16.2356275, 44.9840454], [16.235728, 44.9838689], [16.2358402, 44.9837208], [16.2360228, 44.9835419], [16.2361618, 44.9834318], [16.2363393, 44.9833346], [16.2365135, 44.9832813], [16.2367932, 44.9832245], [16.2372755, 44.9831605], [16.2380501, 44.9830799], [16.2385383, 44.9830225], [16.2386004, 44.9830127], [16.2387546, 44.9830142], [16.2397754, 44.9830552], [16.2409913, 44.9832109], [16.2419565, 44.9831853], [16.2427511, 44.9830902], [16.2436677, 44.9828892], [16.2442103, 44.9828307], [16.2450485, 44.9828088], [16.2466511, 44.9827646], [16.2479395, 44.9830313], [16.2498304, 44.9836233], [16.2506614, 44.984464], [16.2513276, 44.9848493], [16.2516128, 44.9851152], [16.251716, 44.985377], [16.2518316, 44.9858516], [16.2520103, 44.9861912], [16.2523202, 44.9864979], [16.2523791, 44.9865965], [16.2524147, 44.9868143], [16.2525686, 44.9871041], [16.2527268, 44.987218], [16.2529831, 44.987347], [16.2532142, 44.9874153], [16.2537529, 44.9874793], [16.2543467, 44.9874808], [16.2546387, 44.9874509], [16.2549442, 44.9873571], [16.2552261, 44.9872046], [16.2556372, 44.9868514], [16.2559011, 44.9866267], [16.2559817, 44.9864608], [16.2560764, 44.9863335], [16.2562185, 44.9862397], [16.2565461, 44.9861365], [16.2569267, 44.9860035], [16.2572152, 44.9859451], [16.257398, 44.9859298], [16.2577675, 44.9858293], [16.257996, 44.9858101], [16.2581062, 44.9858008], [16.2583099, 44.9857572], [16.2585776, 44.9857405], [16.2588476, 44.9857522], [16.2590466, 44.9857665], [16.2593876, 44.9857974], [16.2596458, 44.9858326], [16.259911, 44.9859281], [16.2602213, 44.9862464], [16.2604984, 44.986625], [16.26057, 44.9868604], [16.2608354, 44.9873085], [16.2610385, 44.9875631], [16.2613945, 44.9881476], [16.2616045, 44.9883437], [16.2617916, 44.9884593], [16.2619669, 44.9885263], [16.2627819, 44.9886594], [16.2630791, 44.9887061], [16.2632376, 44.9887256], [16.2634082, 44.9887273], [16.2635787, 44.9887089], [16.2637599, 44.9886771], [16.2639375, 44.9886134], [16.2642392, 44.9884845], [16.264631, 44.9883214], [16.2650285, 44.9879469], [16.2651, 44.9879062], [16.2653791, 44.987819], [16.2655138, 44.9877933], [16.2657344, 44.987776], [16.2661009, 44.9877562], [16.2664709, 44.987745], [16.2667673, 44.9877611], [16.266883, 44.9877512], [16.2669777, 44.9877636], [16.2670566, 44.9878008], [16.2672548, 44.9879162], [16.2676248, 44.9880774], [16.2682701, 44.9882907], [16.2687141, 44.9885227], [16.2688207, 44.9885784], [16.2691592, 44.9887608], [16.2692731, 44.9888389], [16.2698799, 44.9889976], [16.2701044, 44.9890683], [16.2702353, 44.9890927], [16.2704591, 44.989126], [16.2705118, 44.9891247], [16.2705459, 44.9891216], [16.2707164, 44.9890931], [16.2709297, 44.9890598], [16.2711219, 44.9890353], [16.2712347, 44.9890414], [16.2714207, 44.9890931], [16.2715602, 44.9891208], [16.2717704, 44.9891506], [16.2720779, 44.9891922], [16.2722633, 44.9892155], [16.2726669, 44.9893457], [16.2728597, 44.9894558], [16.2729843, 44.9895443], [16.2731282, 44.9897], [16.2732367, 44.9898377], [16.2732646, 44.9898719], [16.2733334, 44.9899903], [16.2733762, 44.9900639], [16.2734884, 44.9903182], [16.273512, 44.9904261], [16.2735374, 44.9905397], [16.2735151, 44.9907002], [16.2734555, 44.9909453], [16.2734103, 44.9910821], [16.2733198, 44.9912184], [16.2730736, 44.9914613], [16.2729168, 44.9916183], [16.272735, 44.9918108], [16.2724509, 44.9921308], [16.2723405, 44.9922746], [16.2722878, 44.9924284], [16.2723264, 44.992607], [16.2724053, 44.9927298], [16.2725737, 44.9929493], [16.272998, 44.9933585], [16.2733803, 44.9935879], [16.2738924, 44.9938285], [16.2743974, 44.9940393], [16.2756811, 44.9943866], [16.2767788, 44.9945676], [16.2773034, 44.9946022], [16.27772, 44.9946969], [16.2778167, 44.994739], [16.278283, 44.9950599], [16.2786004, 44.9952283], [16.2791014, 44.9954177], [16.2794486, 44.9955282], [16.2804579, 44.9957176], [16.280944, 44.9957965], [16.2811994, 44.9958246], [16.2821269, 44.9958298], [16.2824518, 44.9956808], [16.2826775, 44.995565], [16.2830718, 44.9954563], [16.2832057, 44.9954335], [16.2835529, 44.9954388], [16.2852839, 44.99543], [16.2861048, 44.9955229], [16.2869875, 44.9956277], [16.2871092, 44.9956422], [16.288656, 44.995661], [16.2887518, 44.9956636], [16.2886128, 44.9960171], [16.28778, 44.9981397], [16.2871657, 44.9992796], [16.2871366, 44.9994119], [16.2871228, 44.9995013], [16.2869995, 45.0002053], [16.286221, 45.0013231], [16.2857446, 45.0019241], [16.2855537, 45.0021757], [16.2854607, 45.0024355], [16.2854143, 45.0031892], [16.2855119, 45.0040018], [16.2856556, 45.0045387], [16.2856705, 45.0048439], [16.285543, 45.0051304], [16.2850951, 45.0058226], [16.2853256, 45.0069168], [16.2850092, 45.0073169], [16.2841402, 45.0075369], [16.2843139, 45.0083037], [16.2803796, 45.0087464], [16.2775432, 45.0072805], [16.2767059, 45.0064067], [16.2759485, 45.0063316], [16.2749119, 45.0059839], [16.2742741, 45.0059839], [16.2737425, 45.0062282], [16.2727325, 45.0086335], [16.2733478, 45.0099287], [16.2730438, 45.0108651], [16.2727059, 45.0116869], [16.2729939, 45.0140902], [16.2726604, 45.0148184], [16.2725023, 45.0149172], [16.2705, 45.016168], [16.2691179, 45.0168538], [16.2668466, 45.0171785], [16.2644136, 45.0173517], [16.2625394, 45.0168618], [16.2620456, 45.0168864], [16.2595365, 45.0145428], [16.259284, 45.0140731], [16.2594036, 45.0131243], [16.2591378, 45.0124009], [16.2588455, 45.0117996], [16.2581279, 45.0112265], [16.2575697, 45.0110856], [16.2571711, 45.0111044], [16.2566129, 45.0114896], [16.2555764, 45.0125606], [16.2534151, 45.0141309], [16.2531844, 45.0142986], [16.2527458, 45.0143362], [16.251696, 45.0140168], [16.2510526, 45.0136927], [16.2500349, 45.014261], [16.2472043, 45.0148435], [16.2445465, 45.014881], [16.2427126, 45.0142347], [16.2404677, 45.0144258], [16.2403081, 45.0144394], [16.2379254, 45.0145723], [16.236352, 45.0146601], [16.2342398, 45.0151265], [16.2321401, 45.0165613], [16.2298177, 45.017198], [16.2297729, 45.018363], [16.2297168, 45.0194805], [16.2301317, 45.0206376], [16.230492, 45.0211806], [16.2306026, 45.0217075], [16.2295038, 45.0225951], [16.2296047, 45.0231657], [16.2299379, 45.0236675], [16.2292226, 45.0245512], [16.2288175, 45.0246337], [16.228156, 45.0246417], [16.2272815, 45.0247447], [16.2259136, 45.0246417], [16.2255044, 45.0247335], [16.2251792, 45.025094], [16.2246691, 45.0254388], [16.2245086, 45.0253115], [16.2239207, 45.0248454], [16.2235815, 45.0247572], [16.2231106, 45.0249111], [16.2224155, 45.0252043], [16.2216531, 45.0254183], [16.2207898, 45.0256322], [16.2202404, 45.0258779], [16.2189628, 45.0266858], [16.2184613, 45.0268829], [16.2174814, 45.0272679], [16.2168993, 45.0275578], [16.2155763, 45.0282631], [16.2143766, 45.0291426], [16.2137203, 45.0294228], [16.2128976, 45.0292293], [16.2121464, 45.0290312], [16.2114176, 45.0292848], [16.2108132, 45.0296165], [16.2105119, 45.0301936], [16.2104513, 45.0305931], [16.210431, 45.0307269], [16.2105207, 45.0313529], [16.2105526, 45.0315109], [16.2105655, 45.0315747], [16.2104119, 45.0318506], [16.2097635, 45.0322893], [16.209366, 45.0324536], [16.2090759, 45.0325735], [16.2083206, 45.0327151], [16.2066953, 45.0327207], [16.2060063, 45.0329082], [16.2055628, 45.0329923], [16.2050807, 45.0330121], [16.2039795, 45.0330117], [16.2015338, 45.0321552], [16.2012855, 45.0320682], [16.2009534, 45.0319447], [16.2004951, 45.0320801], [16.1997303, 45.0323859], [16.1990936, 45.0325515], [16.1982595, 45.0323412], [16.1970699, 45.0318979], [16.1963691, 45.0312719], [16.1957413, 45.0309391], [16.1950517, 45.0309866], [16.1942294, 45.0308057], [16.1936847, 45.0310391], [16.1931456, 45.0315826], [16.1925034, 45.031958], [16.1920133, 45.0323568], [16.1916486, 45.0329619], [16.1915059, 45.0335109], [16.1916961, 45.0340376], [16.1917263, 45.0346117], [16.1915318, 45.0357465], [16.191131, 45.036282], [16.1906712, 45.0367806], [16.1895667, 45.0376402], [16.1883779, 45.0391502], [16.188047, 45.0396602], [16.1878726, 45.0402596], [16.1879043, 45.0408254], [16.1881739, 45.0419962], [16.1882675, 45.0425606], [16.1880232, 45.0430717], [16.1874841, 45.0435591], [16.1865803, 45.044573], [16.1862711, 45.0451219], [16.1861046, 45.0456596], [16.1861307, 45.046259], [16.1856657, 45.0466919], [16.1851034, 45.047136], [16.1837662, 45.0478055], [16.1829908, 45.0480636], [16.1804077, 45.0493487], [16.1797742, 45.0497444], [16.1784246, 45.0504255], [16.1776717, 45.0507238], [16.1770474, 45.0510806], [16.1769005, 45.0512622], [16.1768362, 45.0516773], [16.1764412, 45.0519665], [16.1763313, 45.052047], [16.1759457, 45.0526308], [16.1758447, 45.0531756], [16.1757804, 45.0537788], [16.1758223, 45.0541316], [16.1759232, 45.0545003], [16.1760467, 45.0548814], [16.1761444, 45.0550341], [16.1763955, 45.0554262], [16.1769648, 45.0558607], [16.1771648, 45.0560949], [16.1772861, 45.0562369], [16.1771791, 45.0565565], [16.1771943, 45.0565871], [16.1767927, 45.0573658], [16.1758378, 45.0583516], [16.1754056, 45.0591427], [16.1750299, 45.0598303], [16.1747545, 45.0603556], [16.1746627, 45.0606669], [16.1746994, 45.0610819], [16.1748371, 45.0613672], [16.1752784, 45.0620014], [16.1753696, 45.0621325], [16.1754798, 45.0623594], [16.1753788, 45.0625345], [16.1746627, 45.0629366], [16.174121, 45.063196], [16.1738272, 45.06341], [16.1734416, 45.0637537], [16.1730743, 45.06424], [16.1728264, 45.0645319], [16.1723582, 45.0647588], [16.1721287, 45.0649145], [16.1717431, 45.0652581], [16.171183, 45.06555], [16.1701364, 45.0667107], [16.1704577, 45.0674369], [16.1708709, 45.0679297], [16.171408, 45.0684971], [16.1720552, 45.0694795], [16.1734048, 45.0701246], [16.1739287, 45.0703677], [16.1739072, 45.0703993], [16.1734921, 45.0710097], [16.1726933, 45.0720569], [16.1722251, 45.0725172], [16.1715457, 45.0727506], [16.1708809, 45.0728644], [16.1705755, 45.0729211], [16.1701756, 45.0727239], [16.1679305, 45.0719312], [16.1645629, 45.0695528], [16.1617565, 45.0683636], [16.1578275, 45.0655887], [16.1550212, 45.0632101], [16.1538986, 45.0620207], [16.150531, 45.0612278], [16.1477246, 45.059642], [16.1460408, 45.0584525], [16.1426731, 45.0584525], [16.1387442, 45.0568666], [16.1353765, 45.0544876], [16.1331483, 45.051733], [16.1331314, 45.051712], [16.1308863, 45.0493329], [16.1286412, 45.0481432], [16.1258348, 45.0461604], [16.1252736, 45.0445742], [16.1252736, 45.0425913], [16.124151, 45.0390219], [16.1230285, 45.037832], [16.1230285, 45.0338657], [16.1202221, 45.0322791], [16.1202221, 45.0263289], [16.1174157, 45.0239487], [16.1174157, 45.0223618], [16.1168544, 45.0207749], [16.1146093, 45.0183944], [16.1134868, 45.0168073], [16.1129255, 45.0144267], [16.1101191, 45.012046], [16.1050676, 45.0128395], [16.1012191, 45.0130015], [16.0977478, 45.0126337], [16.0941776, 45.0138033], [16.0931191, 45.0174863], [16.0910692, 45.0196136], [16.0866943, 45.0211664], [16.0842294, 45.0219773], [16.080163, 45.0236098], [16.07565, 45.024329], [16.0735434, 45.0252436], [16.0703951, 45.0266755], [16.0686941, 45.0271063], [16.0683437, 45.0272609], [16.0676131, 45.0273809], [16.0672945, 45.0275239], [16.0669164, 45.0276349], [16.065803, 45.0285199], [16.0640866, 45.0292785], [16.0596043, 45.0295024], [16.0556754, 45.0279157], [16.0511852, 45.0251388], [16.0495013, 45.0243454], [16.0478175, 45.0227585], [16.0450111, 45.0203781], [16.0444499, 45.0187911], [16.0444499, 45.0152203], [16.0450111, 45.012046], [16.0450111, 45.0104587], [16.042766, 45.007681], [16.0399597, 45.0056968], [16.0393984, 45.0033157], [16.0371533, 45.0013314], [16.0360307, 45.0001408], [16.0343469, 44.9981563], [16.0326631, 44.9969656], [16.0326631, 44.9925995], [16.032941, 44.9903767], [16.0332887, 44.9898348], [16.0333355, 44.9896093], [16.03327, 44.9891443], [16.033025, 44.9886241], [16.0329541, 44.9881412], [16.0330077, 44.9878233], [16.0330713, 44.9875967], [16.0329837, 44.9872405], [16.0327786, 44.9868097], [16.0327837, 44.9863213], [16.032928, 44.986044], [16.033093, 44.9858269], [16.0336713, 44.985298], [16.0341461, 44.9849529], [16.0342162, 44.9848351], [16.0342776, 44.9844995], [16.0344761, 44.9841108], [16.0348506, 44.9835631], [16.0349436, 44.9834102], [16.0350217, 44.9832431], [16.0350494, 44.9828486], [16.0350696, 44.9826093], [16.0349568, 44.982355], [16.0349291, 44.9822495], [16.0350126, 44.9821251], [16.0354184, 44.9820127], [16.0356506, 44.9818652], [16.0359192, 44.9815729], [16.0362324, 44.9810424], [16.0368667, 44.9806475], [16.0375187, 44.9802816], [16.0382511, 44.9800611], [16.0385921, 44.9799517], [16.0388687, 44.9799001], [16.0394837, 44.979848], [16.040167, 44.9797466], [16.0412374, 44.9797841], [16.0418581, 44.9796881], [16.0433007, 44.9793652], [16.0456889, 44.9788169], [16.0465373, 44.9785699], [16.0469278, 44.9783635], [16.0473692, 44.9780825], [16.0476491, 44.9777476], [16.0478684, 44.9774211], [16.048121, 44.9773526], [16.0483757, 44.9773017], [16.0487153, 44.977304], [16.0494664, 44.9774341], [16.0497887, 44.9774844], [16.0503674, 44.9774057], [16.051192, 44.977175], [16.0519111, 44.9769679], [16.052349, 44.9769082], [16.0525684, 44.976882], [16.0527357, 44.9768328], [16.0531424, 44.9765851], [16.0540877, 44.9759046], [16.0544933, 44.9755493], [16.0546518, 44.9753447], [16.0546783, 44.9748702], [16.0548468, 44.9745531], [16.0558627, 44.9734575], [16.0563108, 44.9728016], [16.0568231, 44.9723316], [16.0575551, 44.9718381], [16.0585097, 44.9712399], [16.0590332, 44.9712424], [16.0593107, 44.9712091], [16.0595842, 44.9710504], [16.0600328, 44.9708377], [16.0604986, 44.9705338], [16.060752, 44.9701642], [16.0607748, 44.9700481], [16.0607487, 44.9699096], [16.0605663, 44.9696945], [16.0605171, 44.9692596], [16.0605368, 44.9688712], [16.0607932, 44.9683525], [16.0613061, 44.9677197], [16.0614291, 44.9675104], [16.061653, 44.9673046], [16.0622853, 44.9669067], [16.0627016, 44.9665502], [16.0626298, 44.9663089], [16.0626737, 44.9661471], [16.0631853, 44.9660048], [16.0639836, 44.9658589], [16.0643401, 44.9658223], [16.0646666, 44.9657433], [16.0650507, 44.9655326], [16.0652795, 44.9653348], [16.0655803, 44.964717], [16.0661007, 44.9637926], [16.0663131, 44.9633905], [16.0666263, 44.96288], [16.0669313, 44.9623242], [16.0672412, 44.9616695], [16.0676321, 44.9613073], [16.0667868, 44.9611345], [16.0665684, 44.9606688], [16.0666053, 44.9599055], [16.0666988, 44.958397], [16.0664835, 44.958413], [16.0659677, 44.9580858], [16.0654848, 44.956302], [16.0652793, 44.9556505], [16.0650479, 44.9554532], [16.0647543, 44.955298], [16.0643881, 44.9552915], [16.0640964, 44.9553171], [16.0639513, 44.9552985], [16.0638558, 44.9552207], [16.0637796, 44.9550137], [16.0639034, 44.9546565], [16.0644945, 44.9539103], [16.0647446, 44.9535802], [16.0647576, 44.9534204], [16.0647182, 44.953176], [16.0645626, 44.9529799], [16.0643261, 44.9528362], [16.064286, 44.9525915], [16.0645335, 44.9518735], [16.0648238, 44.9512821], [16.0657931, 44.9501695], [16.0658479, 44.9495026], [16.0656337, 44.9488251], [16.0651904, 44.9480964], [16.0651955, 44.9474523], [16.0655485, 44.9457417], [16.0656276, 44.9446527], [16.0660536, 44.9439144], [16.066214, 44.9435475], [16.0662051, 44.9428482], [16.066147, 44.9426674], [16.0659648, 44.9425321], [16.065147, 44.9420939], [16.0648816, 44.9416663], [16.064851, 44.9410877], [16.0648579, 44.9405447], [16.0647629, 44.9402221], [16.0649919, 44.9397133], [16.0643174, 44.9395934], [16.064418, 44.9392014], [16.064668, 44.9387426], [16.0652577, 44.9385324], [16.0656105, 44.9383122], [16.0662481, 44.9375594], [16.0658131, 44.9369996], [16.0656907, 44.9362729], [16.0645512, 44.9364171], [16.0649762, 44.9359575], [16.0650941, 44.9357022], [16.0651784, 44.9354539], [16.065134, 44.9351496], [16.0650595, 44.934806], [16.0651342, 44.934521], [16.0652608, 44.9343061], [16.0655194, 44.934163], [16.0657723, 44.9339932], [16.0659279, 44.9339304], [16.0663762, 44.9337011], [16.0665942, 44.9335003], [16.0667892, 44.9332098], [16.0668309, 44.9328748], [16.0668713, 44.9327073], [16.0670417, 44.9325951], [16.0673368, 44.9325476], [16.0675087, 44.9324948], [16.0680449, 44.932092], [16.0683461, 44.931838], [16.0684384, 44.9315663], [16.0686553, 44.9310017], [16.0686214, 44.930721], [16.0690286, 44.9302208], [16.0694279, 44.9297024], [16.0705808, 44.9287127], [16.0707631, 44.9282784], [16.0707897, 44.9279435], [16.0707041, 44.927493], [16.0708246, 44.9270237], [16.0710279, 44.9266094], [16.0710645, 44.9257391], [16.0712833, 44.9250529], [16.0705145, 44.9251207], [16.0697658, 44.9249612], [16.0694075, 44.9246543], [16.0692617, 44.924345], [16.0669939, 44.9241635], [16.067078, 44.9230954], [16.0669731, 44.921344], [16.0663212, 44.9209942], [16.0655821, 44.9207714], [16.064947, 44.9204325], [16.0665297, 44.9197885], [16.0652297, 44.9178272], [16.0641764, 44.9165228], [16.0626691, 44.9153597], [16.0614948, 44.9150171], [16.0600618, 44.9148605], [16.0587333, 44.9145878], [16.0577959, 44.9145193], [16.0578539, 44.9133641], [16.0574368, 44.9134347], [16.0554393, 44.9140283], [16.0537512, 44.9144067], [16.053368, 44.9143679], [16.0527915, 44.9141238], [16.0522642, 44.9135626], [16.0518415, 44.9134564], [16.056195, 44.9002959], [16.0640945, 44.8952684], [16.0692916, 44.8906085], [16.064246, 44.883422], [16.066571, 44.8822952], [16.0700853, 44.8810507], [16.0706918, 44.880685], [16.0710617, 44.8802354], [16.0721473, 44.8783535], [16.0730894, 44.8773403], [16.074719, 44.8759881], [16.07614, 44.8751159], [16.0778313, 44.8742611], [16.0790129, 44.8731233], [16.0808339, 44.8726435], [16.0828829, 44.872659], [16.085135, 44.8719437], [16.086614, 44.8710618], [16.0895112, 44.8670601], [16.0862664, 44.8658703], [16.084442, 44.8658632], [16.0822588, 44.865443], [16.0824351, 44.8667083], [16.077552, 44.865516], [16.0744968, 44.8655281], [16.0728092, 44.8652224], [16.0700383, 44.8648079], [16.0675224, 44.8635803], [16.0650897, 44.8618651], [16.063932, 44.8619632], [16.0626124, 44.8626703], [16.0605569, 44.8635735], [16.0588147, 44.863871], [16.0579738, 44.8637603], [16.0575841, 44.8634229], [16.0559219, 44.8572665], [16.0526431, 44.8593024], [16.0447264, 44.8618856], [16.0288367, 44.8617652], [16.0192486, 44.8656643], [15.996169, 44.8532199]]]}}]}