{"type": "FeatureCollection", "features": [{"type": "Feature", "properties": {"name": "Općina Bosansko Grahovo, Hercegbosanska županija, Federacija Bosne i Hercegovine, 80270, Bosna i Hercegovina / Босна и Херцеговина", "source": "OpenStreetMap relation 2528170", "licence": "ODbL 1.0"}, "geometry": {"type": "Polygon", "coordinates": [[[16.1723814, 44.2088219], [16.1725691, 44.2084182], [16.1728766, 44.2082712], [16.1730775, 44.208205], [16.173158, 44.2082598], [16.1730838, 44.2083627], [16.1730209, 44.2085554], [16.1730103, 44.2086852], [16.1732005, 44.2089404], [16.1731028, 44.2090439], [16.1731324, 44.2092008], [16.1732168, 44.2093513], [16.1732697, 44.2095022], [16.1732557, 44.2097447], [16.1732065, 44.2098865], [16.173067, 44.2101203], [16.1729652, 44.2103196], [16.1734484, 44.210856], [16.1737826, 44.2111928], [16.1741413, 44.2113488], [16.1744375, 44.2115117], [16.174845, 44.2115203], [16.1751967, 44.2115018], [16.1757287, 44.2114909], [16.1757736, 44.2116364], [16.1755374, 44.211799], [16.1754699, 44.2118736], [16.1758395, 44.2123111], [16.1761613, 44.212327], [16.1765874, 44.2122112], [16.1773559, 44.2122406], [16.1777698, 44.2122096], [16.1779053, 44.2120717], [16.178513, 44.2119972], [16.1788635, 44.211945], [16.1796311, 44.2119519], [16.1804239, 44.2119976], [16.1809422, 44.2120376], [16.1817024, 44.2124444], [16.1820554, 44.2126569], [16.1824091, 44.2126891], [16.1827279, 44.2126319], [16.1830688, 44.2125404], [16.1833881, 44.2124944], [16.1838399, 44.2128287], [16.184088, 44.2129644], [16.1841606, 44.2132164], [16.1846469, 44.2132345], [16.1853025, 44.2133788], [16.1860963, 44.2134471], [16.1866883, 44.2135644], [16.1873312, 44.213585], [16.1878609, 44.2137093], [16.1884226, 44.2136527], [16.1889332, 44.2136929], [16.1894502, 44.2136993], [16.1897748, 44.2135911], [16.1906676, 44.2133925], [16.1915608, 44.2135995], [16.1917258, 44.2138157], [16.19197, 44.2140473], [16.192261, 44.2140751], [16.1925883, 44.2140345], [16.1928679, 44.2141753], [16.1931663, 44.2141916], [16.1935317, 44.2143249], [16.1938236, 44.2143809], [16.1941351, 44.2143349], [16.1944858, 44.2144911], [16.1947562, 44.2145925], [16.1950554, 44.2146314], [16.1954198, 44.2147366], [16.1957652, 44.2147576], [16.1960477, 44.2147687], [16.1963909, 44.214542], [16.1966846, 44.2146373], [16.1969939, 44.214935], [16.1971852, 44.2150156], [16.1972774, 44.2149742], [16.197291, 44.2149176], [16.1974217, 44.2148586], [16.1977197, 44.2148694], [16.1980209, 44.2149589], [16.1984607, 44.2151864], [16.1989689, 44.2153617], [16.1992764, 44.2156089], [16.1995132, 44.2158519], [16.19981, 44.2160259], [16.2005877, 44.2162859], [16.2009756, 44.2163904], [16.2012497, 44.2163904], [16.2015598, 44.2163109], [16.2018482, 44.2162767], [16.202098, 44.2162546], [16.202215, 44.2162409], [16.2025662, 44.2164084], [16.2030027, 44.2165514], [16.2033863, 44.216549], [16.2037062, 44.2165199], [16.2039616, 44.2164414], [16.2043913, 44.2166127], [16.2047501, 44.2167743], [16.2050028, 44.2168254], [16.2053558, 44.2168406], [16.2057049, 44.2169517], [16.2060392, 44.2170856], [16.2063374, 44.2171019], [16.2066215, 44.2171524], [16.2068583, 44.2171982], [16.2071643, 44.2172144], [16.207307, 44.2170593], [16.2076454, 44.2169059], [16.2078904, 44.2167656], [16.208278, 44.2166675], [16.208399, 44.216558], [16.208726, 44.2165117], [16.2088597, 44.2165258], [16.2090303, 44.2164829], [16.2091754, 44.2163898], [16.2093307, 44.2163584], [16.2095433, 44.2163878], [16.2097605, 44.2163326], [16.2098568, 44.2161954], [16.2100716, 44.2160839], [16.2103769, 44.2160832], [16.2105918, 44.2159718], [16.2108679, 44.2158252], [16.2111934, 44.2155481], [16.211514, 44.2153387], [16.2119443, 44.2151326], [16.2121634, 44.2149309], [16.2122828, 44.2147876], [16.2123987, 44.2147458], [16.2127299, 44.2148009], [16.2130538, 44.2146815], [16.2133543, 44.214557], [16.2135209, 44.2144127], [16.2136083, 44.2142533], [16.2138439, 44.2140737], [16.2141314, 44.214017], [16.2145565, 44.2140701], [16.2148167, 44.2141154], [16.2150738, 44.2140819], [16.2154022, 44.2138723], [16.2156749, 44.2138385], [16.2159335, 44.2138444], [16.2162988, 44.2137748], [16.2164333, 44.2136143], [16.2164518, 44.21349], [16.2164976, 44.2132638], [16.2165757, 44.213065], [16.2167015, 44.2128822], [16.2170326, 44.2127402], [16.2175588, 44.2125827], [16.2180866, 44.2122732], [16.2186223, 44.2119636], [16.2189795, 44.2118885], [16.2193064, 44.2118366], [16.2195502, 44.2116682], [16.2195968, 44.2114645], [16.2197937, 44.2112971], [16.219886, 44.2110642], [16.2199278, 44.2109338], [16.2198593, 44.2107887], [16.2201489, 44.2105912], [16.2206201, 44.2104293], [16.220847, 44.2104246], [16.2210531, 44.2104879], [16.2213133, 44.2104549], [16.2213726, 44.2104474], [16.2216459, 44.2104305], [16.2219031, 44.210397], [16.2222198, 44.2102889], [16.2223632, 44.2101564], [16.2225355, 44.2099613], [16.2227857, 44.209759], [16.2230735, 44.209708], [16.223435, 44.2095483], [16.2237499, 44.2093953], [16.2248168, 44.2096377], [16.2250906, 44.2098235], [16.225456, 44.2099511], [16.225786, 44.2097865], [16.2260562, 44.2096908], [16.2262627, 44.2095681], [16.2262858, 44.2093649], [16.2262752, 44.2091004], [16.2263507, 44.2088397], [16.2265408, 44.2085035], [16.226702, 44.2082297], [16.2267611, 44.2079468], [16.2268082, 44.2077544], [16.2268199, 44.2076584], [16.2269387, 44.2073011], [16.2269224, 44.2070929], [16.2269285, 44.2068563], [16.2268738, 44.2066659], [16.2268196, 44.2064868], [16.2268736, 44.2062716], [16.227089, 44.2059856], [16.2272874, 44.2058575], [16.2273495, 44.2056478], [16.2275192, 44.2053908], [16.2278278, 44.2050802], [16.2281752, 44.2047687], [16.2285611, 44.204434], [16.2288167, 44.2041696], [16.2292834, 44.2039008], [16.2297416, 44.2036151], [16.2301742, 44.2032739], [16.2304378, 44.2030148], [16.2307954, 44.2027595], [16.2311343, 44.2026228], [16.2312727, 44.2023665], [16.2314345, 44.2021041], [16.2315899, 44.2018811], [16.2321247, 44.2015545], [16.2325387, 44.2013375], [16.2328928, 44.2011892], [16.2332372, 44.2009905], [16.2334719, 44.2009855], [16.2335832, 44.2010283], [16.2337349, 44.2010983], [16.233943, 44.2010208], [16.2341303, 44.2008084], [16.2343822, 44.200651], [16.2345424, 44.2005463], [16.2347916, 44.200513], [16.2350494, 44.2006934], [16.2354013, 44.2010691], [16.2354864, 44.2012362], [16.2355455, 44.2015335], [16.2356221, 44.2018811], [16.2360264, 44.2020022], [16.2363603, 44.2019332], [16.2367022, 44.2018697], [16.2371275, 44.2015453], [16.237554, 44.2012492], [16.2378857, 44.2009324], [16.2382694, 44.2005527], [16.2385125, 44.2001702], [16.238615, 44.1998018], [16.2386877, 44.1994737], [16.2387276, 44.1991067], [16.2389072, 44.1987087], [16.2392704, 44.1982054], [16.2398293, 44.1976979], [16.2401088, 44.1972585], [16.2405294, 44.1970074], [16.2409225, 44.1968583], [16.2414143, 44.1968254], [16.2419726, 44.1966898], [16.2424155, 44.1966073], [16.2427629, 44.1964873], [16.2428375, 44.1962041], [16.2427407, 44.1961329], [16.2427434, 44.1958118], [16.2429056, 44.1953747], [16.242992, 44.1949955], [16.2431805, 44.1946254], [16.2435375, 44.1941617], [16.2439618, 44.1938147], [16.2443947, 44.1934903], [16.245469, 44.1927963], [16.2461438, 44.1923239], [16.251065, 44.1894151], [16.2511712, 44.1893481], [16.2512304, 44.1892945], [16.2513151, 44.1890738], [16.2517214, 44.1876357], [16.2517784, 44.1876833], [16.2522081, 44.1874591], [16.2521611, 44.1873812], [16.2524927, 44.1871857], [16.2525069, 44.1871262], [16.2526901, 44.1870727], [16.2528059, 44.1870158], [16.2533277, 44.1865727], [16.254154, 44.1858567], [16.2546557, 44.1851309], [16.2554972, 44.1843376], [16.255793, 44.1838407], [16.2564885, 44.1833532], [16.2562931, 44.1832496], [16.2573595, 44.1829027], [16.2582382, 44.1819717], [16.2581, 44.1818853], [16.2593327, 44.1807936], [16.2601014, 44.1805552], [16.2601627, 44.1805593], [16.2603196, 44.1802929], [16.2609534, 44.1798283], [16.2617359, 44.1795686], [16.262224, 44.1787228], [16.2627121, 44.1778772], [16.2630808, 44.1765833], [16.2632803, 44.1764435], [16.26607, 44.1749411], [16.2674533, 44.1745355], [16.2679067, 44.1743281], [16.2684295, 44.1742484], [16.26897, 44.1742868], [16.2694408, 44.174099], [16.2693968, 44.1740201], [16.270112, 44.1738227], [16.2706067, 44.1738216], [16.2707392, 44.1737784], [16.270736, 44.1737063], [16.2709309, 44.1735602], [16.2713136, 44.1731217], [16.2722424, 44.1707734], [16.2743029, 44.1699712], [16.2757735, 44.1694202], [16.2772299, 44.1690162], [16.2782719, 44.1682586], [16.2789913, 44.1676901], [16.2804889, 44.1665771], [16.2806306, 44.166462], [16.2809651, 44.166601], [16.2814525, 44.1661079], [16.2815383, 44.1659696], [16.2817171, 44.1658669], [16.2821241, 44.165818], [16.2827382, 44.1657921], [16.2834474, 44.1654395], [16.2838575, 44.1649899], [16.2848391, 44.164616], [16.2849961, 44.1645394], [16.2855091, 44.1641956], [16.2856094, 44.1641781], [16.2862852, 44.1635969], [16.2882127, 44.1633353], [16.2885554, 44.163143], [16.2898021, 44.1623541], [16.2896853, 44.1618], [16.2899925, 44.1608151], [16.2901201, 44.1607407], [16.2902411, 44.1605548], [16.2904623, 44.1602729], [16.2908306, 44.1597591], [16.2910033, 44.1593143], [16.2910512, 44.1592456], [16.2912718, 44.1587897], [16.2920459, 44.1580222], [16.2914721, 44.1576144], [16.2917928, 44.1572895], [16.2944094, 44.1547391], [16.2944141, 44.1547021], [16.2943672, 44.1546426], [16.294368, 44.1545845], [16.2944424, 44.1543126], [16.2944923, 44.1541303], [16.2949707, 44.153743], [16.2996992, 44.1515347], [16.3061592, 44.1477712], [16.3097013, 44.1432073], [16.3092913, 44.1380904], [16.3089839, 44.1342517], [16.3088923, 44.1335376], [16.3082856, 44.1266833], [16.3124414, 44.124853], [16.3136338, 44.120777], [16.3137031, 44.1207047], [16.3138487, 44.1205238], [16.3143074, 44.1199133], [16.3184798, 44.1144811], [16.3297361, 44.1128721], [16.3297799, 44.1128658], [16.333939, 44.11257], [16.3433837, 44.1088339], [16.347926, 44.1070779], [16.3483403, 44.1069416], [16.3500835, 44.1062597], [16.3508295, 44.1059539], [16.3514107, 44.1057246], [16.352082, 44.105409], [16.3533869, 44.1047684], [16.3552638, 44.103886], [16.3592742, 44.1019646], [16.3632195, 44.0982076], [16.3615669, 44.0949099], [16.3622992, 44.0936814], [16.3695424, 44.0821199], [16.3766341, 44.0816548], [16.3773038, 44.0803026], [16.3773747, 44.0801458], [16.378526, 44.0807316], [16.3838178, 44.0835056], [16.3882587, 44.0806377], [16.3885222, 44.0804893], [16.4017705, 44.0795903], [16.4024945, 44.0796698], [16.4276779, 44.0831655], [16.4312602, 44.0791519], [16.4398828, 44.0696943], [16.4416644, 44.0675661], [16.4414842, 44.0674586], [16.4414529, 44.0673155], [16.442127, 44.0670807], [16.4409307, 44.0635035], [16.4377802, 44.0582368], [16.4359881, 44.055376], [16.4357573, 44.0548236], [16.435704, 44.0542533], [16.4361319, 44.0507607], [16.4363703, 44.0486331], [16.4373595, 44.0457249], [16.4384527, 44.0424291], [16.4386151, 44.0415789], [16.4387723, 44.0392265], [16.4387835, 44.0373085], [16.4383565, 44.0362214], [16.4377392, 44.0346593], [16.4370372, 44.0329459], [16.4365212, 44.0314018], [16.4365767, 44.0307543], [16.4368899, 44.0303335], [16.4379151, 44.0299413], [16.4403601, 44.0287705], [16.4418325, 44.0286942], [16.4430851, 44.0286874], [16.4438687, 44.0286923], [16.448737, 44.0280647], [16.4527528, 44.0280304], [16.4571021, 44.0282575], [16.4591981, 44.0283654], [16.4634928, 44.0289186], [16.4677846, 44.0298097], [16.4767117, 44.0295143], [16.4824114, 44.0292894], [16.4897089, 44.0274256], [16.4944375, 44.0262113], [16.4961579, 44.025861], [16.500832, 44.0246703], [16.5024251, 44.0241901], [16.5025131, 44.0237744], [16.5068507, 44.0173624], [16.5085351, 44.0149242], [16.5109838, 44.0112459], [16.5141463, 44.0065212], [16.51582, 44.0040058], [16.5189206, 44.0013816], [16.525315, 43.9960948], [16.5318703, 43.9904989], [16.5367777, 43.9862537], [16.5444441, 43.973994], [16.5460946, 43.9679768], [16.5506664, 43.967656], [16.553114, 43.9676793], [16.553687, 43.9676848], [16.5567235, 43.9677137], [16.5569876, 43.9677163], [16.5575766, 43.9677219], [16.5611279, 43.9677557], [16.5620239, 43.9677643], [16.5623949, 43.9677678], [16.5627725, 43.968204], [16.5629361, 43.9683929], [16.5640811, 43.9697156], [16.5646124, 43.9703294], [16.5662815, 43.9722575], [16.5685704, 43.9749013], [16.5702386, 43.9768282], [16.5708689, 43.9775561], [16.5734175, 43.9804997], [16.5736771, 43.9807996], [16.5739606, 43.9807629], [16.5752305, 43.9805984], [16.5755454, 43.9805576], [16.577134, 43.9803518], [16.5817655, 43.9797518], [16.581868, 43.97998], [16.5820298, 43.9800509], [16.5825574, 43.9801521], [16.5829407, 43.9801345], [16.5844372, 43.9799396], [16.5848891, 43.9798371], [16.5872672, 43.9788018], [16.5876365, 43.9785006], [16.5876892, 43.97821], [16.5875316, 43.977908], [16.5872416, 43.9773363], [16.5871493, 43.9772566], [16.5872903, 43.9770638], [16.5876255, 43.9768127], [16.5877908, 43.9767607], [16.5885223, 43.9765532], [16.5887544, 43.9764469], [16.5889021, 43.976295], [16.5890569, 43.9761988], [16.5893523, 43.9761077], [16.5896759, 43.9759204], [16.589901, 43.9758647], [16.5902615, 43.9758112], [16.5905059, 43.9759862], [16.5905692, 43.9761178], [16.5907803, 43.9762596], [16.5909772, 43.976295], [16.5917299, 43.976214], [16.5922152, 43.976052], [16.5923508, 43.9758282], [16.5925305, 43.9752446], [16.5928414, 43.9747198], [16.5928435, 43.9742174], [16.5928445, 43.9739945], [16.592744, 43.9734355], [16.5927978, 43.9732002], [16.5929773, 43.9729994], [16.5931721, 43.9725744], [16.593361, 43.9720992], [16.5934903, 43.971974], [16.5936993, 43.9717718], [16.5940067, 43.9716857], [16.5944239, 43.9714708], [16.5945192, 43.9713202], [16.5945483, 43.9711188], [16.595982, 43.9710802], [16.5999983, 43.970972], [16.6030562, 43.9708896], [16.6038716, 43.9745958], [16.6058457, 43.9750745], [16.6124224, 43.9776378], [16.6178405, 43.9810347], [16.6238594, 43.982324], [16.624428, 43.9829339], [16.6249215, 43.9833507], [16.6260159, 43.9842153], [16.6268635, 43.9845936], [16.6272175, 43.9846322], [16.6275501, 43.9847866], [16.6282046, 43.9853038], [16.6285694, 43.9856049], [16.6288698, 43.98596], [16.6291377, 43.9861335], [16.6291916, 43.9861684], [16.6293311, 43.9862996], [16.6295993, 43.9866084], [16.6296726, 43.9867714], [16.6297495, 43.9869249], [16.6299426, 43.9872877], [16.6307044, 43.9878898], [16.630522, 43.9879825], [16.6346955, 43.9913016], [16.6357791, 43.9914869], [16.636455, 43.9916953], [16.6370451, 43.9921816], [16.6448021, 43.9986804], [16.6479027, 44.003334], [16.6483641, 44.0032029], [16.6497544, 44.005078], [16.649909, 44.0052865], [16.649991, 44.005386], [16.6505202, 44.0060286], [16.6509015, 44.0064917], [16.6519207, 44.0077173], [16.6522264, 44.0079411], [16.6516685, 44.0085275], [16.6511965, 44.009523], [16.6507137, 44.0107653], [16.6499197, 44.0115292], [16.6484392, 44.0123934], [16.6479242, 44.0127252], [16.65169, 44.0160353], [16.6538164, 44.0254909], [16.6538445, 44.0256159], [16.6539124, 44.0259181], [16.6539463, 44.0261496], [16.6564107, 44.0413447], [16.6597102, 44.0423], [16.6674367, 44.0445371], [16.6691565, 44.0450697], [16.6714998, 44.0457293], [16.672225, 44.0459334], [16.6746655, 44.0466218], [16.6750681, 44.0467354], [16.6761625, 44.0469282], [16.676227, 44.0469545], [16.676597, 44.0471055], [16.6770959, 44.0473793], [16.6775017, 44.0475355], [16.6776967, 44.0476106], [16.6778147, 44.0476106], [16.6779213, 44.0476153], [16.6783255, 44.0476331], [16.6785175, 44.0476415], [16.6789734, 44.04768], [16.6794133, 44.0477533], [16.6798424, 44.0480301], [16.6809797, 44.0487635], [16.6812372, 44.0490488], [16.6814732, 44.0492647], [16.6819982, 44.0500897], [16.6824379, 44.0507806], [16.6825529, 44.0509614], [16.6826628, 44.051134], [16.6838336, 44.0529737], [16.688482, 44.0526025], [16.6887634, 44.05258], [16.6890042, 44.0525608], [16.6892863, 44.0525383], [16.6902165, 44.052464], [16.6912098, 44.0523847], [16.6947448, 44.0521024], [16.6944981, 44.0512928], [16.6945839, 44.0506142], [16.6946423, 44.0504959], [16.694758, 44.0502612], [16.6948843, 44.050005], [16.6955173, 44.0491028], [16.6957855, 44.0491876], [16.6958821, 44.0490719], [16.699605, 44.0490411], [16.7051391, 44.0488349], [16.6995685, 44.0535947], [16.7029362, 44.0552082], [16.7034975, 44.0580318], [16.70462, 44.0588385], [16.7063038, 44.0628718], [16.7096715, 44.0640818], [16.7079877, 44.0673082], [16.70462, 44.0693246], [16.7001298, 44.0725507], [16.6962009, 44.0741637], [16.6889043, 44.0798088], [16.6860979, 44.0826312], [16.682169, 44.0862597], [16.6799239, 44.0886787], [16.6748724, 44.0931131], [16.6726273, 44.0959348], [16.6692596, 44.0999656], [16.6664533, 44.102787], [16.6625243, 44.1064143], [16.659718, 44.1088324], [16.655789, 44.1120564], [16.655789, 44.1140713], [16.6541052, 44.1197126], [16.6484924, 44.1225331], [16.6383895, 44.1273678], [16.6338993, 44.1301879], [16.6310929, 44.1330079], [16.6288478, 44.137439], [16.6249189, 44.1406614], [16.6221125, 44.1434808], [16.6159385, 44.151133], [16.6089678, 44.1560041], [16.5952871, 44.1602798], [16.5960851, 44.1602317], [16.5975952, 44.1602414], [16.5989792, 44.1603414], [16.5999341, 44.1603722], [16.6007549, 44.1603876], [16.601243, 44.1603645], [16.6016453, 44.1606493], [16.6021603, 44.1609225], [16.6029489, 44.1610649], [16.6034049, 44.1614651], [16.6040164, 44.1620385], [16.6045421, 44.1623695], [16.6048801, 44.162812], [16.6068113, 44.1669064], [16.6074121, 44.1667448], [16.608324, 44.1663946], [16.6088819, 44.1662061], [16.6097403, 44.1660983], [16.6104108, 44.166083], [16.6114569, 44.1660791], [16.6121757, 44.1662215], [16.6130823, 44.1663985], [16.6145199, 44.1667756], [16.6151047, 44.1669411], [16.616199, 44.1676991], [16.616478, 44.1685379], [16.6168857, 44.1699462], [16.6170037, 44.1707235], [16.617862, 44.1710621], [16.6189349, 44.1713391], [16.620638, 44.171552], [16.6200721, 44.1719932], [16.6194069, 44.1724857], [16.6190958, 44.1730398], [16.6175508, 44.1775259], [16.6176474, 44.1846352], [16.6186237, 44.187651], [16.6220998, 44.1909129], [16.6260695, 44.193436], [16.625973, 44.1936899], [16.626091, 44.1971437], [16.6269064, 44.2000358], [16.6271746, 44.2020125], [16.6269278, 44.20342], [16.6266918, 44.203943], [16.6258871, 44.2046045], [16.6244495, 44.2056966], [16.6229904, 44.2067656], [16.6196966, 44.2086421], [16.6189563, 44.2095419], [16.618216, 44.2101802], [16.6174221, 44.210557], [16.6160166, 44.2110876], [16.6137743, 44.2121181], [16.6116393, 44.2134485], [16.6098828, 44.2148646], [16.6087592, 44.2160346], [16.6083245, 44.2163218], [16.6079548, 44.2163944], [16.6095609, 44.2172641], [16.611247, 44.2222777], [16.612552, 44.2264312], [16.6125435, 44.2277028], [16.6113067, 44.2284725], [16.6110728, 44.2286075], [16.6102338, 44.2287762], [16.6100943, 44.2287454], [16.6098851, 44.2287647], [16.6090429, 44.229053], [16.6086942, 44.2292029], [16.6079091, 44.2297921], [16.6067072, 44.2307267], [16.6053383, 44.2320031], [16.6028612, 44.2335869], [16.5985999, 44.2358227], [16.5972317, 44.2367807], [16.5954472, 44.2377574], [16.5951356, 44.2373381], [16.5929049, 44.2372871], [16.581201, 44.23908], [16.5661194, 44.2436293], [16.5605631, 44.242492], [16.557388, 44.2413547], [16.5518317, 44.2396487], [16.5446878, 44.2379427], [16.5391315, 44.2402174], [16.537544, 44.2407861], [16.5351627, 44.2419234], [16.5307036, 44.2471955], [16.5303714, 44.247819], [16.5292808, 44.248496], [16.5307234, 44.2498583], [16.5315941, 44.2511712], [16.5301386, 44.2531716], [16.5179093, 44.256175], [16.5119062, 44.2545908], [16.5091825, 44.2538244], [16.5058662, 44.2533959], [16.4907196, 44.2535578], [16.4865964, 44.2535847], [16.4857016, 44.2537417], [16.4782527, 44.2536842], [16.4436473, 44.2633768], [16.4320283, 44.2680633], [16.4259213, 44.2689206], [16.4202949, 44.269323], [16.4121293, 44.2697808], [16.4089542, 44.2720542], [16.4105418, 44.274896], [16.4137168, 44.2777376], [16.4089542, 44.2800108], [16.406573, 44.2851251], [16.4018104, 44.287398], [16.3970478, 44.2908072], [16.3906977, 44.2947843], [16.3875226, 44.2953524], [16.3819663, 44.2970568], [16.3716474, 44.3004654], [16.3668848, 44.3021697], [16.3605347, 44.3044419], [16.3573596, 44.3050099], [16.352597, 44.3072821], [16.3486282, 44.3089861], [16.3430719, 44.3106901], [16.3335467, 44.3140979], [16.3303716, 44.3163697], [16.3200527, 44.3288629], [16.3176714, 44.3305663], [16.30894, 44.3334052], [16.3033572, 44.3355532], [16.2999896, 44.3339474], [16.2960606, 44.3331444], [16.2932543, 44.3331444], [16.2910092, 44.331137], [16.2893253, 44.3283266], [16.2870802, 44.3251144], [16.2848351, 44.3215005], [16.2809062, 44.3190912], [16.2769773, 44.3190912], [16.2741709, 44.318288], [16.2691194, 44.3170833], [16.2651905, 44.3190912], [16.2612616, 44.3194927], [16.2595777, 44.3202959], [16.2556488, 44.3202959], [16.2505973, 44.3198943], [16.2472297, 44.318288], [16.2433007, 44.3166817], [16.2427395, 44.3134689], [16.2404944, 44.3122641], [16.2388105, 44.3086494], [16.2388105, 44.3050345], [16.2382493, 44.300616], [16.2360042, 44.2990092], [16.2315139, 44.2978041], [16.2287076, 44.2970006], [16.2259012, 44.2957955], [16.2225335, 44.2941885], [16.2191659, 44.291778], [16.2208497, 44.2897692], [16.2230948, 44.2889657], [16.2264625, 44.2873585], [16.2292688, 44.2857514], [16.2303914, 44.2841441], [16.2303914, 44.2805278], [16.2320752, 44.2777148], [16.2331978, 44.2749018], [16.233759, 44.2724905], [16.2365654, 44.2692753], [16.2382493, 44.2668638], [16.2360042, 44.2668638], [16.2326365, 44.2660599], [16.2298301, 44.2660599], [16.2259012, 44.2652561], [16.2242174, 44.2644522], [16.2197272, 44.2624424], [16.2174821, 44.2604326], [16.215237, 44.2584227], [16.2129918, 44.2576187], [16.2096242, 44.2556088], [16.2072658, 44.2515055], [16.2069304, 44.2512891], [16.2071483, 44.2512367], [16.2077613, 44.2509786], [16.2085352, 44.2506574], [16.2091292, 44.2503935], [16.2100619, 44.249971], [16.2104712, 44.2489169], [16.2104778, 44.2485027], [16.2107677, 44.24836], [16.2111001, 44.2480348], [16.2115389, 44.2480192], [16.211752, 44.2478755], [16.2122369, 44.2473856], [16.2125695, 44.2469091], [16.2132293, 44.2457601], [16.2137839, 44.2450314], [16.2146016, 44.2443731], [16.2155913, 44.2434469], [16.2169789, 44.2411518], [16.2175179, 44.2403733], [16.218094, 44.2398159], [16.2187826, 44.2386182], [16.2191564, 44.2377126], [16.2192562, 44.236774], [16.2198065, 44.2357601], [16.2198798, 44.2353419], [16.2204185, 44.2342647], [16.2207501, 44.2331358], [16.2207725, 44.2325527], [16.2205342, 44.2319786], [16.2202094, 44.2309923], [16.2199415, 44.2305461], [16.2197923, 44.2297134], [16.2196602, 44.2293261], [16.219871, 44.2290537], [16.219981, 44.2285357], [16.2199999, 44.2279444], [16.2200018, 44.2274088], [16.2200082, 44.2270061], [16.2200061, 44.2262313], [16.2199337, 44.2256656], [16.2196644, 44.2244874], [16.219481, 44.2235236], [16.2189107, 44.2244593], [16.218258, 44.2252884], [16.2174296, 44.2255069], [16.2171356, 44.2253082], [16.2162392, 44.2247881], [16.2157575, 44.2243836], [16.2150415, 44.2239215], [16.2150639, 44.2227217], [16.2147957, 44.2219682], [16.2147421, 44.2212762], [16.2143719, 44.2206342], [16.2138516, 44.2200229], [16.2130544, 44.2192632], [16.2126731, 44.2184499], [16.2125211, 44.2172836], [16.2121676, 44.2168427], [16.2117863, 44.2169154], [16.2104726, 44.2172683], [16.2085441, 44.2176079], [16.2077634, 44.2178757], [16.2070368, 44.2181137], [16.2062313, 44.2181681], [16.2053619, 44.2180976], [16.2030684, 44.2174039], [16.2018265, 44.2173889], [16.2002818, 44.2169028], [16.1994168, 44.2163404], [16.1985971, 44.215898], [16.1971749, 44.2153535], [16.1951497, 44.2151092], [16.1935175, 44.2149746], [16.1927096, 44.2150484], [16.1919324, 44.2151993], [16.1895355, 44.2155169], [16.1882929, 44.2153762], [16.1872839, 44.2154867], [16.1863519, 44.2153703], [16.1854097, 44.2153399], [16.1847411, 44.2152697], [16.1816621, 44.2144026], [16.1801247, 44.2139], [16.1790003, 44.2135214], [16.1783143, 44.2132492], [16.1772463, 44.2131826], [16.1758578, 44.2127623], [16.1752527, 44.2125378], [16.1747099, 44.212035], [16.1739566, 44.2119201], [16.1733869, 44.2114458], [16.1726721, 44.210153], [16.1724516, 44.2092083], [16.1724569, 44.2092101], [16.1723814, 44.2088219]]]}}]}