{"type": "FeatureCollection", "features": [{"type": "Feature", "properties": {"name": "Opština Bratunac, Република Српска / Republika Srpska, 75420, Bosna i Hercegovina / Босна и Херцеговина", "source": "OpenStreetMap relation 2530647", "licence": "ODbL 1.0"}, "geometry": {"type": "Polygon", "coordinates": [[[19.097414, 44.2394191], [19.0977015, 44.239092], [19.0975642, 44.2388733], [19.0981328, 44.2383122], [19.099549, 44.2376204], [19.1018402, 44.2347622], [19.1024844, 44.2333377], [19.1042988, 44.2305926], [19.1047953, 44.2293996], [19.102938, 44.2288683], [19.1016712, 44.2279832], [19.0997743, 44.227181], [19.0999245, 44.2266274], [19.1003322, 44.2260124], [19.1021347, 44.2250744], [19.1034165, 44.2247013], [19.1048383, 44.2242287], [19.1082698, 44.2220596], [19.1083574, 44.2212455], [19.1089153, 44.2207073], [19.1102885, 44.2203595], [19.1121125, 44.2208149], [19.1157953, 44.2200667], [19.1176217, 44.2174985], [19.118464, 44.216509], [19.1193223, 44.2160783], [19.1196833, 44.2155835], [19.1230452, 44.2155048], [19.1259742, 44.2142021], [19.126575, 44.2134485], [19.1273689, 44.213064], [19.1287014, 44.2131352], [19.1314823, 44.2097492], [19.1315317, 44.2088344], [19.1325187, 44.2080192], [19.1325402, 44.2076193], [19.131875, 44.2069271], [19.1322613, 44.2066195], [19.1348313, 44.206649], [19.1358125, 44.2059504], [19.1368411, 44.2056365], [19.1386131, 44.2036902], [19.139439, 44.2040049], [19.1426358, 44.2046057], [19.1444278, 44.2055889], [19.145211, 44.2054889], [19.145844, 44.2053274], [19.1470241, 44.2036354], [19.1485932, 44.2019822], [19.1503009, 44.2016342], [19.1515561, 44.2003516], [19.1523207, 44.1994194], [19.1516161, 44.1989282], [19.150908, 44.1986052], [19.1505646, 44.198036], [19.1505217, 44.1971822], [19.1509187, 44.1968899], [19.1509187, 44.1964437], [19.1505325, 44.1962437], [19.1504896, 44.195936], [19.1511333, 44.195413], [19.1512589, 44.1945415], [19.1541772, 44.1915434], [19.1591361, 44.1913474], [19.1596198, 44.1913283], [19.1608429, 44.189682], [19.1613793, 44.1896666], [19.1618943, 44.189205], [19.1620874, 44.1887588], [19.1636109, 44.1880203], [19.1640185, 44.1867189], [19.1649102, 44.1857952], [19.1656065, 44.1858046], [19.1672587, 44.184389], [19.1703217, 44.1822924], [19.1707646, 44.1823442], [19.1738462, 44.1799881], [19.1738248, 44.1797265], [19.1748535, 44.179258], [19.1781485, 44.1770179], [19.1782798, 44.1733767], [19.1793394, 44.1717085], [19.1796015, 44.1709814], [19.1820494, 44.1679636], [19.1833949, 44.1671065], [19.1862773, 44.1650372], [19.1876952, 44.1636569], [19.187545, 44.1622858], [19.1870427, 44.1618654], [19.1867852, 44.1618731], [19.1860986, 44.1614113], [19.1859698, 44.1603799], [19.1861951, 44.1601413], [19.1863024, 44.1596718], [19.187024, 44.1591671], [19.1870641, 44.1585327], [19.1878795, 44.157686], [19.1878248, 44.1566024], [19.1882541, 44.1559702], [19.1888781, 44.1561106], [19.1888881, 44.1565622], [19.1885126, 44.1567623], [19.1886893, 44.1570661], [19.1891905, 44.1579277], [19.1893387, 44.1600567], [19.1902613, 44.1611958], [19.190362, 44.1623203], [19.1934585, 44.1655212], [19.1966314, 44.1687237], [19.1967588, 44.1695019], [19.1974026, 44.1704492], [19.1995158, 44.1706505], [19.2025204, 44.1693124], [19.2027185, 44.1688624], [19.203513, 44.1685504], [19.2059884, 44.1687872], [19.2092259, 44.1699608], [19.2118975, 44.1709347], [19.215414, 44.1711479], [19.2166852, 44.1706624], [19.2180799, 44.170622], [19.2194091, 44.1713847], [19.2198054, 44.1719649], [19.2207794, 44.172036], [19.2211426, 44.171586], [19.2223477, 44.1713373], [19.2238259, 44.171297], [19.2249068, 44.1719495], [19.2248571, 44.1722254], [19.2255707, 44.1727691], [19.2264377, 44.1734296], [19.2271684, 44.1734332], [19.2282016, 44.1739107], [19.2304067, 44.1739314], [19.2333097, 44.1752803], [19.234779, 44.1743331], [19.2348616, 44.1741081], [19.2361206, 44.1731155], [19.2377176, 44.1730069], [19.2381799, 44.1727227], [19.2424531, 44.1726905], [19.2429345, 44.1731135], [19.2437269, 44.1732674], [19.2451302, 44.1739187], [19.2458236, 44.1739305], [19.2489193, 44.1762115], [19.2513139, 44.1762127], [19.2519484, 44.1759315], [19.2534507, 44.1769143], [19.2564005, 44.178005], [19.2592619, 44.178193], [19.2614081, 44.1777549], [19.2615897, 44.1769972], [19.2623161, 44.1767248], [19.262964, 44.176133], [19.2648869, 44.176978], [19.2656014, 44.1769024], [19.2663443, 44.1763933], [19.2662948, 44.1755527], [19.2668231, 44.175529], [19.2669386, 44.1760855], [19.2690353, 44.1766775], [19.2710169, 44.1763461], [19.2734102, 44.174712], [19.2733606, 44.1743449], [19.2727973, 44.1740628], [19.2732946, 44.1736463], [19.2739384, 44.1739779], [19.2754738, 44.1732437], [19.2773723, 44.1729003], [19.2773888, 44.1722965], [19.2803878, 44.1722748], [19.281724, 44.1714203], [19.2830019, 44.1706032], [19.2835984, 44.1708676], [19.2843172, 44.1706996], [19.2864727, 44.1701957], [19.2891281, 44.1692871], [19.2913059, 44.1692177], [19.294503, 44.1682706], [19.2952351, 44.168519], [19.2961101, 44.168519], [19.296919, 44.1689927], [19.2975959, 44.1689335], [19.3000039, 44.1674922], [19.300551, 44.1681283], [19.301393, 44.1689335], [19.3033769, 44.1693862], [19.306352, 44.1705187], [19.3083928, 44.170544], [19.3103243, 44.1696085], [19.3103904, 44.1692769], [19.3109944, 44.1688316], [19.3126026, 44.1688506], [19.3127677, 44.1684776], [19.3138947, 44.1684763], [19.3155412, 44.1694072], [19.3156898, 44.1697269], [19.3168454, 44.1705203], [19.3173077, 44.1700821], [19.3176213, 44.1704078], [19.3180506, 44.170094], [19.317704, 44.1695184], [19.318034, 44.168448], [19.3196807, 44.1653606], [19.3204027, 44.1635636], [19.321356, 44.1610117], [19.3203793, 44.1565161], [19.3235281, 44.1518362], [19.3238452, 44.1512867], [19.3245881, 44.1507773], [19.3251494, 44.1510024], [19.3257603, 44.150801], [19.3257751, 44.1519921], [19.3261813, 44.1521514], [19.3268003, 44.15195], [19.328115, 44.1510121], [19.3311891, 44.1509355], [19.3355283, 44.1497734], [19.3361279, 44.1497823], [19.3367223, 44.1501851], [19.3373001, 44.1501851], [19.33793, 44.1508662], [19.3386538, 44.1516302], [19.3387694, 44.1537741], [19.3400901, 44.1544019], [19.3403873, 44.1541769], [19.3410641, 44.1542242], [19.3420894, 44.1545887], [19.3421702, 44.1551007], [19.3437551, 44.1563207], [19.345432, 44.156525], [19.3466607, 44.1569484], [19.3496818, 44.159033], [19.3500616, 44.159104], [19.3507714, 44.1595659], [19.3509035, 44.1598147], [19.3516732, 44.1602239], [19.3520993, 44.1597885], [19.357248, 44.1545269], [19.3573585, 44.1536202], [19.3580519, 44.1526844], [19.3592571, 44.1518197], [19.3608399, 44.1511941], [19.360875, 44.1506826], [19.360099, 44.1501732], [19.3600495, 44.1489176], [19.3603302, 44.1486333], [19.3676, 44.151239], [19.3697435, 44.1522372], [19.373719, 44.1536202], [19.3752048, 44.153099], [19.3758817, 44.1531819], [19.379167, 44.1532648], [19.3804216, 44.1534899], [19.3824345, 44.1543101], [19.3832612, 44.1542361], [19.3840792, 44.153308], [19.3857693, 44.1513905], [19.3856055, 44.1507418], [19.3867611, 44.1497942], [19.3868106, 44.1493322], [19.3858861, 44.1488228], [19.3845819, 44.1488347], [19.3835088, 44.1482542], [19.3828698, 44.1482047], [19.3822376, 44.1476501], [19.3822872, 44.1442265], [19.3816928, 44.1436578], [19.3812306, 44.1426153], [19.3812471, 44.1415964], [19.3830322, 44.1396939], [19.3858075, 44.1369202], [19.3874844, 44.1351417], [19.386818, 44.1338153], [19.3855599, 44.1315821], [19.3843408, 44.1295546], [19.3830792, 44.1274797], [19.3818367, 44.125366], [19.3817619, 44.1249662], [19.3826326, 44.1239682], [19.3852922, 44.1213779], [19.3864474, 44.1202202], [19.3886966, 44.1201429], [19.3910217, 44.1202688], [19.3995064, 44.1206319], [19.4019784, 44.1205832], [19.4044643, 44.1193376], [19.4060778, 44.119798], [19.4058786, 44.1201254], [19.4058786, 44.120635], [19.4060767, 44.1208009], [19.4062072, 44.123944], [19.4066277, 44.1255656], [19.4094482, 44.1259773], [19.4115412, 44.1233134], [19.4153002, 44.1205084], [19.4182857, 44.1183165], [19.421325, 44.1170795], [19.4223521, 44.1169554], [19.4239394, 44.1160839], [19.4266687, 44.1105686], [19.4273568, 44.1109871], [19.4283308, 44.1110346], [19.4296516, 44.1120184], [19.4299652, 44.1124569], [19.4309688, 44.1124239], [19.4309888, 44.1119591], [19.4307081, 44.1117576], [19.4306751, 44.1110938], [19.4316865, 44.1105056], [19.4317152, 44.1100744], [19.4306916, 44.1093988], [19.4311209, 44.109055], [19.431352, 44.1091024], [19.4318473, 44.1086046], [19.4319298, 44.1083794], [19.4326727, 44.1079289], [19.4323095, 44.1076326], [19.4323095, 44.1067553], [19.4329777, 44.1065053], [19.4420341, 44.1031816], [19.4491547, 44.1046223], [19.4525589, 44.1053616], [19.4548902, 44.1059425], [19.4569555, 44.1063843], [19.45704, 44.1051787], [19.4573207, 44.1050009], [19.4573274, 44.1029498], [19.4574858, 44.1028196], [19.4575518, 44.1020846], [19.4565742, 44.1014153], [19.4566273, 44.1009465], [19.4571886, 44.100662], [19.456974, 44.1003656], [19.4569245, 44.0997491], [19.4564498, 44.0994342], [19.4577334, 44.0981011], [19.4577829, 44.0973305], [19.4575023, 44.0968563], [19.4577499, 44.0965006], [19.4570896, 44.0958722], [19.4561544, 44.0959342], [19.456132, 44.0943427], [19.4558184, 44.0939396], [19.456165, 44.0933467], [19.456941, 44.0925523], [19.456099, 44.0918646], [19.4562641, 44.091414], [19.45704, 44.0913784], [19.4574115, 44.0916749], [19.4579811, 44.0916689], [19.4589798, 44.0908982], [19.4596154, 44.0913191], [19.4599758, 44.091432], [19.4599291, 44.0918883], [19.460573, 44.0922796], [19.4613324, 44.092244], [19.4621248, 44.0920662], [19.4662796, 44.0928197], [19.4656247, 44.0915207], [19.4655587, 44.0905247], [19.4653276, 44.0903053], [19.4652945, 44.0899437], [19.4659879, 44.0900978], [19.4668134, 44.0900385], [19.4678369, 44.0896235], [19.467969, 44.0891018], [19.4685569, 44.0887102], [19.468035, 44.0879872], [19.4675563, 44.0869792], [19.4676553, 44.0852123], [19.4680347, 44.083877], [19.4702617, 44.0783544], [19.471601, 44.075784], [19.4714689, 44.0747759], [19.4699006, 44.0729256], [19.462718, 44.0726176], [19.459809, 44.0725784], [19.4564333, 44.0725696], [19.4565448, 44.0705771], [19.4552126, 44.0695419], [19.4557358, 44.0686081], [19.4558017, 44.0678693], [19.4565448, 44.0673151], [19.4554552, 44.0658679], [19.4554552, 44.0648121], [19.4558514, 44.0643851], [19.4554552, 44.0640411], [19.4527972, 44.0639462], [19.4504199, 44.0649308], [19.4499246, 44.0653697], [19.4495945, 44.0650968], [19.4455663, 44.0650613], [19.4416874, 44.0644443], [19.4408447, 44.0638157], [19.4403659, 44.0637919], [19.4393589, 44.0631395], [19.4391442, 44.0627599], [19.4375551, 44.0619355], [19.4321609, 44.0592119], [19.4313398, 44.0585926], [19.4312452, 44.0578783], [19.4298662, 44.0572077], [19.4299487, 44.0569467], [19.4279016, 44.0558314], [19.4275632, 44.0560747], [19.4270596, 44.0558255], [19.4272495, 44.0555942], [19.4268615, 44.0553331], [19.4255738, 44.0552738], [19.4247814, 44.0543958], [19.4238569, 44.0537551], [19.4237743, 44.0531026], [19.4226682, 44.0527585], [19.422187, 44.0522233], [19.4217107, 44.0499701], [19.4226187, 44.0491633], [19.4232626, 44.0490921], [19.4234277, 44.0484039], [19.4252428, 44.0465847], [19.4266304, 44.0453898], [19.4277105, 44.0453468], [19.4283308, 44.0445948], [19.4282813, 44.0436692], [19.4299157, 44.0427198], [19.4351343, 44.0423808], [19.4368364, 44.0418674], [19.437482, 44.0423626], [19.4376915, 44.0450932], [19.4378347, 44.04617], [19.4383795, 44.0504841], [19.4386889, 44.0534273], [19.4389957, 44.0540755], [19.4390452, 44.0558315], [19.4388471, 44.0562348], [19.4394414, 44.0571484], [19.4395074, 44.0585009], [19.4385334, 44.0593432], [19.4387645, 44.0610278], [19.4446147, 44.0581106], [19.4450875, 44.0585009], [19.445104, 44.0593432], [19.4463257, 44.0589517], [19.4463422, 44.0585246], [19.4461276, 44.0579789], [19.4471676, 44.0575518], [19.4482737, 44.0574094], [19.4485379, 44.057184], [19.4520863, 44.0573426], [19.4555879, 44.0516719], [19.4612149, 44.0485282], [19.4613859, 44.0484422], [19.4671407, 44.0455485], [19.4708726, 44.0437005], [19.4737381, 44.0422721], [19.4754151, 44.0452213], [19.4759069, 44.0452551], [19.476141, 44.0452712], [19.4768839, 44.0447253], [19.4775938, 44.0446423], [19.4784357, 44.0443456], [19.4797564, 44.0435386], [19.4796574, 44.0430521], [19.4807635, 44.0423282], [19.4808109, 44.042031], [19.4843594, 44.0406088], [19.4844615, 44.0401446], [19.4847752, 44.0398717], [19.4916225, 44.0393071], [19.4988707, 44.0396387], [19.5054448, 44.0399635], [19.5078619, 44.0407899], [19.5091755, 44.0410465], [19.5102651, 44.0409872], [19.5105476, 44.040327], [19.5120151, 44.0388866], [19.5129891, 44.0388985], [19.5129762, 44.0385476], [19.5217564, 44.0316951], [19.5236209, 44.0303649], [19.5275232, 44.0282361], [19.5280654, 44.0281218], [19.5337914, 44.0310648], [19.5383199, 44.0334617], [19.5399682, 44.0293044], [19.5439112, 44.0292219], [19.5498449, 44.0292525], [19.5537549, 44.028982], [19.5592784, 44.0290039], [19.5666223, 44.0287077], [19.570276, 44.0284779], [19.5743676, 44.0273102], [19.5773922, 44.0262969], [19.5797399, 44.0267286], [19.5848403, 44.0274657], [19.5897347, 44.0281598], [19.5901701, 44.0325097], [19.5904463, 44.0354394], [19.5908651, 44.0381004], [19.591032, 44.0390586], [19.5921024, 44.0396151], [19.5961286, 44.0388036], [19.5984783, 44.0382993], [19.6003961, 44.0384297], [19.6008254, 44.038222], [19.6016591, 44.0375396], [19.601915, 44.0378007], [19.6023194, 44.037777], [19.6025836, 44.0372607], [19.6032109, 44.0367741], [19.6042756, 44.0365606], [19.6045399, 44.0367504], [19.6048783, 44.0366733], [19.6054892, 44.0362697], [19.6055222, 44.0360027], [19.6058524, 44.0357594], [19.6062981, 44.0356882], [19.6064797, 44.0354033], [19.6077757, 44.0352787], [19.6078004, 44.0350473], [19.6083287, 44.0348396], [19.6100622, 44.0347802], [19.611352, 44.0343124], [19.6139263, 44.0344964], [19.613865, 44.0347233], [19.6138423, 44.0350015], [19.6138619, 44.0351275], [19.613953, 44.0358952], [19.6140578, 44.0362889], [19.6142511, 44.036674], [19.6144162, 44.0369548], [19.6146659, 44.0372733], [19.6148269, 44.037557], [19.6152458, 44.0380376], [19.615717, 44.0384805], [19.6158982, 44.0388221], [19.6162324, 44.0392274], [19.61736, 44.0404838], [19.6181494, 44.0412307], [19.6184474, 44.041636], [19.6188259, 44.0420181], [19.6190837, 44.0423771], [19.6197643, 44.0430371], [19.6201509, 44.0434655], [19.6204288, 44.0437174], [19.620759, 44.0441169], [19.6210691, 44.0445569], [19.6213429, 44.0447711], [19.6214718, 44.0450084], [19.6222571, 44.0461229], [19.6228773, 44.0471216], [19.623429, 44.0482968], [19.6236545, 44.048977], [19.6236787, 44.049443], [19.6237311, 44.0498453], [19.6236344, 44.0509091], [19.6234411, 44.051197], [19.623284, 44.0516717], [19.6231511, 44.0518743], [19.6229176, 44.0521551], [19.6224746, 44.0525053], [19.6223457, 44.0525603], [19.6212866, 44.0531594], [19.6210409, 44.0532318], [19.6207509, 44.0532897], [19.6205254, 44.0533273], [19.6202435, 44.0533996], [19.6199817, 44.0535125], [19.619865, 44.0535762], [19.6196878, 44.053608], [19.6194663, 44.0536688], [19.6193616, 44.0537325], [19.619136, 44.0538135], [19.6189105, 44.0538511], [19.6187414, 44.0538656], [19.6186568, 44.0538454], [19.6185078, 44.0538656], [19.6183548, 44.0538975], [19.6181615, 44.0539351], [19.617952, 44.0539467], [19.6177668, 44.0539351], [19.6172876, 44.0538396], [19.6170902, 44.053773], [19.6166311, 44.0534633], [19.6162324, 44.0532115], [19.6161519, 44.0531015], [19.6156968, 44.0527455], [19.6154955, 44.0525632], [19.6151894, 44.052404], [19.6151652, 44.0523114], [19.6147222, 44.0520509], [19.6143598, 44.051802], [19.6142752, 44.0516051], [19.6140336, 44.0514141], [19.6139128, 44.0513736], [19.613059, 44.0506992], [19.612761, 44.0504966], [19.6125476, 44.0503345], [19.6123301, 44.0502129], [19.6120482, 44.0501087], [19.6117824, 44.0500074], [19.6114038, 44.0499351], [19.6109206, 44.0498598], [19.6106346, 44.0498135], [19.6101755, 44.049799], [19.6095272, 44.049854], [19.6091607, 44.049909], [19.6088023, 44.0499727], [19.6077955, 44.0500798], [19.6072035, 44.0501058], [19.6069337, 44.0501811], [19.6066518, 44.0501956], [19.6054557, 44.0503432], [19.6047348, 44.0505689], [19.6044489, 44.050676], [19.6042314, 44.0509481], [19.6039294, 44.0512115], [19.6035629, 44.0516341], [19.6034461, 44.0519322], [19.6032286, 44.0523201], [19.6030676, 44.052595], [19.602834, 44.0529944], [19.6025535, 44.05478], [19.6024066, 44.0548492], [19.6023905, 44.0548839], [19.602246, 44.0555819], [19.6024111, 44.0561868], [19.6021695, 44.0569219], [19.6021896, 44.0573039], [19.6019158, 44.0581143], [19.6019279, 44.0582966], [19.6020124, 44.0602038], [19.6021131, 44.060635], [19.6022138, 44.0608231], [19.6022903, 44.061535], [19.6023185, 44.0616884], [19.6022057, 44.0638153], [19.6017829, 44.0656615], [19.6017386, 44.0660753], [19.601211, 44.0678463], [19.6011897, 44.0679619], [19.6011144, 44.0682687], [19.6009613, 44.06837], [19.6007479, 44.0686767], [19.6005627, 44.0690442], [19.6005586, 44.0691223], [19.6004338, 44.0693162], [19.6002083, 44.069565], [19.5998458, 44.0699904], [19.5994511, 44.0703926], [19.598984, 44.0706183], [19.5987987, 44.0708005], [19.597941, 44.0711159], [19.5974456, 44.0712201], [19.5961448, 44.0713156], [19.5955246, 44.0714111], [19.5950212, 44.0715268], [19.5942158, 44.0717351], [19.5933983, 44.0719579], [19.592803, 44.0720943], [19.5925746, 44.0721246], [19.591723, 44.0721662], [19.5911994, 44.0721402], [19.5907001, 44.0721836], [19.589202, 44.0721026], [19.5882556, 44.0719406], [19.5870474, 44.0716686], [19.585948, 44.0711969], [19.5856057, 44.0709047], [19.5849009, 44.0704765], [19.5843613, 44.070219], [19.5841962, 44.0701177], [19.5836444, 44.0697184], [19.5831008, 44.0692091], [19.5829437, 44.0689313], [19.5826658, 44.0685523], [19.5824645, 44.0683005], [19.582251, 44.067907], [19.5821141, 44.0675627], [19.5820577, 44.0671142], [19.5820497, 44.0666251], [19.5820859, 44.0656066], [19.5820497, 44.0650799], [19.5821302, 44.0647298], [19.5821383, 44.0644086], [19.5821302, 44.0641192], [19.5820416, 44.0638414], [19.5820618, 44.0631845], [19.5821947, 44.0628691], [19.5823114, 44.0622411], [19.5823598, 44.0620385], [19.582396, 44.0617057], [19.5824403, 44.0613498], [19.5825732, 44.0608057], [19.5826215, 44.0603919], [19.5828672, 44.0595439], [19.5828954, 44.0593327], [19.5829195, 44.058832], [19.5830041, 44.0577815], [19.5829397, 44.0576165], [19.5829155, 44.056754], [19.5828833, 44.0561636], [19.5828471, 44.0558597], [19.5828269, 44.0553706], [19.5827746, 44.055142], [19.582843, 44.0546847], [19.5828752, 44.0541579], [19.5828712, 44.053938], [19.582843, 44.0536717], [19.5828752, 44.0532202], [19.582843, 44.0527803], [19.5827786, 44.0524648], [19.5826981, 44.051498], [19.5824242, 44.0504647], [19.582239, 44.0500624], [19.5821705, 44.0497787], [19.5820295, 44.0494111], [19.5813369, 44.0481781], [19.5810509, 44.0478741], [19.5804549, 44.0471621], [19.5799193, 44.0468581], [19.5794723, 44.046586], [19.5784816, 44.0461721], [19.5780024, 44.0460853], [19.5776721, 44.0460592], [19.5766694, 44.0459926], [19.5762384, 44.0459145], [19.5759565, 44.0459319], [19.5751068, 44.0462068], [19.5743698, 44.0464384], [19.5738423, 44.0466613], [19.5734879, 44.0468755], [19.5733067, 44.0470463], [19.5729039, 44.0472171], [19.5725093, 44.0474486], [19.5721428, 44.0476889], [19.5720341, 44.0477989], [19.5716152, 44.048042], [19.5710957, 44.0484183], [19.5708581, 44.0486152], [19.5696419, 44.0498308], [19.5696016, 44.049964], [19.5692875, 44.0503113], [19.5688647, 44.0508757], [19.5685868, 44.0515096], [19.5682485, 44.052375], [19.5680914, 44.0526558], [19.5677693, 44.0536283], [19.5677089, 44.053993], [19.5677169, 44.0542911], [19.5673988, 44.0551246], [19.5671612, 44.0561839], [19.5669518, 44.0572779], [19.5667705, 44.0580159], [19.5665933, 44.0587683], [19.5665088, 44.0591967], [19.5664886, 44.0593529], [19.5663517, 44.0596857], [19.5662953, 44.0601169], [19.5660617, 44.060742], [19.5657798, 44.0611819], [19.5656349, 44.0615002], [19.5653932, 44.0618302], [19.5647046, 44.0625189], [19.5641569, 44.0630109], [19.5635609, 44.0636649], [19.5631702, 44.0641481], [19.5629326, 44.0644954], [19.5626628, 44.0649699], [19.56255, 44.0651667], [19.5618131, 44.0659885], [19.5606331, 44.067282], [19.5603593, 44.067554], [19.5595027, 44.0683425], [19.5589095, 44.0689082], [19.5579309, 44.0696837], [19.5568475, 44.0704244], [19.5551763, 44.0713069], [19.553058, 44.0725626], [19.5522845, 44.0728565], [19.5516646, 44.0730979], [19.5498845, 44.0735464], [19.548181, 44.0739833], [19.5464171, 44.0745301], [19.5451002, 44.0747239], [19.5419389, 44.0756353], [19.5399334, 44.076049], [19.5380325, 44.0762834], [19.536027, 44.0762834], [19.5334738, 44.0767232], [19.5326482, 44.0769257], [19.5316414, 44.0770964], [19.5301191, 44.0773799], [19.5289029, 44.0775419], [19.5259993, 44.0780251], [19.5226487, 44.0786876], [19.519592, 44.0791505], [19.5157622, 44.080082], [19.5122062, 44.0809441], [19.5112517, 44.0812884], [19.5105909, 44.0817552], [19.5105712, 44.0817725], [19.5096216, 44.082834], [19.5096058, 44.0828533], [19.508826, 44.0838755], [19.5086688, 44.0840842], [19.5086536, 44.0841038], [19.5081343, 44.0847717], [19.5081204, 44.0847918], [19.5073653, 44.0860373], [19.5073531, 44.086058], [19.5066692, 44.087249], [19.506657, 44.0872698], [19.5058762, 44.0885616], [19.5058632, 44.088582], [19.5054205, 44.0892379], [19.5054077, 44.0892584], [19.5045201, 44.0907829], [19.5045065, 44.0908031], [19.5040503, 44.0913895], [19.5040348, 44.091409], [19.5031144, 44.0925394], [19.5030986, 44.0925588], [19.5019006, 44.0940304], [19.5005678, 44.0957124], [19.4982755, 44.0976871], [19.4978142, 44.0981956], [19.4970975, 44.099035], [19.4967059, 44.0995534], [19.4962766, 44.1000757], [19.4959027, 44.1006943], [19.4951834, 44.1022549], [19.4948467, 44.1035188], [19.4946937, 44.1050683], [19.4945559, 44.1059145], [19.4944794, 44.1072662], [19.4944488, 44.1092771], [19.4943799, 44.1100793], [19.4945024, 44.1104914], [19.4944488, 44.1113155], [19.4943799, 44.1115023], [19.4943264, 44.1116342], [19.4942728, 44.1121891], [19.4942269, 44.1122495], [19.4940891, 44.1135955], [19.4937754, 44.1144855], [19.4931632, 44.1152052], [19.4918547, 44.1161062], [19.4908446, 44.1164908], [19.4898269, 44.1164688], [19.4894366, 44.1165182], [19.4889622, 44.1164413], [19.4872634, 44.1165127], [19.4857253, 44.1164743], [19.4839807, 44.1166171], [19.4835139, 44.1166061], [19.4812718, 44.116727], [19.4769483, 44.1167435], [19.4754026, 44.1169248], [19.4752742, 44.1169564], [19.474645, 44.1171115], [19.4744537, 44.117161], [19.4721275, 44.1184465], [19.4716645, 44.1189986], [19.471324, 44.1193309], [19.4700461, 44.1207922], [19.4700019, 44.1209612], [19.4697368, 44.1213885], [19.4695907, 44.1220682], [19.4700074, 44.1228023], [19.4699857, 44.1232102], [19.4701805, 44.123719], [19.4700187, 44.124619], [19.4699316, 44.1260572], [19.4700993, 44.1269699], [19.4704456, 44.1279448], [19.4710571, 44.1293973], [19.4739681, 44.1322324], [19.4744172, 44.1326052], [19.4766952, 44.134213], [19.479682, 44.1361003], [19.4805694, 44.1366867], [19.4810618, 44.137176], [19.4816462, 44.1378362], [19.4820844, 44.1383837], [19.482539, 44.1393351], [19.4830043, 44.1406708], [19.4831396, 44.1412572], [19.4833939, 44.1418163], [19.4832911, 44.1420726], [19.4832748, 44.1423444], [19.4832911, 44.142655], [19.4832207, 44.143187], [19.4831233, 44.1434937], [19.4828798, 44.1438432], [19.4827716, 44.1441033], [19.4826147, 44.1449187], [19.4817273, 44.1459049], [19.4802556, 44.1465456], [19.4795035, 44.1469222], [19.4790381, 44.1472017], [19.4787784, 44.1473493], [19.4781129, 44.1478191], [19.4776475, 44.1481801], [19.4765275, 44.1488867], [19.4756022, 44.1492983], [19.4751531, 44.1494924], [19.4747148, 44.1496283], [19.4746066, 44.1496982], [19.4741467, 44.1497991], [19.4738112, 44.1498263], [19.4732593, 44.1498108], [19.4726208, 44.1497875], [19.4721771, 44.1498069], [19.471947, 44.1498143], [19.4718028, 44.1498106], [19.4715109, 44.1500619], [19.4714837, 44.1500683], [19.4708753, 44.1500265], [19.4708448, 44.1500221], [19.470101, 44.1498567], [19.4700718, 44.1498489], [19.469239, 44.1495906], [19.4692099, 44.1495823], [19.4675931, 44.1491514], [19.4675643, 44.1491427], [19.4665271, 44.1487977], [19.4665009, 44.1487857], [19.46588, 44.1484137], [19.4658551, 44.1484002], [19.4644968, 44.1477311], [19.4644707, 44.1477189], [19.4631994, 44.1471568], [19.4631729, 44.1471448], [19.4622513, 44.146724], [19.4622311, 44.1467079], [19.4621, 44.1465152], [19.4620828, 44.1464966], [19.4615551, 44.1460574], [19.4615318, 44.1460426], [19.4607877, 44.1456789], [19.4607632, 44.145665], [19.4600949, 44.1452248], [19.4600725, 44.1452092], [19.4592239, 44.1445805], [19.4592026, 44.1445641], [19.4580948, 44.1436791], [19.4580739, 44.1436623], [19.4577507, 44.1434056], [19.4577305, 44.1433885], [19.456405, 44.1421989], [19.4563868, 44.1421806], [19.4561262, 44.1418845], [19.4561087, 44.1418659], [19.4555029, 44.141259], [19.4554831, 44.1412417], [19.4549919, 44.1408661], [19.4549734, 44.1408482], [19.4544299, 44.1401831], [19.4544142, 44.1401635], [19.4536704, 44.1392279], [19.453657, 44.1392076], [19.4531843, 44.1383195], [19.4531728, 44.1382985], [19.4527619, 44.1375721], [19.4527509, 44.1375511], [19.452293, 44.1365928], [19.4522826, 44.1365716], [19.4518952, 44.1358156], [19.451884, 44.1357946], [19.4514517, 44.1350096], [19.4514393, 44.134989], [19.4511444, 44.134537], [19.4511319, 44.1345165], [19.4507624, 44.133857], [19.4507498, 44.1338365], [19.4504, 44.1333181], [19.4502851, 44.1331478], [19.4502701, 44.1331281], [19.4496563, 44.1324064], [19.4496382, 44.1323882], [19.4487883, 44.1316414], [19.4487634, 44.1316296], [19.4479608, 44.1314622], [19.4479321, 44.1314537], [19.4478551, 44.1314236], [19.447827, 44.131414], [19.4474447, 44.1312999], [19.4474148, 44.1312946], [19.4465474, 44.1312431], [19.4465161, 44.1312422], [19.4457829, 44.1312414], [19.4457526, 44.1312453], [19.4450079, 44.1314467], [19.4449784, 44.1314541], [19.4439128, 44.1317081], [19.4438837, 44.1317163], [19.4429855, 44.132023], [19.4429581, 44.1320338], [19.4417513, 44.1325831], [19.441724, 44.1325938], [19.4407464, 44.1329213], [19.4407184, 44.1329313], [19.4395089, 44.1333836], [19.4394808, 44.1333934], [19.4386624, 44.1336538], [19.4386331, 44.1336616], [19.436501, 44.1341309], [19.4364717, 44.1341387], [19.4352128, 44.1345267], [19.4351848, 44.1345366], [19.4341628, 44.1349514], [19.4341362, 44.1349631], [19.4329333, 44.1355342], [19.4329091, 44.1355483], [19.4321556, 44.1360728], [19.4321333, 44.1360886], [19.4313451, 44.1366604], [19.4313236, 44.1366768], [19.4302195, 44.1375625], [19.4301977, 44.1375786], [19.4291232, 44.1383158], [19.4290993, 44.1383301], [19.428166, 44.1388149], [19.428144, 44.1388304], [19.4275477, 44.1394047], [19.4275257, 44.1394203], [19.4267348, 44.1398328], [19.42671, 44.1398465], [19.4254883, 44.140558], [19.4254627, 44.1405709], [19.4242131, 44.1411118], [19.4241874, 44.1411245], [19.4232652, 44.141644], [19.4232404, 44.1416576], [19.4231528, 44.1417047], [19.4231274, 44.1417178], [19.4219703, 44.1422839], [19.4219465, 44.1422983], [19.4209706, 44.1430153], [19.4209507, 44.1430326], [19.4199398, 44.1440828], [19.4199273, 44.144103], [19.4197709, 44.1445876], [19.4197662, 44.1446099], [19.4196759, 44.1454972], [19.4196667, 44.145518], [19.4195533, 44.1456537], [19.4195356, 44.1456721], [19.4193007, 44.145888], [19.4192816, 44.1459058], [19.4187617, 44.1463975], [19.4187461, 44.1464168], [19.4182036, 44.1473424], [19.4181921, 44.1473632], [19.4177172, 44.1482944], [19.4177091, 44.148316], [19.4175692, 44.1488863], [19.4175646, 44.1489086], [19.4174725, 44.1494569], [19.4174696, 44.1494793], [19.4173957, 44.1503083], [19.4173913, 44.1503305], [19.4172328, 44.1508585], [19.4172251, 44.1508803], [19.4168751, 44.1517429], [19.416865, 44.1517642], [19.4163314, 44.1527537], [19.4163169, 44.1527734], [19.4159132, 44.1531926], [19.4158976, 44.153212], [19.4154677, 44.153857], [19.4154533, 44.1538769], [19.414881, 44.1546092], [19.4148682, 44.1546296], [19.4144831, 44.1554138], [19.414474, 44.1554353], [19.4141615, 44.1562869], [19.4141523, 44.1563083], [19.4137182, 44.157203], [19.4137085, 44.1572244], [19.4136604, 44.1573471], [19.4131335, 44.1581574], [19.4124734, 44.1596791], [19.4124019, 44.1598411], [19.4119756, 44.1609135], [19.4116942, 44.1620935], [19.4115752, 44.1629319], [19.4115211, 44.1640187], [19.411402, 44.1642982], [19.4113371, 44.1645621], [19.4112938, 44.1648882], [19.4110774, 44.1652918], [19.4107419, 44.1658663], [19.4103199, 44.1665805], [19.4096597, 44.1675275], [19.4086858, 44.168622], [19.4082746, 44.16908], [19.4068894, 44.1699261], [19.4060777, 44.1702133], [19.4055258, 44.1704306], [19.4045194, 44.1706635], [19.4039242, 44.1704617], [19.4034913, 44.1703996], [19.4026905, 44.1704849], [19.4017166, 44.1704772], [19.4012512, 44.1706014], [19.3980255, 44.170989], [19.3974798, 44.1710804], [19.3969271, 44.171287], [19.3966848, 44.1714415], [19.3961607, 44.1716993], [19.3956589, 44.1719547], [19.3951275, 44.1722017], [19.3946694, 44.1724925], [19.3938071, 44.1731419], [19.3934148, 44.1734738], [19.3929628, 44.1738156], [19.3924163, 44.1743435], [19.3920766, 44.1746601], [19.3917141, 44.1748532], [19.3910166, 44.1751915], [19.3908588, 44.1752455], [19.3903487, 44.1755302], [19.3900881, 44.1756739], [19.3898009, 44.1758332], [19.389601, 44.1759294], [19.3893409, 44.1760392], [19.3883975, 44.1764919], [19.3883709, 44.1765037], [19.3874247, 44.1769104], [19.3873984, 44.1769225], [19.3859056, 44.1776528], [19.3858787, 44.1776642], [19.3845208, 44.1781636], [19.3844928, 44.1781735], [19.38336, 44.1785636], [19.3833331, 44.1785749], [19.3822947, 44.1790955], [19.3822678, 44.1791069], [19.3813821, 44.1794239], [19.3813537, 44.1794332], [19.3802308, 44.179762], [19.380202, 44.1797707], [19.3796391, 44.1799441], [19.37961, 44.1799522], [19.3787163, 44.1801782], [19.3786863, 44.1801845], [19.376729, 44.1805209], [19.3766982, 44.180525], [19.3758824, 44.1806018], [19.3758513, 44.180604], [19.3748273, 44.1806507], [19.3747962, 44.180652], [19.3736335, 44.1807005], [19.3736024, 44.1807007], [19.3726017, 44.1806727], [19.3725704, 44.1806719], [19.371178, 44.1806438], [19.3711467, 44.180643], [19.3698153, 44.1806031], [19.369784, 44.180603], [19.3691889, 44.1806173], [19.3681094, 44.1806433], [19.3680785, 44.1806461], [19.3671268, 44.1807972], [19.3670969, 44.1808036], [19.3657891, 44.1811676], [19.3657596, 44.181175], [19.364805, 44.1813936], [19.364776, 44.181402], [19.3636232, 44.1818114], [19.3635959, 44.1818224], [19.3632182, 44.1819885], [19.3619852, 44.1825481], [19.3619588, 44.1825602], [19.3613569, 44.1828411], [19.3613314, 44.1828541], [19.3605833, 44.1832693], [19.360559, 44.1832833], [19.3603792, 44.1833902], [19.3603556, 44.183405], [19.3599272, 44.1836896], [19.3599079, 44.183707], [19.3596681, 44.1840088], [19.3596475, 44.184025], [19.3590688, 44.1843144], [19.3590483, 44.1843306], [19.3585956, 44.1849034], [19.358579, 44.1849225], [19.3582488, 44.1852723], [19.3582338, 44.1852919], [19.3581883, 44.1853669], [19.3579939, 44.1856873], [19.3579807, 44.1857078], [19.3578004, 44.1859712], [19.3577883, 44.1859918], [19.357572, 44.1864209], [19.3575637, 44.1864425], [19.3574531, 44.1868494], [19.3574453, 44.1868712], [19.3572664, 44.1872636], [19.357258, 44.1872853], [19.3571249, 44.1877076], [19.3571196, 44.1877297], [19.3570457, 44.1881507], [19.3570413, 44.1881729], [19.3569487, 44.188612], [19.3569451, 44.1886344], [19.3569049, 44.1890057], [19.3569008, 44.1890279], [19.356733, 44.1896625], [19.3567279, 44.1896847], [19.3566403, 44.190133], [19.3566497, 44.1901517], [19.3569323, 44.1903366], [19.3569428, 44.1903468], [19.3565681, 44.1914312], [19.3564816, 44.1923002], [19.3562868, 44.1930141], [19.3562759, 44.1935107], [19.3561353, 44.1943952], [19.3556916, 44.1958073], [19.3556273, 44.1962226], [19.3554968, 44.196816], [19.3553561, 44.1979177], [19.3554102, 44.1991125], [19.3553886, 44.1995547], [19.355486, 44.2002064], [19.3556375, 44.2014399], [19.3559188, 44.201952], [19.3568279, 44.2027821], [19.3570551, 44.2031855], [19.3575096, 44.2035113], [19.3584403, 44.2046129], [19.3587325, 44.205249], [19.3595536, 44.2063896], [19.3597895, 44.2069624], [19.3598188, 44.2074215], [19.3596132, 44.2076989], [19.3592603, 44.2083179], [19.3589727, 44.2089536], [19.3585108, 44.2095365], [19.3578405, 44.2102803], [19.3576569, 44.2104833], [19.3572311, 44.2110408], [19.3568972, 44.211407], [19.3565238, 44.2117855], [19.3562138, 44.2121521], [19.3557996, 44.2125969], [19.3554388, 44.2129583], [19.3548816, 44.2134723], [19.3533102, 44.2137271], [19.3524045, 44.2139518], [19.3511847, 44.2142184], [19.3505065, 44.2144128], [19.3499465, 44.2146115], [19.3493721, 44.2148463], [19.3486128, 44.2152803], [19.3483528, 44.215634], [19.3478936, 44.215975], [19.3472195, 44.2162644], [19.3466869, 44.2165752], [19.3460419, 44.216916], [19.3455122, 44.2172389], [19.3450975, 44.2175636], [19.3448756, 44.2177622], [19.3446893, 44.2179149], [19.3444916, 44.2180776], [19.3441275, 44.2184006], [19.3437487, 44.218772], [19.343516, 44.2191163], [19.3432927, 44.2196067], [19.3432044, 44.2199847], [19.3431448, 44.2202974], [19.3430459, 44.2206948], [19.3429234, 44.2210869], [19.3428602, 44.2215309], [19.3427783, 44.2217997], [19.3427849, 44.2222884], [19.342872, 44.2228052], [19.3430876, 44.2233141], [19.3432391, 44.2235789], [19.3435412, 44.2240234], [19.3437758, 44.2244547], [19.3441084, 44.2248948], [19.3443674, 44.225307], [19.3446333, 44.225712], [19.344907, 44.2262023], [19.3451911, 44.226683], [19.345563, 44.2272938], [19.3457944, 44.2277227], [19.3461435, 44.2281776], [19.3464243, 44.2285342], [19.3468923, 44.2288473], [19.347427, 44.2291955], [19.3477519, 44.2295011], [19.3479743, 44.2297122], [19.3484056, 44.2302729], [19.348699, 44.2308023], [19.3488593, 44.2313298], [19.3487752, 44.2317499], [19.3485918, 44.2321904], [19.3483294, 44.2325969], [19.3481008, 44.2330203], [19.3479266, 44.2335167], [19.3478214, 44.2338442], [19.3477403, 44.2339023], [19.347743, 44.2340283], [19.3472831, 44.2348522], [19.3471478, 44.2350925], [19.3470937, 44.2351158], [19.3470233, 44.235296], [19.3467907, 44.2356372], [19.3468312, 44.235674], [19.3466616, 44.235905], [19.3465993, 44.235981], [19.3463348, 44.2365928], [19.3459522, 44.2374892], [19.3457456, 44.2378318], [19.3456423, 44.2381224], [19.3453783, 44.238476], [19.3439588, 44.2410499], [19.343603, 44.2415488], [19.3422294, 44.2430125], [19.3419463, 44.2432646], [19.3413686, 44.2437004], [19.3408635, 44.244054], [19.3405214, 44.244517], [19.3398939, 44.244835], [19.337583, 44.24603], [19.3368025, 44.2463589], [19.333206, 44.2480033], [19.3318592, 44.2487378], [19.3308491, 44.2494614], [19.3299461, 44.2505247], [19.3296401, 44.2513579], [19.3286453, 44.253923], [19.3286759, 44.2542738], [19.3284157, 44.2555453], [19.3278648, 44.2581212], [19.3279719, 44.2593707], [19.3284004, 44.2614313], [19.3285075, 44.2629657], [19.328278, 44.2642371], [19.3282168, 44.265618], [19.3281913, 44.2666421], [19.3281862, 44.2670318], [19.3279566, 44.2688072], [19.3278188, 44.269114], [19.327375, 44.2695414], [19.3251712, 44.271251], [19.3237326, 44.2718756], [19.3227072, 44.2722372], [19.3223552, 44.272303], [19.3213757, 44.2725989], [19.3203504, 44.2728838], [19.3193862, 44.2729386], [19.3188658, 44.2730701], [19.3180142, 44.2731067], [19.3177556, 44.2731801], [19.3164631, 44.2731358], [19.3156978, 44.2732344], [19.3138001, 44.273092], [19.3122085, 44.2729167], [19.3111984, 44.2727742], [19.3107699, 44.2726208], [19.3103834, 44.2725578], [19.3096589, 44.2721825], [19.3093505, 44.2720023], [19.3081987, 44.2716674], [19.3070542, 44.2711186], [19.3063928, 44.2708346], [19.3056735, 44.2705606], [19.3050937, 44.270219], [19.3020211, 44.2694131], [19.3001202, 44.2692638], [19.2980924, 44.2693898], [19.2963936, 44.2696748], [19.2938837, 44.27042], [19.2921696, 44.2708474], [19.2905168, 44.2713734], [19.2893077, 44.2718994], [19.2882211, 44.2728637], [19.286859, 44.2736637], [19.2857112, 44.2743431], [19.284441, 44.2751101], [19.2830024, 44.2758004], [19.28213, 44.2761949], [19.2812118, 44.2764908], [19.2803394, 44.2766223], [19.2798038, 44.2767154], [19.279314, 44.2767044], [19.2786789, 44.2764853], [19.2781432, 44.2760525], [19.2777147, 44.2756689], [19.2772709, 44.2749622], [19.2762455, 44.2738938], [19.2744243, 44.2726117], [19.272496, 44.2713624], [19.2695116, 44.2698392], [19.2681648, 44.2693898], [19.2654407, 44.2679871], [19.264048, 44.2674282], [19.2630073, 44.2671651], [19.2606657, 44.2661569], [19.2588292, 44.2654993], [19.2564111, 44.2647869], [19.2551715, 44.2642718], [19.2535339, 44.2635594], [19.2526004, 44.2630991], [19.2513913, 44.2626607], [19.2486672, 44.262299], [19.2470456, 44.262102], [19.245866, 44.2619432], [19.2446609, 44.2618161], [19.2439592, 44.2617727], [19.2433919, 44.2617009], [19.243021, 44.261683], [19.2426837, 44.2616412], [19.2400968, 44.2617364], [19.2381871, 44.2618747], [19.2356801, 44.2622535], [19.2349716, 44.2624302], [19.2336521, 44.2626101], [19.2323436, 44.2630211], [19.2310504, 44.2632896], [19.2292751, 44.2639746], [19.2285022, 44.2643637], [19.2281847, 44.2646239], [19.2279687, 44.2647709], [19.226681, 44.2655692], [19.2262402, 44.2659268], [19.2258258, 44.2662969], [19.2239553, 44.2654243], [19.2235905, 44.2656471], [19.2228357, 44.2653628], [19.2212248, 44.2623664], [19.2205805, 44.2618097], [19.2185426, 44.2601996], [19.2142659, 44.2596869], [19.2135429, 44.259923], [19.2128992, 44.2617825], [19.2118263, 44.2633038], [19.2103457, 44.2627198], [19.2062044, 44.2605838], [19.2007327, 44.2617056], [19.1998097, 44.2611637], [19.1957545, 44.263688], [19.1939091, 44.2640414], [19.1921496, 44.2640567], [19.1904759, 44.2633653], [19.1895747, 44.2634421], [19.1882443, 44.2649787], [19.1872573, 44.2650709], [19.186356, 44.2646868], [19.1857338, 44.2639338], [19.1819572, 44.2649634], [19.1811152, 44.264716], [19.1780627, 44.2666844], [19.1756272, 44.2670224], [19.1751552, 44.2676447], [19.1747045, 44.2690967], [19.1716557, 44.2714365], [19.1704559, 44.2717625], [19.1690397, 44.2735217], [19.1690612, 44.2737215], [19.1700053, 44.2743898], [19.1704452, 44.2752041], [19.1706169, 44.2757034], [19.1706061, 44.2764946], [19.1704621, 44.2774437], [19.1688788, 44.2769325], [19.1668939, 44.2755574], [19.1660035, 44.2752348], [19.1650217, 44.2746778], [19.1651926, 44.2719326], [19.1631, 44.2698873], [19.161876, 44.2680662], [19.1606307, 44.2650441], [19.1604781, 44.2643794], [19.1620151, 44.259975], [19.1616853, 44.2599718], [19.1572927, 44.2599289], [19.1554432, 44.2613827], [19.1530271, 44.2637037], [19.152341, 44.2644755], [19.151854, 44.2653263], [19.1513586, 44.2670685], [19.151036, 44.2673011], [19.1466808, 44.2677753], [19.1444278, 44.2676831], [19.1397714, 44.2671761], [19.136424, 44.2669609], [19.1309965, 44.2643662], [19.1277332, 44.2638204], [19.1236426, 44.2635124], [19.1217255, 44.2649787], [19.1208672, 44.2644716], [19.1183567, 44.2644255], [19.1183138, 44.2650556], [19.1175627, 44.2652246], [19.1165972, 44.2645638], [19.1145158, 44.264779], [19.1144085, 44.2642411], [19.1132068, 44.2643794], [19.1127348, 44.2647943], [19.1091649, 44.2625727], [19.1048169, 44.2621359], [19.1047525, 44.2619054], [19.1050744, 44.2613675], [19.1043663, 44.2609219], [19.1036675, 44.2605744], [19.1019559, 44.2602628], [19.1019415, 44.2597002], [19.102875, 44.258878], [19.1030466, 44.2568725], [19.1035509, 44.2561425], [19.1040015, 44.2560195], [19.1058039, 44.2544673], [19.1062546, 44.2510399], [19.108057, 44.2492108], [19.1096774, 44.2488141], [19.1093445, 44.2476738], [19.1100526, 44.2461828], [19.1101082, 44.2446763], [19.1090026, 44.2438973], [19.1082287, 44.2438924], [19.1074776, 44.2436926], [19.1059652, 44.2437203], [19.1048598, 44.2434313], [19.1042572, 44.2426203], [19.1027999, 44.2420939], [19.1015339, 44.2418326], [19.0996456, 44.2418941], [19.0988517, 44.2415405], [19.0984225, 44.2412484], [19.097414, 44.2394191]]]}}]}