{"type": "FeatureCollection", "features": [{"type": "Feature", "properties": {"name": "Općina Breza, Zeničko-dobojski kanton, Federacija Bosne i Hercegovine, 71370, Bosna i Hercegovina / Босна и Херцеговина", "source": "OpenStreetMap relation 2528171", "licence": "ODbL 1.0"}, "geometry": {"type": "Polygon", "coordinates": [[[18.2118344, 44.03664], [18.212541, 44.0367639], [18.2128429, 44.0366246], [18.2139373, 44.0344804], [18.2144308, 44.0338402], [18.2148477, 44.0337504], [18.2151711, 44.0332], [18.2168341, 44.0323207], [18.2172525, 44.0322435], [18.2189476, 44.0310479], [18.2198596, 44.0309245], [18.219881, 44.030616], [18.2188618, 44.0295746], [18.2197523, 44.0289806], [18.2207179, 44.0288109], [18.2216191, 44.0283635], [18.2220697, 44.0286258], [18.2228744, 44.0287183], [18.2232323, 44.0279945], [18.2229495, 44.0265661], [18.2218337, 44.0265121], [18.221426, 44.0259336], [18.2203531, 44.0262036], [18.2203638, 44.025571], [18.2201385, 44.0253241], [18.2192808, 44.0253408], [18.2184541, 44.0259181], [18.2179284, 44.0259953], [18.2160187, 44.0244755], [18.2154608, 44.0242287], [18.2160509, 44.0237426], [18.2161689, 44.0232643], [18.2159811, 44.0229982], [18.2166302, 44.0227397], [18.2173598, 44.02284], [18.2182048, 44.0222959], [18.2182717, 44.021652], [18.2188511, 44.0214745], [18.2195806, 44.020703], [18.2197738, 44.0197926], [18.220514, 44.0198775], [18.2213938, 44.0193143], [18.2226658, 44.0194406], [18.2257578, 44.0167402], [18.2270099, 44.0178095], [18.2277159, 44.0180711], [18.228394, 44.0192083], [18.2290435, 44.0195612], [18.2311892, 44.0197772], [18.2321763, 44.0194918], [18.2328415, 44.0195149], [18.23385, 44.0196692], [18.235234, 44.0190674], [18.2360065, 44.0192372], [18.2363176, 44.018674], [18.2370579, 44.0183576], [18.2371545, 44.0180876], [18.2366287, 44.0172235], [18.236897, 44.0168068], [18.2369184, 44.0161973], [18.2371866, 44.0158578], [18.2373369, 44.0143764], [18.2371115, 44.0134659], [18.2374716, 44.0130744], [18.2381497, 44.0132458], [18.2395144, 44.0126678], [18.2407353, 44.0115651], [18.2406452, 44.0103645], [18.240098, 44.0093629], [18.240201, 44.0080511], [18.2396527, 44.0066436], [18.2399923, 44.0065096], [18.2400851, 44.0061898], [18.2409203, 44.0058807], [18.2417035, 44.0051437], [18.2417464, 44.0031488], [18.2431519, 44.0026395], [18.2430982, 44.0023231], [18.2426369, 44.0020993], [18.2429802, 44.0018292], [18.2430446, 44.0014742], [18.2426708, 44.0005964], [18.243463, 44.0003088], [18.2438102, 43.9994943], [18.2437617, 43.9982439], [18.2436742, 43.9970953], [18.2441083, 43.996636], [18.2441674, 43.9950375], [18.2430911, 43.9945037], [18.2431191, 43.993863], [18.2447645, 43.9927855], [18.2448685, 43.9909337], [18.2434829, 43.9898737], [18.2432514, 43.9878626], [18.2432169, 43.9855085], [18.2425554, 43.9844716], [18.2428766, 43.9836012], [18.2441898, 43.98345], [18.2435653, 43.9820753], [18.2450908, 43.982697], [18.2450031, 43.9816558], [18.2464968, 43.981829], [18.2477315, 43.9827104], [18.2483986, 43.98351], [18.2495587, 43.9835566], [18.2513057, 43.983401], [18.2526958, 43.9848205], [18.2538015, 43.9850466], [18.2609095, 43.9864998], [18.2670253, 43.9842054], [18.2662546, 43.9834697], [18.2682364, 43.9829577], [18.2694601, 43.9823696], [18.2719576, 43.9824203], [18.2774887, 43.9802022], [18.2776746, 43.9812335], [18.2775056, 43.9818955], [18.2779959, 43.9832532], [18.2787877, 43.9840224], [18.2791337, 43.983978], [18.2791552, 43.9836788], [18.27849, 43.9831114], [18.2784551, 43.9825363], [18.2817445, 43.9826463], [18.2829656, 43.9833365], [18.284911, 43.9835592], [18.2856198, 43.982457], [18.2894234, 43.9816027], [18.2917151, 43.9812442], [18.295071, 43.9821905], [18.2994625, 43.9825452], [18.2995289, 43.984621], [18.3009841, 43.9831698], [18.3033061, 43.9821229], [18.3044869, 43.9807471], [18.3089282, 43.9793279], [18.3093278, 43.9783215], [18.3101604, 43.9784099], [18.3107304, 43.9774236], [18.3121833, 43.9789306], [18.316619, 43.9778837], [18.3165664, 43.9790774], [18.3175725, 43.9796903], [18.3185065, 43.9792977], [18.3184147, 43.9803509], [18.3190391, 43.9818833], [18.3200792, 43.9822488], [18.320086, 43.9829225], [18.3195821, 43.9835862], [18.3196156, 43.987262], [18.320867, 43.9877094], [18.3220399, 43.9890392], [18.3232833, 43.9886651], [18.3262238, 43.9895388], [18.326377, 43.9907045], [18.3285848, 43.9909221], [18.3287089, 43.9921708], [18.3307442, 43.9949957], [18.3307141, 43.9975761], [18.3315133, 43.9980049], [18.3315304, 43.9992193], [18.3308108, 43.9996821], [18.3304661, 44.0010768], [18.3344072, 44.0073148], [18.3339996, 44.0104375], [18.3345433, 44.0116861], [18.3350268, 44.0127964], [18.3350811, 44.013873], [18.3363506, 44.0145406], [18.3352407, 44.0158447], [18.3351022, 44.0166406], [18.3355191, 44.016999], [18.3366222, 44.0173378], [18.337276, 44.0177095], [18.3384662, 44.0179976], [18.3388676, 44.0172539], [18.3404088, 44.0165059], [18.3402042, 44.0160186], [18.3396097, 44.015806], [18.3398946, 44.0149875], [18.339529, 44.0143455], [18.3397233, 44.0131921], [18.3399796, 44.0147005], [18.3405862, 44.0147961], [18.3408379, 44.0143455], [18.340795, 44.0129412], [18.3412427, 44.0104917], [18.3416455, 44.0136142], [18.3431444, 44.0142646], [18.3428355, 44.0117445], [18.3430499, 44.0113527], [18.3435859, 44.0098115], [18.344706, 44.0095294], [18.3466538, 44.0079792], [18.3468675, 44.0085275], [18.3476781, 44.0085202], [18.3489918, 44.0082652], [18.3519237, 44.0063279], [18.3522963, 44.0065984], [18.3538265, 44.0065028], [18.3544636, 44.0075861], [18.3550215, 44.0077559], [18.3556008, 44.008543], [18.357532, 44.0097622], [18.3574247, 44.010364], [18.3579818, 44.010516], [18.3576778, 44.0109814], [18.3578753, 44.0114598], [18.3575749, 44.0124166], [18.3577508, 44.0132783], [18.3606305, 44.0141956], [18.361656, 44.0149478], [18.3629409, 44.0157469], [18.3643341, 44.0158424], [18.3660936, 44.0157189], [18.3675098, 44.016367], [18.3667803, 44.0164751], [18.3662027, 44.0168946], [18.3643341, 44.0187125], [18.3627248, 44.0198852], [18.3628106, 44.020163], [18.3633394, 44.0204665], [18.3653018, 44.0210912], [18.3650898, 44.0222398], [18.3657717, 44.0239432], [18.3650982, 44.024899], [18.3650851, 44.025409], [18.3644628, 44.0258564], [18.3639908, 44.0266433], [18.3633899, 44.0268284], [18.3634114, 44.0271061], [18.3627217, 44.0276779], [18.3628535, 44.0290809], [18.3654713, 44.0337091], [18.3651721, 44.0356156], [18.365407, 44.0378124], [18.3645024, 44.0392671], [18.3641624, 44.0403113], [18.3642697, 44.0410054], [18.3649993, 44.0416841], [18.3649034, 44.0425917], [18.3640981, 44.0437047], [18.364141, 44.0441365], [18.3644414, 44.0445838], [18.3643341, 44.0460336], [18.364141, 44.0465272], [18.3643985, 44.0468665], [18.3649568, 44.0470039], [18.3644843, 44.053128], [18.3640337, 44.0532667], [18.3640122, 44.0535752], [18.3643434, 44.0536764], [18.3640367, 44.0538573], [18.3636689, 44.0580318], [18.3635076, 44.059836], [18.3634333, 44.0613021], [18.3633423, 44.0618496], [18.3595715, 44.0609476], [18.3572316, 44.0618867], [18.356066, 44.0620175], [18.3554506, 44.0624418], [18.3536602, 44.0627134], [18.3534926, 44.0630123], [18.3525967, 44.0625035], [18.3522749, 44.0621026], [18.3514863, 44.0616901], [18.3514595, 44.0611427], [18.3510893, 44.0605761], [18.3497482, 44.0595121], [18.3464169, 44.0573456], [18.345961, 44.05691], [18.3459167, 44.0565399], [18.3454621, 44.0561274], [18.3454567, 44.0558768], [18.3437991, 44.0550903], [18.3427799, 44.0540494], [18.3418936, 44.0535253], [18.3416855, 44.0525882], [18.3406287, 44.0521602], [18.339941, 44.051461], [18.3389068, 44.0510846], [18.3380664, 44.0499308], [18.3377695, 44.049897], [18.3377212, 44.0492801], [18.3367771, 44.0489678], [18.3368576, 44.0477533], [18.3362943, 44.047252], [18.3364767, 44.0463807], [18.3354199, 44.0444797], [18.3356452, 44.042891], [18.3364069, 44.0420774], [18.3364333, 44.0413363], [18.3355755, 44.040265], [18.3354708, 44.0393176], [18.3351248, 44.0389346], [18.3350176, 44.0386107], [18.3332419, 44.0384603], [18.3320457, 44.0387996], [18.327564, 44.0382863], [18.3267756, 44.0378601], [18.3258015, 44.0368984], [18.3233392, 44.0366323], [18.3222993, 44.0355707], [18.3217191, 44.0357608], [18.321054, 44.0352826], [18.3190584, 44.0350512], [18.3145523, 44.037072], [18.3140588, 44.0380129], [18.3133077, 44.0385528], [18.3127989, 44.0396739], [18.3126058, 44.0404914], [18.312943, 44.0407432], [18.3129, 44.0416224], [18.3123851, 44.0421468], [18.3123207, 44.0427946], [18.310975, 44.0434375], [18.3098593, 44.0435763], [18.3085299, 44.0446288], [18.3071302, 44.0446962], [18.3064627, 44.0449231], [18.3062613, 44.0452436], [18.3048505, 44.0455037], [18.3043031, 44.0457522], [18.3022381, 44.045528], [18.3016348, 44.045864], [18.3009506, 44.0458365], [18.299352, 44.0463069], [18.2988989, 44.0466351], [18.2970106, 44.0471826], [18.295927, 44.0469667], [18.2951116, 44.04645], [18.2933736, 44.04645], [18.2931268, 44.0456095], [18.2926762, 44.0452856], [18.2910669, 44.0453858], [18.2911742, 44.0456943], [18.2918715, 44.0456943], [18.2921398, 44.046558], [18.2919896, 44.0468202], [18.2915604, 44.046905], [18.2909059, 44.0478073], [18.2909059, 44.0481234], [18.2911742, 44.0483162], [18.290863, 44.048509], [18.2907879, 44.0489871], [18.291893, 44.0501207], [18.2929766, 44.05174], [18.2931054, 44.0532359], [18.2936311, 44.0542075], [18.2936311, 44.054485], [18.2929659, 44.0544002], [18.2924963, 44.0545808], [18.2927191, 44.056536], [18.2923408, 44.0577306], [18.2913697, 44.058197], [18.2901549, 44.0582785], [18.2898009, 44.0585599], [18.2882398, 44.0583787], [18.28655, 44.0582014], [18.2846993, 44.0588028], [18.2835138, 44.0589686], [18.2826394, 44.0601713], [18.2824302, 44.0615321], [18.2818723, 44.0618867], [18.2808408, 44.0630734], [18.2803058, 44.0632899], [18.2790683, 44.0627575], [18.2776022, 44.0624495], [18.2758856, 44.0616554], [18.2753706, 44.0616979], [18.2740295, 44.0615205], [18.273375, 44.0619176], [18.2727957, 44.0619022], [18.2720279, 44.0595311], [18.2703388, 44.0597357], [18.2697379, 44.0595352], [18.269223, 44.0589262], [18.2685149, 44.0588645], [18.2673776, 44.0590187], [18.2667792, 44.0593018], [18.266235, 44.0595044], [18.2583493, 44.0582166], [18.2531733, 44.05735], [18.2512685, 44.0569403], [18.2460949, 44.0549266], [18.2426974, 44.0472332], [18.2428407, 44.0469436], [18.2422927, 44.0468156], [18.2350058, 44.0417519], [18.2290805, 44.0441606], [18.2207735, 44.0471602], [18.2170257, 44.0458722], [18.2137845, 44.0447285], [18.213315, 44.0441674], [18.2133472, 44.04399], [18.2138407, 44.0438974], [18.2136268, 44.043035], [18.2148599, 44.0425401], [18.2162392, 44.0425082], [18.2163405, 44.0412368], [18.2142377, 44.0393781], [18.2130897, 44.0382597], [18.2136744, 44.0376697], [18.2137334, 44.0371722], [18.2132721, 44.0369331], [18.2118666, 44.0370103], [18.2118344, 44.03664]]]}}]}