{"type": "FeatureCollection", "features": [{"type": "Feature", "properties": {"name": "Opština Brod, Република Српска / Republika Srpska, Bosna i Hercegovina / Босна и Херцеговина", "source": "OpenStreetMap relation 2528166", "licence": "ODbL 1.0"}, "geometry": {"type": "Polygon", "coordinates": [[[17.8991391, 45.0585433], [17.8998582, 45.0575813], [17.9010898, 45.0582574], [17.9025766, 45.0567641], [17.9047881, 45.0565143], [17.9052571, 45.0562084], [17.9054736, 45.0558006], [17.9054014, 45.0553674], [17.9052571, 45.0549086], [17.9050406, 45.0545263], [17.9046077, 45.054195], [17.9041387, 45.0538381], [17.9034532, 45.0530735], [17.903381, 45.0526402], [17.9035253, 45.0522069], [17.9035975, 45.0517736], [17.9034171, 45.0513658], [17.9030924, 45.0509325], [17.9029393, 45.0507432], [17.9028037, 45.0505756], [17.9025512, 45.0501933], [17.9025512, 45.04976], [17.9027677, 45.0493522], [17.902912, 45.0489188], [17.9029841, 45.04846], [17.9034171, 45.0481286], [17.9040665, 45.0480522], [17.9047159, 45.0480522], [17.9054375, 45.0480777], [17.906123, 45.0481541], [17.9067724, 45.0481541], [17.9073497, 45.0480267], [17.9081073, 45.0478228], [17.9076383, 45.0455541], [17.9074579, 45.0451207], [17.9072775, 45.0446619], [17.9070971, 45.0441776], [17.9069528, 45.0437187], [17.9068085, 45.0432089], [17.9067914, 45.0427776], [17.9067009, 45.04248], [17.9066642, 45.0422401], [17.9066281, 45.0417558], [17.9066281, 45.040787], [17.9065559, 45.0397928], [17.9064116, 45.0392319], [17.9062312, 45.0387475], [17.9060508, 45.0383396], [17.9050767, 45.0370649], [17.9052932, 45.0361981], [17.9044634, 45.0349233], [17.9051489, 45.0348213], [17.9057622, 45.0346683], [17.9064477, 45.0344898], [17.9070249, 45.0343369], [17.9076383, 45.0341839], [17.9082877, 45.0341839], [17.9089371, 45.0342859], [17.9095505, 45.0344389], [17.9101638, 45.0346683], [17.9114626, 45.0353567], [17.9173074, 45.0335975], [17.9178846, 45.033419], [17.9183537, 45.033113], [17.9186062, 45.0327051], [17.9188948, 45.0322971], [17.9198329, 45.0312008], [17.9201937, 45.0315322], [17.9205545, 45.0318892], [17.9209513, 45.0322971], [17.9213843, 45.0327051], [17.9220698, 45.0326796], [17.9226831, 45.0327051], [17.9230439, 45.033062], [17.9234407, 45.0333935], [17.9239098, 45.033674], [17.9244509, 45.0339799], [17.924956, 45.0342094], [17.9270847, 45.0348723], [17.9274455, 45.0345153], [17.927698, 45.0341074], [17.9279145, 45.0336995], [17.9280588, 45.0332405], [17.928131, 45.0323226], [17.9282031, 45.0318637], [17.9284557, 45.0314302], [17.9289969, 45.0311498], [17.9293729, 45.0308757], [17.929821, 45.0305509], [17.9301676, 45.0302887], [17.9304026, 45.0299301], [17.931, 45.0300414], [17.9312337, 45.0303593], [17.9315945, 45.0307673], [17.9319553, 45.0312008], [17.9323161, 45.0315322], [17.9327851, 45.0318382], [17.9333985, 45.0320677], [17.9348416, 45.0322461], [17.9352385, 45.0326031], [17.9356353, 45.0329856], [17.9361044, 45.0333935], [17.9365012, 45.033725], [17.9370424, 45.0339799], [17.9375475, 45.0342349], [17.9380887, 45.0344644], [17.9398205, 45.0349998], [17.9403616, 45.0352037], [17.9408667, 45.0355097], [17.9413718, 45.0358156], [17.9418409, 45.0361726], [17.9422017, 45.0365295], [17.9424542, 45.0369119], [17.9435366, 45.0379827], [17.949706, 45.0382631], [17.9499225, 45.0378552], [17.9566692, 45.0381612], [17.9573908, 45.0380592], [17.9578959, 45.0377788], [17.958401, 45.0374728], [17.9595555, 45.0370649], [17.9600967, 45.0368609], [17.9607461, 45.036708], [17.9613594, 45.036555], [17.9619367, 45.0364275], [17.9625861, 45.0363255], [17.9645704, 45.0363255], [17.9652559, 45.0362236], [17.9659054, 45.0360961], [17.9664826, 45.0359686], [17.9672042, 45.0359431], [17.9678175, 45.0359686], [17.9684669, 45.0360706], [17.9685328, 45.0361105], [17.968972, 45.0363765], [17.9687195, 45.036759], [17.9683948, 45.0371159], [17.9684669, 45.0375493], [17.9690442, 45.0377788], [17.9697297, 45.0376003], [17.9699462, 45.0370904], [17.9705595, 45.0372179], [17.971245, 45.0373453], [17.9717862, 45.0371414], [17.9723274, 45.0368609], [17.9730129, 45.0368609], [17.9729407, 45.0372944], [17.9727964, 45.0377278], [17.9729407, 45.0381357], [17.973518, 45.0384671], [17.9740952, 45.0386456], [17.9746725, 45.0387985], [17.975358, 45.0387985], [17.9759352, 45.0386456], [17.9758631, 45.0382122], [17.976296, 45.0378807], [17.9768733, 45.0380592], [17.9772701, 45.0383906], [17.9777031, 45.0387475], [17.9783964, 45.038987], [17.9798057, 45.039173], [17.980409, 45.038824], [17.9807337, 45.0384416], [17.9811666, 45.0380847], [17.9817439, 45.0378807], [17.9823572, 45.0378552], [17.9830427, 45.0379572], [17.9836561, 45.0379572], [17.9843055, 45.0378552], [17.9850271, 45.0376003], [17.98546, 45.0372944], [17.9860012, 45.0370394], [17.986283, 45.0371017], [17.9865784, 45.0371669], [17.9870835, 45.0373963], [17.987733, 45.0374218], [17.9880216, 45.0370394], [17.9882381, 45.036606], [17.9887432, 45.0363255], [17.9893204, 45.036351], [17.9898616, 45.036555], [17.9905471, 45.036657], [17.9911604, 45.036504], [17.990944, 45.0360961], [17.9904389, 45.0359176], [17.9900781, 45.0355352], [17.9901141, 45.0350508], [17.9907275, 45.0349743], [17.990944, 45.0345408], [17.9912326, 45.0341584], [17.9918098, 45.0339289], [17.9923871, 45.033725], [17.9930365, 45.033725], [17.9935055, 45.0339799], [17.9939024, 45.0343369], [17.9943714, 45.0346428], [17.9949487, 45.0347958], [17.9953816, 45.0351272], [17.9954177, 45.0355352], [17.9953456, 45.0359941], [17.9953456, 45.0364275], [17.9957063, 45.0367845], [17.9962475, 45.0370139], [17.9968248, 45.0372179], [17.9971134, 45.0376513], [17.9967887, 45.0380847], [17.9965362, 45.0384926], [17.9965722, 45.0389005], [17.9970052, 45.0392064], [17.9976546, 45.0392319], [17.9982679, 45.0393339], [17.9988091, 45.0395124], [17.9993142, 45.0397418], [17.9999636, 45.0400222], [18.0004326, 45.0402772], [18.0009377, 45.0405576], [18.0014429, 45.0409145], [18.0018758, 45.0412969], [18.0022727, 45.0416283], [18.0027056, 45.0419342], [18.0032829, 45.0421382], [18.0039323, 45.0422146], [18.0045817, 45.0421637], [18.0052672, 45.0421127], [18.0059166, 45.0420617], [18.006566, 45.0420617], [18.0072515, 45.0420872], [18.0078649, 45.0422656], [18.0081535, 45.0426225], [18.008406, 45.0430304], [18.0087668, 45.0434383], [18.0090915, 45.0438971], [18.0093441, 45.0442795], [18.0094523, 45.0447384], [18.0094523, 45.0456306], [18.0095966, 45.0460639], [18.0101378, 45.0462678], [18.0107512, 45.0462169], [18.0114006, 45.0460384], [18.01205, 45.0458855], [18.0127355, 45.045911], [18.0132767, 45.0460894], [18.0143229, 45.0466757], [18.0149002, 45.0468541], [18.0154414, 45.0470835], [18.0156579, 45.0474659], [18.0156579, 45.0478737], [18.016163, 45.0481032], [18.0167763, 45.0480012], [18.0173448, 45.0475326], [18.0176422, 45.0472875], [18.0181834, 45.0470835], [18.0188328, 45.0469306], [18.01941, 45.0467522], [18.0200955, 45.0467012], [18.0208171, 45.0466757], [18.0214665, 45.0465992], [18.021683, 45.0461404], [18.0215748, 45.0456815], [18.0217551, 45.0452227], [18.0217912, 45.0447639], [18.0216108, 45.0443305], [18.0216469, 45.0438971], [18.0217191, 45.0434383], [18.0217191, 45.0430049], [18.0215026, 45.0425715], [18.021214, 45.0422146], [18.021214, 45.0417558], [18.0215748, 45.0413734], [18.0216108, 45.0409145], [18.021683, 45.0404556], [18.0216108, 45.0399967], [18.0213944, 45.0395888], [18.0213222, 45.0391554], [18.0215387, 45.0387475], [18.0219716, 45.0384161], [18.0225489, 45.0382122], [18.0231983, 45.0381867], [18.0238838, 45.0381102], [18.0243889, 45.0378552], [18.0247858, 45.0374728], [18.0252909, 45.0371159], [18.0253991, 45.0355097], [18.0253991, 45.0350763], [18.0255073, 45.0346173], [18.0253991, 45.0341584], [18.0251465, 45.033776], [18.0246054, 45.0336485], [18.0242085, 45.033266], [18.023875, 45.0328261], [18.0236215, 45.0324918], [18.0234508, 45.0320422], [18.0234508, 45.0316087], [18.0231622, 45.0312263], [18.0228014, 45.0308183], [18.0229097, 45.0303848], [18.0231261, 45.0299769], [18.0232344, 45.0295434], [18.023054, 45.0290844], [18.0227654, 45.0286764], [18.0229818, 45.028243], [18.0232705, 45.027784], [18.0237034, 45.0274525], [18.0241724, 45.027172], [18.0246775, 45.0268915], [18.0253991, 45.026611], [18.0259764, 45.026356], [18.0265536, 45.02605], [18.0269866, 45.0257185], [18.0277442, 45.0254125], [18.0283936, 45.0253105], [18.029043, 45.0252595], [18.0297285, 45.025132], [18.0303419, 45.024979], [18.0326602, 45.0241596], [18.0326148, 45.023602], [18.032577, 45.0233466], [18.0325188, 45.023122], [18.0323194, 45.0227284], [18.0321458, 45.0222249], [18.0319654, 45.0217914], [18.031785, 45.0213068], [18.0316046, 45.0208988], [18.0312438, 45.0200317], [18.0310995, 45.0195982], [18.0287183, 45.017966], [18.0290288, 45.0152334], [18.0291653, 45.0152423], [18.0295805, 45.0152871], [18.0302271, 45.0154042], [18.0307305, 45.0154834], [18.0314242, 45.0156706], [18.0320737, 45.0157981], [18.0326843, 45.0158897], [18.0333725, 45.0160022], [18.0347074, 45.0160022], [18.0353207, 45.0159512], [18.0360062, 45.0157981], [18.0365113, 45.0155686], [18.0369443, 45.0152115], [18.037269, 45.0148545], [18.0378102, 45.0146249], [18.0384235, 45.0147269], [18.0388204, 45.015084], [18.0392533, 45.0154156], [18.0397945, 45.0156196], [18.0404439, 45.0155941], [18.0409851, 45.0153391], [18.0414902, 45.0150585], [18.0420314, 45.014778], [18.0426086, 45.0145229], [18.0456032, 45.0131456], [18.0461804, 45.0129671], [18.0468298, 45.0128906], [18.0474432, 45.012814], [18.0480926, 45.012763], [18.0488142, 45.012763], [18.0494997, 45.012814], [18.0501851, 45.0129416], [18.0507624, 45.0131201], [18.0513757, 45.0133242], [18.0519531, 45.0136834], [18.0521531, 45.0139809], [18.0523731, 45.0142003], [18.0526104, 45.0143806], [18.0530126, 45.0146939], [18.053222, 45.0148469], [18.0535044, 45.0150075], [18.0540095, 45.0152881], [18.0545146, 45.0154921], [18.0550918, 45.0156961], [18.0557413, 45.0157216], [18.0563546, 45.0156451], [18.0569143, 45.015443], [18.0572158, 45.0153228], [18.0575986, 45.0152407], [18.0581946, 45.0151605], [18.0589352, 45.0151126], [18.0597373, 45.0150985], [18.0601748, 45.0151145], [18.0609622, 45.0152703], [18.0619829, 45.0156196], [18.0626323, 45.0158747], [18.0631735, 45.0161297], [18.0636425, 45.0163847], [18.0640754, 45.0167163], [18.0646211, 45.017063], [18.0650496, 45.0173539], [18.0655907, 45.0176344], [18.0659778, 45.01786], [18.0664855, 45.0178844], [18.0668469, 45.0178998], [18.0674737, 45.0178358], [18.0681365, 45.0177467], [18.0685969, 45.0177297], [18.0691444, 45.0177249], [18.0695888, 45.017746], [18.0701325, 45.01786], [18.0707861, 45.0179915], [18.0713994, 45.0181445], [18.0717084, 45.0182216], [18.0720127, 45.0182975], [18.0726261, 45.0185015], [18.0737084, 45.0189351], [18.0743939, 45.0190626], [18.0750434, 45.0190371], [18.0757289, 45.0189096], [18.0763783, 45.0187566], [18.0769916, 45.0185271], [18.0777493, 45.018119], [18.0782183, 45.0178385], [18.0787955, 45.0176089], [18.0795171, 45.0174814], [18.0801305, 45.0174559], [18.0807799, 45.0174559], [18.0814293, 45.0175069], [18.0821148, 45.0175324], [18.083303, 45.017528], [18.0842073, 45.0174049], [18.0848568, 45.0172774], [18.0853619, 45.0169968], [18.0857226, 45.0165888], [18.0860834, 45.0162062], [18.0866246, 45.0159002], [18.0872019, 45.0156706], [18.0878152, 45.0154921], [18.0883501, 45.0152193], [18.0886671, 45.0149885], [18.0891395, 45.0148802], [18.0899155, 45.0144943], [18.090449, 45.0142423], [18.0906675, 45.0141099], [18.0909541, 45.0139363], [18.0915313, 45.0136557], [18.0921086, 45.0134772], [18.0932992, 45.0131711], [18.0939043, 45.0130567], [18.094598, 45.0129671], [18.0952113, 45.012763], [18.0955, 45.0123804], [18.0958247, 45.0119723], [18.0962215, 45.0115898], [18.0967627, 45.0112837], [18.0973761, 45.0110796], [18.0979894, 45.0109266], [18.0986388, 45.0108756], [18.1004788, 45.0109011], [18.1011282, 45.0109266], [18.1019941, 45.0111051], [18.1026435, 45.0111817], [18.1032569, 45.0111561], [18.1039063, 45.0110541], [18.1045557, 45.0109521], [18.105133, 45.0108246], [18.1057102, 45.0106205], [18.1061432, 45.0102379], [18.1066122, 45.0099573], [18.1072255, 45.0097788], [18.1080193, 45.0098043], [18.1090295, 45.0099063], [18.1096789, 45.0099063], [18.1103283, 45.0098553], [18.111122, 45.0095747], [18.1120601, 45.0094982], [18.1126734, 45.0095237], [18.113395, 45.0095747], [18.1141887, 45.0097478], [18.1148381, 45.0097278], [18.1155144, 45.0097232], [18.1160782, 45.0095949], [18.116697, 45.0095285], [18.1173637, 45.0095492], [18.1180131, 45.0097023], [18.1185903, 45.0099063], [18.1194201, 45.0098808], [18.1200335, 45.0096512], [18.1204664, 45.0093196], [18.1208272, 45.0089115], [18.1210076, 45.0083759], [18.1210076, 45.0079167], [18.1210437, 45.0074831], [18.1212601, 45.007075], [18.1218374, 45.0067178], [18.1222704, 45.0063607], [18.1227394, 45.0060291], [18.1242816, 45.0047037], [18.1249451, 45.0041335], [18.126343, 45.0033518], [18.1265294, 45.0032484], [18.1265969, 45.0032016], [18.1266386, 45.0031805], [18.1267248, 45.0031365], [18.1267666, 45.0031146], [18.1268229, 45.0030945], [18.1269069, 45.0030808], [18.1270132, 45.0030576], [18.1273325, 45.0030107], [18.1274231, 45.0029935], [18.1275212, 45.0029775], [18.1275959, 45.002962], [18.1276763, 45.0029465], [18.1278018, 45.0029088], [18.12811, 45.0027546], [18.1285832, 45.0024889], [18.1293659, 45.0022919], [18.1300504, 45.002146], [18.130416, 45.0021387], [18.1306369, 45.0021676], [18.1313182, 45.0024617], [18.1320642, 45.0027666], [18.1326624, 45.0028639], [18.1333189, 45.0030326], [18.1335634, 45.0029845], [18.1340281, 45.0027194], [18.1341952, 45.0026475], [18.134367, 45.0025761], [18.134675, 45.0026287], [18.1348881, 45.0027049], [18.1350909, 45.0027884], [18.1352346, 45.0027812], [18.1353399, 45.0027485], [18.1354374, 45.0026831], [18.1354939, 45.0026269], [18.1356673, 45.002462], [18.1359959, 45.0021927], [18.1361284, 45.0021032], [18.1363503, 45.0020124], [18.1365785, 45.001972], [18.1367826, 45.0019444], [18.1371016, 45.0019623], [18.1373373, 45.0019819], [18.137573, 45.0019644], [18.1377865, 45.001925], [18.1379321, 45.0019083], [18.1380408, 45.0019061], [18.1381175, 45.001919], [18.1384199, 45.0019776], [18.1388175, 45.0019579], [18.1391763, 45.0019694], [18.1395065, 45.0019867], [18.1397887, 45.0020279], [18.1399864, 45.0021549], [18.1402042, 45.0023426], [18.1404175, 45.0024364], [18.1408299, 45.0025057], [18.1413855, 45.0027067], [18.1415464, 45.0027549], [18.1417502, 45.0029041], [18.1418424, 45.0029518], [18.1422783, 45.0031041], [18.142705, 45.0033402], [18.1429745, 45.0036579], [18.1431029, 45.0038067], [18.1431542, 45.0038557], [18.1432852, 45.0039102], [18.1434931, 45.0039537], [18.1437729, 45.0040245], [18.1440861, 45.004128], [18.144312, 45.0041897], [18.144751, 45.0042169], [18.1455186, 45.0042696], [18.1459704, 45.004246], [18.1463477, 45.0042169], [18.1465814, 45.0042314], [18.1471667, 45.0043168], [18.1474388, 45.0043349], [18.1482012, 45.0044202], [18.1485461, 45.0045122], [18.1487757, 45.0045861], [18.1489478, 45.0046378], [18.1492488, 45.0046487], [18.1496629, 45.0046774], [18.1499494, 45.0047923], [18.1500066, 45.0049148], [18.1501477, 45.0052157], [18.1505094, 45.0054714], [18.1508145, 45.0060393], [18.1510071, 45.0060175], [18.1512664, 45.0056871], [18.1515077, 45.0054185], [18.1516848, 45.0053078], [18.1519056, 45.004992], [18.1520981, 45.004609], [18.1523728, 45.0044474], [18.1526115, 45.0044111], [18.1529222, 45.004442], [18.1533688, 45.0045763], [18.1537565, 45.0047615], [18.1544111, 45.0049702], [18.1547063, 45.0050192], [18.1551427, 45.0049684], [18.1553404, 45.0048867], [18.1555329, 45.0047487], [18.1558256, 45.0045854], [18.1560232, 45.0045691], [18.1562261, 45.0046017], [18.156511, 45.0045255], [18.1569115, 45.0044692], [18.1574885, 45.004016], [18.1577968, 45.0036845], [18.1581052, 45.0033547], [18.1582798, 45.0030062], [18.1585647, 45.0029554], [18.1587187, 45.0028429], [18.1591628, 45.0026995], [18.1595248, 45.0026541], [18.1598945, 45.0024889], [18.1609136, 45.0020678], [18.161273, 45.0018881], [18.1618198, 45.0013472], [18.1620329, 45.0010186], [18.1622691, 45.000848], [18.1628184, 45.0006828], [18.1637067, 45.0004959], [18.1641277, 45.0004904], [18.1646462, 45.0005194], [18.1648875, 45.0005902], [18.1651905, 45.0007609], [18.1656808, 45.0009678], [18.1660556, 45.0010695], [18.1661916, 45.0011058], [18.1664124, 45.0011185], [18.1666358, 45.0010912], [18.1668269, 45.0010189], [18.1669919, 45.0009581], [18.167352, 45.0009297], [18.1677858, 45.0009188], [18.1682967, 45.0009787], [18.1690078, 45.0010912], [18.1698447, 45.0012601], [18.170412, 45.001251], [18.1709639, 45.0011711], [18.1713541, 45.0009133], [18.1726095, 45.0006102], [18.1726762, 45.0006102], [18.1732692, 45.0008716], [18.1733796, 45.0010259], [18.1735465, 45.0011657], [18.1742858, 45.0015006], [18.1752369, 45.0018155], [18.175708, 45.0019353], [18.1762317, 45.001987], [18.1764191, 45.0020306], [18.1769056, 45.0022629], [18.1774753, 45.0024321], [18.1777405, 45.002444], [18.1777885, 45.0024324], [18.1778308, 45.0024837], [18.1777935, 45.0025983], [18.1778184, 45.0028428], [18.1777082, 45.0030221], [18.1776128, 45.0031783], [18.1775872, 45.0032937], [18.1775872, 45.0033415], [18.1778787, 45.0038874], [18.1780723, 45.0041595], [18.1781306, 45.0042996], [18.178695, 45.0048356], [18.1790052, 45.0055463], [18.1790005, 45.0058844], [18.1790658, 45.0060179], [18.1791031, 45.0062059], [18.1791824, 45.0064203], [18.179376, 45.0066511], [18.1796139, 45.0068853], [18.1798122, 45.0070419], [18.1799731, 45.0075465], [18.1801573, 45.0077164], [18.180878, 45.0081055], [18.1818856, 45.0084254], [18.1826249, 45.0082424], [18.1827229, 45.0082523], [18.1829864, 45.0091691], [18.1829864, 45.0092647], [18.183201, 45.009822], [18.183075, 45.0100479], [18.1829794, 45.0106481], [18.1829841, 45.0107174], [18.1837118, 45.0111873], [18.1846773, 45.0118633], [18.1847333, 45.0122294], [18.1849105, 45.0127026], [18.1848499, 45.0130505], [18.1849805, 45.0132549], [18.1853793, 45.0132962], [18.1858994, 45.0134462], [18.1864965, 45.0141552], [18.1866388, 45.014574], [18.1867671, 45.0151461], [18.1873641, 45.0153324], [18.1877466, 45.0155055], [18.1881571, 45.0155715], [18.1885256, 45.0156506], [18.1887961, 45.0157281], [18.1890807, 45.0158138], [18.1893326, 45.0159622], [18.1896568, 45.016315], [18.1900393, 45.0166349], [18.1902725, 45.0167965], [18.1903728, 45.0169861], [18.1904917, 45.017113], [18.1908486, 45.0177197], [18.1916275, 45.0186891], [18.1917068, 45.0188919], [18.1917885, 45.0193997], [18.1916695, 45.0199487], [18.1919004, 45.0201383], [18.1925255, 45.0205339], [18.192929, 45.0207169], [18.1932322, 45.0209081], [18.1939575, 45.0211818], [18.1950863, 45.0216912], [18.1950583, 45.0221627], [18.1949697, 45.0222979], [18.1948111, 45.0224842], [18.1947855, 45.0226523], [18.1948368, 45.0232425], [18.1948041, 45.0234733], [18.1947458, 45.023681], [18.1946525, 45.0238359], [18.1946875, 45.0244327], [18.1948671, 45.0249305], [18.1951474, 45.0253444], [18.1957741, 45.0256869], [18.1957254, 45.0257828], [18.1954828, 45.0259789], [18.1954455, 45.0260119], [18.1953872, 45.0260663], [18.1953219, 45.0261537], [18.1953079, 45.0261998], [18.1952962, 45.0262757], [18.1953079, 45.0263317], [18.1953802, 45.0264702], [18.1954572, 45.0265674], [18.1955621, 45.0266762], [18.1957347, 45.0268724], [18.1958, 45.0269878], [18.1958187, 45.0271773], [18.195779, 45.0273559], [18.1958816, 45.0276988], [18.1959283, 45.0281076], [18.1960309, 45.0282526], [18.1959563, 45.0284175], [18.1957604, 45.0285823], [18.1952006, 45.0290241], [18.1947995, 45.0294395], [18.1945382, 45.0298285], [18.1944263, 45.0301054], [18.1945289, 45.0303032], [18.1949021, 45.0306065], [18.1954618, 45.0309493], [18.195751, 45.0312856], [18.1961988, 45.0317405], [18.1965627, 45.0321822], [18.1968519, 45.0323932], [18.197337, 45.0325053], [18.1975702, 45.0327031], [18.1976822, 45.0329008], [18.1976542, 45.033125], [18.1974116, 45.0333821], [18.1973463, 45.0336656], [18.197393, 45.0340348], [18.1977102, 45.0343908], [18.1978501, 45.0344831], [18.1979341, 45.0348325], [18.1984845, 45.0354325], [18.198839, 45.0357423], [18.1991655, 45.0360654], [18.199576, 45.0364016], [18.200201, 45.0365664], [18.2006115, 45.0365532], [18.2010966, 45.0364609], [18.2016657, 45.0363488], [18.2020482, 45.0362434], [18.2025613, 45.0362104], [18.2032237, 45.0363093], [18.2035969, 45.0363357], [18.2041659, 45.0363818], [18.2047817, 45.0365928], [18.2049496, 45.0368103], [18.2049496, 45.0371531], [18.2050149, 45.03743], [18.2052108, 45.0376476], [18.2054534, 45.0377662], [18.2058079, 45.0377992], [18.206181, 45.0377201], [18.2064143, 45.0376278], [18.2065449, 45.0375553], [18.2069833, 45.0374102], [18.2081402, 45.0370872], [18.2089331, 45.0369488], [18.2096608, 45.0369488], [18.2101459, 45.0372256], [18.2105284, 45.0375487], [18.210715, 45.0377069], [18.2109856, 45.0377596], [18.2110882, 45.0378717], [18.2111162, 45.0379772], [18.2110975, 45.0381486], [18.2114987, 45.038498], [18.2117132, 45.038676], [18.2119931, 45.0389594], [18.2122357, 45.039289], [18.2124359, 45.0396498], [18.2125493, 45.0399484], [18.2126182, 45.040146], [18.2127301, 45.0402647], [18.2129167, 45.0404427], [18.2127861, 45.0407591], [18.2127581, 45.0410293], [18.2127861, 45.0411678], [18.2129447, 45.0413985], [18.213234, 45.0415847], [18.2135697, 45.0417545], [18.2138667, 45.04176], [18.2140558, 45.0417344], [18.2142787, 45.0417215], [18.2146706, 45.0417347], [18.2149598, 45.0418863], [18.2150624, 45.041972], [18.215165, 45.0420643], [18.2153609, 45.0420906], [18.2155102, 45.0420972], [18.2156968, 45.0420972], [18.215986, 45.0420972], [18.2164711, 45.0421829], [18.2167883, 45.0424466], [18.2169925, 45.0426721], [18.217088, 45.0426975], [18.2172734, 45.043151], [18.2173879, 45.0435734], [18.2173948, 45.0437736], [18.2172756, 45.0442271], [18.2171139, 45.0444676], [18.2169338, 45.0447514], [18.2169251, 45.0447882], [18.2172116, 45.0447452], [18.2177571, 45.0445956], [18.2181725, 45.0445485], [18.2185756, 45.0445491], [18.2191059, 45.0446281], [18.2194529, 45.0447603], [18.2197268, 45.0449342], [18.2198856, 45.0451096], [18.2201187, 45.0452837], [18.2221046, 45.0459793], [18.222675, 45.0460456], [18.2239997, 45.0459072], [18.2247554, 45.0459336], [18.225567, 45.046105], [18.2268171, 45.046362], [18.2275168, 45.0464147], [18.2279273, 45.0464016], [18.2281792, 45.0463752], [18.2285897, 45.0463686], [18.2289815, 45.0463686], [18.2294853, 45.0464147], [18.2298491, 45.0464873], [18.2302503, 45.0465729], [18.2308847, 45.046863], [18.2312112, 45.0470541], [18.2318922, 45.0472584], [18.2325079, 45.0473771], [18.23373, 45.0476144], [18.2351108, 45.0478385], [18.2355399, 45.0477857], [18.2356798, 45.0477594], [18.2359317, 45.0476671], [18.2365381, 45.0474891], [18.2368833, 45.0476275], [18.2372285, 45.0481417], [18.2373964, 45.0485042], [18.2377602, 45.0488008], [18.2379655, 45.0490117], [18.2381614, 45.0491765], [18.2386465, 45.0497037], [18.239113, 45.0499476], [18.2394955, 45.0500794], [18.2397567, 45.0501322], [18.2403164, 45.0503365], [18.2408389, 45.0500794], [18.2412307, 45.0499872], [18.2413893, 45.0499806], [18.2425368, 45.0504551], [18.242798, 45.0505672], [18.2430312, 45.0507056], [18.2432365, 45.0508242], [18.2434044, 45.0508901], [18.2441227, 45.0510022], [18.2430032, 45.0515294], [18.2423875, 45.051859], [18.2419117, 45.0520501], [18.2417158, 45.0522346], [18.2415012, 45.0526564], [18.2414453, 45.0527421], [18.2413426, 45.0528607], [18.2411467, 45.0530848], [18.2408389, 45.0532166], [18.2402325, 45.0534078], [18.239906, 45.0534671], [18.2395794, 45.053533], [18.2391689, 45.0537505], [18.2390383, 45.0538757], [18.2387305, 45.0540734], [18.238328, 45.0541281], [18.2379036, 45.0543093], [18.2378196, 45.0543225], [18.2372832, 45.0547443], [18.2370733, 45.0548399], [18.2362523, 45.0549256], [18.2358325, 45.0551101], [18.2355246, 45.0553836], [18.2353465, 45.0556867], [18.2352901, 45.0559467], [18.2352792, 45.0562253], [18.2352518, 45.0564449], [18.2352682, 45.0567494], [18.2352672, 45.0571167], [18.2353457, 45.0572826], [18.2353456, 45.0573796], [18.235285, 45.0576431], [18.2350992, 45.0579385], [18.2350883, 45.0580921], [18.2350992, 45.0583086], [18.235202, 45.0585578], [18.2352514, 45.0585858], [18.2353463, 45.0587121], [18.2354461, 45.0588294], [18.2354857, 45.0588776], [18.2355509, 45.0589754], [18.235631, 45.059233], [18.2356409, 45.0593957], [18.2356468, 45.0594516], [18.2356824, 45.0596841], [18.2356873, 45.0597623], [18.2356606, 45.0599243], [18.2355874, 45.0602149], [18.2355245, 45.0604707], [18.2354322, 45.0606652], [18.2353763, 45.0607511], [18.2352421, 45.0608479], [18.2350716, 45.0609407], [18.2345669, 45.0612162], [18.23423, 45.0614186], [18.2340232, 45.061543], [18.2339029, 45.0616516], [18.2337813, 45.061778], [18.233573, 45.0620535], [18.2332054, 45.0625146], [18.2330852, 45.0626923], [18.2329789, 45.0629155], [18.2328196, 45.0632314], [18.2327441, 45.063346], [18.2326183, 45.0634654], [18.2324841, 45.0635533], [18.2323946, 45.0636096], [18.2328126, 45.0638564], [18.2332767, 45.0640272], [18.2344439, 45.0642405], [18.2341609, 45.0649827], [18.232903, 45.0650273], [18.2285738, 45.0669661], [18.2202233, 45.0704029], [18.2169159, 45.0715718], [18.2152552, 45.0721562], [18.2144193, 45.0719469], [18.2116319, 45.0718265], [18.2088165, 45.0720213], [18.2077863, 45.0721622], [18.2074252, 45.0722109], [18.2071768, 45.0722444], [18.2035618, 45.0740653], [18.2012171, 45.075143], [18.1983983, 45.0772865], [18.1974341, 45.0785431], [18.1973863, 45.0786923], [18.1969964, 45.0785869], [18.1964811, 45.0784174], [18.1962538, 45.0783685], [18.196147, 45.0783378], [18.1959711, 45.0782736], [18.1957674, 45.078208], [18.1954847, 45.0781298], [18.1951493, 45.0779712], [18.191807, 45.0773191], [18.1880899, 45.0768229], [18.1823478, 45.0767022], [18.1763476, 45.076919], [18.1720181, 45.0772357], [18.1676895, 45.0780925], [18.1640414, 45.0790863], [18.1606358, 45.0804365], [18.1573588, 45.0819703], [18.1539234, 45.0835873], [18.1515155, 45.0845178], [18.1513351, 45.0845875], [18.1488103, 45.0853682], [18.1456485, 45.0857787], [18.1437819, 45.085871], [18.1412406, 45.0857377], [18.1385757, 45.0853193], [18.1356169, 45.0845542], [18.1323933, 45.0835373], [18.1268885, 45.0815595], [18.1246989, 45.0806867], [18.1237342, 45.0803866], [18.1225106, 45.0802199], [18.1213812, 45.0801866], [18.1202517, 45.0803199], [18.1181576, 45.0805867], [18.1174117, 45.0807601], [18.1161616, 45.0810506], [18.1137809, 45.0817202], [18.1112868, 45.0826205], [18.1083455, 45.0842041], [18.1053349, 45.0866236], [18.1027218, 45.0898048], [18.1004629, 45.0931217], [18.0987523, 45.0950059], [18.0979283, 45.0958767], [18.0960157, 45.0973883], [18.0940862, 45.0987382], [18.091592, 45.1000047], [18.0873566, 45.1014879], [18.081474, 45.1030377], [18.0759915, 45.1043875], [18.0749091, 45.1047374], [18.0736856, 45.105304], [18.0724149, 45.1061205], [18.0717326, 45.1068703], [18.0713325, 45.1073536], [18.0710266, 45.1080534], [18.0709796, 45.1086033], [18.0710031, 45.1089698], [18.0712149, 45.1094364], [18.0716384, 45.1099529], [18.0723443, 45.1104028], [18.0739444, 45.1113359], [18.0798505, 45.1140683], [18.0838911, 45.1159595], [18.0844859, 45.1163508], [18.0849565, 45.1167007], [18.085333, 45.1172005], [18.0856859, 45.1177836], [18.0858271, 45.1187998], [18.0856153, 45.1198493], [18.0850506, 45.1210988], [18.08438, 45.1222192], [18.0825042, 45.1246607], [18.080608, 45.1269997], [18.0767664, 45.1331103], [18.0753327, 45.1360065], [18.0746268, 45.1375387], [18.0738738, 45.1385379], [18.0730502, 45.1393706], [18.0723208, 45.1400201], [18.0714267, 45.1406029], [18.0702972, 45.1412024], [18.0684148, 45.1420184], [18.0667442, 45.1425846], [18.0651441, 45.1430009], [18.0628305, 45.1433018], [18.0598434, 45.143429], [18.0566027, 45.1431175], [18.0526025, 45.1424847], [18.0489083, 45.1416188], [18.0465788, 45.1406862], [18.0446964, 45.1395871], [18.0438493, 45.1388377], [18.043214, 45.1379217], [18.0425787, 45.1361897], [18.0420435, 45.1342752], [18.0419952, 45.1325577], [18.0417341, 45.1306807], [18.0416539, 45.1296216], [18.0413999, 45.1287362], [18.0408973, 45.1277743], [18.0405279, 45.1271903], [18.0401436, 45.1267011], [18.0396148, 45.126273], [18.0391651, 45.125959], [18.0386726, 45.1257034], [18.0379647, 45.1255132], [18.036709, 45.1254947], [18.0355536, 45.1256678], [18.0347615, 45.1258828], [18.0341914, 45.1260626], [18.0337593, 45.1263442], [18.0330356, 45.1270509], [18.0320812, 45.1281345], [18.0307573, 45.1295508], [18.0286731, 45.132424], [18.0267842, 45.1356294], [18.0260706, 45.1371191], [18.0253428, 45.1391289], [18.0249254, 45.1407124], [18.0241368, 45.1431024], [18.023903, 45.1438164], [18.0233544, 45.1448405], [18.0228588, 45.145607], [18.0218024, 45.146908], [18.0206974, 45.1480635], [18.0194775, 45.1490499], [18.018795, 45.1495934], [18.0175661, 45.150211], [18.016272, 45.1507437], [18.0152407, 45.1510707], [18.0139318, 45.1513773], [18.0123701, 45.1516384], [18.0113964, 45.1516989], [18.0106248, 45.1517292], [18.0098188, 45.1517172], [18.0081476, 45.151612], [18.0070511, 45.1514929], [18.0056246, 45.151291], [18.0037484, 45.1510436], [18.0031518, 45.1509563], [18.0028334, 45.150901], [18.0004169, 45.1503307], [17.9961346, 45.1490638], [17.995169, 45.148898], [17.9940158, 45.1486202], [17.9899346, 45.1467095], [17.9880092, 45.1456625], [17.9865911, 45.1447276], [17.9853465, 45.1437115], [17.9826558, 45.1411832], [17.9809656, 45.139676], [17.9782018, 45.1366631], [17.9768518, 45.134729], [17.9763518, 45.1335011], [17.9761493, 45.13253], [17.9757921, 45.129123], [17.9756591, 45.1275094], [17.9753578, 45.125996], [17.975122, 45.1250064], [17.9752105, 45.1244944], [17.9748576, 45.1239746], [17.9744736, 45.1232973], [17.9732081, 45.1215593], [17.9715196, 45.119303], [17.9696075, 45.1173278], [17.9675387, 45.1156633], [17.9655013, 45.1141874], [17.9614107, 45.1123452], [17.9610737, 45.1122259], [17.9602822, 45.1119457], [17.9591068, 45.111757], [17.9579157, 45.1116128], [17.9557528, 45.1115684], [17.9534803, 45.1116128], [17.9477664, 45.1116279], [17.9475145, 45.1116204], [17.9467303, 45.1115973], [17.9450842, 45.1115725], [17.9438362, 45.1115752], [17.9424427, 45.1114958], [17.9411587, 45.1113583], [17.9393682, 45.1110431], [17.9381671, 45.1107636], [17.9372848, 45.1105072], [17.9358563, 45.1098147], [17.9346091, 45.1090744], [17.933643, 45.1084254], [17.9327196, 45.1076124], [17.9321909, 45.1069734], [17.9316372, 45.1062897], [17.9311198, 45.1054986], [17.9307201, 45.1046606], [17.9304349, 45.1037937], [17.9303076, 45.1034061], [17.9302654, 45.103248], [17.9299746, 45.1021562], [17.9296783, 45.10081], [17.9297705, 45.0994737], [17.9299511, 45.0980814], [17.9302305, 45.0968445], [17.9306284, 45.0959096], [17.9307244, 45.0956839], [17.930749, 45.0956262], [17.9314921, 45.0942301], [17.9321501, 45.0929026], [17.9329259, 45.091534], [17.9332173, 45.0909384], [17.933843, 45.090107], [17.9347633, 45.08904], [17.9355477, 45.0882059], [17.9358829, 45.0877874], [17.9363278, 45.0872312], [17.9366854, 45.0864713], [17.9370385, 45.0855653], [17.9374026, 45.0845014], [17.9375525, 45.0834521], [17.9373203, 45.082634], [17.9368409, 45.0820336], [17.9363389, 45.0814787], [17.935839, 45.0809912], [17.9352081, 45.0806295], [17.9343183, 45.0801201], [17.9330565, 45.0796557], [17.9317007, 45.0789733], [17.930686, 45.0785332], [17.9294876, 45.0780566], [17.9280895, 45.0775493], [17.9266825, 45.0770084], [17.9259566, 45.0766595], [17.9249005, 45.0761581], [17.9236396, 45.0754573], [17.922501, 45.0748615], [17.9215704, 45.0743074], [17.9199072, 45.073185], [17.9180646, 45.0719078], [17.9162777, 45.0706297], [17.9143359, 45.0692244], [17.9124158, 45.0677457], [17.9103923, 45.0662516], [17.9087147, 45.0649041], [17.9067066, 45.0633928], [17.9051033, 45.0622393], [17.9050905, 45.0622301], [17.9031423, 45.0608529], [17.9021075, 45.0601971], [17.9019112, 45.0600726], [17.900747, 45.0593982], [17.8997361, 45.0588002], [17.8991391, 45.0585433]]]}}]}