{"type": "FeatureCollection", "features": [{"type": "Feature", "properties": {"name": "Općina Bugojno, Srednjobosanski kanton / Županija Središnja Bosna, Federacija Bosne i Hercegovine, 70230, Bosna i Hercegovina / Босна и Херцеговина", "source": "OpenStreetMap relation 2528172", "licence": "ODbL 1.0"}, "geometry": {"type": "Polygon", "coordinates": [[[17.3132676, 44.0164133], [17.3166847, 44.0073315], [17.3166864, 44.0061449], [17.3167631, 44.0057284], [17.3168993, 43.9993287], [17.3179936, 43.9968126], [17.3203969, 43.9927836], [17.3211908, 43.9911781], [17.3233795, 43.9876737], [17.3261475, 43.9836595], [17.328422, 43.9802782], [17.3351168, 43.9735148], [17.3412537, 43.9730979], [17.341876, 43.971654], [17.341243, 43.9712216], [17.3401379, 43.9707738], [17.3384321, 43.9701483], [17.337724, 43.9700402], [17.3369622, 43.9698317], [17.336576, 43.9692449], [17.3363399, 43.966882], [17.3363936, 43.9657083], [17.3365867, 43.9652372], [17.3368335, 43.9649592], [17.3370695, 43.964797], [17.3380244, 43.9642951], [17.3388719, 43.9643028], [17.3394728, 43.964465], [17.3401809, 43.9646272], [17.3407066, 43.9648357], [17.3413396, 43.9649438], [17.3415863, 43.9648202], [17.3415327, 43.9643878], [17.3416078, 43.9641561], [17.3416775, 43.9638318], [17.3416454, 43.9633954], [17.3413181, 43.963156], [17.3407763, 43.9629282], [17.340286, 43.9627176], [17.3399448, 43.9625575], [17.3399287, 43.9623992], [17.3400629, 43.9623066], [17.340771, 43.9619706], [17.3410231, 43.9617196], [17.3409909, 43.9615575], [17.3407173, 43.9611211], [17.3405027, 43.9606964], [17.341007, 43.9604184], [17.3415327, 43.9603411], [17.3421979, 43.9602021], [17.34267, 43.9599936], [17.3432279, 43.9594685], [17.3437321, 43.9589356], [17.3440325, 43.9585108], [17.3441076, 43.9581092], [17.3438823, 43.9570666], [17.343775, 43.9567654], [17.3434317, 43.9561938], [17.3429704, 43.9556918], [17.3422408, 43.9551975], [17.3415542, 43.954626], [17.3408407, 43.9543363], [17.3405296, 43.9543363], [17.3399181, 43.9542706], [17.3396606, 43.9542243], [17.3394567, 43.9540544], [17.3393065, 43.9537995], [17.3393065, 43.9536334], [17.3394192, 43.9534597], [17.3395425, 43.9532472], [17.3396713, 43.9527607], [17.3398108, 43.9524787], [17.3399502, 43.9522547], [17.340417, 43.9519651], [17.3404668, 43.9518432], [17.3405006, 43.9517892], [17.3405081, 43.9516759], [17.3405081, 43.9515517], [17.3405718, 43.9514437], [17.3407215, 43.9512487], [17.3409549, 43.9510425], [17.3411829, 43.9508439], [17.3412943, 43.9506798], [17.3413633, 43.9505957], [17.3414746, 43.9505499], [17.3415595, 43.9505423], [17.3417663, 43.9505652], [17.3418565, 43.9505957], [17.3419626, 43.9505728], [17.3420634, 43.9504774], [17.3421694, 43.9502903], [17.3422066, 43.9500574], [17.3422278, 43.9499008], [17.3422225, 43.9497366], [17.3421853, 43.9494731], [17.3420156, 43.9488851], [17.3419838, 43.9485452], [17.341987, 43.9483734], [17.3420825, 43.9482474], [17.3426659, 43.9478693], [17.339623, 43.945832], [17.3399502, 43.9456157], [17.3401433, 43.9454535], [17.3404115, 43.9453183], [17.3405403, 43.9451716], [17.3406476, 43.9450673], [17.3407656, 43.9450402], [17.3412967, 43.9450827], [17.3416454, 43.9449475], [17.3418653, 43.9447544], [17.3419887, 43.944654], [17.3424607, 43.944457], [17.3430401, 43.9442407], [17.3440754, 43.9440978], [17.3444241, 43.9439433], [17.3447084, 43.9436227], [17.3447621, 43.9434103], [17.3447567, 43.9432326], [17.3447567, 43.9429931], [17.3451161, 43.9426996], [17.3455185, 43.9425026], [17.3459691, 43.942321], [17.3470849, 43.9418382], [17.3472619, 43.9417339], [17.347337, 43.941676], [17.3523903, 43.9430626], [17.3537528, 43.9416721], [17.3540854, 43.9409537], [17.3553193, 43.9409923], [17.3553085, 43.9407451], [17.3553085, 43.9405751], [17.3555231, 43.9401502], [17.3555446, 43.9398026], [17.3555553, 43.9395476], [17.3553193, 43.9391845], [17.3547614, 43.9394163], [17.3544502, 43.9393699], [17.3538279, 43.9391614], [17.3540318, 43.9387133], [17.3544288, 43.9383424], [17.3550939, 43.9378094], [17.3554051, 43.9374076], [17.3559201, 43.9374849], [17.3565423, 43.9371836], [17.3571217, 43.9369981], [17.3575294, 43.9367432], [17.3579907, 43.9365732], [17.3587096, 43.9366505], [17.3598254, 43.9367895], [17.3616171, 43.9367895], [17.3639238, 43.936805], [17.3643851, 43.9367741], [17.3650288, 43.9286459], [17.3762727, 43.931783], [17.3813796, 43.9430395], [17.3884392, 43.9495745], [17.3913574, 43.9522471], [17.402044, 43.9498497], [17.401988, 43.9497068], [17.4019931, 43.9496078], [17.4023138, 43.9487392], [17.4022985, 43.9485853], [17.4022375, 43.9484644], [17.4020237, 43.9481895], [17.4019473, 43.9480099], [17.4019218, 43.947812], [17.401932, 43.947702], [17.4019677, 43.9476177], [17.4020695, 43.9475188], [17.4021662, 43.9474198], [17.4022069, 43.9473135], [17.4021916, 43.9472256], [17.4021713, 43.9470717], [17.4021812, 43.946878], [17.402282, 43.9467018], [17.402462, 43.9465307], [17.40257, 43.9464167], [17.4026204, 43.9462198], [17.402642, 43.9460643], [17.402714, 43.945971], [17.4028796, 43.9458621], [17.4032035, 43.945634], [17.4034051, 43.9454889], [17.4036067, 43.9452919], [17.4037578, 43.9451209], [17.4038802, 43.944955], [17.4039738, 43.9447788], [17.4040242, 43.9445507], [17.4040026, 43.9443641], [17.4039522, 43.9441827], [17.4038428, 43.9440575], [17.4037924, 43.9439435], [17.4037852, 43.9437724], [17.4038716, 43.9436273], [17.4040588, 43.9435081], [17.404174, 43.9434252], [17.4042892, 43.9433163], [17.4044044, 43.9432074], [17.4045771, 43.9431245], [17.4048507, 43.9430416], [17.4050379, 43.9429638], [17.4051746, 43.9428809], [17.4053186, 43.9427357], [17.405585, 43.942601], [17.4058802, 43.9424455], [17.4060385, 43.9423159], [17.4062473, 43.9420049], [17.4063121, 43.9418545], [17.4065137, 43.9416938], [17.4067161, 43.9413926], [17.4068688, 43.941246], [17.4070622, 43.9411507], [17.4074287, 43.9410187], [17.4074679, 43.9410134], [17.4077089, 43.9409809], [17.4077545, 43.9409747], [17.4080701, 43.9408648], [17.4085588, 43.9406668], [17.408961, 43.9404469], [17.4096533, 43.9401573], [17.4098823, 43.9401133], [17.4100961, 43.9400767], [17.4102794, 43.9400694], [17.4104423, 43.9400913], [17.4105696, 43.9401097], [17.4107019, 43.940106], [17.410819, 43.9401023], [17.4109666, 43.9401317], [17.4111804, 43.9401537], [17.4112924, 43.9401317], [17.41144, 43.9400987], [17.4115927, 43.9400694], [17.4117505, 43.9400877], [17.4120102, 43.9400694], [17.4122901, 43.9400144], [17.4123869, 43.9399704], [17.4124785, 43.9398678], [17.4125498, 43.9397578], [17.412621, 43.9396698], [17.4126974, 43.9396148], [17.4127941, 43.9395818], [17.4129163, 43.9395452], [17.4130486, 43.9395159], [17.4132268, 43.9394609], [17.4134508, 43.9393582], [17.4136697, 43.9392153], [17.4139297, 43.9390637], [17.4141961, 43.9389134], [17.4143977, 43.9387216], [17.4144841, 43.9385816], [17.4146064, 43.9384572], [17.4147504, 43.9383898], [17.4149808, 43.9382913], [17.4151824, 43.9382291], [17.4153623, 43.9381254], [17.4154292, 43.9378926], [17.4155209, 43.9377313], [17.4156583, 43.937625], [17.4158365, 43.9375187], [17.4159586, 43.9373831], [17.4160961, 43.9372695], [17.4161724, 43.9371558], [17.4161979, 43.9369945], [17.4162793, 43.9368149], [17.4163812, 43.936595], [17.4165797, 43.9362981], [17.4166764, 43.9360745], [17.416768, 43.9358802], [17.4168749, 43.9357299], [17.416955, 43.9355562], [17.4168974, 43.9353488], [17.4167823, 43.935157], [17.4166671, 43.9349341], [17.4166527, 43.9347526], [17.4167391, 43.9345349], [17.416883, 43.934229], [17.4170414, 43.9339802], [17.4173726, 43.9334514], [17.4175237, 43.9332388], [17.4176389, 43.9330833], [17.4177109, 43.9329018], [17.4177397, 43.9327619], [17.4176821, 43.932596], [17.4176677, 43.9324093], [17.4177469, 43.9322227], [17.4178405, 43.9321138], [17.4180133, 43.932036], [17.4182509, 43.9319531], [17.4184668, 43.9318753], [17.4186396, 43.9317353], [17.4187692, 43.9316109], [17.4190139, 43.9314761], [17.4193052, 43.931255], [17.4194172, 43.9311377], [17.4195801, 43.9310497], [17.4197532, 43.9309617], [17.4199059, 43.9308884], [17.4200586, 43.9307491], [17.4201706, 43.9306391], [17.4203437, 43.9305438], [17.420476, 43.9304484], [17.4206084, 43.9302431], [17.4206389, 43.9300818], [17.4206593, 43.9299865], [17.4206898, 43.9298179], [17.4207204, 43.9297225], [17.4207815, 43.9296272], [17.4208731, 43.9295686], [17.4210054, 43.9295539], [17.4212396, 43.9295612], [17.4217181, 43.9295832], [17.422105, 43.9295906], [17.4225631, 43.9295686], [17.4229704, 43.9295319], [17.4231943, 43.9295319], [17.4233003, 43.9295537], [17.4234081, 43.9295759], [17.4234399, 43.9295697], [17.4236729, 43.9295246], [17.4238867, 43.9294586], [17.4240394, 43.9294586], [17.4242328, 43.9294586], [17.4243244, 43.9294293], [17.4244059, 43.9293119], [17.4244568, 43.9291726], [17.4245779, 43.9289883], [17.4246604, 43.928894], [17.4249251, 43.9287767], [17.4250778, 43.9286227], [17.4252204, 43.9284027], [17.4253934, 43.9281754], [17.4255258, 43.9280654], [17.4259127, 43.9279041], [17.4264726, 43.9277428], [17.4271389, 43.9274567], [17.4272973, 43.9273322], [17.4277111, 43.9267286], [17.4278309, 43.9263144], [17.4281333, 43.9260136], [17.4282485, 43.9258788], [17.4283061, 43.9256092], [17.4284069, 43.9254329], [17.428594, 43.925267], [17.4286516, 43.9251011], [17.4287236, 43.924904], [17.4289252, 43.9247277], [17.4292707, 43.9244788], [17.4295731, 43.9243233], [17.4297603, 43.9241885], [17.4298467, 43.9239085], [17.4300482, 43.9235974], [17.4302066, 43.9233277], [17.4302786, 43.9232033], [17.4308401, 43.9228922], [17.4310129, 43.9226951], [17.4313441, 43.9224981], [17.4314003, 43.9224277], [17.4314216, 43.9219659], [17.4314296, 43.9217917], [17.4313438, 43.9209725], [17.4310756, 43.9203311], [17.4310861, 43.9202607], [17.4311399, 43.9198983], [17.4313867, 43.919141], [17.4316897, 43.9184472], [17.4319875, 43.9177653], [17.4320855, 43.9174913], [17.4322557, 43.9170157], [17.4321956, 43.9165514], [17.4321805, 43.9164344], [17.4321377, 43.9161037], [17.4318326, 43.9150046], [17.4317622, 43.9147512], [17.4313549, 43.9140176], [17.4312687, 43.9138624], [17.4308062, 43.9129013], [17.4307108, 43.9127031], [17.4305676, 43.9123223], [17.4302602, 43.911505], [17.4300778, 43.910879], [17.4300027, 43.9103302], [17.4302709, 43.9094568], [17.4302684, 43.9094327], [17.4302517, 43.909269], [17.4301963, 43.9087257], [17.4301827, 43.9085926], [17.43011, 43.9078799], [17.4300027, 43.9072693], [17.429972, 43.9071398], [17.4295735, 43.9054605], [17.429497, 43.9043411], [17.4299812, 43.9029173], [17.4303675, 43.9020051], [17.429831, 43.9003276], [17.4296486, 43.8993381], [17.4294341, 43.8988046], [17.4295306, 43.8985186], [17.4302709, 43.8984181], [17.4307966, 43.8983872], [17.4317837, 43.8986578], [17.4325561, 43.8990443], [17.4329209, 43.8993613], [17.4334788, 43.9000879], [17.43379, 43.9004204], [17.4339187, 43.9007605], [17.4340582, 43.9014253], [17.4342728, 43.9024612], [17.4347019, 43.9032729], [17.4350774, 43.9036671], [17.4365365, 43.9047957], [17.4382532, 43.9054992], [17.4387681, 43.9058084], [17.4395621, 43.9063031], [17.4400127, 43.9063649], [17.4406564, 43.906249], [17.4419761, 43.9056538], [17.4422121, 43.90536], [17.4429309, 43.9056036], [17.4446154, 43.9052209], [17.4452376, 43.9062335], [17.4456668, 43.9066509], [17.4461442, 43.9070606], [17.4465197, 43.907679], [17.4468255, 43.9083824], [17.4471366, 43.909449], [17.4479037, 43.9103031], [17.4487621, 43.9108519], [17.449969, 43.9113389], [17.4506128, 43.9115244], [17.4510366, 43.9115205], [17.4519861, 43.9113234], [17.4526942, 43.9113466], [17.453692, 43.9115707], [17.4545181, 43.9117446], [17.4547756, 43.9119379], [17.455194, 43.9124441], [17.4556097, 43.9131243], [17.4558914, 43.9131861], [17.4558833, 43.9135416], [17.4559316, 43.9139706], [17.4561167, 43.9143841], [17.4563822, 43.9146449], [17.4564707, 43.9147435], [17.4565264, 43.9148767], [17.45646, 43.9153135], [17.4563742, 43.9157849], [17.4563768, 43.9160921], [17.4565271, 43.916268], [17.4566665, 43.9163916], [17.4568972, 43.9165771], [17.4570689, 43.9166737], [17.4572244, 43.9167162], [17.4578601, 43.9168901], [17.4584797, 43.917149], [17.4587023, 43.91729], [17.4588981, 43.9174601], [17.4589625, 43.9175567], [17.4590315, 43.9177569], [17.4590242, 43.9178987], [17.4590269, 43.9181827], [17.4591368, 43.9183546], [17.4593058, 43.9185517], [17.4594238, 43.9187275], [17.4596357, 43.9188473], [17.4598315, 43.9189632], [17.4600515, 43.9191429], [17.4601775, 43.9192801], [17.4602151, 43.9194095], [17.4600193, 43.9200973], [17.4599147, 43.9204393], [17.459794, 43.9206653], [17.459853, 43.9207948], [17.4600193, 43.9208141], [17.4602285, 43.9207523], [17.460435, 43.9206151], [17.4606818, 43.9204084], [17.4610412, 43.9200355], [17.4616179, 43.9195564], [17.4618781, 43.919396], [17.462039, 43.9193013], [17.4622026, 43.9192588], [17.4624011, 43.9192685], [17.4626023, 43.9193207], [17.4629885, 43.9193786], [17.4633533, 43.9194772], [17.4635357, 43.9195428], [17.4637985, 43.9196472], [17.4639434, 43.9196588], [17.4640131, 43.9196588], [17.4646112, 43.9196877], [17.4650189, 43.9197129], [17.4655983, 43.9197592], [17.4664941, 43.9198732], [17.4672747, 43.9199814], [17.4676985, 43.9200143], [17.4680096, 43.9200007], [17.4683851, 43.9198616], [17.4688384, 43.9197051], [17.4695089, 43.9194887], [17.4699166, 43.9193361], [17.4704021, 43.919226], [17.4709627, 43.9191468], [17.4712497, 43.9191101], [17.4722904, 43.918969], [17.4726257, 43.9189246], [17.4729019, 43.9188145], [17.4730924, 43.9186927], [17.4731997, 43.918573], [17.4733043, 43.9184261], [17.4734679, 43.9183411], [17.4737173, 43.9183179], [17.4740177, 43.9182175], [17.4742323, 43.9179508], [17.4744683, 43.9177228], [17.4747366, 43.9174794], [17.4749726, 43.9172862], [17.4752676, 43.9170737], [17.4756485, 43.9168534], [17.4759704, 43.9168457], [17.4760723, 43.9169461], [17.4762386, 43.9169191], [17.4768394, 43.9168495], [17.4766678, 43.915868], [17.4768662, 43.9157559], [17.4770325, 43.9156439], [17.4769521, 43.9154275], [17.477054, 43.9152613], [17.4774456, 43.9150256], [17.4777353, 43.9149985], [17.477864, 43.9151686], [17.4781537, 43.9153772], [17.4783629, 43.9155859], [17.4785668, 43.9159144], [17.4787492, 43.9163781], [17.479189, 43.9168804], [17.4794948, 43.9172224], [17.4797496, 43.9174234], [17.4802405, 43.9176417], [17.4805918, 43.9178079], [17.480852, 43.917918], [17.481308, 43.9181035], [17.4817318, 43.9182812], [17.4823084, 43.9186386], [17.4826276, 43.9189072], [17.4827537, 43.9190424], [17.4828824, 43.9191661], [17.4829146, 43.9192743], [17.4828985, 43.9193806], [17.482971, 43.9194636], [17.4831399, 43.9195969], [17.483333, 43.9197071], [17.4834725, 43.9198326], [17.4836817, 43.9201263], [17.4846607, 43.9215985], [17.4848914, 43.9215173], [17.4851704, 43.921784], [17.4851891, 43.9218999], [17.4850738, 43.9221897], [17.4849772, 43.9225026], [17.4850389, 43.9227229], [17.4851972, 43.9231073], [17.4851972, 43.9232793], [17.485106, 43.9234396], [17.4850014, 43.9235729], [17.4849665, 43.9238048], [17.4850577, 43.9240269], [17.4850926, 43.9243225], [17.4847841, 43.9248055], [17.4836844, 43.9254024], [17.483612, 43.9254778], [17.4833518, 43.9259008], [17.4831855, 43.9262891], [17.4832231, 43.9268184], [17.4834323, 43.927058], [17.483899, 43.9276337], [17.4838883, 43.9277979], [17.4837407, 43.9279408], [17.4836013, 43.9280548], [17.4831463, 43.9284256], [17.4829036, 43.9286234], [17.4823379, 43.9290844], [17.4817452, 43.9299054], [17.4814206, 43.9305641], [17.4810988, 43.9313078], [17.4808896, 43.9322659], [17.4806589, 43.9336605], [17.4805677, 43.9340738], [17.4805838, 43.9343327], [17.4806803, 43.9344872], [17.4807393, 43.9346378], [17.4808037, 43.9353255], [17.4807662, 43.936129], [17.4808949, 43.9375969], [17.4812812, 43.9392154], [17.4814689, 43.9400459], [17.4815118, 43.9405867], [17.4814609, 43.9416818], [17.4813133, 43.9422476], [17.4812838, 43.9428347], [17.4812704, 43.9433079], [17.4811631, 43.9434972], [17.4810961, 43.9435879], [17.4805596, 43.944457], [17.4800903, 43.9450499], [17.4799132, 43.9453685], [17.4794814, 43.9459479], [17.4791703, 43.9464596], [17.4788859, 43.9469965], [17.478556, 43.9474793], [17.4782583, 43.9481127], [17.4780974, 43.9483888], [17.4779901, 43.9485955], [17.4779847, 43.9488079], [17.4781054, 43.9489547], [17.4784863, 43.9494741], [17.4788591, 43.9499762], [17.4795645, 43.9508722], [17.4805462, 43.9517431], [17.4812302, 43.9522142], [17.4817076, 43.9528978], [17.4819437, 43.953535], [17.482118, 43.9539077], [17.4826089, 43.9553423], [17.4825606, 43.9566109], [17.4824774, 43.9569777], [17.482515, 43.9572094], [17.4826303, 43.9574392], [17.4829629, 43.9576555], [17.4826705, 43.957723], [17.4828261, 43.9581073], [17.4828958, 43.9591673], [17.4827135, 43.9598507], [17.4822736, 43.9605342], [17.4818659, 43.9609937], [17.4815869, 43.9614725], [17.4813724, 43.9618278], [17.4809754, 43.9631676], [17.4808359, 43.9643878], [17.4812221, 43.9652218], [17.481823, 43.966604], [17.4837971, 43.9693376], [17.4848378, 43.9709205], [17.4854171, 43.9717081], [17.4859428, 43.9724261], [17.4865329, 43.9729126], [17.4872088, 43.9735534], [17.4876058, 43.974148], [17.4877345, 43.9745263], [17.4879169, 43.9751208], [17.4884856, 43.9762712], [17.4891829, 43.9770742], [17.4893224, 43.9774525], [17.4898159, 43.9779698], [17.490406, 43.9784407], [17.4911034, 43.9788731], [17.4920046, 43.9792514], [17.493056, 43.979537], [17.4937963, 43.9796219], [17.4956202, 43.9801662], [17.4963605, 43.9803245], [17.4974281, 43.9807143], [17.4984205, 43.9811621], [17.4988067, 43.9813628], [17.4993968, 43.981579], [17.4998099, 43.9817218], [17.5000746, 43.9818447], [17.5001424, 43.9818762], [17.5004107, 43.9820538], [17.5010812, 43.9823935], [17.5019342, 43.9829261], [17.5023472, 43.9833006], [17.5026745, 43.9835592], [17.5030231, 43.9838873], [17.5033128, 43.9841729], [17.5038332, 43.9844508], [17.5042516, 43.9848136], [17.5045198, 43.9858326], [17.5045681, 43.9861317], [17.5047129, 43.9865293], [17.5048497, 43.9870774], [17.5049543, 43.9875907], [17.5050589, 43.9880481], [17.5050402, 43.9884591], [17.5050402, 43.9886482], [17.5050443, 43.988745], [17.5050536, 43.9889666], [17.5050423, 43.9890186], [17.505008, 43.989177], [17.5049843, 43.9892612], [17.5049651, 43.9893294], [17.5049409, 43.9895494], [17.5049119, 43.9897104], [17.5049034, 43.9897579], [17.5049482, 43.9899487], [17.5050107, 43.9902152], [17.5050731, 43.990378], [17.5051609, 43.9906069], [17.5053728, 43.9908289], [17.5057402, 43.990991], [17.5060586, 43.9911222], [17.5063273, 43.991233], [17.5065809, 43.9913376], [17.50662, 43.9913537], [17.506603, 43.9914443], [17.5065958, 43.991483], [17.5066361, 43.991566], [17.5066897, 43.9915969], [17.5067934, 43.9916071], [17.5068077, 43.9916085], [17.5070679, 43.9916374], [17.5072074, 43.9916837], [17.5073469, 43.991759], [17.5074247, 43.9918448], [17.5074904, 43.9919674], [17.5075494, 43.9923823], [17.5076003, 43.9925434], [17.5077908, 43.9928927], [17.5079812, 43.9932477], [17.5080519, 43.9933057], [17.5081046, 43.993349], [17.5082494, 43.9934204], [17.5087411, 43.9935612], [17.5088546, 43.9936032], [17.5090766, 43.9936702], [17.5091639, 43.9936966], [17.5091976, 43.9935324], [17.5093907, 43.9931272], [17.5095999, 43.9929767], [17.5096611, 43.9929494], [17.5098681, 43.9928571], [17.5103616, 43.9927799], [17.5108444, 43.9927451], [17.5114453, 43.9927335], [17.511912, 43.9926678], [17.5121185, 43.9926621], [17.5121156, 43.9928291], [17.5121146, 43.992886], [17.5121126, 43.9929998], [17.5121051, 43.9934281], [17.512199, 43.9936462], [17.5125477, 43.9941556], [17.5129124, 43.9943447], [17.5131109, 43.9944392], [17.5132343, 43.9945357], [17.5149228, 43.9954636], [17.5152345, 43.9956348], [17.5157553, 43.995921], [17.5213319, 43.9989852], [17.5205272, 43.9999808], [17.5203826, 44.0001912], [17.5200391, 44.0006908], [17.5195616, 44.0012812], [17.5190467, 44.0018948], [17.5185022, 44.0025121], [17.51825, 44.0027996], [17.5182608, 44.0028768], [17.5184673, 44.0029559], [17.5186497, 44.0030138], [17.5189581, 44.0024369], [17.5191057, 44.0024002], [17.5192371, 44.0024485], [17.5192586, 44.0027456], [17.5193927, 44.0030003], [17.5202322, 44.0032916], [17.5206292, 44.0034344], [17.5217986, 44.005873], [17.5265086, 44.005298], [17.5308323, 44.004237], [17.5311327, 44.0044916], [17.5337103, 44.007779], [17.5349978, 44.0088381], [17.5353035, 44.0088285], [17.53562, 44.0087552], [17.536194, 44.0086182], [17.5365776, 44.0084793], [17.5373501, 44.0081012], [17.5376424, 44.0080722], [17.5380582, 44.0080047], [17.5386938, 44.00786], [17.5396782, 44.0075668], [17.5402039, 44.0074781], [17.5405553, 44.0074838], [17.5409657, 44.0074993], [17.5413761, 44.0076594], [17.5415799, 44.0078446], [17.541655, 44.0080607], [17.5416121, 44.008379], [17.5413761, 44.0088343], [17.5409898, 44.0096889], [17.5408182, 44.0101827], [17.540845, 44.0105704], [17.5410059, 44.0108], [17.5414619, 44.0111299], [17.5421673, 44.0113922], [17.5430015, 44.0116469], [17.5434172, 44.0118108], [17.5436667, 44.0119516], [17.5439054, 44.0121098], [17.5441521, 44.0122333], [17.544474, 44.0123162], [17.5452867, 44.0125284], [17.5455549, 44.0126384], [17.5459251, 44.0127792], [17.5462443, 44.0128756], [17.5465929, 44.0129219], [17.5470328, 44.0129817], [17.5474218, 44.0130782], [17.5479609, 44.013165], [17.548272, 44.013138], [17.5487977, 44.0131476], [17.5493664, 44.0132151], [17.5502729, 44.0133656], [17.5505412, 44.0135084], [17.5506833, 44.0136241], [17.5512841, 44.0141623], [17.5516731, 44.0146464], [17.5520217, 44.0150515], [17.5524589, 44.0153563], [17.5530356, 44.0155492], [17.5535533, 44.0156668], [17.5541192, 44.0157112], [17.5549373, 44.0157401], [17.5554174, 44.0157382], [17.5559887, 44.0157671], [17.5562999, 44.0158347], [17.5568283, 44.0160083], [17.5572896, 44.0162822], [17.5580969, 44.0166544], [17.5583437, 44.0167721], [17.5584188, 44.016803], [17.5585127, 44.0168165], [17.5586629, 44.0169708], [17.5589418, 44.0172717], [17.5593737, 44.0176285], [17.5596607, 44.0179583], [17.5600174, 44.0184541], [17.5601891, 44.0185736], [17.5603822, 44.0188996], [17.5605431, 44.0190636], [17.5606799, 44.0191909], [17.5608569, 44.0193008], [17.561565, 44.0197734], [17.5619593, 44.0200665], [17.5624394, 44.0204233], [17.5629249, 44.0207454], [17.5633863, 44.021083], [17.5637269, 44.0212662], [17.5643814, 44.021461], [17.5650653, 44.0216095], [17.5656125, 44.0217484], [17.5659853, 44.0219046], [17.5661087, 44.022003], [17.5667202, 44.0224909], [17.5669321, 44.0226337], [17.5670904, 44.0227475], [17.5673908, 44.0230965], [17.56749, 44.0232123], [17.5674847, 44.0233087], [17.5674927, 44.0234379], [17.5676671, 44.0236867], [17.5679299, 44.0239201], [17.5683376, 44.0241901], [17.5687802, 44.0243444], [17.5695017, 44.0243791], [17.570588, 44.0243502], [17.5717574, 44.0243463], [17.57231, 44.0243289], [17.5734875, 44.0242499], [17.5744987, 44.0241804], [17.5749359, 44.0240956], [17.575255, 44.0240107], [17.5756627, 44.02403], [17.5762957, 44.0240358], [17.5768885, 44.0241226], [17.5772613, 44.0242865], [17.5776315, 44.0245025], [17.5778273, 44.0246452], [17.5780284, 44.0247995], [17.5781518, 44.0249403], [17.5782537, 44.0250155], [17.5783744, 44.0250888], [17.5785756, 44.0251968], [17.578927, 44.025326], [17.5793132, 44.0253222], [17.5801983, 44.0252373], [17.5805417, 44.0252335], [17.5808501, 44.0253125], [17.5810996, 44.0254495], [17.5813785, 44.0256346], [17.5816011, 44.0258082], [17.5817004, 44.0259258], [17.5816977, 44.0261148], [17.581746, 44.0267358], [17.5817782, 44.027027], [17.581805, 44.0271929], [17.5819901, 44.0273414], [17.5821215, 44.0274166], [17.5822824, 44.0274494], [17.582556, 44.0275246], [17.5828779, 44.0276789], [17.5830871, 44.0278351], [17.5833312, 44.0279585], [17.584168, 44.028296], [17.5851604, 44.0285795], [17.5858256, 44.0288128], [17.5860321, 44.0289748], [17.5861502, 44.0291156], [17.5861904, 44.0292043], [17.5862145, 44.0294627], [17.5860912, 44.0296459], [17.5857934, 44.0300085], [17.5853267, 44.0303845], [17.5852704, 44.0305851], [17.5852463, 44.0306642], [17.585367, 44.0310672], [17.5855708, 44.0314953], [17.5858846, 44.0317865], [17.5862038, 44.0321374], [17.5868824, 44.0326928], [17.5870487, 44.0328702], [17.5870889, 44.0329801], [17.587105, 44.033092], [17.587207, 44.033657], [17.5871533, 44.0342316], [17.5872633, 44.0348005], [17.5874135, 44.0353751], [17.5875476, 44.0357839], [17.5877917, 44.0361869], [17.5884086, 44.036748], [17.5886258, 44.0369717], [17.5887787, 44.0371317], [17.5889799, 44.0372436], [17.58935, 44.0373477], [17.5897792, 44.0374769], [17.5905302, 44.0376427], [17.5909969, 44.0376157], [17.5913188, 44.0375193], [17.5915709, 44.0374962], [17.5919867, 44.0375714], [17.5931346, 44.0377333], [17.5940707, 44.0379454], [17.5951436, 44.0382385], [17.595503, 44.0385528], [17.5958008, 44.0389288], [17.5961038, 44.0392913], [17.5962567, 44.0396769], [17.5961012, 44.0400664], [17.5960341, 44.040184], [17.5971338, 44.0408743], [17.5974557, 44.0407779], [17.5977024, 44.0406545], [17.5980055, 44.0404173], [17.5982362, 44.0402823], [17.5985366, 44.0401802], [17.5986063, 44.0401551], [17.5994056, 44.0400587], [17.5996712, 44.0400066], [17.6001647, 44.0398755], [17.6005885, 44.0397463], [17.601023, 44.0395844], [17.601487, 44.0394243], [17.6018411, 44.0393298], [17.6022541, 44.0392566], [17.6034665, 44.0389751], [17.6041746, 44.038844], [17.6050088, 44.0387745], [17.6060039, 44.0386241], [17.6062801, 44.0385605], [17.6067281, 44.0383986], [17.6070741, 44.0382636], [17.6073986, 44.0381305], [17.6080692, 44.0379377], [17.6086512, 44.037822], [17.6088765, 44.0377854], [17.6092145, 44.037741], [17.6095927, 44.0376601], [17.6097295, 44.0375752], [17.6098475, 44.0375077], [17.6100916, 44.037554], [17.6102257, 44.0378452], [17.6104027, 44.0381344], [17.6105341, 44.0383754], [17.6110169, 44.0388902], [17.6116124, 44.0395786], [17.6118028, 44.0401165], [17.6120952, 44.0407162], [17.6121059, 44.041123], [17.6120818, 44.0413447], [17.6122749, 44.0417728], [17.612519, 44.0420851], [17.6127148, 44.0423782], [17.6129401, 44.0427098], [17.613093, 44.0428679], [17.6135275, 44.0434521], [17.6136911, 44.0436159], [17.61397, 44.043774], [17.6143187, 44.0439842], [17.6147023, 44.0443062], [17.6150295, 44.0445915], [17.6152441, 44.0449385], [17.6153702, 44.0451429], [17.6155955, 44.0452914], [17.6157805, 44.0454032], [17.6160327, 44.0455671], [17.6165208, 44.0457598], [17.6170465, 44.0459469], [17.6173496, 44.046103], [17.6174998, 44.0461801], [17.6177385, 44.0463112], [17.6178887, 44.0464269], [17.6181275, 44.0466448], [17.6181167, 44.0467469], [17.6182106, 44.0468453], [17.6189858, 44.0475663], [17.6190528, 44.0478227], [17.6190528, 44.0480271], [17.6194176, 44.0490064], [17.6195705, 44.0491857], [17.6196241, 44.0492107], [17.6205951, 44.0492744], [17.6207855, 44.0491972], [17.6209894, 44.0490662], [17.6212871, 44.0489274], [17.621507, 44.0488849], [17.6216197, 44.0488155], [17.6223654, 44.0485726], [17.6225182, 44.0483336], [17.6225799, 44.0481736], [17.6226926, 44.0479711], [17.6228482, 44.0478246], [17.6229957, 44.0476588], [17.6232532, 44.0474603], [17.623567, 44.0473311], [17.6238137, 44.0472675], [17.624082, 44.0472116], [17.624267, 44.0472501], [17.6247029, 44.0474012], [17.6241488, 44.0474324], [17.6234517, 44.0475902], [17.6231674, 44.0479986], [17.623052, 44.0486093], [17.6225078, 44.0494287], [17.6238385, 44.0527751], [17.6238385, 44.0547718], [17.6250291, 44.0559127], [17.6262198, 44.0579092], [17.6270136, 44.0599057], [17.628998, 44.0613317], [17.6293948, 44.0638984], [17.6286011, 44.0653243], [17.6258229, 44.0670354], [17.6258229, 44.0678909], [17.625426, 44.0693167], [17.6250291, 44.069887], [17.6250291, 44.0718831], [17.6238385, 44.0724533], [17.622251, 44.0735939], [17.618679, 44.0735939], [17.615504, 44.0741642], [17.6127258, 44.0744493], [17.6099476, 44.0755898], [17.608757, 44.0770155], [17.6079632, 44.0787262], [17.6067726, 44.0815773], [17.6051851, 44.0827176], [17.6043913, 44.0847133], [17.6051851, 44.0852834], [17.6059788, 44.0861387], [17.6063757, 44.0881342], [17.6075663, 44.0895595], [17.6099476, 44.0909848], [17.6111383, 44.0932652], [17.608757, 44.0935502], [17.6059788, 44.0946904], [17.6032006, 44.0958305], [17.6000256, 44.0981107], [17.5980412, 44.0995358], [17.595263, 44.1018159], [17.5944692, 44.1035259], [17.5928817, 44.1069457], [17.5908973, 44.1092255], [17.5897067, 44.1103654], [17.5873254, 44.1149246], [17.5857378, 44.1169191], [17.5833566, 44.1189136], [17.5805784, 44.1197683], [17.5774033, 44.1214778], [17.5726407, 44.1240419], [17.5710532, 44.1251815], [17.5706563, 44.1274606], [17.5702595, 44.1283152], [17.5678782, 44.1305941], [17.5662906, 44.132873], [17.5647031, 44.1342973], [17.5623218, 44.1360063], [17.5623218, 44.1371456], [17.5635125, 44.141418], [17.5651, 44.1422724], [17.5654969, 44.1439812], [17.5643062, 44.1445508], [17.5619249, 44.1462596], [17.5623218, 44.1476835], [17.5623218, 44.1491074], [17.5619249, 44.1519551], [17.5603374, 44.1528093], [17.5591468, 44.1545179], [17.5587499, 44.1565111], [17.5571623, 44.1585042], [17.5539873, 44.1602125], [17.5508122, 44.1613514], [17.5492247, 44.1616361], [17.5444621, 44.1622056], [17.5420808, 44.1622056], [17.5393027, 44.1636291], [17.5361276, 44.1639138], [17.5317619, 44.1653373], [17.5293806, 44.1664761], [17.5285869, 44.1676148], [17.5266024, 44.1687536], [17.5262056, 44.1670455], [17.5238243, 44.1644832], [17.5234274, 44.1639138], [17.5230305, 44.1613514], [17.5230305, 44.1602125], [17.5242212, 44.1573653], [17.5230305, 44.1553721], [17.5190617, 44.1539484], [17.5162835, 44.1525246], [17.5139022, 44.1519551], [17.5127116, 44.1502465], [17.5127116, 44.1493922], [17.5139022, 44.1471139], [17.5142991, 44.1465444], [17.514696, 44.1431268], [17.5135053, 44.1425572], [17.5111241, 44.1425572], [17.5095365, 44.1422724], [17.5071552, 44.1422724], [17.5043771, 44.1425572], [17.5019958, 44.1445508], [17.5004082, 44.1459748], [17.4992176, 44.1468291], [17.498027, 44.1462596], [17.4952488, 44.144266], [17.4932644, 44.1425572], [17.4904862, 44.1394243], [17.487708, 44.138285], [17.4837392, 44.138285], [17.4825486, 44.1377153], [17.4821517, 44.1368608], [17.4793735, 44.1360063], [17.4773891, 44.1351518], [17.4754047, 44.1334427], [17.4734203, 44.1303093], [17.4726265, 44.1297395], [17.4702452, 44.1271757], [17.4702452, 44.1260361], [17.4698483, 44.1254664], [17.4694515, 44.1246117], [17.4670702, 44.1231872], [17.4654826, 44.1214778], [17.464292, 44.1203382], [17.464292, 44.1183437], [17.457545, 44.1183437], [17.4547668, 44.1177739], [17.4527824, 44.117489], [17.4511949, 44.1169191], [17.4499123, 44.1161006], [17.4494862, 44.1162994], [17.4490464, 44.1163302], [17.4484992, 44.1162685], [17.4476623, 44.115945], [17.4457204, 44.1153616], [17.4453664, 44.1153462], [17.4448246, 44.1151613], [17.4445966, 44.1151324], [17.4442291, 44.1150419], [17.4439985, 44.1149649], [17.4435478, 44.1146163], [17.4433655, 44.1144719], [17.4432045, 44.1143429], [17.4429148, 44.1141233], [17.4423328, 44.1138865], [17.4418795, 44.1137709], [17.4418285, 44.1138441], [17.4416891, 44.1140733], [17.4414879, 44.1142543], [17.4410963, 44.1145431], [17.4409541, 44.1145066], [17.4407369, 44.1144661], [17.4400127, 44.1141715], [17.4389586, 44.113769], [17.438162, 44.1136342], [17.437419, 44.1135918], [17.4375772, 44.1133338], [17.4375316, 44.1132664], [17.4368396, 44.1130738], [17.4366251, 44.1129602], [17.4362388, 44.1127965], [17.4357077, 44.1126001], [17.4356326, 44.1126925], [17.4355549, 44.1128119], [17.4353993, 44.1130103], [17.4351338, 44.113511], [17.4350131, 44.1135822], [17.4347717, 44.1135726], [17.4344391, 44.1135918], [17.4342433, 44.1136689], [17.4338865, 44.1137478], [17.4337122, 44.1137421], [17.4334547, 44.1136554], [17.4332535, 44.1135495], [17.4330363, 44.113457], [17.4328458, 44.1133646], [17.4327171, 44.1133377], [17.4325508, 44.1134744], [17.4323711, 44.1137209], [17.4323255, 44.1138229], [17.4322236, 44.1140117], [17.4321189, 44.1142312], [17.4318883, 44.1144295], [17.4314913, 44.114418], [17.4313867, 44.11452], [17.4314269, 44.1148127], [17.4312124, 44.1148378], [17.4305686, 44.1148166], [17.430177, 44.1148339], [17.43, 44.1148127], [17.4298069, 44.1147896], [17.4295011, 44.1147723], [17.4292973, 44.1146914], [17.4292409, 44.1145682], [17.4292409, 44.1144469], [17.428911, 44.1144526], [17.4285194, 44.1145046], [17.4282485, 44.1145701], [17.4279991, 44.1146375], [17.427586, 44.1145913], [17.4275297, 44.1145817], [17.4273285, 44.1145817], [17.4271274, 44.1146568], [17.4269155, 44.11478], [17.426717, 44.1148609], [17.426489, 44.1149533], [17.4261484, 44.1150246], [17.4256065, 44.1149918], [17.4251291, 44.1150689], [17.4249199, 44.1151112], [17.4244049, 44.1151863], [17.4237772, 44.1153709], [17.4236914, 44.1153962], [17.4229512, 44.1158873], [17.4228224, 44.1159489], [17.4225408, 44.1159662], [17.4225354, 44.1160221], [17.4225327, 44.1161376], [17.4226883, 44.1163302], [17.4230021, 44.1166171], [17.423096, 44.1167711], [17.4231014, 44.1168405], [17.4230719, 44.1169233], [17.4229646, 44.1169906], [17.4228278, 44.1170561], [17.4227554, 44.1171774], [17.4227473, 44.1172814], [17.4227393, 44.1173565], [17.4226132, 44.1174875], [17.4224389, 44.1176126], [17.4222087, 44.1178676], [17.4221992, 44.118023], [17.4221801, 44.1181921], [17.4221101, 44.1183223], [17.4219859, 44.1184709], [17.4218045, 44.1185623], [17.421413, 44.1187748], [17.4208115, 44.1190307], [17.4203086, 44.1192569], [17.4197993, 44.1194374], [17.4193632, 44.1195128], [17.4189908, 44.1195722], [17.418628, 44.1197047], [17.4184084, 44.1198396], [17.4183033, 44.119915], [17.4182206, 44.1200498], [17.4181888, 44.1202326], [17.4181633, 44.1205616], [17.418106, 44.1207078], [17.4179914, 44.1208792], [17.4178832, 44.120982], [17.4176381, 44.1211557], [17.4172148, 44.1214001], [17.4168042, 44.1216195], [17.4162727, 44.1218388], [17.4156775, 44.1221062], [17.4150218, 44.1223804], [17.4142738, 44.1227368], [17.4135481, 44.1230338], [17.4134829, 44.123056], [17.4131248, 44.1231778], [17.4127778, 44.1232737], [17.412555, 44.1233126], [17.4124245, 44.1232897], [17.4122654, 44.1232463], [17.4122177, 44.1231595], [17.4121731, 44.123027], [17.4122368, 44.1226568], [17.4122145, 44.1224101], [17.4121635, 44.122209], [17.4120331, 44.1220993], [17.4118771, 44.1220902], [17.4115206, 44.122097], [17.4111068, 44.1221176], [17.4108236, 44.1221861], [17.4106103, 44.1222775], [17.4103493, 44.1224352], [17.4101615, 44.1226545], [17.4099451, 44.1229356], [17.4097541, 44.1231435], [17.4096682, 44.1232212], [17.4095058, 44.1233103], [17.4093531, 44.1233994], [17.4090921, 44.123573], [17.4087038, 44.1238906], [17.4082677, 44.1242813], [17.4081806, 44.1243453], [17.4077444, 44.1240312], [17.4076907, 44.1240177], [17.4075137, 44.1239995], [17.4073313, 44.1240447], [17.4070859, 44.1240697], [17.4069491, 44.1240283], [17.4066447, 44.123753], [17.4065387, 44.1236519], [17.4063228, 44.1234132], [17.406068, 44.1232052], [17.4059044, 44.1230733], [17.4053626, 44.1227865], [17.4052097, 44.1227316], [17.4047336, 44.1225284], [17.4044225, 44.1223898], [17.4041033, 44.1222839], [17.4037975, 44.1221453], [17.4036205, 44.1219932], [17.4034327, 44.1218449], [17.4032423, 44.1216832], [17.4029955, 44.1215234], [17.4025583, 44.1212191], [17.4022847, 44.1210844], [17.4020755, 44.1209804], [17.4018824, 44.1208167], [17.4016383, 44.1205317], [17.4011904, 44.1201601], [17.4010804, 44.1200099], [17.4009785, 44.1198424], [17.40089, 44.1194612], [17.4007237, 44.1190241], [17.4005333, 44.1184676], [17.400426, 44.1179611], [17.4004421, 44.1176665], [17.4002516, 44.1171447], [17.4000773, 44.1168096], [17.4000853, 44.1164149], [17.4000612, 44.1161395], [17.3999861, 44.1158391], [17.4000075, 44.1154213], [17.4001148, 44.1151324], [17.4002811, 44.1145412], [17.4002892, 44.1144218], [17.400324, 44.1140078], [17.4003991, 44.1136015], [17.4003321, 44.1133646], [17.4002784, 44.1131066], [17.4002355, 44.1128235], [17.4003428, 44.1123902], [17.4002275, 44.1120493], [17.4001551, 44.1118067], [17.4001256, 44.111566], [17.4002141, 44.1112694], [17.4003482, 44.1110845], [17.4003911, 44.1105511], [17.400316, 44.110112], [17.4002302, 44.1097884], [17.4001095, 44.1095901], [17.3999083, 44.109384], [17.3995811, 44.109072], [17.3993826, 44.1088775], [17.3991895, 44.1086733], [17.3989427, 44.1084557], [17.3987201, 44.1082805], [17.3984277, 44.1078529], [17.3982668, 44.107408], [17.3981997, 44.1071191], [17.3980227, 44.1066338], [17.3978886, 44.1062871], [17.3976579, 44.1058962], [17.3975721, 44.1057151], [17.3973709, 44.1055264], [17.3970759, 44.1053184], [17.398425, 44.1045653], [17.398771, 44.104652], [17.3993933, 44.1047772], [17.3999405, 44.1048715], [17.4005252, 44.1051161], [17.4009919, 44.1052413], [17.4013942, 44.1053049], [17.4020568, 44.1053376], [17.4024966, 44.105405], [17.4030545, 44.1056439], [17.4035025, 44.1059251], [17.4036553, 44.1059848], [17.4038646, 44.1060271], [17.4040899, 44.1060387], [17.4042508, 44.1059405], [17.4042588, 44.1057768], [17.4040765, 44.1055476], [17.4039584, 44.1053761], [17.4039799, 44.1052355], [17.4041301, 44.1050834], [17.4041757, 44.1048369], [17.404393, 44.1044574], [17.4045163, 44.1040318], [17.4046183, 44.1037602], [17.4045244, 44.1036312], [17.4048355, 44.1030437], [17.4050045, 44.1025718], [17.4050286, 44.1024158], [17.4051306, 44.1022752], [17.4053076, 44.102152], [17.405718, 44.1020017], [17.405431, 44.1016492], [17.4052352, 44.1013449], [17.4050072, 44.1010714], [17.4050394, 44.1009924], [17.4051279, 44.1009578], [17.405498, 44.1009712], [17.4074882, 44.101083], [17.4080998, 44.1011157], [17.4093872, 44.1011793], [17.4100444, 44.101239], [17.4105084, 44.1012717], [17.4112916, 44.1012833], [17.4116161, 44.1012814], [17.4120238, 44.1013083], [17.4123752, 44.1014065], [17.412681, 44.1016242], [17.4134186, 44.1017995], [17.4135795, 44.101863], [17.4137887, 44.1018707], [17.4138772, 44.1017956], [17.4137458, 44.1016242], [17.4135795, 44.1014778], [17.4134347, 44.1013391], [17.4131235, 44.1002875], [17.4128473, 44.099752], [17.4126488, 44.0991452], [17.4126407, 44.0986907], [17.4128419, 44.097795], [17.4129438, 44.0973115], [17.4129438, 44.0971227], [17.4128553, 44.096801], [17.414647, 44.0964581], [17.4143171, 44.0955432], [17.4147087, 44.0951945], [17.4150521, 44.0953024], [17.4149904, 44.0953987], [17.4163261, 44.0959592], [17.4172488, 44.0965024], [17.4173534, 44.0966546], [17.4177209, 44.0970283], [17.4179193, 44.0970842], [17.4182224, 44.0971458], [17.4185657, 44.0972421], [17.4188608, 44.0973693], [17.419121, 44.0974906], [17.4194321, 44.0976332], [17.4192658, 44.0990123], [17.4193704, 44.0990162], [17.4202046, 44.0991163], [17.4202234, 44.0991703], [17.4200463, 44.0997058], [17.4197566, 44.1002817], [17.4195689, 44.1006014], [17.4196091, 44.1006804], [17.4197701, 44.100769], [17.4195072, 44.1014624], [17.4194401, 44.1016358], [17.4193892, 44.1017378], [17.4193777, 44.1017917], [17.4193409, 44.1019651], [17.4192625, 44.1020973], [17.4190941, 44.1023812], [17.4190432, 44.1024832], [17.419129, 44.1024948], [17.4194267, 44.1023638], [17.419813, 44.1024755], [17.4206123, 44.1026393], [17.4212587, 44.1027644], [17.4214518, 44.1028376], [17.4215671, 44.1029224], [17.421653, 44.1030322], [17.4217844, 44.1031747], [17.4219614, 44.1032517], [17.4221197, 44.1033134], [17.4223262, 44.1033461], [17.4224952, 44.1031689], [17.4225435, 44.1028973], [17.4224496, 44.1026624], [17.4222887, 44.1021693], [17.4221545, 44.1016801], [17.422066, 44.1013507], [17.422758, 44.0998599], [17.4235091, 44.1000062], [17.4246812, 44.100064], [17.4250138, 44.1000294], [17.4254242, 44.1000101], [17.4258131, 44.0999176], [17.4262664, 44.0997982], [17.4270925, 44.0997424], [17.4273178, 44.0997077], [17.4277416, 44.0996172], [17.4283612, 44.0993802], [17.4287045, 44.0992859], [17.4291846, 44.0992589], [17.429418, 44.099334], [17.429654, 44.0989218], [17.4298686, 44.099047], [17.430169, 44.0992107], [17.4303728, 44.0993302], [17.4306706, 44.0994477], [17.4313143, 44.0997135], [17.4315557, 44.0998599], [17.4318051, 44.1000602], [17.4319822, 44.1002509], [17.4324355, 44.1011639], [17.4326822, 44.1014085], [17.4328431, 44.1015279], [17.4331972, 44.1016512], [17.4334627, 44.1017783], [17.4335057, 44.1017186], [17.4337363, 44.1016724], [17.4338195, 44.1015915], [17.4338973, 44.1013777], [17.4339777, 44.1012159], [17.4340287, 44.1010098], [17.4339777, 44.1007189], [17.434026, 44.1005475], [17.4340233, 44.1004261], [17.433967, 44.1002952], [17.433849, 44.1000968], [17.4337873, 44.099829], [17.433739, 44.0995074], [17.4337631, 44.0992338], [17.4337122, 44.0991048], [17.433857, 44.0989199], [17.4339268, 44.0988139], [17.4339348, 44.098735], [17.4338578, 44.098667], [17.4338168, 44.0986309], [17.4336398, 44.0984653], [17.4335727, 44.0983401], [17.4332515, 44.0982179], [17.4331677, 44.098186], [17.4330792, 44.0978007], [17.4329719, 44.0973789], [17.4323201, 44.0971766], [17.4313357, 44.0967991], [17.4305794, 44.0964928], [17.4299973, 44.096148], [17.4296299, 44.0958494], [17.429367, 44.0955027], [17.4291337, 44.0953447], [17.4289942, 44.095285], [17.4287796, 44.0951425], [17.428557, 44.0950442], [17.4281493, 44.0949364], [17.4278676, 44.0949287], [17.4275324, 44.094842], [17.4269235, 44.0947091], [17.4265909, 44.0946474], [17.4260893, 44.0944779], [17.4258211, 44.094449], [17.425459, 44.0944317], [17.425105, 44.0944143], [17.4249333, 44.0943642], [17.4247563, 44.0942853], [17.424598, 44.0941523], [17.4242949, 44.0940618], [17.4238443, 44.0939289], [17.4235895, 44.0938403], [17.4234796, 44.0937497], [17.423391, 44.0936072], [17.4232945, 44.0934569], [17.4231711, 44.0932855], [17.4229807, 44.093089], [17.4228546, 44.0930601], [17.4226212, 44.0929907], [17.4224603, 44.0928944], [17.4222431, 44.0928925], [17.4220285, 44.092931], [17.4218112, 44.0928732], [17.421535, 44.0927711], [17.4213445, 44.092748], [17.4211326, 44.0926363], [17.4207357, 44.0924706], [17.4206123, 44.0924224], [17.4203709, 44.0923165], [17.4201992, 44.0922587], [17.420049, 44.092276], [17.4198988, 44.092276], [17.4197191, 44.0921662], [17.4195421, 44.092041], [17.4192685, 44.0919158], [17.4190432, 44.0917771], [17.4187884, 44.0916037], [17.4186301, 44.0914689], [17.4186274, 44.091309], [17.4185765, 44.0912165], [17.4184075, 44.0910759], [17.4183163, 44.0908909], [17.4181473, 44.0906848], [17.4179435, 44.0905095], [17.4177825, 44.0903554], [17.4176082, 44.0899219], [17.4175787, 44.0897967], [17.4175331, 44.0896695], [17.4174178, 44.0895328], [17.4172381, 44.0894422], [17.4170986, 44.0893979], [17.4169216, 44.0893208], [17.4169591, 44.0892553], [17.4169886, 44.0891128], [17.4167123, 44.0889278], [17.4165541, 44.0888758], [17.4163744, 44.0888893], [17.4160793, 44.0888912], [17.4157602, 44.0887814], [17.4154463, 44.0885926], [17.4153712, 44.0885425], [17.4151942, 44.088398], [17.4149957, 44.088269], [17.4147919, 44.088215], [17.4144888, 44.0882189], [17.4141589, 44.0880609], [17.4139658, 44.0879357], [17.4137968, 44.0878085], [17.4136573, 44.0877276], [17.413483, 44.0876486], [17.4132872, 44.0874906], [17.4130806, 44.0873519], [17.4127293, 44.0871304], [17.4122116, 44.0869049], [17.412048, 44.0868317], [17.4119005, 44.0867701], [17.4117261, 44.0866198], [17.4115545, 44.0864695], [17.4111709, 44.0862422], [17.4106908, 44.0859474], [17.4104977, 44.0858106], [17.4101999, 44.0856315], [17.4100655, 44.0855855], [17.4098942, 44.0855332], [17.4097225, 44.0854176], [17.4095482, 44.085302], [17.4093711, 44.0851787], [17.4091378, 44.0850361], [17.4090064, 44.0849591], [17.4089822, 44.0845101], [17.4089769, 44.084331], [17.4089152, 44.0838493], [17.4088079, 44.083595], [17.4086443, 44.0833561], [17.4083143, 44.0830709], [17.4077833, 44.0827665], [17.4072388, 44.0822636], [17.406882, 44.0818763], [17.4066433, 44.0814736], [17.4069008, 44.0807954], [17.4066675, 44.0797376], [17.4065334, 44.078331], [17.4060868, 44.0782568], [17.4056549, 44.0781836], [17.4050421, 44.0780892], [17.4046183, 44.077989], [17.4044386, 44.0782308], [17.4042481, 44.0781614], [17.4039423, 44.0780121], [17.4036506, 44.0778027], [17.4030841, 44.0772916], [17.4028453, 44.07725], [17.4025851, 44.0771768], [17.4022686, 44.0771171], [17.4017456, 44.0770342], [17.4013996, 44.0769725], [17.400717, 44.0768945], [17.4004689, 44.0768733], [17.400316, 44.0768964], [17.4002396, 44.0769648], [17.4000075, 44.0771932], [17.3998412, 44.077435], [17.3996776, 44.0777626], [17.3995931, 44.0780583], [17.399561, 44.0783753], [17.3996079, 44.0785882], [17.399675, 44.0788493], [17.3997058, 44.0790353], [17.3997192, 44.0792222], [17.3997165, 44.0794197], [17.3997943, 44.0796769], [17.3998573, 44.0799322], [17.3998922, 44.080174], [17.3998573, 44.0803137], [17.3997822, 44.0804929], [17.3996817, 44.0806085], [17.3995462, 44.0806788], [17.3993558, 44.0807241], [17.398999, 44.0807598], [17.398598, 44.0808012], [17.3981179, 44.0808802], [17.3978242, 44.0809197], [17.3974474, 44.0810102], [17.3972945, 44.0810122], [17.3969726, 44.0810112], [17.3969699, 44.0807993], [17.3970705, 44.0803619], [17.397045, 44.0802588], [17.3969793, 44.0802405], [17.3968251, 44.0802116], [17.3968452, 44.0799977], [17.3969378, 44.0796201], [17.3969941, 44.0791451], [17.3970142, 44.078885], [17.3969592, 44.0785776], [17.3969015, 44.0781508], [17.3968171, 44.077882], [17.396758, 44.0778348], [17.3967232, 44.0778078], [17.3965716, 44.0779292], [17.396294, 44.0782472], [17.3959976, 44.0785545], [17.3957831, 44.078778], [17.3957026, 44.0789794], [17.3956516, 44.0792173], [17.3955725, 44.0794929], [17.3954344, 44.0797684], [17.3952332, 44.0799698], [17.3950441, 44.0801827], [17.3946646, 44.0804206], [17.3942676, 44.0807049], [17.3938814, 44.0811384], [17.3935528, 44.0813879], [17.3934107, 44.0814794], [17.3932672, 44.0814129], [17.393066, 44.0812655], [17.3928595, 44.0809968], [17.3927817, 44.0807887], [17.3927361, 44.0806124], [17.3927441, 44.0803995], [17.3926958, 44.0801885], [17.392555, 44.0800093], [17.3924156, 44.0798465], [17.3923016, 44.0797694], [17.3920883, 44.0797973], [17.3918067, 44.0798465], [17.3916283, 44.0798927], [17.3914929, 44.0799476], [17.3913199, 44.0800748], [17.3911281, 44.0800921], [17.3910758, 44.0800873], [17.3912662, 44.0798917], [17.3913775, 44.079727], [17.3913454, 44.0795517], [17.3914768, 44.0793031], [17.3916243, 44.0790362], [17.3917691, 44.0788474], [17.3921353, 44.0785169], [17.3917812, 44.0781961], [17.3917316, 44.0781373], [17.3915237, 44.0782096], [17.3913185, 44.0783204], [17.3911925, 44.0783849], [17.3909993, 44.0781354], [17.3909645, 44.0780082], [17.3910543, 44.0778926], [17.3911603, 44.0778011], [17.3912448, 44.0777394], [17.3914365, 44.0776662], [17.391572, 44.0776171], [17.3916753, 44.0775516], [17.3917986, 44.0774764], [17.3918939, 44.0774369], [17.3921178, 44.0773781], [17.3922144, 44.0773406], [17.3921889, 44.077225], [17.3920897, 44.0769745], [17.3920387, 44.0768309], [17.3923901, 44.0766893], [17.3927146, 44.0764947], [17.3928487, 44.0763848], [17.3930754, 44.0762066], [17.3932497, 44.0758279], [17.3935729, 44.0752865], [17.3934093, 44.0753115], [17.3932095, 44.0753693], [17.3929721, 44.0754454], [17.392838, 44.075537], [17.39272, 44.0755977], [17.3926127, 44.0756198], [17.3924799, 44.0756218], [17.3924048, 44.0755967], [17.3922855, 44.0755562], [17.3921312, 44.0755283], [17.3920545, 44.0754927], [17.3917061, 44.0753289], [17.3915586, 44.0752171], [17.3914432, 44.0751246], [17.3913199, 44.0750938], [17.391234, 44.0750822], [17.3911214, 44.0750957], [17.39099, 44.0751458], [17.3908988, 44.0752595], [17.3908424, 44.075325], [17.3907593, 44.0754079], [17.3906547, 44.0754714], [17.3905125, 44.0755273], [17.3903972, 44.0755582], [17.3901987, 44.0755678], [17.3900834, 44.0755293], [17.3899868, 44.075456], [17.3896891, 44.0752614], [17.3895416, 44.0751786], [17.3893779, 44.0751111], [17.3892224, 44.075088], [17.3890856, 44.0750957], [17.3889193, 44.0751092], [17.3887718, 44.0751342], [17.3886564, 44.0751574], [17.3885062, 44.0751959], [17.3882326, 44.0752691], [17.3880878, 44.0753289], [17.3879859, 44.0753269], [17.3878712, 44.0752851], [17.3877391, 44.0752441], [17.3876265, 44.0751728], [17.3873314, 44.0750128], [17.3870981, 44.0748009], [17.3869666, 44.0747026], [17.3868352, 44.074639], [17.3866984, 44.0746621], [17.3865643, 44.0747161], [17.3864517, 44.0747989], [17.3861754, 44.0747604], [17.3859179, 44.0746294], [17.3858052, 44.074533], [17.3855799, 44.0742594], [17.3852849, 44.0739087], [17.3849577, 44.0734385], [17.3847645, 44.0732188], [17.3845231, 44.0729538], [17.3844051, 44.0728729], [17.3842925, 44.0727496], [17.3842013, 44.0726262], [17.3841208, 44.0724605], [17.3840403, 44.0723642], [17.3839599, 44.0723025], [17.3837989, 44.0722447], [17.383638, 44.07221], [17.3835254, 44.0721637], [17.383402, 44.0720481], [17.3833376, 44.0719248], [17.3832035, 44.0718246], [17.383005, 44.0717475], [17.382372, 44.0714353], [17.3821896, 44.0713235], [17.3820662, 44.0712156], [17.3819482, 44.070942], [17.3818999, 44.070861], [17.3818302, 44.070703], [17.3816049, 44.0705296], [17.3813581, 44.0704409], [17.3810899, 44.0703793], [17.3807788, 44.0703638], [17.3802423, 44.070333], [17.3799473, 44.0703214], [17.3794913, 44.0702444], [17.3790085, 44.0701133], [17.3787725, 44.0699938], [17.378574, 44.069805], [17.3784131, 44.0696701], [17.378287, 44.0695573], [17.378177, 44.0692991], [17.3777586, 44.069011], [17.3775011, 44.0688645], [17.3770666, 44.0685908], [17.3768359, 44.0684868], [17.376219, 44.068217], [17.3759132, 44.0680667], [17.374835, 44.0677467], [17.3743629, 44.0676041], [17.3740357, 44.0674654], [17.3737353, 44.0673459], [17.373054, 44.0672033], [17.3724264, 44.067103], [17.3720294, 44.0670375], [17.3716995, 44.0669353], [17.3714742, 44.0668505], [17.3711845, 44.066758], [17.3699239, 44.0664959], [17.369248, 44.0663764], [17.3689154, 44.0663148], [17.3683682, 44.0661143], [17.3678532, 44.0659486], [17.3677566, 44.0659023], [17.3675743, 44.0657289], [17.3671075, 44.0654745], [17.3666516, 44.0652432], [17.3664209, 44.0652355], [17.3661902, 44.0652509], [17.3660776, 44.0652856], [17.3660543, 44.0652963], [17.3659274, 44.065355], [17.3657718, 44.0653781], [17.3655572, 44.0654128], [17.3653963, 44.0654822], [17.3653319, 44.0654388], [17.36534, 44.0653405], [17.365348, 44.0651767], [17.3653089, 44.0647266], [17.3651388, 44.0643403], [17.3650745, 44.0641533], [17.3649994, 44.0640223], [17.3648921, 44.0639509], [17.3647859, 44.0638033], [17.3643449, 44.0636705], [17.364082, 44.0636242], [17.3638621, 44.063605], [17.3636636, 44.0635279], [17.3635134, 44.0633775], [17.3630038, 44.0626644], [17.3629931, 44.0624707], [17.362918, 44.0623223], [17.3627517, 44.0621816], [17.3624352, 44.062012], [17.3620205, 44.0617436], [17.3619524, 44.0615841], [17.3618156, 44.0611871], [17.3617941, 44.0609751], [17.3618317, 44.0608035], [17.3619497, 44.060605], [17.3621643, 44.0604392], [17.3623896, 44.0602619], [17.3625022, 44.0601424], [17.3625961, 44.0598359], [17.3625532, 44.0593945], [17.3624781, 44.0589686], [17.3624352, 44.0588413], [17.3622501, 44.058743], [17.3620704, 44.0587045], [17.3619121, 44.058664], [17.3617539, 44.0586004], [17.3616412, 44.0585079], [17.36155, 44.0583691], [17.3615661, 44.058238], [17.3618022, 44.057681], [17.3618503, 44.0573652], [17.3619194, 44.057174], [17.3619694, 44.0570072], [17.3621486, 44.0568076], [17.3622301, 44.0566687], [17.3623479, 44.0564756], [17.3624781, 44.0563023], [17.3624978, 44.0561526], [17.3624624, 44.055921], [17.3624108, 44.0557848], [17.3621825, 44.0556068], [17.3619741, 44.0554418], [17.3617246, 44.055227], [17.3616237, 44.0550476], [17.3616278, 44.0549052], [17.3617539, 44.0546238], [17.3615795, 44.0543829], [17.361365, 44.0542807], [17.3611155, 44.0542074], [17.3608205, 44.0541149], [17.3600131, 44.0539453], [17.3594767, 44.0537621], [17.3590931, 44.0535906], [17.3589, 44.0534537], [17.3587283, 44.0533573], [17.3585996, 44.0532513], [17.358554, 44.0531202], [17.3585728, 44.0529891], [17.3584226, 44.0525304], [17.3581597, 44.0523318], [17.3579854, 44.0522277], [17.357296, 44.0520561], [17.3562339, 44.0517978], [17.3554426, 44.0515916], [17.354984, 44.051285], [17.3544851, 44.0508937], [17.3536107, 44.0504465], [17.3532647, 44.0502961], [17.3526344, 44.0501052], [17.352106, 44.0499915], [17.3514837, 44.0498701], [17.3511967, 44.0496657], [17.3510224, 44.0494826], [17.3509607, 44.049338], [17.3509875, 44.0490546], [17.3509392, 44.0488984], [17.3504859, 44.048563], [17.3501533, 44.0484454], [17.3496518, 44.0481697], [17.3489892, 44.047653], [17.3487559, 44.0475624], [17.3484072, 44.0474217], [17.3482141, 44.0473041], [17.3481095, 44.0471479], [17.3482838, 44.0469552], [17.3484153, 44.046799], [17.3484769, 44.0463729], [17.3484448, 44.045889], [17.3482302, 44.0455034], [17.34808, 44.0451738], [17.3472726, 44.044364], [17.3467737, 44.0441249], [17.3462588, 44.043882], [17.3457491, 44.0436584], [17.3452985, 44.0433422], [17.3451912, 44.0430607], [17.3452771, 44.0427908], [17.3454112, 44.0421738], [17.3450947, 44.0418769], [17.3448533, 44.0415645], [17.3446709, 44.0412213], [17.3442793, 44.0408781], [17.3438984, 44.0404925], [17.3437267, 44.0401223], [17.3437482, 44.0398601], [17.3439199, 44.0395439], [17.3440164, 44.0392585], [17.3440325, 44.0390001], [17.3439521, 44.0387071], [17.3441935, 44.0383099], [17.3443866, 44.0380129], [17.3444349, 44.0378895], [17.3442686, 44.0377815], [17.3440057, 44.0376928], [17.3422247, 44.0372185], [17.3413986, 44.0370565], [17.340787, 44.036991], [17.3402238, 44.0370874], [17.3394889, 44.0371915], [17.3386198, 44.0372686], [17.3379385, 44.0371067], [17.3376328, 44.0370141], [17.3375148, 44.0369138], [17.3376381, 44.0366169], [17.3377454, 44.0363662], [17.3376006, 44.0361503], [17.3372197, 44.0359921], [17.3367852, 44.0359536], [17.3364204, 44.0359343], [17.336002, 44.0358533], [17.3355836, 44.0356991], [17.3354334, 44.0355448], [17.3352832, 44.0353095], [17.334972, 44.0348853], [17.3340547, 44.0342875], [17.3337221, 44.034087], [17.3335451, 44.0339944], [17.3333681, 44.0339212], [17.3331642, 44.0338016], [17.3330623, 44.0336396], [17.3330301, 44.0334892], [17.333073, 44.0332964], [17.3332018, 44.033119], [17.3333466, 44.0330187], [17.3337013, 44.0329543], [17.3352237, 44.0324977], [17.3359989, 44.0321956], [17.3361764, 44.0314972], [17.3368676, 44.0309331], [17.3390905, 44.0302885], [17.3399258, 44.0294294], [17.3403568, 44.0290377], [17.340373, 44.0287484], [17.3401291, 44.0284444], [17.3394583, 44.0280468], [17.3384948, 44.0280468], [17.3378931, 44.0277399], [17.3374744, 44.0277253], [17.337141, 44.0276084], [17.3368279, 44.0272839], [17.3363401, 44.02705], [17.3366653, 44.026138], [17.3362385, 44.0258223], [17.3350269, 44.0256206], [17.3341081, 44.0252406], [17.3331365, 44.0253429], [17.3325226, 44.0252085], [17.3316323, 44.0249688], [17.3312623, 44.0242876], [17.3305021, 44.0242555], [17.3293434, 44.0244192], [17.3285385, 44.0243987], [17.3283228, 44.024048], [17.3279581, 44.0238242], [17.3274458, 44.0237413], [17.3267645, 44.0238628], [17.3261851, 44.0237027], [17.3248842, 44.0237085], [17.3238516, 44.0236372], [17.3229504, 44.0234173], [17.3213621, 44.0234745], [17.3218399, 44.0224697], [17.3190129, 44.0231525], [17.3187661, 44.0231872], [17.3184389, 44.0231332], [17.3182189, 44.0229905], [17.3183209, 44.022597], [17.3173821, 44.0228323], [17.317071, 44.0229056], [17.3169062, 44.0229444], [17.3157487, 44.0227124], [17.3140561, 44.017995], [17.3132676, 44.0164133]]]}}]}