{"type": "FeatureCollection", "features": [{"type": "Feature", "properties": {"name": "Općina Busovača, Srednjobosanski kanton / Županija Središnja Bosna, Federacija Bosne i Hercegovine, 72260, Bosna i Hercegovina / Босна и Херцеговина", "source": "OpenStreetMap relation 2528173", "licence": "ODbL 1.0"}, "geometry": {"type": "Polygon", "coordinates": [[[17.7941648, 44.0544535], [17.7953962, 44.0508047], [17.7957779, 44.0503862], [17.7959731, 44.0500683], [17.7961032, 44.0494231], [17.7961682, 44.0489276], [17.7964674, 44.0483385], [17.7968707, 44.0475156], [17.797157, 44.0469639], [17.7976336, 44.0461825], [17.7979412, 44.0457939], [17.7982665, 44.0464672], [17.7984746, 44.0467664], [17.7988129, 44.0470469], [17.7993332, 44.0471685], [17.7996325, 44.0471778], [17.7999187, 44.0470563], [17.8002959, 44.0466822], [17.8009334, 44.0459155], [17.8016359, 44.045345], [17.8026246, 44.0446437], [17.8035483, 44.0442416], [17.8047322, 44.0440078], [17.8055128, 44.0438208], [17.8062413, 44.043746], [17.8066446, 44.0435309], [17.8073341, 44.0431288], [17.8084139, 44.0424461], [17.8092074, 44.0420347], [17.8101832, 44.0415951], [17.8106775, 44.0413707], [17.8110418, 44.0407815], [17.8120435, 44.0392572], [17.812759, 44.0384809], [17.8135396, 44.0379759], [17.81406, 44.0377889], [17.8149837, 44.0377889], [17.8165578, 44.0376205], [17.8174164, 44.0373867], [17.8178327, 44.0372558], [17.8183401, 44.0372558], [17.8197582, 44.0369565], [17.8210591, 44.0366572], [17.8217486, 44.0362177], [17.8224251, 44.0360306], [17.8230886, 44.0357033], [17.8244416, 44.0352263], [17.8251961, 44.0349364], [17.8210071, 44.0277624], [17.8220738, 44.0273695], [17.8230235, 44.0270702], [17.823622, 44.0269579], [17.8244676, 44.0264715], [17.825092, 44.0261815], [17.8255344, 44.0260506], [17.8256775, 44.0257513], [17.8261328, 44.0254987], [17.8270175, 44.0253303], [17.8276029, 44.0251339], [17.8279802, 44.0248065], [17.8284615, 44.0245539], [17.8296714, 44.0243013], [17.8306601, 44.0239739], [17.8320912, 44.0236652], [17.8331059, 44.0234594], [17.8338474, 44.0233659], [17.8342768, 44.0231694], [17.8346931, 44.0230665], [17.8353435, 44.0230853], [17.835942, 44.023263], [17.8364233, 44.0233378], [17.8368266, 44.0233565], [17.837464, 44.0236933], [17.8412645, 44.0234656], [17.8437982, 44.0227824], [17.8469653, 44.0216437], [17.8479154, 44.0216437], [17.8539329, 44.0209605], [17.8561499, 44.019594], [17.859317, 44.0173165], [17.8618506, 44.0164055], [17.8650177, 44.0164055], [17.8672347, 44.017772], [17.8700851, 44.0184553], [17.8735689, 44.0184553], [17.876736, 44.020505], [17.8770527, 44.021416], [17.8776861, 44.0223269], [17.8792697, 44.0243765], [17.8821201, 44.0261983], [17.8856039, 44.0273369], [17.8903545, 44.0277924], [17.8957386, 44.0328019], [17.8973221, 44.0350788], [17.8995391, 44.0382663], [17.9011227, 44.0403154], [17.9020728, 44.042592], [17.9046065, 44.0446409], [17.9080903, 44.0437303], [17.9103072, 44.0430473], [17.9144245, 44.0421367], [17.9172749, 44.0421367], [17.9210754, 44.0414537], [17.9217683, 44.0411424], [17.9236091, 44.0403154], [17.925826, 44.0400877], [17.9283597, 44.0396324], [17.9321602, 44.038494], [17.9343772, 44.038494], [17.9365942, 44.0396324], [17.9388111, 44.0400877], [17.9413448, 44.039177], [17.9422949, 44.0373556], [17.9416615, 44.0348511], [17.9388111, 44.034168], [17.935644, 44.033485], [17.9327936, 44.0328019], [17.9296265, 44.0332573], [17.9321602, 44.0305249], [17.9334271, 44.0296141], [17.935644, 44.0277924], [17.931245, 44.0211587], [17.9499407, 44.0193517], [17.9552966, 44.0193962], [17.9554447, 44.0205938], [17.9561178, 44.0224483], [17.9568346, 44.0242698], [17.957304, 44.0255198], [17.9590625, 44.0281497], [17.959969, 44.0294769], [17.9612988, 44.0301961], [17.9645935, 44.0315249], [17.9677243, 44.0329542], [17.9700428, 44.0338821], [17.9714205, 44.0345178], [17.9731204, 44.0353339], [17.9755554, 44.0362459], [17.9784807, 44.0369983], [17.9820071, 44.0369783], [17.9838287, 44.0362027], [17.9882626, 44.0350642], [17.9898461, 44.0350642], [17.9914297, 44.0355196], [17.9936467, 44.0377964], [17.9956744, 44.0403011], [17.9957763, 44.0424944], [17.9954664, 44.0446877], [17.9969457, 44.0461685], [17.9991395, 44.0471906], [18.0004432, 44.0473468], [18.0018052, 44.0476969], [18.0022605, 44.0486344], [18.0032701, 44.0493179], [18.004435, 44.0496355], [18.0082718, 44.0501683], [18.013135, 44.0523535], [18.0059687, 44.0536411], [18.0032813, 44.0546068], [17.9983544, 44.0575037], [17.9929797, 44.0578256], [17.9943234, 44.0584694], [17.9965629, 44.0604006], [18.0037292, 44.0636191], [18.0014897, 44.0652283], [18.0010418, 44.0649064], [17.9979065, 44.0645846], [17.9925318, 44.0642628], [17.9885007, 44.0629754], [17.9817823, 44.0607224], [17.9817823, 44.0661938], [17.983126, 44.0687684], [17.9844697, 44.0723082], [17.9867092, 44.0739172], [17.9929797, 44.0745607], [17.9979065, 44.0745607], [18.0032813, 44.0768132], [18.0082081, 44.078422], [18.0113434, 44.0793873], [18.0144787, 44.0793873], [18.0158223, 44.0781003], [18.0194055, 44.0768132], [18.0245115, 44.077406], [18.0248591, 44.0791749], [18.0235009, 44.0806994], [18.0233776, 44.0828299], [18.0192973, 44.0841983], [18.0144103, 44.0853142], [18.0117678, 44.0875345], [18.0094424, 44.0905645], [18.0050084, 44.0923843], [17.9944736, 44.0949055], [17.9915159, 44.0969335], [17.9891729, 44.0977742], [17.9864125, 44.0988023], [17.9845887, 44.0980485], [17.9822155, 44.0976891], [17.9797994, 44.0972044], [17.978197, 44.0975277], [17.9755105, 44.0965971], [17.9731005, 44.0948588], [17.971244, 44.0939199], [17.9694047, 44.093881], [17.9688088, 44.091945], [17.964223, 44.0908447], [17.962365, 44.0909865], [17.9616799, 44.0920941], [17.9613896, 44.0934853], [17.9608777, 44.0940239], [17.9602687, 44.0949472], [17.9597798, 44.0958336], [17.9591454, 44.0963736], [17.9587693, 44.0968124], [17.958429, 44.0990215], [17.958103, 44.0999566], [17.9581202, 44.1010643], [17.9571934, 44.1027619], [17.9534001, 44.1032111], [17.9516499, 44.1031232], [17.9489684, 44.102898], [17.9481975, 44.1028705], [17.9473237, 44.1030033], [17.9460051, 44.1033736], [17.9452312, 44.103437], [17.9441342, 44.103338], [17.9427209, 44.1030899], [17.9418912, 44.1030452], [17.9414873, 44.1030918], [17.9412139, 44.103269], [17.9407738, 44.1035704], [17.9405273, 44.1036597], [17.9402286, 44.1036681], [17.9398972, 44.1037255], [17.9374414, 44.1045952], [17.9373868, 44.1047431], [17.9371825, 44.1047963], [17.9369063, 44.1047413], [17.9365442, 44.1045324], [17.9361978, 44.1043733], [17.9345864, 44.1044064], [17.9360529, 44.1054123], [17.9365753, 44.1059499], [17.9354228, 44.1062853], [17.9342165, 44.10634], [17.9330741, 44.1069423], [17.9326762, 44.1076687], [17.9313171, 44.1081609], [17.9256787, 44.1089019], [17.922682, 44.1088077], [17.9196667, 44.1084976], [17.9200524, 44.1095606], [17.9202149, 44.1105957], [17.9201602, 44.1113918], [17.9201114, 44.1126912], [17.9208503, 44.1142338], [17.9213977, 44.115055], [17.9206233, 44.1152012], [17.9197974, 44.1171553], [17.9201593, 44.120732], [17.9207067, 44.1212247], [17.9222766, 44.1220369], [17.9241465, 44.1247624], [17.9228801, 44.1253972], [17.9203442, 44.126035], [17.9193948, 44.1266147], [17.9183275, 44.1273582], [17.9165726, 44.1285885], [17.9177454, 44.1304912], [17.9179195, 44.1324742], [17.9176674, 44.1337763], [17.9185187, 44.1340726], [17.919292, 44.1344061], [17.9201522, 44.1350155], [17.9207627, 44.1351208], [17.9212691, 44.1351514], [17.9217032, 44.1350888], [17.9220806, 44.1349775], [17.9225684, 44.1364833], [17.9217244, 44.1382135], [17.9220619, 44.1399738], [17.9188435, 44.1409111], [17.9164896, 44.1443398], [17.9118885, 44.1484556], [17.9134747, 44.1499537], [17.9135392, 44.1528464], [17.9064031, 44.1601942], [17.9032679, 44.1614795], [17.9010284, 44.1637286], [17.8956537, 44.1659777], [17.8934142, 44.1643712], [17.8902789, 44.163086], [17.8866958, 44.1611582], [17.8736253, 44.1622867], [17.8737102, 44.1613607], [17.8736072, 44.1608435], [17.8732896, 44.1600676], [17.873281, 44.1598398], [17.8733497, 44.1596181], [17.8734613, 44.1594149], [17.8734613, 44.1593226], [17.873324, 44.1591009], [17.8726459, 44.1584667], [17.8717876, 44.1579987], [17.8708692, 44.1576169], [17.8700023, 44.1572905], [17.8690925, 44.1570011], [17.8687578, 44.1567117], [17.8685518, 44.1565023], [17.8677621, 44.1561821], [17.8673158, 44.155788], [17.8670669, 44.1552338], [17.8669124, 44.1547289], [17.8669382, 44.1538606], [17.8669124, 44.153448], [17.866818, 44.1530169], [17.8670669, 44.1524627], [17.8670497, 44.1521794], [17.8671834, 44.1511063], [17.8672901, 44.1506583], [17.8676763, 44.1499932], [17.8680025, 44.1494327], [17.8680368, 44.1490201], [17.8682514, 44.1484473], [17.8684488, 44.1481702], [17.8687749, 44.1480778], [17.8690839, 44.1479854], [17.8700366, 44.1475482], [17.8703371, 44.1473265], [17.8703542, 44.1471848], [17.8702255, 44.1470431], [17.8700624, 44.1468276], [17.8701225, 44.1465073], [17.8701053, 44.1463226], [17.8701654, 44.146261], [17.8705259, 44.1455096], [17.8705259, 44.1452509], [17.8704401, 44.1449368], [17.8701654, 44.1446596], [17.8700967, 44.1444133], [17.8697877, 44.1442223], [17.8692899, 44.1441361], [17.8690839, 44.1438897], [17.8684402, 44.1435017], [17.8678963, 44.1432237], [17.8677264, 44.1428173], [17.8678057, 44.1424841], [17.8679982, 44.142224], [17.8679869, 44.1418339], [17.8681681, 44.1414845], [17.8682134, 44.1410537], [17.8680322, 44.1407123], [17.8675542, 44.1401143], [17.8674869, 44.1397068], [17.8675691, 44.1388328], [17.8675691, 44.1384896], [17.8670685, 44.1369184], [17.8665828, 44.1359799], [17.8663885, 44.1352828], [17.8664259, 44.1347841], [17.866665, 44.1342693], [17.8665679, 44.1312768], [17.8665977, 44.1308799], [17.8660672, 44.1309657], [17.8658132, 44.1310354], [17.8654321, 44.1312285], [17.8647596, 44.1316683], [17.8644234, 44.1319418], [17.8637584, 44.1324673], [17.8628692, 44.1336043], [17.8624134, 44.1338939], [17.861995, 44.1340387], [17.8608742, 44.1342585], [17.8593275, 44.1347197], [17.8589614, 44.134945], [17.858528, 44.1352292], [17.8580647, 44.135315], [17.8573997, 44.1353525], [17.8570037, 44.1354544], [17.8567497, 44.1357011], [17.8566675, 44.1360228], [17.8566301, 44.1362266], [17.8564284, 44.1363285], [17.8562042, 44.1363285], [17.8559726, 44.1362642], [17.8554869, 44.1363231], [17.8547247, 44.1361891], [17.8540299, 44.1360443], [17.853447, 44.1361086], [17.8528343, 44.1363124], [17.8522665, 44.1366234], [17.8517808, 44.1366824], [17.8510635, 44.1367843], [17.8506675, 44.1370632], [17.8501743, 44.1372562], [17.8496662, 44.1374332], [17.8493524, 44.1376798], [17.8492702, 44.1378568], [17.8492702, 44.1380284], [17.8494495, 44.1382697], [17.8495392, 44.1384199], [17.8499501, 44.1386075], [17.8505628, 44.1388971], [17.8508916, 44.1391438], [17.8509589, 44.1394977], [17.8507646, 44.139932], [17.850249, 44.1402698], [17.8495392, 44.1404468], [17.8490087, 44.1404843], [17.8484109, 44.1404736], [17.8478057, 44.1403342], [17.8473879, 44.140151], [17.8472303, 44.1400661], [17.8460647, 44.1392671], [17.8449962, 44.1385539], [17.8441818, 44.138259], [17.8429265, 44.1377871], [17.8415068, 44.1373259], [17.8407446, 44.1372026], [17.8402365, 44.1371972], [17.8388916, 44.1374761], [17.8381892, 44.1376584], [17.8377857, 44.1379158], [17.8373972, 44.1382429], [17.8369283, 44.1383691], [17.8360872, 44.1384184], [17.8356151, 44.1383198], [17.8349113, 44.1380549], [17.8343792, 44.1380057], [17.8338651, 44.1381117], [17.8334423, 44.1382564], [17.8329675, 44.1384058], [17.8325382, 44.1384385], [17.8321479, 44.1384501], [17.8309705, 44.1384851], [17.8303981, 44.1384665], [17.8298452, 44.1385365], [17.8291557, 44.1388119], [17.8286158, 44.1391994], [17.8283426, 44.1393768], [17.8280564, 44.1394421], [17.8275946, 44.1393581], [17.8273084, 44.13926], [17.8271002, 44.139092], [17.8265278, 44.1390733], [17.8258643, 44.1391247], [17.8253895, 44.1393207], [17.8243292, 44.1394841], [17.8233079, 44.1393674], [17.8228071, 44.1392507], [17.8223908, 44.1389006], [17.8220253, 44.1388017], [17.821552, 44.1388512], [17.8213105, 44.1389396], [17.8208717, 44.1384868], [17.820714, 44.138554], [17.8205267, 44.1382391], [17.8202752, 44.1379667], [17.819871, 44.1374714], [17.8196374, 44.1374016], [17.8192081, 44.1364679], [17.8183364, 44.1364959], [17.8182193, 44.1351234], [17.8184445, 44.1350394], [17.8186096, 44.1349553], [17.8186356, 44.1348433], [17.8180762, 44.1346005], [17.8173087, 44.1337975], [17.8165801, 44.1341337], [17.8161378, 44.1341897], [17.8159427, 44.1330786], [17.8157866, 44.132537], [17.8151491, 44.132425], [17.8148239, 44.1322849], [17.8151881, 44.131846], [17.8146677, 44.1316033], [17.815058, 44.1313792], [17.8155524, 44.130903], [17.814993, 44.1306882], [17.8148629, 44.1305295], [17.8146157, 44.130184], [17.8144986, 44.1298478], [17.8141604, 44.1292408], [17.8134188, 44.1291008], [17.8131456, 44.1289234], [17.8128464, 44.1287086], [17.8124301, 44.1285685], [17.8123521, 44.1282604], [17.812248, 44.1278588], [17.8118577, 44.1279335], [17.8114154, 44.1279615], [17.8113633, 44.1277561], [17.8111942, 44.1273732], [17.8104266, 44.1269063], [17.8094119, 44.126318], [17.8088915, 44.1259165], [17.8080849, 44.1255336], [17.8078898, 44.1252254], [17.8084492, 44.1249733], [17.8097762, 44.1250293], [17.8057562, 44.1220223], [17.8066359, 44.1197478], [17.8070312, 44.1187255], [17.8071613, 44.1179503], [17.8074345, 44.1174366], [17.8074215, 44.1168576], [17.8078638, 44.1161384], [17.808228, 44.1154379], [17.8087354, 44.1149149], [17.8088785, 44.1144852], [17.8084492, 44.1138874], [17.8085793, 44.1136539], [17.8089826, 44.1131309], [17.8089045, 44.1122342], [17.8084362, 44.1114496], [17.8091387, 44.1105996], [17.8088525, 44.1069379], [17.8098542, 44.1057328], [17.8093859, 44.1045745], [17.8124431, 44.1022483], [17.8133408, 44.1002584], [17.8152011, 44.0977452], [17.8159427, 44.0970258], [17.8159687, 44.0967362], [17.8155914, 44.0961756], [17.8151101, 44.0954842], [17.814967, 44.0946714], [17.8150971, 44.0935689], [17.8147068, 44.0934381], [17.8146027, 44.0932325], [17.8144856, 44.092812], [17.8142124, 44.0922794], [17.8141474, 44.091859], [17.8142514, 44.0914479], [17.8144986, 44.0909807], [17.8143815, 44.0904854], [17.8156565, 44.0891586], [17.8158646, 44.0885325], [17.8158126, 44.087841], [17.8160598, 44.0875233], [17.8167493, 44.0868599], [17.817751, 44.0862712], [17.8185446, 44.0858506], [17.8188698, 44.0850657], [17.819182, 44.084206], [17.8192991, 44.0835518], [17.81913, 44.0825332], [17.8184665, 44.08215], [17.8178941, 44.0814585], [17.8172046, 44.0794118], [17.8159817, 44.0784118], [17.8156825, 44.0772249], [17.8131066, 44.0751593], [17.8097762, 44.0700279], [17.804117, 44.06613], [17.7971439, 44.0643726], [17.7961032, 44.062905], [17.7948543, 44.0592777], [17.7941648, 44.0544535]]]}}]}