{"type": "FeatureCollection", "features": [{"type": "Feature", "properties": {"name": "Općina Bužim, Unsko-sanski kanton, Federacija Bosne i Hercegovine, Bosna i Hercegovina / Босна и Херцеговина", "source": "OpenStreetMap relation 2528174", "licence": "ODbL 1.0"}, "geometry": {"type": "Polygon", "coordinates": [[[15.9626651, 45.0673445], [15.9640489, 45.0618177], [15.9645914, 45.0613047], [15.9648582, 45.0608895], [15.9649108, 45.0602425], [15.9651287, 45.0598385], [15.9654081, 45.0598063], [15.9655357, 45.0597337], [15.9655981, 45.0595905], [15.9655056, 45.0595159], [15.9655177, 45.0593083], [15.9654566, 45.0592463], [15.9649474, 45.0593499], [15.9647924, 45.0593198], [15.9647939, 45.0592569], [15.9649584, 45.0590517], [15.9649549, 45.0588491], [15.9648844, 45.058763], [15.9647119, 45.0587199], [15.9646208, 45.0586192], [15.9646326, 45.0584604], [15.9647221, 45.0583888], [15.9646386, 45.0580076], [15.9647647, 45.0578585], [15.9650635, 45.057605], [15.9649764, 45.0574657], [15.9649988, 45.0573853], [15.9651017, 45.0573635], [15.9653202, 45.0573423], [15.9653849, 45.0572627], [15.9652452, 45.0571417], [15.9651762, 45.0569916], [15.9652621, 45.0569107], [15.9654737, 45.056859], [15.9655929, 45.0567352], [15.9656115, 45.0566054], [15.9653747, 45.0564671], [15.9653566, 45.0563501], [15.9655461, 45.0562091], [15.9657656, 45.0561797], [15.965965, 45.0560812], [15.9660498, 45.0561955], [15.9660585, 45.0563873], [15.9661301, 45.0564172], [15.9662631, 45.0563477], [15.9663471, 45.0562229], [15.9667697, 45.0561409], [15.9670088, 45.0561726], [15.9671844, 45.0561251], [15.9671937, 45.0559694], [15.967161, 45.0557966], [15.9673352, 45.05566], [15.9674111, 45.0556814], [15.9674982, 45.05579], [15.967647, 45.0557829], [15.967733, 45.055601], [15.9678088, 45.0555669], [15.9680551, 45.0555246], [15.9682833, 45.0553459], [15.9683264, 45.055151], [15.9684526, 45.0549728], [15.9686037, 45.054867], [15.9686576, 45.0547454], [15.9685211, 45.0545974], [15.9683108, 45.0544522], [15.9683509, 45.0542093], [15.968606, 45.05415], [15.9687748, 45.0540346], [15.9688481, 45.0539197], [15.9687088, 45.0537743], [15.9685177, 45.0537074], [15.9683461, 45.0536308], [15.9683724, 45.0535589], [15.9685501, 45.0535567], [15.9688577, 45.0534497], [15.9690522, 45.053353], [15.9690955, 45.0531955], [15.9692212, 45.053155], [15.9693313, 45.0530894], [15.9694469, 45.0528728], [15.9693057, 45.0526997], [15.9691246, 45.0525763], [15.9691754, 45.0524808], [15.9691993, 45.0521137], [15.9692799, 45.0520572], [15.9694497, 45.0521001], [15.9696583, 45.0520472], [15.9698557, 45.0519832], [15.9699144, 45.0518526], [15.9698098, 45.0515387], [15.9694363, 45.0513668], [15.969246, 45.0511112], [15.9692095, 45.0504212], [15.9692636, 45.0498046], [15.9691417, 45.0489109], [15.9692075, 45.0487204], [15.9698816, 45.0482565], [15.9705527, 45.0480064], [15.9707492, 45.0476087], [15.9706485, 45.0473386], [15.970649, 45.0471043], [15.9707556, 45.0467719], [15.9712157, 45.0466024], [15.9716229, 45.0463532], [15.971994, 45.0463103], [15.97196, 45.0461511], [15.9720324, 45.0460111], [15.9722364, 45.0459849], [15.9724803, 45.0460997], [15.9726669, 45.0460764], [15.9726378, 45.0459302], [15.9727828, 45.0458804], [15.9730325, 45.0459271], [15.9731138, 45.045884], [15.973076, 45.0457905], [15.972966, 45.0456909], [15.9730931, 45.0454849], [15.9733128, 45.0454439], [15.9735396, 45.0454688], [15.9736677, 45.0453559], [15.9738846, 45.0448814], [15.9741706, 45.0444975], [15.9742194, 45.0444015], [15.9743372, 45.0443472], [15.9746203, 45.0443377], [15.9750341, 45.0441103], [15.9753537, 45.043861], [15.9755294, 45.0437667], [15.9757236, 45.0434998], [15.9757814, 45.0433312], [15.9759605, 45.0431175], [15.976281, 45.0429205], [15.9763482, 45.0427309], [15.9767464, 45.0424886], [15.976855, 45.0424507], [15.977007, 45.0424709], [15.9771354, 45.0424529], [15.9772949, 45.0423871], [15.9772251, 45.0421198], [15.9772502, 45.0418257], [15.977576, 45.0417275], [15.9784111, 45.0416313], [15.9788927, 45.0414733], [15.9790244, 45.0413516], [15.9791363, 45.0413422], [15.9792268, 45.0414003], [15.9792434, 45.041456], [15.9793609, 45.0414803], [15.9795021, 45.0414031], [15.9796478, 45.0413941], [15.9796913, 45.0414942], [15.9797903, 45.0415253], [15.979885, 45.0415352], [15.9800495, 45.0414874], [15.9801032, 45.0413463], [15.9805484, 45.0410683], [15.9806673, 45.040917], [15.9807877, 45.0408661], [15.9810007, 45.0409632], [15.9811619, 45.0409637], [15.9812753, 45.0408735], [15.9814599, 45.0407441], [15.9816706, 45.0407269], [15.9818813, 45.0406961], [15.9819431, 45.0406004], [15.9818937, 45.0404548], [15.981867, 45.0403806], [15.9821986, 45.0402261], [15.98234, 45.0401846], [15.9823725, 45.0401056], [15.9823162, 45.0399537], [15.9823496, 45.0398937], [15.9824453, 45.039832], [15.982634, 45.0397641], [15.982689, 45.0397037], [15.9826526, 45.0394983], [15.9825509, 45.03923], [15.9825596, 45.0390377], [15.9827162, 45.0389348], [15.9827515, 45.0387134], [15.9828857, 45.0386414], [15.9828811, 45.0384083], [15.9829717, 45.0383059], [15.9831352, 45.0382905], [15.9832525, 45.0382249], [15.9833036, 45.0380364], [15.9834226, 45.0379791], [15.9835979, 45.0379504], [15.9836445, 45.0379044], [15.9836416, 45.0378365], [15.9834795, 45.0376622], [15.9834504, 45.0375956], [15.9834665, 45.037501], [15.9834591, 45.0373938], [15.9834005, 45.0373355], [15.9832045, 45.0372983], [15.9830158, 45.0372537], [15.9829801, 45.0372091], [15.9829871, 45.0371713], [15.9831255, 45.0370816], [15.9831492, 45.037021], [15.9831445, 45.0369524], [15.9831902, 45.0369011], [15.9832746, 45.0368773], [15.9833148, 45.0368404], [15.9832436, 45.0367886], [15.983198, 45.0367083], [15.9832367, 45.0366452], [15.9833832, 45.036664], [15.9834354, 45.0366453], [15.9834311, 45.0365709], [15.983339, 45.036471], [15.9833273, 45.0364036], [15.9833635, 45.03633], [15.9834521, 45.0362992], [15.9836426, 45.0363723], [15.9837053, 45.036374], [15.9837917, 45.0363267], [15.9837503, 45.036102], [15.9837713, 45.0360199], [15.9837125, 45.0359431], [15.9837413, 45.0358172], [15.9838939, 45.0355896], [15.984029, 45.0354881], [15.9841532, 45.0353164], [15.9843937, 45.035237], [15.9844871, 45.0351804], [15.9845121, 45.0351091], [15.9843846, 45.0349651], [15.9842844, 45.0348784], [15.984296, 45.0348199], [15.984372, 45.0346997], [15.9856008, 45.0339405], [15.98585, 45.0337416], [15.9859364, 45.0334628], [15.9859844, 45.0333827], [15.9861439, 45.0333624], [15.9865042, 45.0334315], [15.9865984, 45.0334121], [15.9867606, 45.0333182], [15.9868191, 45.0331731], [15.9868989, 45.0331264], [15.9870116, 45.033128], [15.9871211, 45.0331632], [15.9872077, 45.0331438], [15.9873494, 45.0330527], [15.9874937, 45.0330601], [15.9876368, 45.0331379], [15.9877272, 45.0331073], [15.9877719, 45.0329994], [15.9877052, 45.0329073], [15.9877084, 45.0328275], [15.9878249, 45.032723], [15.9880088, 45.0325956], [15.9881343, 45.0325499], [15.9883334, 45.0323631], [15.9885103, 45.0322663], [15.988655, 45.0321009], [15.9887969, 45.031986], [15.9889334, 45.031938], [15.9889852, 45.0319611], [15.9890532, 45.0320339], [15.9891676, 45.0320419], [15.9893639, 45.0319928], [15.9896212, 45.031952], [15.9896152, 45.0318092], [15.9895213, 45.0312635], [15.9894107, 45.0310181], [15.9892618, 45.0308775], [15.9889001, 45.0302285], [15.9887372, 45.0296859], [15.9887029, 45.0293193], [15.9887606, 45.0291439], [15.9887158, 45.0286946], [15.988751, 45.0278888], [15.9892191, 45.0275018], [15.9892114, 45.0272989], [15.9891236, 45.0269256], [15.9893753, 45.0266055], [15.989646, 45.025938], [15.9892592, 45.0259093], [15.989248, 45.0256031], [15.9891177, 45.0254802], [15.9892712, 45.0254364], [15.9896635, 45.0254134], [15.9902028, 45.025326], [15.9904372, 45.0252546], [15.9906587, 45.0251274], [15.9907025, 45.0250206], [15.990388, 45.0249462], [15.9900725, 45.0248551], [15.9894518, 45.0245258], [15.9892929, 45.0243438], [15.9891802, 45.0241186], [15.9891269, 45.0238281], [15.9890567, 45.023374], [15.9889251, 45.0231727], [15.9888852, 45.0229278], [15.9887372, 45.0225697], [15.9886646, 45.0222849], [15.9887944, 45.0222013], [15.9889787, 45.0219342], [15.9894083, 45.0217551], [15.9897911, 45.0214619], [15.9901943, 45.0211987], [15.9901893, 45.0209921], [15.9904122, 45.0208722], [15.9907495, 45.0207535], [15.990938, 45.0205079], [15.9912198, 45.0202368], [15.9913849, 45.0199581], [15.9916755, 45.0200155], [15.9917651, 45.0198877], [15.9918638, 45.0198391], [15.9919338, 45.019899], [15.9920771, 45.0200109], [15.9922607, 45.0200279], [15.9925386, 45.0199372], [15.9928838, 45.0196211], [15.9931386, 45.0191114], [15.9934818, 45.0188752], [15.9941109, 45.0185745], [15.9946066, 45.0185927], [15.9949905, 45.0185017], [15.9952779, 45.0181073], [15.9955933, 45.017895], [15.9962232, 45.0177281], [15.9965411, 45.0174824], [15.996981, 45.0171457], [15.9974214, 45.0169601], [15.997838, 45.0167581], [15.998208, 45.0164719], [15.9985568, 45.0165231], [15.9992316, 45.0163231], [15.9997346, 45.0163538], [16.0001222, 45.0162905], [16.0002689, 45.0162106], [16.0004599, 45.0161066], [16.0009284, 45.015577], [16.0011274, 45.0155304], [16.0014184, 45.0155304], [16.0017015, 45.015452], [16.0017445, 45.0152613], [16.0020488, 45.0151355], [16.002529, 45.0149727], [16.0030212, 45.0146433], [16.0036484, 45.0140482], [16.0041067, 45.0136286], [16.0050225, 45.0134367], [16.0052655, 45.0132933], [16.0055849, 45.0131558], [16.0058567, 45.0130364], [16.0061428, 45.0124009], [16.006129, 45.0120886], [16.0063692, 45.0118422], [16.0066926, 45.0117291], [16.0072921, 45.0116298], [16.0078224, 45.0114469], [16.0080972, 45.0111897], [16.0081909, 45.0108907], [16.0080358, 45.0106323], [16.0076732, 45.0105694], [16.0074863, 45.0104464], [16.0074403, 45.0101741], [16.0076423, 45.0100416], [16.0082752, 45.0098225], [16.008515, 45.0096767], [16.0087384, 45.0094826], [16.0090165, 45.0095919], [16.0094886, 45.0093389], [16.0097802, 45.0089184], [16.0100884, 45.0088207], [16.0101771, 45.0085774], [16.0104896, 45.0084157], [16.0109046, 45.0080335], [16.0114294, 45.0076175], [16.0117709, 45.0073464], [16.0120532, 45.0073173], [16.0124533, 45.0073788], [16.0127431, 45.0073109], [16.0133865, 45.0070568], [16.0140123, 45.006834], [16.0144192, 45.0068124], [16.0145914, 45.0067769], [16.0147609, 45.0065447], [16.0148401, 45.0062867], [16.0155111, 45.0056105], [16.0157411, 45.0054427], [16.0159963, 45.0050449], [16.0162732, 45.0048267], [16.0165434, 45.0045519], [16.0171429, 45.0040925], [16.0172861, 45.0037853], [16.0176608, 45.0033578], [16.0179791, 45.0031147], [16.0181947, 45.0028554], [16.0182696, 45.0024742], [16.0185068, 45.0016329], [16.018371, 45.0014908], [16.0182788, 45.0013649], [16.0183794, 45.0010798], [16.0183798, 44.9999976], [16.0184153, 44.99917], [16.0182587, 44.9989952], [16.0181132, 44.9987562], [16.0180393, 44.9979718], [16.0178824, 44.9975575], [16.0179397, 44.9973998], [16.0181091, 44.9972205], [16.0181567, 44.9970513], [16.0181163, 44.9964993], [16.0181069, 44.9962031], [16.017781, 44.995698], [16.017663, 44.9954002], [16.0176682, 44.9949518], [16.0177317, 44.9944695], [16.0176141, 44.9939325], [16.0172875, 44.993401], [16.0169864, 44.9930128], [16.016769, 44.9927435], [16.016789, 44.9925516], [16.0168513, 44.9923395], [16.0168859, 44.9921102], [16.0167503, 44.9918915], [16.0163905, 44.9915355], [16.0162406, 44.9912169], [16.0161927, 44.9910272], [16.0163439, 44.9905206], [16.0169426, 44.9906805], [16.0172964, 44.990678], [16.0176299, 44.9907085], [16.0178466, 44.9908794], [16.0181435, 44.9911081], [16.018171, 44.9908557], [16.0177727, 44.9905971], [16.0176204, 44.9904884], [16.0172552, 44.9904369], [16.0170621, 44.9903286], [16.0168804, 44.9901549], [16.0168047, 44.9899895], [16.0166517, 44.98989], [16.0173109, 44.9895411], [16.0177039, 44.9888371], [16.0183305, 44.9877632], [16.0195699, 44.9872066], [16.0215844, 44.9866673], [16.0230178, 44.9866317], [16.0239525, 44.9865033], [16.0242483, 44.9862494], [16.0248037, 44.9856424], [16.0255005, 44.9851459], [16.025988, 44.984882], [16.0270392, 44.9841407], [16.0272137, 44.9839658], [16.02738, 44.9839156], [16.0275068, 44.9838281], [16.0280749, 44.9835063], [16.0282646, 44.9833471], [16.028496, 44.9831517], [16.028657, 44.9831048], [16.0288398, 44.9830894], [16.0288554, 44.9830255], [16.0288046, 44.9829173], [16.0287311, 44.9827983], [16.0287434, 44.9826136], [16.0288968, 44.982726], [16.0290446, 44.9830365], [16.0292179, 44.9832476], [16.0293912, 44.9833303], [16.0299663, 44.9833948], [16.0303818, 44.9833861], [16.0307539, 44.9832634], [16.0309262, 44.9832556], [16.0312637, 44.9832924], [16.0314786, 44.9832785], [16.0326582, 44.9831565], [16.0335983, 44.983241], [16.0339665, 44.9833311], [16.0348506, 44.9835631], [16.0344761, 44.9841108], [16.0342776, 44.9844995], [16.0342162, 44.9848351], [16.0341461, 44.9849529], [16.0336713, 44.985298], [16.033093, 44.9858269], [16.032928, 44.986044], [16.0327837, 44.9863213], [16.0327786, 44.9868097], [16.0329837, 44.9872405], [16.0330713, 44.9875967], [16.0330077, 44.9878233], [16.0329541, 44.9881412], [16.033025, 44.9886241], [16.03327, 44.9891443], [16.0333355, 44.9896093], [16.0332887, 44.9898348], [16.032941, 44.9903767], [16.0326631, 44.9925995], [16.0326631, 44.9969656], [16.0343469, 44.9981563], [16.0360307, 45.0001408], [16.0371533, 45.0013314], [16.0393984, 45.0033157], [16.0399597, 45.0056968], [16.042766, 45.007681], [16.0450111, 45.0104587], [16.0450111, 45.012046], [16.0444499, 45.0152203], [16.0444499, 45.0187911], [16.0450111, 45.0203781], [16.0478175, 45.0227585], [16.0495013, 45.0243454], [16.0511852, 45.0251388], [16.0556754, 45.0279157], [16.0596043, 45.0295024], [16.0640866, 45.0292785], [16.065803, 45.0285199], [16.0669164, 45.0276349], [16.0672945, 45.0275239], [16.0676131, 45.0273809], [16.0683437, 45.0272609], [16.0686941, 45.0271063], [16.0703951, 45.0266755], [16.0735434, 45.0252436], [16.07565, 45.024329], [16.080163, 45.0236098], [16.0842294, 45.0219773], [16.0866943, 45.0211664], [16.0910692, 45.0196136], [16.0931191, 45.0174863], [16.0941776, 45.0138033], [16.0977478, 45.0126337], [16.1012191, 45.0130015], [16.1050676, 45.0128395], [16.1101191, 45.012046], [16.1129255, 45.0144267], [16.1134868, 45.0168073], [16.1146093, 45.0183944], [16.1168544, 45.0207749], [16.1174157, 45.0223618], [16.1174157, 45.0239487], [16.1202221, 45.0263289], [16.1202221, 45.0322791], [16.1230285, 45.0338657], [16.1230285, 45.037832], [16.124151, 45.0390219], [16.1252736, 45.0425913], [16.1252736, 45.0445742], [16.1258348, 45.0461604], [16.1286412, 45.0481432], [16.1308863, 45.0493329], [16.1331314, 45.051712], [16.1331483, 45.051733], [16.1353765, 45.0544876], [16.1387442, 45.0568666], [16.1426731, 45.0584525], [16.1460408, 45.0584525], [16.1477246, 45.059642], [16.150531, 45.0612278], [16.1538986, 45.0620207], [16.1550212, 45.0632101], [16.1578275, 45.0655887], [16.1617565, 45.0683636], [16.1645629, 45.0695528], [16.1679305, 45.0719312], [16.1701756, 45.0727239], [16.1705755, 45.0729211], [16.1698974, 45.0730363], [16.168335, 45.0734434], [16.1667811, 45.0739486], [16.1661861, 45.0742732], [16.1655953, 45.0746996], [16.1650175, 45.0750984], [16.1645011, 45.0753247], [16.1640732, 45.0756025], [16.1637629, 45.0760132], [16.1632136, 45.0771639], [16.163108, 45.077362], [16.1629751, 45.0776002], [16.1625211, 45.0778211], [16.1620351, 45.0780592], [16.1604246, 45.0788484], [16.1602642, 45.078927], [16.1598187, 45.0792775], [16.1593243, 45.0797354], [16.1588179, 45.0802046], [16.1583497, 45.0806908], [16.1578172, 45.0810927], [16.1574796, 45.081344], [16.1566667, 45.0819332], [16.1566328, 45.0819744], [16.1561986, 45.0823006], [16.1555265, 45.0828055], [16.1548196, 45.0830745], [16.1543322, 45.0831231], [16.1531571, 45.0830887], [16.1523229, 45.0830773], [16.1515119, 45.0832129], [16.1507269, 45.0833361], [16.1498996, 45.0833879], [16.1490389, 45.0833928], [16.1486854, 45.0834074], [16.1482906, 45.0835257], [16.1475676, 45.0837671], [16.1467529, 45.0840233], [16.1461056, 45.0843863], [16.1455134, 45.084785], [16.1447927, 45.0850605], [16.1440766, 45.0853684], [16.1434293, 45.0857444], [16.1429014, 45.0861463], [16.1424056, 45.0866422], [16.1420751, 45.0871672], [16.14174, 45.0877409], [16.1412167, 45.0881428], [16.1405923, 45.0885382], [16.1400874, 45.088966], [16.1400045, 45.0890966], [16.1393983, 45.0899283], [16.1388409, 45.0903047], [16.1386232, 45.0908198], [16.1368724, 45.0901343], [16.1352615, 45.0890817], [16.1347077, 45.0886456], [16.1327635, 45.0872879], [16.1319358, 45.0867564], [16.1317028, 45.0866069], [16.1306128, 45.0870688], [16.1296814, 45.0874634], [16.1280212, 45.0886098], [16.1261672, 45.0905005], [16.1256461, 45.091279], [16.123986, 45.0923826], [16.1222741, 45.0927634], [16.121747, 45.09305], [16.1201221, 45.0934041], [16.1192802, 45.0934152], [16.1174141, 45.092611], [16.116481, 45.0926795], [16.1142385, 45.0932464], [16.1128425, 45.0927895], [16.1116428, 45.0924987], [16.1089163, 45.092704], [16.1078378, 45.0932686], [16.107019, 45.0940675], [16.1063312, 45.0947386], [16.1057001, 45.0953248], [16.1051591, 45.0958272], [16.1018614, 45.0950869], [16.099055, 45.0946907], [16.0945648, 45.0931057], [16.0917585, 45.0927095], [16.0895134, 45.090332], [16.0878295, 45.0899358], [16.0794104, 45.0891432], [16.0771653, 45.0899358], [16.0760427, 45.0907283], [16.0754815, 45.0927095], [16.0737976, 45.0942944], [16.0732364, 45.097068], [16.0732364, 45.0998414], [16.0743589, 45.1002375], [16.0743589, 45.1014261], [16.0732364, 45.1030108], [16.0721138, 45.1049916], [16.07043, 45.1057839], [16.0693074, 45.1065762], [16.0681849, 45.1069723], [16.0676236, 45.1073685], [16.0636947, 45.1077646], [16.0597657, 45.1077646], [16.0558368, 45.1073685], [16.0524692, 45.1065762], [16.0485402, 45.1065762], [16.0457339, 45.1073685], [16.0446113, 45.1097452], [16.0451726, 45.1113297], [16.0462951, 45.1141024], [16.0434887, 45.1180632], [16.0389985, 45.1228157], [16.0373147, 45.1247958], [16.0367534, 45.1259839], [16.0328245, 45.1271719], [16.0300181, 45.1263799], [16.0260892, 45.1263799], [16.0187926, 45.1287559], [16.0171088, 45.1303398], [16.015425, 45.1303398], [16.011496, 45.1283599], [16.0092509, 45.1271719], [16.0047607, 45.1255879], [16.0008318, 45.1247958], [15.9997092, 45.1263799], [15.9974641, 45.1275679], [15.9957803, 45.1267759], [15.9929739, 45.1255879], [15.9901676, 45.1240038], [15.9912901, 45.1216276], [15.9912901, 45.1160828], [15.9901676, 45.1117258], [15.9884837, 45.1093491], [15.9879225, 45.1081607], [15.9823097, 45.1065762], [15.9800646, 45.103407], [15.9803278, 45.0974615], [15.9806259, 45.0907283], [15.9783808, 45.0879544], [15.9761357, 45.0835953], [15.9744518, 45.0776504], [15.972768, 45.0756687], [15.9660327, 45.0709122], [15.9626651, 45.0673445]]]}}]}