{"type": "FeatureCollection", "features": [{"type": "Feature", "properties": {"name": "Grad Čapljina, Hercegovačko-neretvanska županija (kanton), Federacija Bosne i Hercegovine, Bosna i Hercegovina / Босна и Херцеговина", "source": "OpenStreetMap relation 2528176", "licence": "ODbL 1.0"}, "geometry": {"type": "Polygon", "coordinates": [[[17.6212764, 43.1133745], [17.621609, 43.1132335], [17.6235509, 43.1123093], [17.6242375, 43.1120509], [17.6244306, 43.1118629], [17.6246989, 43.1116044], [17.6252568, 43.1109857], [17.6254821, 43.110594], [17.6264584, 43.1098421], [17.6274347, 43.1093252], [17.6273596, 43.1090902], [17.6272738, 43.1088552], [17.627188, 43.1086046], [17.6269841, 43.1082129], [17.6269627, 43.1079153], [17.6271343, 43.1075941], [17.62766, 43.1073043], [17.6281428, 43.1069362], [17.6285505, 43.1067404], [17.6290226, 43.106521], [17.6293552, 43.1063017], [17.6302457, 43.1058082], [17.6308143, 43.1053226], [17.6312435, 43.1049074], [17.6314044, 43.1044923], [17.6313615, 43.1042494], [17.6274133, 43.1035131], [17.6270592, 43.1002152], [17.6278279, 43.0953586], [17.6281523, 43.0953079], [17.6283655, 43.0952096], [17.6290188, 43.0948637], [17.6296823, 43.0945276], [17.6303312, 43.094201], [17.6309896, 43.0938692], [17.6316786, 43.0935913], [17.632426, 43.0933658], [17.6331602, 43.0931556], [17.6339358, 43.0929917], [17.6347222, 43.0928545], [17.635455, 43.0926522], [17.6359877, 43.0924608], [17.6360661, 43.0922846], [17.6363255, 43.0920199], [17.6366049, 43.0918383], [17.6372018, 43.0914716], [17.6378256, 43.0911137], [17.6384602, 43.0907447], [17.6390753, 43.0903753], [17.6396978, 43.0900394], [17.6403893, 43.0897183], [17.6408451, 43.0895135], [17.6409262, 43.089326], [17.6412662, 43.0887856], [17.6415824, 43.088254], [17.6423499, 43.0868649], [17.6440291, 43.0839398], [17.6446626, 43.0831347], [17.6479427, 43.076905], [17.6486998, 43.0756219], [17.6492829, 43.0745462], [17.6495939, 43.0740079], [17.6497872, 43.0737055], [17.6496428, 43.0734307], [17.6497659, 43.0727633], [17.6501331, 43.0720162], [17.6502758, 43.0717331], [17.6505533, 43.0713118], [17.6506832, 43.0710935], [17.6507242, 43.0709268], [17.6509292, 43.0700375], [17.6510824, 43.0697828], [17.6512013, 43.0695796], [17.6514812, 43.0692816], [17.651787, 43.0690327], [17.6522199, 43.0687147], [17.6523521, 43.0685869], [17.6523984, 43.0684906], [17.6526811, 43.0677731], [17.6531041, 43.0665084], [17.6531643, 43.0663125], [17.6533332, 43.0658315], [17.6535156, 43.0653906], [17.6539885, 43.0646225], [17.654046, 43.0645289], [17.6545105, 43.063748], [17.6548061, 43.0632507], [17.6551299, 43.0626822], [17.6554227, 43.0621681], [17.6555482, 43.0619478], [17.6556715, 43.0617312], [17.6558308, 43.0614516], [17.6561448, 43.0609149], [17.6564141, 43.0604485], [17.6565543, 43.0602044], [17.6567108, 43.0599379], [17.6570574, 43.0593573], [17.657226, 43.0590927], [17.6573812, 43.0588522], [17.6575177, 43.0586433], [17.6596443, 43.0552525], [17.6604821, 43.0534977], [17.660838, 43.052823], [17.6608744, 43.0527119], [17.6608759, 43.0526519], [17.6608469, 43.0526054], [17.6607999, 43.0525317], [17.660621, 43.0523602], [17.6608831, 43.0520623], [17.6615688, 43.0509823], [17.6619405, 43.0502914], [17.6622131, 43.0496255], [17.6627791, 43.0485484], [17.6635023, 43.0470903], [17.6648821, 43.0439946], [17.6657574, 43.0426328], [17.6676378, 43.0396599], [17.6683051, 43.0387382], [17.6685626, 43.03824], [17.6702814, 43.0355889], [17.6715993, 43.0336076], [17.6729888, 43.0314282], [17.6741349, 43.0298278], [17.6748669, 43.0287006], [17.676549, 43.0261557], [17.6773644, 43.0263046], [17.6770826, 43.0256468], [17.6776655, 43.0251502], [17.6793922, 43.0236724], [17.680259, 43.0227671], [17.6812224, 43.0212413], [17.6815151, 43.0206868], [17.6819458, 43.020253], [17.6822203, 43.0197361], [17.6827865, 43.0192892], [17.6831846, 43.0193839], [17.6835146, 43.0190542], [17.6836386, 43.0186783], [17.6838578, 43.0182468], [17.6838603, 43.0175648], [17.6841853, 43.0171083], [17.6843889, 43.0158942], [17.6846528, 43.0144795], [17.6850899, 43.0118474], [17.6852607, 43.0106135], [17.6855356, 43.010231], [17.6871163, 43.0084668], [17.6882158, 43.0072639], [17.6895058, 43.0058506], [17.6927757, 43.0021875], [17.6943715, 43.0004307], [17.6963124, 43.0025376], [17.6994875, 43.0045693], [17.7018688, 43.0066009], [17.704647, 43.0083423], [17.7070283, 43.009213], [17.711394, 43.0089227], [17.7133784, 43.0074716], [17.7169503, 43.0068912], [17.7189347, 43.0074716], [17.721316, 43.0080521], [17.721316, 43.009213], [17.7209191, 43.0109542], [17.7181409, 43.0118249], [17.7165534, 43.0124053], [17.7129815, 43.0141465], [17.7129815, 43.0158876], [17.711394, 43.0170483], [17.7094095, 43.0173385], [17.7074251, 43.0184992], [17.7062345, 43.0205304], [17.707822, 43.0211107], [17.7094095, 43.0228517], [17.7098064, 43.0243024], [17.7205222, 43.0243024], [17.7221098, 43.0237221], [17.7240942, 43.0214009], [17.7260786, 43.0219812], [17.7292536, 43.0208206], [17.7332225, 43.0155974], [17.7443351, 43.0112444], [17.7471133, 43.0126955], [17.7498915, 43.0126955], [17.7538603, 43.0129857], [17.7574322, 43.0132759], [17.7606073, 43.0126955], [17.7641792, 43.0112444], [17.7661636, 43.0097934], [17.7689418, 43.0080521], [17.7709262, 43.0068912], [17.7729106, 43.0060205], [17.7768795, 43.0039888], [17.7804514, 43.0039888], [17.7828327, 43.0051498], [17.7860077, 43.0063107], [17.7887859, 43.0068912], [17.7923578, 43.0086325], [17.7947391, 43.0074716], [17.7971204, 43.0060205], [17.7995017, 43.0048595], [17.8006924, 43.0036986], [17.8026768, 43.0028278], [17.8058518, 43.0019571], [17.80863, 43.0007961], [17.8118051, 42.9987642], [17.8141863, 42.9973129], [17.8169645, 42.9958615], [17.8193458, 42.9958615], [17.8237115, 42.9973129], [17.8264897, 42.9981837], [17.8332367, 42.9978934], [17.8360148, 42.9990545], [17.8399837, 43.0005058], [17.8415712, 43.0019571], [17.8419681, 43.0034083], [17.842365, 43.00544], [17.8447462, 43.0057303], [17.8459369, 43.0066009], [17.8460588, 43.0071357], [17.8463338, 43.0083423], [17.8443494, 43.009213], [17.8407774, 43.0097934], [17.8368086, 43.0118249], [17.8364117, 43.0121151], [17.8344273, 43.0132759], [17.8308554, 43.015017], [17.8284741, 43.0161778], [17.8225209, 43.018209], [17.818552, 43.0199501], [17.8149801, 43.0219812], [17.8114082, 43.023432], [17.8046612, 43.0237221], [17.7991048, 43.0240123], [17.7955329, 43.0251728], [17.7923578, 43.0263334], [17.7887859, 43.0272038], [17.7860077, 43.0280742], [17.7824358, 43.0292347], [17.7796576, 43.0306853], [17.7768795, 43.0341666], [17.7744982, 43.0350369], [17.7721169, 43.0356171], [17.7681481, 43.0382279], [17.7657668, 43.0411286], [17.7637824, 43.0425789], [17.7602104, 43.0448993], [17.7566385, 43.0469296], [17.7530665, 43.0495399], [17.7510821, 43.0512801], [17.7528237, 43.0517696], [17.7562416, 43.0527302], [17.7602104, 43.0550502], [17.7617979, 43.0562102], [17.7633855, 43.0538902], [17.7633855, 43.0512801], [17.7665605, 43.05041], [17.7689418, 43.0483798], [17.77172, 43.0483798], [17.7737044, 43.0480898], [17.7812452, 43.0463496], [17.7891828, 43.0451894], [17.791961, 43.0446093], [17.795136, 43.0437391], [17.7979142, 43.042869], [17.7998986, 43.0411286], [17.8022799, 43.0399683], [17.8074394, 43.0399683], [17.8102175, 43.0405485], [17.8114082, 43.042869], [17.8123019, 43.0444365], [17.8133926, 43.0463496], [17.8157739, 43.0495399], [17.8201396, 43.0536002], [17.8205365, 43.0565002], [17.8181552, 43.0573702], [17.8157739, 43.0579501], [17.8118051, 43.0608499], [17.8110113, 43.0620098], [17.8094238, 43.0651994], [17.8082331, 43.067519], [17.8026768, 43.0733175], [17.8002955, 43.0756368], [17.7934616, 43.0801188], [17.794134, 43.0809137], [17.7942896, 43.081137], [17.7943486, 43.0811644], [17.7945471, 43.0815954], [17.7947509, 43.0818579], [17.7950191, 43.0820656], [17.7951693, 43.0822027], [17.7952015, 43.0823124], [17.7952176, 43.0824025], [17.7952981, 43.0827669], [17.7954215, 43.0829158], [17.7955502, 43.0830176], [17.7956468, 43.0831391], [17.7957058, 43.0832449], [17.7957648, 43.0833468], [17.7958775, 43.0838169], [17.7959472, 43.0839384], [17.7960813, 43.084146], [17.7961081, 43.084244], [17.7961081, 43.0843654], [17.7960974, 43.0844908], [17.7960169, 43.0848277], [17.7959365, 43.0849022], [17.7964032, 43.0851216], [17.796607, 43.0852156], [17.7966499, 43.08529], [17.796827, 43.0856348], [17.7969021, 43.0859913], [17.7969181, 43.0862617], [17.7969021, 43.0865241], [17.7969557, 43.0867749], [17.7970469, 43.0869747], [17.7971327, 43.0871236], [17.7976799, 43.0875976], [17.7985865, 43.0884007], [17.7988172, 43.0885809], [17.7990264, 43.0887298], [17.7997881, 43.08929], [17.8000671, 43.0893801], [17.8003353, 43.0894624], [17.8005284, 43.0895407], [17.8005981, 43.0895799], [17.8007913, 43.0897014], [17.8010595, 43.0898855], [17.8012311, 43.0898659], [17.8014082, 43.0897562], [17.8018749, 43.0892939], [17.8020626, 43.0891529], [17.8022182, 43.0890471], [17.803055, 43.0897014], [17.804026, 43.0901284], [17.804305, 43.0902028], [17.8046134, 43.0902949], [17.8049004, 43.0903928], [17.8050292, 43.0904555], [17.8051418, 43.0905005], [17.8052223, 43.0905299], [17.8053054, 43.0905652], [17.8054771, 43.0906533], [17.8056139, 43.0906945], [17.8057882, 43.0907591], [17.8058606, 43.09081], [17.805925, 43.0908355], [17.8059974, 43.0908649], [17.8060591, 43.090904], [17.8060967, 43.0909275], [17.8067619, 43.0912762], [17.8071642, 43.0914407], [17.8075236, 43.0916092], [17.8077328, 43.0916797], [17.8082532, 43.0919226], [17.8092349, 43.0922751], [17.8096425, 43.0923496], [17.8098571, 43.0924123], [17.8100717, 43.0924867], [17.8107798, 43.0928197], [17.811327, 43.0932271], [17.8115415, 43.0934543], [17.8116918, 43.0936423], [17.8118312, 43.0938617], [17.8119492, 43.0940262], [17.8130972, 43.094081], [17.8133547, 43.0941829], [17.8134835, 43.0942612], [17.8141004, 43.0947156], [17.8145242, 43.0949311], [17.8146636, 43.0949467], [17.8147602, 43.0949467], [17.814846, 43.0949702], [17.8149748, 43.0949781], [17.8151357, 43.0951269], [17.8153503, 43.0954677], [17.8154951, 43.0956714], [17.8155917, 43.0958477], [17.8156668, 43.095977], [17.8160047, 43.0963295], [17.8161228, 43.0964705], [17.816214, 43.0966194], [17.8162944, 43.096733], [17.816509, 43.0970738], [17.8167129, 43.0974067], [17.8164446, 43.097536], [17.8158492, 43.0977436], [17.815125, 43.0980609], [17.8146851, 43.098335], [17.8138965, 43.0988991], [17.8134727, 43.0992555], [17.8131777, 43.0994905], [17.8129363, 43.0999332], [17.812475, 43.1008262], [17.8121799, 43.1013746], [17.8118849, 43.1017036], [17.8114209, 43.1022147], [17.8111982, 43.1023577], [17.8109434, 43.1024889], [17.81115, 43.1027905], [17.8111929, 43.1029197], [17.8112331, 43.1031175], [17.8112197, 43.1032272], [17.8111982, 43.1032879], [17.8110266, 43.1034328], [17.8144813, 43.104786], [17.8160745, 43.1062508], [17.8176811, 43.1074434], [17.8177536, 43.1075197], [17.8179359, 43.1077449], [17.8180808, 43.1079309], [17.8182176, 43.1081209], [17.8182498, 43.1082932], [17.8182819, 43.1084499], [17.8183088, 43.1085282], [17.8183463, 43.1086144], [17.8185153, 43.1088493], [17.8187594, 43.1092331], [17.8189927, 43.109331], [17.819218, 43.1093819], [17.8193226, 43.1094211], [17.8193682, 43.1094681], [17.819379, 43.1095366], [17.819387, 43.1096071], [17.8194299, 43.1097814], [17.819505, 43.1099713], [17.8196606, 43.1103669], [17.8198323, 43.1108877], [17.8198618, 43.1109328], [17.8198868, 43.1109751], [17.8198804, 43.1110823], [17.8199038, 43.1111833], [17.8199784, 43.1113139], [17.820055, 43.1114134], [17.8201338, 43.1115206], [17.8202645, 43.1116377], [17.8204842, 43.111803], [17.8206126, 43.1118992], [17.8208424, 43.1120793], [17.8209539, 43.1121656], [17.8210249, 43.1122544], [17.8211009, 43.1123667], [17.8211519, 43.1124385], [17.8212123, 43.1125205], [17.8212564, 43.1126171], [17.8213104, 43.1126603], [17.8212914, 43.1127322], [17.821404, 43.1128419], [17.8214523, 43.1130162], [17.8214657, 43.1130788], [17.821455, 43.1133001], [17.8214362, 43.113537], [17.8214148, 43.1136545], [17.8214684, 43.1137211], [17.8215033, 43.1137915], [17.8215086, 43.1138542], [17.8214711, 43.1139345], [17.8213772, 43.1140852], [17.8213558, 43.1142438], [17.821337, 43.1146002], [17.8212619, 43.1149213], [17.8213048, 43.1149252], [17.8213263, 43.1152013], [17.8213558, 43.1154911], [17.8209454, 43.1157573], [17.8209293, 43.1158161], [17.8209481, 43.1158689], [17.8209937, 43.1159531], [17.8210232, 43.1160922], [17.8210178, 43.1162351], [17.8210312, 43.1165621], [17.8210312, 43.1167892], [17.8210849, 43.1170672], [17.8211331, 43.1172512], [17.8211814, 43.1174], [17.8215569, 43.1172904], [17.8216749, 43.1172669], [17.8217983, 43.1175449], [17.8219217, 43.1177877], [17.8221738, 43.1182302], [17.8224635, 43.1187627], [17.8226566, 43.1190368], [17.8229248, 43.1193775], [17.8230536, 43.1195576], [17.8231984, 43.1196751], [17.823692, 43.1199824], [17.8238395, 43.1200412], [17.8239548, 43.1201077], [17.824046, 43.1201841], [17.8241962, 43.1202996], [17.8244859, 43.1205365], [17.8246093, 43.1206305], [17.8247085, 43.1206775], [17.8247863, 43.1206892], [17.8248695, 43.1206828], [17.824911, 43.1208018], [17.8249848, 43.120883], [17.8251453, 43.1209924], [17.8253846, 43.1213004], [17.8256395, 43.1215836], [17.8257787, 43.1218874], [17.8258163, 43.1220988], [17.8261811, 43.1221556], [17.826629, 43.1222809], [17.8267524, 43.1223337], [17.8268141, 43.122367], [17.8269321, 43.1224492], [17.8275275, 43.1230659], [17.8278977, 43.1234379], [17.8279674, 43.1234105], [17.8282034, 43.1236806], [17.828595, 43.1235475], [17.8288364, 43.1234966], [17.82933, 43.1234731], [17.8297806, 43.123387], [17.8306228, 43.1233126], [17.8307033, 43.1238451], [17.8308159, 43.1239625], [17.8309822, 43.1241661], [17.8311807, 43.1245968], [17.8312451, 43.1247417], [17.8317654, 43.1250745], [17.8324038, 43.1254269], [17.8312826, 43.1265701], [17.8287855, 43.1290347], [17.8280452, 43.1295084], [17.8269884, 43.1302718], [17.8262964, 43.1312339], [17.8259142, 43.1319454], [17.8249043, 43.1334409], [17.8247783, 43.133621], [17.8246495, 43.1341651], [17.8244671, 43.1350988], [17.8245825, 43.1355627], [17.8246871, 43.1359326], [17.8247032, 43.1360755], [17.825025, 43.1361107], [17.8253308, 43.1361322], [17.8256392, 43.1361205], [17.8263715, 43.1359933], [17.8267148, 43.1359248], [17.8274699, 43.135776], [17.8288123, 43.1366157], [17.8293541, 43.137013], [17.8337663, 43.1398999], [17.8349841, 43.1412699], [17.8352684, 43.1414382], [17.835499, 43.1415596], [17.8357726, 43.1417905], [17.8358799, 43.1418649], [17.8364003, 43.1420332], [17.8365629, 43.1420881], [17.8366899, 43.142131], [17.8372425, 43.1423972], [17.8375053, 43.1425616], [17.8381062, 43.1430861], [17.8384227, 43.1433523], [17.8387123, 43.1435284], [17.840091, 43.1435754], [17.8402036, 43.1436576], [17.8403538, 43.1438337], [17.8405014, 43.1439726], [17.8406167, 43.1439942], [17.8407052, 43.1439668], [17.840901, 43.1438944], [17.8410646, 43.1438689], [17.8412819, 43.1438396], [17.841424, 43.1438533], [17.8417593, 43.1439237], [17.8417942, 43.1442055], [17.8418103, 43.1444697], [17.8417647, 43.1449198], [17.8424889, 43.1448729], [17.8426176, 43.1450784], [17.8432774, 43.1449296], [17.8438675, 43.1447457], [17.844066, 43.1449414], [17.8441518, 43.1450588], [17.8443289, 43.1454502], [17.8444576, 43.1457907], [17.8450423, 43.145779], [17.8452945, 43.1458338], [17.84545, 43.1459199], [17.8468019, 43.1468122], [17.8476065, 43.1470666], [17.8482127, 43.1479277], [17.8485346, 43.1490236], [17.8486311, 43.1496184], [17.8487143, 43.1500842], [17.848269, 43.1504736], [17.848084, 43.1512367], [17.8490415, 43.1521584], [17.8519759, 43.1545906], [17.8554359, 43.15787], [17.8555137, 43.1578465], [17.8555754, 43.1579521], [17.8556076, 43.158095], [17.8556505, 43.1584002], [17.8556558, 43.1585802], [17.855629, 43.1587543], [17.8555727, 43.1588991], [17.8555298, 43.1590087], [17.8554493, 43.1591887], [17.8554332, 43.1593041], [17.855444, 43.1595233], [17.8554386, 43.1597463], [17.855503, 43.1599909], [17.8554949, 43.1601396], [17.8554735, 43.1602648], [17.8554386, 43.1604233], [17.8554466, 43.1605211], [17.8554708, 43.160705], [17.8555378, 43.1608517], [17.8555754, 43.1609457], [17.8557014, 43.1612274], [17.8558221, 43.1615698], [17.8558972, 43.1617106], [17.8564981, 43.1622213], [17.8566241, 43.1624697], [17.856726, 43.1625891], [17.8568467, 43.1626615], [17.8569514, 43.1627319], [17.8570184, 43.1627867], [17.8571713, 43.1628806], [17.8572303, 43.1629628], [17.8573537, 43.1631741], [17.8573982, 43.1632536], [17.8578461, 43.1634496], [17.8583461, 43.1635967], [17.8589416, 43.1636788], [17.8594485, 43.1637727], [17.8596604, 43.1638334], [17.8599581, 43.1640153], [17.8601083, 43.1641288], [17.860685, 43.164614], [17.8608325, 43.1646981], [17.8613073, 43.1649231], [17.8616935, 43.1650855], [17.8620207, 43.1651755], [17.8625518, 43.1653437], [17.8629541, 43.1655472], [17.8631204, 43.1656841], [17.863571, 43.1660969], [17.8643542, 43.1669459], [17.8642255, 43.1670085], [17.864719, 43.1675876], [17.8652233, 43.1682175], [17.8659046, 43.1689961], [17.866677, 43.1697238], [17.8669238, 43.1698334], [17.8672242, 43.1698529], [17.8675729, 43.1697903], [17.8678787, 43.1697121], [17.868045, 43.1696847], [17.8681844, 43.1697082], [17.868458, 43.1698216], [17.8694934, 43.1704985], [17.8696006, 43.1705572], [17.8693753, 43.1707841], [17.8689998, 43.1711636], [17.8687048, 43.1723725], [17.8687316, 43.1727911], [17.8686833, 43.1731588], [17.8686833, 43.1732684], [17.8686136, 43.1732958], [17.8684634, 43.1733153], [17.8683937, 43.1733466], [17.8683668, 43.1736596], [17.8679001, 43.1742777], [17.8634155, 43.1800048], [17.8629541, 43.1801222], [17.8615594, 43.1801222], [17.8616452, 43.1809124], [17.8615594, 43.1813348], [17.8611946, 43.1820311], [17.8603899, 43.182477], [17.8599608, 43.1835801], [17.8596067, 43.184292], [17.8593171, 43.1849569], [17.8587753, 43.1861186], [17.8586572, 43.1862986], [17.8584132, 43.1868637], [17.8584105, 43.1869244], [17.8584158, 43.1870867], [17.8584614, 43.1872549], [17.8584695, 43.1873331], [17.8584695, 43.1873937], [17.8584098, 43.1876177], [17.8582929, 43.1878285], [17.8582549, 43.1879452], [17.85822, 43.1880958], [17.85822, 43.1881486], [17.8582066, 43.1882092], [17.8581557, 43.1882816], [17.8580886, 43.1883344], [17.8580216, 43.1883833], [17.8579518, 43.1884459], [17.8578633, 43.1886043], [17.8577453, 43.1887627], [17.8576219, 43.1888976], [17.8575817, 43.1889406], [17.8574958, 43.189058], [17.8574342, 43.1892085], [17.8573537, 43.1893669], [17.8573403, 43.1894061], [17.8573242, 43.1894784], [17.8573295, 43.1895449], [17.8573161, 43.1896368], [17.857241, 43.1897874], [17.8571391, 43.1899243], [17.8570962, 43.1899986], [17.8568923, 43.1901198], [17.8566724, 43.1902294], [17.8562218, 43.1904406], [17.8557444, 43.19064], [17.8555351, 43.1907495], [17.8554654, 43.1918877], [17.8543496, 43.1916217], [17.8501975, 43.1906596], [17.8483415, 43.1901277], [17.8464317, 43.1897131], [17.8450155, 43.1894784], [17.8462386, 43.1875932], [17.8475797, 43.1858018], [17.8470433, 43.1855437], [17.8462493, 43.1852542], [17.8458846, 43.1851212], [17.8457236, 43.1849413], [17.8455734, 43.1846362], [17.8451443, 43.1843702], [17.8448653, 43.1845502], [17.8445864, 43.1847066], [17.843653, 43.1850899], [17.8429556, 43.185176], [17.8424621, 43.1851838], [17.8418827, 43.1851682], [17.8412712, 43.1850665], [17.8409171, 43.1850039], [17.8408313, 43.185176], [17.8400266, 43.1860443], [17.8396082, 43.1859192], [17.8395116, 43.1860209], [17.8390932, 43.1874211], [17.8390181, 43.187515], [17.838825, 43.1875541], [17.8383422, 43.1873664], [17.8384602, 43.1871943], [17.8382993, 43.1871395], [17.8381276, 43.1869518], [17.837795, 43.1867405], [17.8368616, 43.1861773], [17.836529, 43.18606], [17.8362715, 43.1858409], [17.8359389, 43.1856297], [17.8353488, 43.1852855], [17.8345334, 43.1848474], [17.8334606, 43.1840025], [17.8330743, 43.1837483], [17.8328115, 43.1833845], [17.8327149, 43.1832593], [17.8325218, 43.1830638], [17.8320175, 43.1821035], [17.8319988, 43.1820311], [17.8319773, 43.1819255], [17.8320068, 43.1818101], [17.8320283, 43.1815519], [17.8320122, 43.1811803], [17.8320041, 43.1810747], [17.8320014, 43.1808791], [17.83198, 43.1807754], [17.8318861, 43.1807129], [17.8318486, 43.180662], [17.8318217, 43.1806112], [17.8317896, 43.1804684], [17.8317735, 43.1804195], [17.8317976, 43.1803647], [17.8318405, 43.1802904], [17.8317922, 43.1802787], [17.8313336, 43.1803158], [17.8314489, 43.1802571], [17.8316501, 43.1801476], [17.8318405, 43.180042], [17.8319907, 43.1799246], [17.8320605, 43.1797682], [17.8320819, 43.1796195], [17.8321034, 43.1795041], [17.8321195, 43.17942], [17.8321087, 43.1793535], [17.8320497, 43.179242], [17.8318834, 43.1790151], [17.8316849, 43.1788626], [17.8314596, 43.1786357], [17.8309071, 43.1781467], [17.8307784, 43.1780411], [17.8304672, 43.1778729], [17.8303009, 43.1778181], [17.8301722, 43.1777438], [17.8300863, 43.177646], [17.8300273, 43.1775286], [17.8299683, 43.1773761], [17.8268945, 43.1773213], [17.8240138, 43.1773057], [17.8236759, 43.178], [17.8233004, 43.1781545], [17.8230026, 43.1782875], [17.8228202, 43.1784029], [17.8227103, 43.1784655], [17.8226057, 43.1784968], [17.822493, 43.1784929], [17.8223938, 43.178487], [17.8221658, 43.1784499], [17.8219351, 43.1783795], [17.8216374, 43.1782445], [17.8202051, 43.1772039], [17.820189, 43.1766993], [17.8201568, 43.1766132], [17.8200871, 43.1764881], [17.8199637, 43.1763198], [17.819733, 43.1761086], [17.8196365, 43.175956], [17.8194594, 43.1758191], [17.8192127, 43.1759521], [17.8185636, 43.176179], [17.8183222, 43.1762416], [17.8170991, 43.1763746], [17.8149533, 43.1765154], [17.8145456, 43.1767658], [17.8138375, 43.1771414], [17.8129148, 43.1776421], [17.8119707, 43.177955], [17.8090686, 43.1793555], [17.8088754, 43.1793985], [17.8086662, 43.1794807], [17.8083229, 43.1796489], [17.8080922, 43.179821], [17.8077811, 43.1800596], [17.8076202, 43.1802161], [17.8062611, 43.181265], [17.8061086, 43.1809149], [17.8056796, 43.179951], [17.8053357, 43.1791455], [17.8051549, 43.1787298], [17.8050399, 43.1785809], [17.8048924, 43.1784362], [17.8041038, 43.1779061], [17.8033876, 43.1774171], [17.8027117, 43.1769536], [17.8016844, 43.1763453], [17.801037, 43.1759159], [17.798844, 43.1743371], [17.7976306, 43.173451], [17.7974445, 43.1732225], [17.7972411, 43.1729665], [17.7943835, 43.172797], [17.7939114, 43.1729417], [17.7937961, 43.1729515], [17.7935091, 43.172928], [17.7933079, 43.1729046], [17.7932408, 43.1728987], [17.7930155, 43.1729515], [17.7926642, 43.1729652], [17.7915001, 43.1729613], [17.7910924, 43.1729613], [17.7911407, 43.1725642], [17.7911407, 43.1724077], [17.7911246, 43.1722199], [17.7908698, 43.1713279], [17.7907839, 43.1711166], [17.7907732, 43.1710677], [17.7907866, 43.171011], [17.7906874, 43.1707978], [17.7906311, 43.1706824], [17.7904648, 43.1704398], [17.7904433, 43.1702266], [17.7904379, 43.1698666], [17.7904728, 43.1698549], [17.7903789, 43.1697317], [17.7902985, 43.1696104], [17.7902743, 43.1695282], [17.7902475, 43.169405], [17.7901912, 43.1693463], [17.7901027, 43.1692524], [17.7900115, 43.1690841], [17.7898666, 43.1688416], [17.7898049, 43.1686225], [17.7896789, 43.1682234], [17.7895743, 43.1679397], [17.7886033, 43.1668481], [17.7851272, 43.1665469], [17.783137, 43.1663825], [17.7815759, 43.1668912], [17.7810824, 43.1680806], [17.7806482, 43.1687268], [17.7788639, 43.1677568], [17.7733075, 43.165441], [17.77172, 43.1628356], [17.7689418, 43.1610986], [17.7653699, 43.1608091], [17.7625917, 43.1628356], [17.759942, 43.1620354], [17.7587512, 43.1618948], [17.75827, 43.1620665], [17.7581774, 43.1620996], [17.7576882, 43.1622741], [17.7572635, 43.1623112], [17.7549523, 43.1625128], [17.7547841, 43.1625639], [17.7547032, 43.1625884], [17.7529031, 43.1631349], [17.7527314, 43.1632445], [17.7528119, 43.1633736], [17.7520215, 43.1638381], [17.7518731, 43.1639253], [17.7515835, 43.1641523], [17.7514031, 43.1643323], [17.7513796, 43.1643557], [17.7511704, 43.164567], [17.7511543, 43.1647118], [17.7510605, 43.1647537], [17.750988, 43.1647861], [17.750693, 43.1655139], [17.750591, 43.1657604], [17.7505374, 43.1659247], [17.7504408, 43.166046], [17.7494967, 43.1669342], [17.7469379, 43.1707137], [17.7450013, 43.1723255], [17.7396798, 43.176934], [17.7322233, 43.181061], [17.7293318, 43.1831264], [17.7275802, 43.1849029], [17.7252848, 43.1839648], [17.7233004, 43.1825178], [17.7221098, 43.1810708], [17.7185378, 43.1799132], [17.7173472, 43.1787555], [17.714569, 43.1758613], [17.714569, 43.1732564], [17.7149659, 43.1706514], [17.7149659, 43.1639936], [17.7029451, 43.1594902], [17.7037018, 43.1591359], [17.7048218, 43.1586115], [17.7049254, 43.1584982], [17.7050578, 43.1583532], [17.7053261, 43.1581263], [17.7057267, 43.1578341], [17.7057767, 43.1577976], [17.7072251, 43.1571715], [17.7078357, 43.1568927], [17.7079255, 43.1568517], [17.7087164, 43.1564906], [17.7103901, 43.1558175], [17.711935, 43.1553166], [17.7128792, 43.1549252], [17.7136946, 43.1545026], [17.713877, 43.1543695], [17.7141023, 43.153939], [17.7145207, 43.1535947], [17.7148425, 43.1533207], [17.7149347, 43.1532242], [17.7150893, 43.1530624], [17.715261, 43.1529528], [17.7156472, 43.1527493], [17.7162695, 43.1523815], [17.7166021, 43.1520253], [17.7142632, 43.1508473], [17.7139628, 43.1505499], [17.7120101, 43.1498454], [17.7025473, 43.1538999], [17.7013993, 43.1536416], [17.7003157, 43.1532424], [17.69876, 43.1521858], [17.6955038, 43.1544126], [17.6941144, 43.1554457], [17.6929933, 43.1562362], [17.69243, 43.156831], [17.6919097, 43.157148], [17.6918024, 43.1571597], [17.6916361, 43.1571949], [17.6909172, 43.1576019], [17.6897156, 43.1583376], [17.6890075, 43.1588776], [17.688117, 43.1593159], [17.6874947, 43.1595115], [17.6872373, 43.1595898], [17.6866364, 43.1600672], [17.6861, 43.1608811], [17.68507, 43.1621645], [17.6791584, 43.1664686], [17.6783645, 43.1666564], [17.6743519, 43.1695908], [17.6718306, 43.170835], [17.6678502, 43.1724781], [17.6656013, 43.173545], [17.6586287, 43.1787768], [17.6529586, 43.1828056], [17.6492143, 43.1857158], [17.6476371, 43.1865763], [17.6474655, 43.186193], [17.6463497, 43.1868579], [17.6459527, 43.1865372], [17.6460707, 43.1863338], [17.6457274, 43.1862477], [17.6453169, 43.1865213], [17.6450666, 43.1863473], [17.644892, 43.1861676], [17.6447833, 43.1859582], [17.6447818, 43.1858156], [17.6448396, 43.1856286], [17.6449501, 43.1853364], [17.6450123, 43.1849089], [17.6450216, 43.1845008], [17.644946, 43.1841668], [17.6447213, 43.1838806], [17.6446924, 43.1836386], [17.6447288, 43.1832962], [17.644694, 43.1830099], [17.6445444, 43.182774], [17.6442059, 43.1826444], [17.6439133, 43.1824598], [17.6436797, 43.1821021], [17.6436389, 43.1818371], [17.6435634, 43.1816306], [17.6433451, 43.1813913], [17.6432207, 43.1811106], [17.6429791, 43.1807443], [17.6424933, 43.1804185], [17.6423141, 43.1802307], [17.6424033, 43.1800275], [17.6427004, 43.1798495], [17.6427959, 43.1796638], [17.6426563, 43.1793887], [17.6424553, 43.1790335], [17.6422584, 43.1787238], [17.6424905, 43.1784336], [17.6428221, 43.1782039], [17.6428884, 43.1778775], [17.6427484, 43.1774908], [17.6423283, 43.1769907], [17.6422186, 43.1767337], [17.6424175, 43.17655], [17.6424971, 43.1763565], [17.6424237, 43.1761518], [17.6422268, 43.1760874], [17.6421388, 43.1759988], [17.6421613, 43.1758695], [17.6423762, 43.17582], [17.642607, 43.1757506], [17.6426885, 43.1756318], [17.6425122, 43.1753417], [17.6423953, 43.1750175], [17.6422462, 43.1745392], [17.6420881, 43.1742703], [17.6417385, 43.173798], [17.6416073, 43.173534], [17.6415579, 43.1732473], [17.6415837, 43.1729008], [17.6415092, 43.1726363], [17.6414316, 43.1724337], [17.6411309, 43.1721911], [17.6406241, 43.1718174], [17.6401245, 43.1714288], [17.6396648, 43.17112], [17.6390433, 43.1707456], [17.6385745, 43.1704979], [17.6384284, 43.1703547], [17.638354, 43.1702541], [17.6383231, 43.1701272], [17.6383531, 43.1699455], [17.6384038, 43.1696238], [17.6383789, 43.1694578], [17.6384125, 43.1693472], [17.6384299, 43.169272], [17.6383789, 43.1691328], [17.6382272, 43.1689088], [17.6381152, 43.1687774], [17.6380194, 43.1687322], [17.6378243, 43.1686973], [17.6376021, 43.168651], [17.6372899, 43.1684834], [17.6368996, 43.1681963], [17.6366447, 43.1680452], [17.6362487, 43.1679261], [17.6360781, 43.1679181], [17.6359767, 43.1679351], [17.6357866, 43.1679671], [17.6355817, 43.1679446], [17.6354103, 43.1678784], [17.6351849, 43.1677178], [17.635048, 43.1675454], [17.6350265, 43.1674741], [17.6350693, 43.1674123], [17.6351381, 43.1673354], [17.6351751, 43.1672485], [17.6351546, 43.1671745], [17.6350527, 43.167082], [17.6349642, 43.1669832], [17.6348049, 43.1667229], [17.6346768, 43.1665331], [17.6346283, 43.1664786], [17.6346212, 43.1663627], [17.6345809, 43.1662737], [17.6344825, 43.1661976], [17.6343508, 43.166147], [17.6340594, 43.1661077], [17.6338997, 43.1660516], [17.633622, 43.1658587], [17.633435, 43.1657495], [17.6361048, 43.16538], [17.6367235, 43.1652944], [17.6375091, 43.1651856], [17.6377273, 43.1651554], [17.6389253, 43.1649896], [17.6404657, 43.1638316], [17.6429488, 43.161965], [17.6419236, 43.1602263], [17.6417959, 43.1600096], [17.6415162, 43.1595353], [17.6414962, 43.1595014], [17.6414471, 43.1594181], [17.6414008, 43.159329], [17.6412053, 43.1592134], [17.6410603, 43.1590758], [17.64083, 43.1584903], [17.6406742, 43.1581776], [17.6405526, 43.1577904], [17.6405106, 43.1576168], [17.6405007, 43.1574906], [17.6405264, 43.1573648], [17.6406179, 43.1571554], [17.6407814, 43.1569914], [17.6408994, 43.1568388], [17.6410925, 43.1565062], [17.6409974, 43.1564907], [17.6411514, 43.1560124], [17.6410784, 43.1555813], [17.6407925, 43.1552765], [17.6401908, 43.1548263], [17.639516, 43.1544178], [17.6391394, 43.1542484], [17.6391629, 43.154109], [17.6391025, 43.1538791], [17.6391092, 43.1536174], [17.6391796, 43.1531502], [17.639275, 43.1522673], [17.6393627, 43.1520666], [17.6395879, 43.1519179], [17.6401213, 43.1517536], [17.6405007, 43.1517138], [17.6408089, 43.1516221], [17.6419255, 43.1512728], [17.6427956, 43.1509511], [17.6433716, 43.1506311], [17.6438426, 43.1502724], [17.6449079, 43.1495829], [17.6454627, 43.1492993], [17.6460198, 43.1490381], [17.6464489, 43.148808], [17.6466528, 43.1486247], [17.6467026, 43.1484431], [17.6465959, 43.1482355], [17.6463541, 43.1480141], [17.6459819, 43.1478342], [17.645631, 43.1477495], [17.6452422, 43.147746], [17.6446447, 43.1478758], [17.6439556, 43.1479619], [17.6430018, 43.1480989], [17.6422811, 43.1481888], [17.6419753, 43.1481404], [17.6417121, 43.1480626], [17.6413043, 43.147727], [17.6408291, 43.1471382], [17.640705, 43.1468007], [17.6407452, 43.1465976], [17.6409632, 43.1463139], [17.6412817, 43.1457317], [17.6415868, 43.1452473], [17.6420159, 43.1448412], [17.6428124, 43.1443323], [17.6435448, 43.1439655], [17.6441282, 43.1437991], [17.6446847, 43.1436744], [17.645362, 43.1435325], [17.6460392, 43.1434297], [17.6465388, 43.1434175], [17.6468573, 43.1434835], [17.6472127, 43.1437135], [17.6476787, 43.1440388], [17.6479201, 43.144144], [17.6482856, 43.1441661], [17.6486309, 43.1440853], [17.6487684, 43.1439434], [17.6488086, 43.1437135], [17.6488321, 43.1432316], [17.6489628, 43.1429135], [17.6491338, 43.1426811], [17.6494183, 43.1425544], [17.6498604, 43.1422795], [17.650166, 43.1419477], [17.650404, 43.1415245], [17.6506052, 43.1412578], [17.6508774, 43.1410865], [17.6513381, 43.1407602], [17.6521977, 43.1404187], [17.6528281, 43.1403282], [17.6537031, 43.1403331], [17.6542195, 43.1403331], [17.6546184, 43.1402548], [17.6550509, 43.1400591], [17.6555673, 43.1397753], [17.6566033, 43.1389215], [17.6572302, 43.1383906], [17.6576493, 43.138163], [17.657395, 43.1377391], [17.6571965, 43.1374612], [17.6568747, 43.1373673], [17.6562738, 43.1372303], [17.6560163, 43.1372498], [17.6556569, 43.1373986], [17.655158, 43.1377235], [17.6542354, 43.1380523], [17.6530069, 43.1387256], [17.6522505, 43.1391288], [17.650947, 43.1398842], [17.650314, 43.1404127], [17.6497185, 43.1408433], [17.6493741, 43.140977], [17.6489299, 43.1409842], [17.6485062, 43.1409803], [17.6479644, 43.1409959], [17.640717, 43.1331003], [17.6405561, 43.1325992], [17.6405615, 43.1323252], [17.6409423, 43.1317693], [17.6410764, 43.1317497], [17.6414949, 43.1316323], [17.6417524, 43.1314091], [17.6420313, 43.1310881], [17.6420689, 43.1307984], [17.6419079, 43.1306848], [17.6417416, 43.1303912], [17.6414949, 43.1299645], [17.6411569, 43.1295456], [17.6407063, 43.1290014], [17.6401699, 43.1282536], [17.6396227, 43.1276977], [17.6387536, 43.1269577], [17.6381689, 43.1262295], [17.6373804, 43.1255287], [17.6357764, 43.1241661], [17.6353902, 43.1237981], [17.6348215, 43.1232891], [17.6347089, 43.1232186], [17.6344299, 43.1230307], [17.6340705, 43.1226274], [17.6331693, 43.1220362], [17.6332337, 43.1218443], [17.6326704, 43.1218169], [17.6324344, 43.1218404], [17.6322788, 43.1219069], [17.6313937, 43.1212648], [17.6294893, 43.1202037], [17.6279873, 43.1194206], [17.6270163, 43.1187862], [17.6264477, 43.1183398], [17.6250529, 43.116891], [17.6228213, 43.1149252], [17.6212764, 43.1133745]]]}}]}