{"type": "FeatureCollection", "features": [{"type": "Feature", "properties": {"name": "Grad Cazin, Unsko-sanski kanton, Federacija Bosne i Hercegovine, Bosna i Hercegovina / Босна и Херцеговина", "source": "OpenStreetMap relation 2528177", "licence": "ODbL 1.0"}, "geometry": {"type": "Polygon", "coordinates": [[[15.7411928, 45.0616651], [15.7412703, 45.0613541], [15.7413248, 45.060902], [15.7415215, 45.060281], [15.7417892, 45.0599243], [15.7420542, 45.0597984], [15.7424478, 45.059793], [15.7428394, 45.0601357], [15.7430335, 45.0603533], [15.7430789, 45.0604846], [15.7432453, 45.0607186], [15.7433599, 45.0607994], [15.7435892, 45.0607417], [15.7437607, 45.0605561], [15.7437085, 45.0604507], [15.7432271, 45.0601107], [15.7432526, 45.0599255], [15.7435689, 45.0597794], [15.7438371, 45.0599014], [15.7442709, 45.0600038], [15.7446224, 45.0600572], [15.7450994, 45.0600102], [15.7452946, 45.0598767], [15.7450337, 45.0595977], [15.7449909, 45.0594772], [15.7450846, 45.0591683], [15.7451915, 45.0591569], [15.7458599, 45.0592848], [15.746057, 45.0592503], [15.7462607, 45.0591122], [15.7462965, 45.0589371], [15.7464567, 45.0587482], [15.7464829, 45.0583791], [15.7463562, 45.0581577], [15.7459064, 45.0578693], [15.7456655, 45.0576447], [15.7453189, 45.0571166], [15.7455788, 45.0568411], [15.7461319, 45.0569105], [15.74651, 45.057182], [15.7470689, 45.0570703], [15.7473498, 45.0570735], [15.7475386, 45.0569998], [15.7476247, 45.0567866], [15.74762, 45.0565594], [15.7474607, 45.0563872], [15.7470399, 45.0561926], [15.7469574, 45.0559502], [15.74712, 45.0558107], [15.747444, 45.0558975], [15.747675, 45.0558363], [15.7478302, 45.0556373], [15.7479124, 45.0553769], [15.7482865, 45.0552748], [15.7488674, 45.0552818], [15.7492826, 45.0552273], [15.7498191, 45.055122], [15.7501394, 45.0551587], [15.7508242, 45.0553404], [15.7512188, 45.0552972], [15.7514696, 45.0550559], [15.7516775, 45.0548797], [15.7520576, 45.0546973], [15.7523634, 45.0547295], [15.7526671, 45.0549435], [15.7529395, 45.054958], [15.7531685, 45.0547522], [15.7532346, 45.0543548], [15.7537089, 45.0539129], [15.7536753, 45.0537686], [15.7535764, 45.0535584], [15.7532477, 45.0532309], [15.7529297, 45.0531947], [15.7527165, 45.0533356], [15.7525344, 45.0536012], [15.7522967, 45.0538031], [15.7520507, 45.0538013], [15.7519209, 45.0536554], [15.7519516, 45.0533278], [15.7518038, 45.0531297], [15.7517899, 45.0529734], [15.7519321, 45.0528173], [15.752159, 45.0526262], [15.752358, 45.0525557], [15.7526217, 45.0524543], [15.7529062, 45.052236], [15.7532107, 45.0519297], [15.7533052, 45.0517563], [15.7532929, 45.0516097], [15.7530161, 45.0514298], [15.7528994, 45.0513063], [15.7528837, 45.051141], [15.7528547, 45.0509832], [15.7531428, 45.0506927], [15.7532081, 45.0504027], [15.7531123, 45.0501818], [15.7528723, 45.0500371], [15.7526904, 45.0497733], [15.7528506, 45.0495326], [15.7533621, 45.0490202], [15.7533845, 45.0486771], [15.7534335, 45.0481767], [15.7532436, 45.0479097], [15.7532063, 45.047618], [15.753091, 45.0472999], [15.7528961, 45.0467122], [15.7530661, 45.0464907], [15.7534607, 45.0464431], [15.7537976, 45.0466046], [15.7540247, 45.0469276], [15.7545089, 45.0473636], [15.7547814, 45.0475097], [15.7551637, 45.0474932], [15.7553483, 45.0473642], [15.7554211, 45.0469768], [15.7551123, 45.046791], [15.7548846, 45.0467329], [15.7547217, 45.0465843], [15.7549478, 45.0462257], [15.7552083, 45.0458871], [15.7552144, 45.0455046], [15.7549096, 45.0449509], [15.754822, 45.0445673], [15.7551385, 45.0443222], [15.7554484, 45.0441819], [15.7561865, 45.0438406], [15.7565457, 45.0435181], [15.7565852, 45.0432744], [15.7563314, 45.0428554], [15.7562889, 45.0427572], [15.7559913, 45.0425748], [15.7557379, 45.0424965], [15.7554037, 45.0422911], [15.7554177, 45.0421527], [15.7558853, 45.0419938], [15.7562725, 45.0419417], [15.7564382, 45.0417551], [15.7562227, 45.0411665], [15.7558543, 45.0409778], [15.7555951, 45.0405678], [15.7558821, 45.0403139], [15.7567542, 45.0399683], [15.7568563, 45.0396215], [15.7569007, 45.0394702], [15.7575058, 45.0396394], [15.7577901, 45.0396583], [15.7582242, 45.0393696], [15.7582629, 45.0390645], [15.7582939, 45.0388203], [15.7582496, 45.0383577], [15.7585307, 45.0378316], [15.7585139, 45.0376416], [15.7578556, 45.037408], [15.7574894, 45.0373149], [15.7571354, 45.0369382], [15.7573505, 45.0367061], [15.7577056, 45.0365699], [15.7577837, 45.036179], [15.7573929, 45.0360123], [15.7571404, 45.0360557], [15.7566876, 45.0360047], [15.7567288, 45.035708], [15.7570183, 45.0352819], [15.7578983, 45.0342828], [15.7582495, 45.0339728], [15.7590479, 45.0334658], [15.7593819, 45.0331037], [15.7601018, 45.0328435], [15.7611471, 45.0325356], [15.7614537, 45.0321961], [15.7612814, 45.0319543], [15.7607122, 45.0314929], [15.760863, 45.0306044], [15.7611515, 45.0302323], [15.7617321, 45.0299382], [15.7620415, 45.0297079], [15.7623742, 45.0291376], [15.7625453, 45.0291184], [15.7628955, 45.028971], [15.7631512, 45.0292347], [15.7628979, 45.0296217], [15.7629297, 45.029932], [15.763247, 45.0304124], [15.7635935, 45.030459], [15.764207, 45.0300162], [15.7645948, 45.0297076], [15.7648719, 45.0296192], [15.7649574, 45.0292484], [15.7648711, 45.0290792], [15.7645738, 45.0288038], [15.7639829, 45.0287336], [15.7631839, 45.0284088], [15.7632746, 45.0281248], [15.7632275, 45.0278089], [15.7629006, 45.027562], [15.762421, 45.0274021], [15.7618859, 45.0269979], [15.7619379, 45.0267411], [15.7627138, 45.0264547], [15.7635313, 45.0262045], [15.7643268, 45.0262729], [15.7645172, 45.0260387], [15.7644601, 45.0259126], [15.7638808, 45.025894], [15.7636288, 45.0254975], [15.7632959, 45.0252707], [15.7633235, 45.0249635], [15.7634458, 45.0248569], [15.7641628, 45.0249775], [15.7645862, 45.0252031], [15.7649158, 45.0254174], [15.7654698, 45.0253294], [15.7657522, 45.0251575], [15.7659225, 45.0248482], [15.7657362, 45.0246706], [15.7652666, 45.0246663], [15.7647868, 45.0243636], [15.7644827, 45.0238702], [15.7647348, 45.0237436], [15.7652131, 45.0239277], [15.765974, 45.0242449], [15.7661895, 45.0242244], [15.7664933, 45.0237476], [15.7663716, 45.0234351], [15.7657659, 45.0234426], [15.7655005, 45.0231709], [15.7654677, 45.0229648], [15.7657178, 45.022822], [15.7660379, 45.0227388], [15.7666251, 45.0227629], [15.7665598, 45.0223899], [15.7662764, 45.0223007], [15.7659437, 45.0220966], [15.7659291, 45.0214116], [15.7662597, 45.0212316], [15.7665283, 45.0209756], [15.7665571, 45.0207617], [15.7661397, 45.0204956], [15.7658802, 45.0205508], [15.7655935, 45.0206945], [15.7649071, 45.0207823], [15.7646022, 45.0205206], [15.7647666, 45.0199413], [15.7646094, 45.0196927], [15.7649957, 45.0189824], [15.7657695, 45.0185532], [15.7661194, 45.0182674], [15.7665652, 45.0182137], [15.7667292, 45.0182751], [15.7670977, 45.0184256], [15.7678304, 45.0181855], [15.7680712, 45.0181598], [15.7681425, 45.0180401], [15.7682499, 45.0179527], [15.7681616, 45.0177558], [15.7679039, 45.0175787], [15.7677592, 45.0175437], [15.7675998, 45.0176123], [15.7675944, 45.0178519], [15.7670855, 45.0179858], [15.7669743, 45.0173313], [15.7672725, 45.0165554], [15.7674573, 45.0161402], [15.7680175, 45.0157596], [15.7678094, 45.0154341], [15.7680261, 45.0150981], [15.7684095, 45.0150072], [15.7687983, 45.0151424], [15.7691692, 45.0150718], [15.7693858, 45.014964], [15.7696153, 45.0146959], [15.7696067, 45.0145244], [15.7694469, 45.0143741], [15.7691976, 45.0143438], [15.7689446, 45.0141734], [15.7687321, 45.0138211], [15.7688548, 45.0138028], [15.7691206, 45.0138111], [15.7692831, 45.013576], [15.7696457, 45.0133571], [15.7700079, 45.0132241], [15.770257, 45.0134688], [15.7703229, 45.0137147], [15.7705793, 45.0136713], [15.7707086, 45.0135034], [15.7706224, 45.0132127], [15.7705959, 45.0130277], [15.7703017, 45.0127265], [15.7704722, 45.0125489], [15.7703394, 45.0124007], [15.7700647, 45.0123187], [15.769902, 45.012483], [15.7697683, 45.0123843], [15.7696335, 45.0123869], [15.7697383, 45.0115707], [15.769971, 45.0114786], [15.7702185, 45.0113768], [15.7701294, 45.0111659], [15.7699509, 45.0109764], [15.7700204, 45.0106711], [15.7705508, 45.0101298], [15.7709788, 45.0094711], [15.7710759, 45.0090988], [15.7714442, 45.0087753], [15.7718552, 45.008579], [15.7720603, 45.0085653], [15.7721382, 45.0086769], [15.7723054, 45.0089802], [15.7725169, 45.0090813], [15.772687, 45.0090771], [15.7729683, 45.0089258], [15.7730348, 45.0087111], [15.7730224, 45.0083779], [15.7729427, 45.0080978], [15.7730613, 45.0072674], [15.7732659, 45.0062143], [15.7735231, 45.0060583], [15.7737407, 45.006495], [15.7738804, 45.0066246], [15.7742077, 45.0064941], [15.7742922, 45.0063012], [15.7742347, 45.0060867], [15.7745553, 45.0056469], [15.7747952, 45.0056177], [15.7750165, 45.0056837], [15.7750308, 45.0061044], [15.7753907, 45.0062678], [15.7759749, 45.0062571], [15.7759648, 45.005923], [15.7755821, 45.0055859], [15.7755686, 45.0054094], [15.775685, 45.0052809], [15.775867, 45.0051954], [15.7761168, 45.0052083], [15.7764314, 45.0054165], [15.7768041, 45.0062425], [15.7773567, 45.006602], [15.7775191, 45.0068843], [15.7780029, 45.0070218], [15.7785488, 45.007104], [15.7790668, 45.0070667], [15.7791243, 45.0068003], [15.7788611, 45.0065175], [15.7786757, 45.0062819], [15.7786039, 45.00608], [15.7787154, 45.0055928], [15.7786305, 45.0051788], [15.7788414, 45.0049417], [15.779517, 45.0049522], [15.7797206, 45.0048907], [15.7799827, 45.0046211], [15.7798847, 45.0043626], [15.7799937, 45.0040361], [15.7801484, 45.0039793], [15.780413, 45.0039771], [15.780769, 45.0040882], [15.7814116, 45.0040647], [15.7815633, 45.0039697], [15.7814413, 45.0026431], [15.7815744, 45.0023975], [15.7819021, 45.0020173], [15.7818452, 45.0018429], [15.7815145, 45.0017844], [15.7808096, 45.0020642], [15.7803702, 45.0019902], [15.780042, 45.0017562], [15.7796328, 45.0017489], [15.7793784, 45.0016415], [15.779384, 45.001349], [15.7800291, 45.0009312], [15.780499, 45.0009088], [15.7809693, 45.0005788], [15.7814823, 44.9998199], [15.7818877, 44.9993751], [15.7819888, 44.9991775], [15.7818146, 44.9986669], [15.7817478, 44.9982388], [15.7817762, 44.9980035], [15.7819794, 44.9977282], [15.7824057, 44.9974317], [15.7828838, 44.9970251], [15.7830896, 44.9967734], [15.7835606, 44.9965491], [15.7843915, 44.9963342], [15.7846465, 44.9961378], [15.7848593, 44.9958736], [15.7850223, 44.9956769], [15.7853898, 44.995595], [15.7855276, 44.9953516], [15.7858528, 44.9951908], [15.7858808, 44.9949869], [15.7856909, 44.9947223], [15.7857392, 44.9944267], [15.7858083, 44.9941449], [15.7855769, 44.9939193], [15.7853812, 44.9936906], [15.7850753, 44.9936956], [15.7846305, 44.9938656], [15.7844719, 44.9938544], [15.7843678, 44.9938404], [15.7843018, 44.993184], [15.7839734, 44.9931738], [15.7835919, 44.9934999], [15.7831389, 44.9935879], [15.7829236, 44.9936743], [15.7826926, 44.993641], [15.7824253, 44.993054], [15.7824775, 44.9927499], [15.782922, 44.9924983], [15.7832366, 44.9924444], [15.7833367, 44.9922817], [15.7832098, 44.992165], [15.782689, 44.9919802], [15.7827845, 44.9918366], [15.7829914, 44.9916603], [15.7830683, 44.9912593], [15.7834755, 44.9911288], [15.7838129, 44.9909319], [15.7837399, 44.9905792], [15.7832985, 44.9904742], [15.7830575, 44.9905208], [15.7827818, 44.9907123], [15.782625, 44.9907162], [15.7825331, 44.9902033], [15.7826793, 44.9901101], [15.7828812, 44.9901514], [15.7830851, 44.9901112], [15.7832422, 44.9898379], [15.7831488, 44.9894971], [15.7833304, 44.9892737], [15.7834068, 44.9889442], [15.7830798, 44.9886776], [15.7830768, 44.9886933], [15.783076, 44.9883958], [15.7834601, 44.9883195], [15.7836213, 44.9879314], [15.7831498, 44.9875825], [15.7826963, 44.9873539], [15.782251, 44.9871781], [15.7821923, 44.9869469], [15.7823601, 44.9868163], [15.7826742, 44.9865999], [15.7827792, 44.9864001], [15.7828059, 44.9861445], [15.7825433, 44.9861227], [15.7823994, 44.9862631], [15.7820229, 44.9862078], [15.7816445, 44.9856598], [15.7814631, 44.9851998], [15.781502, 44.9850229], [15.7817802, 44.9848523], [15.7818995, 44.9846563], [15.781854, 44.9844001], [15.7816429, 44.9842587], [15.7813155, 44.9841929], [15.7810527, 44.9839866], [15.7807422, 44.9835877], [15.7806588, 44.9833947], [15.7805114, 44.9829908], [15.7805221, 44.9828512], [15.7806333, 44.9827515], [15.780948, 44.9826724], [15.7810773, 44.9826399], [15.781228, 44.9824196], [15.7809415, 44.9822212], [15.7808175, 44.9817823], [15.7808602, 44.9815423], [15.780885, 44.9810399], [15.7807382, 44.98096], [15.7806898, 44.9804946], [15.7809221, 44.980097], [15.7812846, 44.9798262], [15.7815086, 44.9797471], [15.7820535, 44.9798378], [15.7829563, 44.9798558], [15.7830425, 44.9796662], [15.7829755, 44.9794564], [15.7828325, 44.979319], [15.7826563, 44.9792965], [15.7823176, 44.9789772], [15.782297, 44.9788097], [15.782328, 44.9786396], [15.7825608, 44.978516], [15.7826052, 44.9783998], [15.7825447, 44.9782562], [15.7824211, 44.9780265], [15.7823478, 44.9775939], [15.782624, 44.9765779], [15.7828212, 44.9761058], [15.782859, 44.9758614], [15.7830985, 44.9757586], [15.7832836, 44.9756189], [15.7835341, 44.9750361], [15.7835795, 44.9747119], [15.7829468, 44.9742122], [15.7825308, 44.9737472], [15.7824083, 44.9735973], [15.7822542, 44.9731658], [15.7824272, 44.9729531], [15.7826359, 44.9729202], [15.7828062, 44.9729696], [15.7830241, 44.9731988], [15.7832311, 44.9732783], [15.7835243, 44.9731621], [15.7835929, 44.972958], [15.7834516, 44.9723021], [15.7833969, 44.972236], [15.7829929, 44.9722433], [15.7828002, 44.9721795], [15.7826579, 44.9720241], [15.7828034, 44.9711924], [15.7826934, 44.9709737], [15.7822232, 44.971009], [15.7820035, 44.9708103], [15.7820486, 44.9703516], [15.7817344, 44.9701973], [15.781429, 44.9702338], [15.7810552, 44.9703601], [15.7807058, 44.970421], [15.7806818, 44.9706338], [15.7804019, 44.9707915], [15.7800958, 44.9707778], [15.7798482, 44.9707548], [15.7796909, 44.9704206], [15.7799637, 44.9702162], [15.7801691, 44.9701648], [15.7804636, 44.9700311], [15.7805397, 44.9698056], [15.780973, 44.9693848], [15.7803427, 44.9691306], [15.7800042, 44.9690949], [15.7795033, 44.9690601], [15.7793233, 44.9690203], [15.7788467, 44.9688639], [15.7790518, 44.9685623], [15.7790209, 44.9684247], [15.7789278, 44.9683553], [15.7787703, 44.9683673], [15.7785276, 44.968435], [15.7783847, 44.9683729], [15.7782942, 44.9680487], [15.7782116, 44.9676606], [15.7783337, 44.9674626], [15.7788788, 44.9672343], [15.7792185, 44.967035], [15.7794386, 44.9667776], [15.7796243, 44.9660863], [15.7793474, 44.9640239], [15.779489, 44.9622392], [15.7801199, 44.9608545], [15.7808704, 44.9600409], [15.7811007, 44.9598417], [15.7814546, 44.9597556], [15.7816565, 44.9596182], [15.7815824, 44.9591722], [15.7804324, 44.9581929], [15.7788589, 44.9535433], [15.7783097, 44.9520708], [15.7784729, 44.9513082], [15.7785617, 44.9510623], [15.7789497, 44.9506648], [15.7789168, 44.9502629], [15.7790231, 44.950072], [15.7792793, 44.949879], [15.779474, 44.9496956], [15.7795555, 44.9488388], [15.7797396, 44.9485341], [15.7806031, 44.9480072], [15.7811631, 44.9476851], [15.7812492, 44.9472051], [15.7807898, 44.9468893], [15.7805471, 44.9463059], [15.7811856, 44.9461964], [15.7814419, 44.945728], [15.7820372, 44.9455734], [15.7829027, 44.945067], [15.7834617, 44.9445436], [15.7838561, 44.9439231], [15.7846551, 44.9432136], [15.7852803, 44.9428238], [15.7858459, 44.9420485], [15.786054, 44.9417395], [15.786159, 44.9413941], [15.7859814, 44.9409592], [15.785898, 44.9406511], [15.7861419, 44.94035], [15.7862679, 44.9396553], [15.7865512, 44.9393887], [15.7867971, 44.938996], [15.7866915, 44.9387741], [15.7861637, 44.9383745], [15.7860293, 44.9381352], [15.7853912, 44.9378003], [15.7849135, 44.937528], [15.7841535, 44.9370652], [15.7840618, 44.9367489], [15.7844447, 44.9358732], [15.7848403, 44.934904], [15.7848156, 44.934336], [15.7862623, 44.9341684], [15.7881209, 44.9338428], [15.7902435, 44.9328501], [15.7908404, 44.9327217], [15.7915746, 44.9326722], [15.7924046, 44.9325848], [15.7933295, 44.9322554], [15.793921, 44.9320159], [15.794227, 44.9317321], [15.7946023, 44.9313459], [15.7954516, 44.9307968], [15.7962874, 44.9300232], [15.7967377, 44.9298503], [15.7972829, 44.9295905], [15.7977973, 44.9290945], [15.7984136, 44.9284852], [15.7983554, 44.9283749], [15.7987412, 44.9281992], [15.7993356, 44.9283142], [15.7994823, 44.9281218], [15.7997189, 44.9280121], [15.8005162, 44.9278691], [15.8010993, 44.9277079], [15.8014832, 44.9275496], [15.8017473, 44.9273304], [15.8018327, 44.9273187], [15.8019541, 44.9273771], [15.8022384, 44.9277474], [15.802497, 44.9279127], [15.8025294, 44.9279709], [15.8024012, 44.92812], [15.8023677, 44.9282378], [15.8024771, 44.9285838], [15.8024138, 44.928672], [15.802197, 44.9287543], [15.8021398, 44.9289202], [15.8021839, 44.9291019], [15.8023887, 44.9292998], [15.8023532, 44.9296503], [15.8024693, 44.9298479], [15.8027393, 44.9299866], [15.8031536, 44.9300279], [15.8033107, 44.9301134], [15.8033419, 44.9302781], [15.803394, 44.9303408], [15.8034618, 44.9303002], [15.8035284, 44.9302837], [15.8035617, 44.9304335], [15.8036363, 44.9304724], [15.8037183, 44.930483], [15.8038501, 44.9303597], [15.8040289, 44.9303487], [15.8041409, 44.9304604], [15.8042206, 44.930436], [15.8043378, 44.9302909], [15.8044572, 44.9303153], [15.8046437, 44.9304347], [15.8050982, 44.9304655], [15.8052719, 44.9305661], [15.8053504, 44.9308212], [15.8055563, 44.9308533], [15.8060645, 44.9309715], [15.8062023, 44.9310408], [15.8063226, 44.9310857], [15.8064359, 44.9310485], [15.8065995, 44.9308269], [15.8067575, 44.9306143], [15.8074778, 44.9304433], [15.8076562, 44.9304974], [15.8080626, 44.9303788], [15.8086894, 44.9305201], [15.8090453, 44.930712], [15.8092082, 44.9306702], [15.8093268, 44.9306737], [15.8094504, 44.9307295], [15.8096721, 44.9306562], [15.8100554, 44.9305218], [15.8101325, 44.930555], [15.8103206, 44.9309249], [15.8104202, 44.9309982], [15.8105381, 44.9309878], [15.8107447, 44.9309564], [15.8109589, 44.9309991], [15.8112767, 44.9310174], [15.8117214, 44.9310942], [15.8120028, 44.931157], [15.812528, 44.9311727], [15.8125774, 44.931089], [15.8132771, 44.9311991], [15.8135024, 44.9311904], [15.8136366, 44.9311101], [15.813805, 44.9310784], [15.8141143, 44.9312804], [15.8142691, 44.9315736], [15.8145097, 44.9317027], [15.8146692, 44.9318869], [15.8148948, 44.9319221], [15.8149651, 44.9319917], [15.8148112, 44.932072], [15.8144369, 44.932181], [15.8144049, 44.9323086], [15.8145581, 44.9324108], [15.8145794, 44.9325599], [15.814582, 44.9326861], [15.8147985, 44.9327465], [15.8150464, 44.9325843], [15.8151673, 44.9326255], [15.81521, 44.9327384], [15.8151608, 44.9328366], [15.8149684, 44.9329727], [15.814969, 44.9330837], [15.8151348, 44.9331417], [15.8153448, 44.9330314], [15.8155737, 44.9330263], [15.8158031, 44.9332158], [15.8159714, 44.9330932], [15.8159938, 44.9329037], [15.816176, 44.9329379], [15.8162829, 44.9333586], [15.8162821, 44.9335805], [15.8160916, 44.9336899], [15.8157536, 44.9337143], [15.8156739, 44.9338189], [15.8157603, 44.9339122], [15.8162148, 44.9340545], [15.8162755, 44.9341769], [15.8162143, 44.9342803], [15.8163678, 44.934387], [15.8166984, 44.9344655], [15.817177, 44.934497], [15.8174876, 44.9345113], [15.8175324, 44.9346458], [15.8174471, 44.9348084], [15.8173083, 44.9349961], [15.8169979, 44.9355935], [15.8171099, 44.9362611], [15.8173996, 44.9368738], [15.817286, 44.9372869], [15.8179162, 44.937407], [15.8191441, 44.9373789], [15.8200581, 44.9375048], [15.8203292, 44.9379511], [15.8205175, 44.9386511], [15.8204077, 44.9396267], [15.8206408, 44.9400249], [15.8207724, 44.9399825], [15.8212593, 44.9398254], [15.8215755, 44.9393444], [15.8221718, 44.9389786], [15.8234992, 44.9388625], [15.8246789, 44.9389677], [15.8257197, 44.9395347], [15.8280091, 44.9400464], [15.8291042, 44.9404856], [15.8298862, 44.941036], [15.8302513, 44.9415343], [15.8309303, 44.9423553], [15.8315233, 44.9428575], [15.8320225, 44.9433586], [15.8322024, 44.9436164], [15.8326199, 44.9435612], [15.8330344, 44.9435647], [15.8334427, 44.9434946], [15.8336036, 44.9435336], [15.8336177, 44.943681], [15.8335665, 44.9439027], [15.8334681, 44.9441549], [15.8334894, 44.9443524], [15.8335106, 44.9445498], [15.834195, 44.945537], [15.8344964, 44.9459099], [15.8352553, 44.9462598], [15.8355569, 44.9464887], [15.8364757, 44.9464367], [15.8369773, 44.9464242], [15.8378654, 44.9461963], [15.8384527, 44.9461547], [15.8389118, 44.94619], [15.8396666, 44.9464332], [15.8403391, 44.9464701], [15.8412484, 44.9463611], [15.8428353, 44.9460878], [15.8437129, 44.9460574], [15.8445357, 44.9462518], [15.8460602, 44.9462882], [15.8473044, 44.9465008], [15.8481308, 44.9464214], [15.8486385, 44.9464555], [15.8492401, 44.9463152], [15.8507986, 44.9460103], [15.8512224, 44.9456897], [15.8512599, 44.9453023], [15.8513692, 44.9446612], [15.8517253, 44.9435977], [15.8520959, 44.9430982], [15.855316, 44.9411711], [15.8559968, 44.9409732], [15.8566846, 44.9410074], [15.8565187, 44.9408239], [15.8564698, 44.9406496], [15.8565348, 44.9402134], [15.8565944, 44.9398244], [15.8567315, 44.9393237], [15.8568556, 44.9380586], [15.8573526, 44.9372803], [15.8578105, 44.9369484], [15.8563826, 44.9367882], [15.8553069, 44.9368725], [15.8545859, 44.936789], [15.8538065, 44.936568], [15.8527262, 44.9366863], [15.8521338, 44.9360542], [15.8519378, 44.9356832], [15.8515843, 44.9353501], [15.8511658, 44.9349342], [15.8509532, 44.9345351], [15.850649, 44.9343796], [15.8503151, 44.9342797], [15.8499544, 44.9342945], [15.8496362, 44.93449], [15.8493771, 44.9342546], [15.8487029, 44.9332496], [15.8483709, 44.9321678], [15.8480389, 44.9319358], [15.8475787, 44.9317284], [15.8470208, 44.9314259], [15.8466298, 44.930837], [15.846612, 44.9302778], [15.8470507, 44.9296889], [15.8474347, 44.9294468], [15.8475334, 44.9291921], [15.84765, 44.9288303], [15.8479021, 44.9285536], [15.8481486, 44.9285272], [15.8484124, 44.9284581], [15.8485974, 44.9282909], [15.8484855, 44.9277232], [15.8489454, 44.9276901], [15.8494734, 44.9275453], [15.8476096, 44.9232558], [15.8469496, 44.9214479], [15.8459724, 44.9192872], [15.845403, 44.9169798], [15.8439984, 44.9145835], [15.8442695, 44.9146425], [15.8445698, 44.9146473], [15.8448649, 44.9145154], [15.8454112, 44.9140704], [15.845927, 44.9137185], [15.8464428, 44.9134517], [15.8471096, 44.9132322], [15.8478664, 44.9131403], [15.8487074, 44.9128673], [15.8495572, 44.912467], [15.8500812, 44.9123197], [15.850996, 44.9120517], [15.8517007, 44.9117611], [15.8518602, 44.9116769], [15.8519404, 44.9115576], [15.8520315, 44.9110946], [15.8523128, 44.9105053], [15.8526466, 44.9100484], [15.8530141, 44.9097175], [15.8534415, 44.909516], [15.8539253, 44.9090966], [15.8542219, 44.9086761], [15.8546606, 44.9081556], [15.8551862, 44.907826], [15.8557882, 44.90744], [15.8560067, 44.9073864], [15.85599, 44.9072239], [15.8560379, 44.9070941], [15.8577293, 44.9046208], [15.8586013, 44.9036729], [15.8590515, 44.9035134], [15.860314, 44.9025162], [15.8607216, 44.9018952], [15.8614379, 44.9024683], [15.8618924, 44.9017619], [15.862207, 44.9014263], [15.8633334, 44.9016463], [15.8636228, 44.9011679], [15.8639057, 44.9009209], [15.8644357, 44.9009428], [15.8652978, 44.9008687], [15.8655897, 44.9005959], [15.8657655, 44.9004629], [15.8659204, 44.9004476], [15.8662859, 44.9004759], [15.8666479, 44.9000164], [15.8668524, 44.8996738], [15.8669942, 44.8997128], [15.8676687, 44.900108], [15.8684151, 44.9004626], [15.8686579, 44.9004802], [15.8693473, 44.9004405], [15.8692992, 44.9008159], [15.8702847, 44.9010758], [15.8718829, 44.901416], [15.873083, 44.9016946], [15.8728108, 44.9022318], [15.8747148, 44.9028455], [15.874949, 44.90253], [15.8752282, 44.9019753], [15.876007, 44.9021637], [15.8757604, 44.9024727], [15.8754463, 44.9028348], [15.8759809, 44.9029895], [15.8775885, 44.9038313], [15.8782377, 44.9028818], [15.8782969, 44.9025461], [15.8786284, 44.9021745], [15.8790022, 44.901697], [15.8791023, 44.9011287], [15.8790991, 44.9005083], [15.8820815, 44.9003788], [15.8833496, 44.9003275], [15.8844762, 44.8997169], [15.8856534, 44.8996815], [15.8860352, 44.8995856], [15.8864729, 44.8987989], [15.8875513, 44.8981998], [15.8877995, 44.8984346], [15.8883947, 44.8984063], [15.8886146, 44.8980478], [15.8909563, 44.8972415], [15.8925416, 44.8967412], [15.8934717, 44.8965865], [15.8940142, 44.8964302], [15.895137, 44.8959012], [15.8958675, 44.8953561], [15.8965209, 44.8950796], [15.8974524, 44.894446], [15.8981893, 44.8938636], [15.8987387, 44.8931423], [15.8989417, 44.8927377], [15.8994773, 44.892441], [15.9000016, 44.8921121], [15.8999867, 44.8917603], [15.900161, 44.8907772], [15.9002167, 44.8903707], [15.9006656, 44.8895614], [15.9011067, 44.8881582], [15.901919, 44.8881735], [15.9019856, 44.8878272], [15.9019925, 44.8874492], [15.902385, 44.8865848], [15.9006762, 44.8844835], [15.9007696, 44.8841754], [15.9019174, 44.8842229], [15.9046182, 44.8842527], [15.9055187, 44.8841771], [15.9067295, 44.8843633], [15.9071886, 44.8846409], [15.9117075, 44.8855155], [15.9139485, 44.8857582], [15.9161787, 44.8871922], [15.9191457, 44.8884261], [15.9206105, 44.8890215], [15.9220215, 44.8900961], [15.9231939, 44.892043], [15.9236049, 44.8926749], [15.9244174, 44.8934327], [15.9248058, 44.8937169], [15.9250325, 44.8938277], [15.9270525, 44.8944838], [15.9285822, 44.8948782], [15.9290883, 44.8951085], [15.9299212, 44.8955691], [15.9302484, 44.8956641], [15.9308072, 44.895759], [15.9313492, 44.8960027], [15.9316522, 44.8962437], [15.9322552, 44.8967748], [15.9327739, 44.8970085], [15.9334, 44.8971328], [15.9339266, 44.8971827], [15.9346463, 44.8972053], [15.9359398, 44.8977248], [15.9365507, 44.8982285], [15.9371401, 44.8984161], [15.9374245, 44.8987405], [15.9409295, 44.9009309], [15.9416193, 44.9013612], [15.9428958, 44.9025014], [15.9436173, 44.9026948], [15.9444116, 44.9035326], [15.9447665, 44.9038105], [15.9449317, 44.9038898], [15.9454082, 44.9039624], [15.946236, 44.9040337], [15.9470482, 44.9040036], [15.9486458, 44.9037911], [15.9507922, 44.9038504], [15.9521136, 44.9042624], [15.95429, 44.9053359], [15.9556689, 44.9059584], [15.9587173, 44.9063626], [15.9614081, 44.9080266], [15.9650552, 44.9100779], [15.9664503, 44.9104832], [15.9705091, 44.9101856], [15.9729223, 44.9102854], [15.9740721, 44.9102638], [15.9771531, 44.9094701], [15.9801383, 44.9099882], [15.9805234, 44.9100017], [15.9814577, 44.9099119], [15.9816164, 44.9099332], [15.9818998, 44.9099888], [15.9822343, 44.9101309], [15.9827617, 44.9102866], [15.9839966, 44.9103819], [15.9869586, 44.9107798], [15.9878433, 44.9108715], [15.9888159, 44.9107763], [15.9898785, 44.9106106], [15.9912769, 44.9098995], [15.9920232, 44.9090594], [15.9918377, 44.9063776], [15.9921407, 44.9050109], [15.9926772, 44.9039366], [15.9947524, 44.9030019], [15.9972311, 44.9019832], [16.000505, 44.9015834], [16.002239, 44.9010911], [16.003798, 44.9010427], [16.0048202, 44.9015172], [16.0057197, 44.9016857], [16.0067521, 44.9021224], [16.0079787, 44.9037199], [16.0086701, 44.9040356], [16.0100472, 44.9041601], [16.0118402, 44.9036141], [16.0134461, 44.9030269], [16.0154518, 44.9030234], [16.0165593, 44.9031067], [16.0190835, 44.9040013], [16.0227551, 44.9044085], [16.0264047, 44.904325], [16.0282987, 44.9040535], [16.0299497, 44.9033769], [16.0345454, 44.9020644], [16.0399099, 44.8996299], [16.0427879, 44.8982462], [16.0454866, 44.8970598], [16.0480478, 44.8947641], [16.0492801, 44.8924568], [16.0506102, 44.8913239], [16.0522146, 44.890698], [16.0537738, 44.890024], [16.0569249, 44.8880896], [16.0585925, 44.8869295], [16.0592753, 44.8860666], [16.0598137, 44.8851829], [16.0613927, 44.8843675], [16.0627514, 44.8838827], [16.064246, 44.883422], [16.0692916, 44.8906085], [16.0640945, 44.8952684], [16.056195, 44.9002959], [16.0518415, 44.9134564], [16.0522642, 44.9135626], [16.0527915, 44.9141238], [16.053368, 44.9143679], [16.0537512, 44.9144067], [16.0554393, 44.9140283], [16.0574368, 44.9134347], [16.0578539, 44.9133641], [16.0577959, 44.9145193], [16.0587333, 44.9145878], [16.0600618, 44.9148605], [16.0614948, 44.9150171], [16.0626691, 44.9153597], [16.0641764, 44.9165228], [16.0652297, 44.9178272], [16.0665297, 44.9197885], [16.064947, 44.9204325], [16.0655821, 44.9207714], [16.0663212, 44.9209942], [16.0669731, 44.921344], [16.067078, 44.9230954], [16.0669939, 44.9241635], [16.0692617, 44.924345], [16.0694075, 44.9246543], [16.0697658, 44.9249612], [16.0705145, 44.9251207], [16.0712833, 44.9250529], [16.0710645, 44.9257391], [16.0710279, 44.9266094], [16.0708246, 44.9270237], [16.0707041, 44.927493], [16.0707897, 44.9279435], [16.0707631, 44.9282784], [16.0705808, 44.9287127], [16.0694279, 44.9297024], [16.0690286, 44.9302208], [16.0686214, 44.930721], [16.0686553, 44.9310017], [16.0684384, 44.9315663], [16.0683461, 44.931838], [16.0680449, 44.932092], [16.0675087, 44.9324948], [16.0673368, 44.9325476], [16.0670417, 44.9325951], [16.0668713, 44.9327073], [16.0668309, 44.9328748], [16.0667892, 44.9332098], [16.0665942, 44.9335003], [16.0663762, 44.9337011], [16.0659279, 44.9339304], [16.0657723, 44.9339932], [16.0655194, 44.934163], [16.0652608, 44.9343061], [16.0651342, 44.934521], [16.0650595, 44.934806], [16.065134, 44.9351496], [16.0651784, 44.9354539], [16.0650941, 44.9357022], [16.0649762, 44.9359575], [16.0645512, 44.9364171], [16.0656907, 44.9362729], [16.0658131, 44.9369996], [16.0662481, 44.9375594], [16.0656105, 44.9383122], [16.0652577, 44.9385324], [16.064668, 44.9387426], [16.064418, 44.9392014], [16.0643174, 44.9395934], [16.0649919, 44.9397133], [16.0647629, 44.9402221], [16.0648579, 44.9405447], [16.064851, 44.9410877], [16.0648816, 44.9416663], [16.065147, 44.9420939], [16.0659648, 44.9425321], [16.066147, 44.9426674], [16.0662051, 44.9428482], [16.066214, 44.9435475], [16.0660536, 44.9439144], [16.0656276, 44.9446527], [16.0655485, 44.9457417], [16.0651955, 44.9474523], [16.0651904, 44.9480964], [16.0656337, 44.9488251], [16.0658479, 44.9495026], [16.0657931, 44.9501695], [16.0648238, 44.9512821], [16.0645335, 44.9518735], [16.064286, 44.9525915], [16.0643261, 44.9528362], [16.0645626, 44.9529799], [16.0647182, 44.953176], [16.0647576, 44.9534204], [16.0647446, 44.9535802], [16.0644945, 44.9539103], [16.0639034, 44.9546565], [16.0637796, 44.9550137], [16.0638558, 44.9552207], [16.0639513, 44.9552985], [16.0640964, 44.9553171], [16.0643881, 44.9552915], [16.0647543, 44.955298], [16.0650479, 44.9554532], [16.0652793, 44.9556505], [16.0654848, 44.956302], [16.0659677, 44.9580858], [16.0664835, 44.958413], [16.0666988, 44.958397], [16.0666053, 44.9599055], [16.0665684, 44.9606688], [16.0667868, 44.9611345], [16.0676321, 44.9613073], [16.0672412, 44.9616695], [16.0669313, 44.9623242], [16.0666263, 44.96288], [16.0663131, 44.9633905], [16.0661007, 44.9637926], [16.0655803, 44.964717], [16.0652795, 44.9653348], [16.0650507, 44.9655326], [16.0646666, 44.9657433], [16.0643401, 44.9658223], [16.0639836, 44.9658589], [16.0631853, 44.9660048], [16.0626737, 44.9661471], [16.0626298, 44.9663089], [16.0627016, 44.9665502], [16.0622853, 44.9669067], [16.061653, 44.9673046], [16.0614291, 44.9675104], [16.0613061, 44.9677197], [16.0607932, 44.9683525], [16.0605368, 44.9688712], [16.0605171, 44.9692596], [16.0605663, 44.9696945], [16.0607487, 44.9699096], [16.0607748, 44.9700481], [16.060752, 44.9701642], [16.0604986, 44.9705338], [16.0600328, 44.9708377], [16.0595842, 44.9710504], [16.0593107, 44.9712091], [16.0590332, 44.9712424], [16.0585097, 44.9712399], [16.0575551, 44.9718381], [16.0568231, 44.9723316], [16.0563108, 44.9728016], [16.0558627, 44.9734575], [16.0548468, 44.9745531], [16.0546783, 44.9748702], [16.0546518, 44.9753447], [16.0544933, 44.9755493], [16.0540877, 44.9759046], [16.0531424, 44.9765851], [16.0527357, 44.9768328], [16.0525684, 44.976882], [16.052349, 44.9769082], [16.0519111, 44.9769679], [16.051192, 44.977175], [16.0503674, 44.9774057], [16.0497887, 44.9774844], [16.0494664, 44.9774341], [16.0487153, 44.977304], [16.0483757, 44.9773017], [16.048121, 44.9773526], [16.0478684, 44.9774211], [16.0476491, 44.9777476], [16.0473692, 44.9780825], [16.0469278, 44.9783635], [16.0465373, 44.9785699], [16.0456889, 44.9788169], [16.0433007, 44.9793652], [16.0418581, 44.9796881], [16.0412374, 44.9797841], [16.040167, 44.9797466], [16.0394837, 44.979848], [16.0388687, 44.9799001], [16.0385921, 44.9799517], [16.0382511, 44.9800611], [16.0375187, 44.9802816], [16.0368667, 44.9806475], [16.0362324, 44.9810424], [16.0359192, 44.9815729], [16.0356506, 44.9818652], [16.0354184, 44.9820127], [16.0350126, 44.9821251], [16.0349291, 44.9822495], [16.0349568, 44.982355], [16.0350696, 44.9826093], [16.0350494, 44.9828486], [16.0350217, 44.9832431], [16.0349436, 44.9834102], [16.0348506, 44.9835631], [16.0339665, 44.9833311], [16.0335983, 44.983241], [16.0326582, 44.9831565], [16.0314786, 44.9832785], [16.0312637, 44.9832924], [16.0309262, 44.9832556], [16.0307539, 44.9832634], [16.0303818, 44.9833861], [16.0299663, 44.9833948], [16.0293912, 44.9833303], [16.0292179, 44.9832476], [16.0290446, 44.9830365], [16.0288968, 44.982726], [16.0287434, 44.9826136], [16.0287311, 44.9827983], [16.0288046, 44.9829173], [16.0288554, 44.9830255], [16.0288398, 44.9830894], [16.028657, 44.9831048], [16.028496, 44.9831517], [16.0282646, 44.9833471], [16.0280749, 44.9835063], [16.0275068, 44.9838281], [16.02738, 44.9839156], [16.0272137, 44.9839658], [16.0270392, 44.9841407], [16.025988, 44.984882], [16.0255005, 44.9851459], [16.0248037, 44.9856424], [16.0242483, 44.9862494], [16.0239525, 44.9865033], [16.0230178, 44.9866317], [16.0215844, 44.9866673], [16.0195699, 44.9872066], [16.0183305, 44.9877632], [16.0177039, 44.9888371], [16.0173109, 44.9895411], [16.0166517, 44.98989], [16.0168047, 44.9899895], [16.0168804, 44.9901549], [16.0170621, 44.9903286], [16.0172552, 44.9904369], [16.0176204, 44.9904884], [16.0177727, 44.9905971], [16.018171, 44.9908557], [16.0181435, 44.9911081], [16.0178466, 44.9908794], [16.0176299, 44.9907085], [16.0172964, 44.990678], [16.0169426, 44.9906805], [16.0163439, 44.9905206], [16.0161927, 44.9910272], [16.0162406, 44.9912169], [16.0163905, 44.9915355], [16.0167503, 44.9918915], [16.0168859, 44.9921102], [16.0168513, 44.9923395], [16.016789, 44.9925516], [16.016769, 44.9927435], [16.0169864, 44.9930128], [16.0172875, 44.993401], [16.0176141, 44.9939325], [16.0177317, 44.9944695], [16.0176682, 44.9949518], [16.017663, 44.9954002], [16.017781, 44.995698], [16.0181069, 44.9962031], [16.0181163, 44.9964993], [16.0181567, 44.9970513], [16.0181091, 44.9972205], [16.0179397, 44.9973998], [16.0178824, 44.9975575], [16.0180393, 44.9979718], [16.0181132, 44.9987562], [16.0182587, 44.9989952], [16.0184153, 44.99917], [16.0183798, 44.9999976], [16.0183794, 45.0010798], [16.0182788, 45.0013649], [16.018371, 45.0014908], [16.0185068, 45.0016329], [16.0182696, 45.0024742], [16.0181947, 45.0028554], [16.0179791, 45.0031147], [16.0176608, 45.0033578], [16.0172861, 45.0037853], [16.0171429, 45.0040925], [16.0165434, 45.0045519], [16.0162732, 45.0048267], [16.0159963, 45.0050449], [16.0157411, 45.0054427], [16.0155111, 45.0056105], [16.0148401, 45.0062867], [16.0147609, 45.0065447], [16.0145914, 45.0067769], [16.0144192, 45.0068124], [16.0140123, 45.006834], [16.0133865, 45.0070568], [16.0127431, 45.0073109], [16.0124533, 45.0073788], [16.0120532, 45.0073173], [16.0117709, 45.0073464], [16.0114294, 45.0076175], [16.0109046, 45.0080335], [16.0104896, 45.0084157], [16.0101771, 45.0085774], [16.0100884, 45.0088207], [16.0097802, 45.0089184], [16.0094886, 45.0093389], [16.0090165, 45.0095919], [16.0087384, 45.0094826], [16.008515, 45.0096767], [16.0082752, 45.0098225], [16.0076423, 45.0100416], [16.0074403, 45.0101741], [16.0074863, 45.0104464], [16.0076732, 45.0105694], [16.0080358, 45.0106323], [16.0081909, 45.0108907], [16.0080972, 45.0111897], [16.0078224, 45.0114469], [16.0072921, 45.0116298], [16.0066926, 45.0117291], [16.0063692, 45.0118422], [16.006129, 45.0120886], [16.0061428, 45.0124009], [16.0058567, 45.0130364], [16.0055849, 45.0131558], [16.0052655, 45.0132933], [16.0050225, 45.0134367], [16.0041067, 45.0136286], [16.0036484, 45.0140482], [16.0030212, 45.0146433], [16.002529, 45.0149727], [16.0020488, 45.0151355], [16.0017445, 45.0152613], [16.0017015, 45.015452], [16.0014184, 45.0155304], [16.0011274, 45.0155304], [16.0009284, 45.015577], [16.0004599, 45.0161066], [16.0002689, 45.0162106], [16.0001222, 45.0162905], [15.9997346, 45.0163538], [15.9992316, 45.0163231], [15.9985568, 45.0165231], [15.998208, 45.0164719], [15.997838, 45.0167581], [15.9974214, 45.0169601], [15.996981, 45.0171457], [15.9965411, 45.0174824], [15.9962232, 45.0177281], [15.9955933, 45.017895], [15.9952779, 45.0181073], [15.9949905, 45.0185017], [15.9946066, 45.0185927], [15.9941109, 45.0185745], [15.9934818, 45.0188752], [15.9931386, 45.0191114], [15.9928838, 45.0196211], [15.9925386, 45.0199372], [15.9922607, 45.0200279], [15.9920771, 45.0200109], [15.9919338, 45.019899], [15.9918638, 45.0198391], [15.9917651, 45.0198877], [15.9916755, 45.0200155], [15.9913849, 45.0199581], [15.9912198, 45.0202368], [15.990938, 45.0205079], [15.9907495, 45.0207535], [15.9904122, 45.0208722], [15.9901893, 45.0209921], [15.9901943, 45.0211987], [15.9897911, 45.0214619], [15.9894083, 45.0217551], [15.9889787, 45.0219342], [15.9887944, 45.0222013], [15.9886646, 45.0222849], [15.9887372, 45.0225697], [15.9888852, 45.0229278], [15.9889251, 45.0231727], [15.9890567, 45.023374], [15.9891269, 45.0238281], [15.9891802, 45.0241186], [15.9892929, 45.0243438], [15.9894518, 45.0245258], [15.9900725, 45.0248551], [15.990388, 45.0249462], [15.9907025, 45.0250206], [15.9906587, 45.0251274], [15.9904372, 45.0252546], [15.9902028, 45.025326], [15.9896635, 45.0254134], [15.9892712, 45.0254364], [15.9891177, 45.0254802], [15.989248, 45.0256031], [15.9892592, 45.0259093], [15.989646, 45.025938], [15.9893753, 45.0266055], [15.9891236, 45.0269256], [15.9892114, 45.0272989], [15.9892191, 45.0275018], [15.988751, 45.0278888], [15.9887158, 45.0286946], [15.9887606, 45.0291439], [15.9887029, 45.0293193], [15.9887372, 45.0296859], [15.9889001, 45.0302285], [15.9892618, 45.0308775], [15.9894107, 45.0310181], [15.9895213, 45.0312635], [15.9896152, 45.0318092], [15.9896212, 45.031952], [15.9893639, 45.0319928], [15.9891676, 45.0320419], [15.9890532, 45.0320339], [15.9889852, 45.0319611], [15.9889334, 45.031938], [15.9887969, 45.031986], [15.988655, 45.0321009], [15.9885103, 45.0322663], [15.9883334, 45.0323631], [15.9881343, 45.0325499], [15.9880088, 45.0325956], [15.9878249, 45.032723], [15.9877084, 45.0328275], [15.9877052, 45.0329073], [15.9877719, 45.0329994], [15.9877272, 45.0331073], [15.9876368, 45.0331379], [15.9874937, 45.0330601], [15.9873494, 45.0330527], [15.9872077, 45.0331438], [15.9871211, 45.0331632], [15.9870116, 45.033128], [15.9868989, 45.0331264], [15.9868191, 45.0331731], [15.9867606, 45.0333182], [15.9865984, 45.0334121], [15.9865042, 45.0334315], [15.9861439, 45.0333624], [15.9859844, 45.0333827], [15.9859364, 45.0334628], [15.98585, 45.0337416], [15.9856008, 45.0339405], [15.984372, 45.0346997], [15.984296, 45.0348199], [15.9842844, 45.0348784], [15.9843846, 45.0349651], [15.9845121, 45.0351091], [15.9844871, 45.0351804], [15.9843937, 45.035237], [15.9841532, 45.0353164], [15.984029, 45.0354881], [15.9838939, 45.0355896], [15.9837413, 45.0358172], [15.9837125, 45.0359431], [15.9837713, 45.0360199], [15.9837503, 45.036102], [15.9837917, 45.0363267], [15.9837053, 45.036374], [15.9836426, 45.0363723], [15.9834521, 45.0362992], [15.9833635, 45.03633], [15.9833273, 45.0364036], [15.983339, 45.036471], [15.9834311, 45.0365709], [15.9834354, 45.0366453], [15.9833832, 45.036664], [15.9832367, 45.0366452], [15.983198, 45.0367083], [15.9832436, 45.0367886], [15.9833148, 45.0368404], [15.9832746, 45.0368773], [15.9831902, 45.0369011], [15.9831445, 45.0369524], [15.9831492, 45.037021], [15.9831255, 45.0370816], [15.9829871, 45.0371713], [15.9829801, 45.0372091], [15.9830158, 45.0372537], [15.9832045, 45.0372983], [15.9834005, 45.0373355], [15.9834591, 45.0373938], [15.9834665, 45.037501], [15.9834504, 45.0375956], [15.9834795, 45.0376622], [15.9836416, 45.0378365], [15.9836445, 45.0379044], [15.9835979, 45.0379504], [15.9834226, 45.0379791], [15.9833036, 45.0380364], [15.9832525, 45.0382249], [15.9831352, 45.0382905], [15.9829717, 45.0383059], [15.9828811, 45.0384083], [15.9828857, 45.0386414], [15.9827515, 45.0387134], [15.9827162, 45.0389348], [15.9825596, 45.0390377], [15.9825509, 45.03923], [15.9826526, 45.0394983], [15.982689, 45.0397037], [15.982634, 45.0397641], [15.9824453, 45.039832], [15.9823496, 45.0398937], [15.9823162, 45.0399537], [15.9823725, 45.0401056], [15.98234, 45.0401846], [15.9821986, 45.0402261], [15.981867, 45.0403806], [15.9818937, 45.0404548], [15.9819431, 45.0406004], [15.9818813, 45.0406961], [15.9816706, 45.0407269], [15.9814599, 45.0407441], [15.9812753, 45.0408735], [15.9811619, 45.0409637], [15.9810007, 45.0409632], [15.9807877, 45.0408661], [15.9806673, 45.040917], [15.9805484, 45.0410683], [15.9801032, 45.0413463], [15.9800495, 45.0414874], [15.979885, 45.0415352], [15.9797903, 45.0415253], [15.9796913, 45.0414942], [15.9796478, 45.0413941], [15.9795021, 45.0414031], [15.9793609, 45.0414803], [15.9792434, 45.041456], [15.9792268, 45.0414003], [15.9791363, 45.0413422], [15.9790244, 45.0413516], [15.9788927, 45.0414733], [15.9784111, 45.0416313], [15.977576, 45.0417275], [15.9772502, 45.0418257], [15.9772251, 45.0421198], [15.9772949, 45.0423871], [15.9771354, 45.0424529], [15.977007, 45.0424709], [15.976855, 45.0424507], [15.9767464, 45.0424886], [15.9763482, 45.0427309], [15.976281, 45.0429205], [15.9759605, 45.0431175], [15.9757814, 45.0433312], [15.9757236, 45.0434998], [15.9755294, 45.0437667], [15.9753537, 45.043861], [15.9750341, 45.0441103], [15.9746203, 45.0443377], [15.9743372, 45.0443472], [15.9742194, 45.0444015], [15.9741706, 45.0444975], [15.9738846, 45.0448814], [15.9736677, 45.0453559], [15.9735396, 45.0454688], [15.9733128, 45.0454439], [15.9730931, 45.0454849], [15.972966, 45.0456909], [15.973076, 45.0457905], [15.9731138, 45.045884], [15.9730325, 45.0459271], [15.9727828, 45.0458804], [15.9726378, 45.0459302], [15.9726669, 45.0460764], [15.9724803, 45.0460997], [15.9722364, 45.0459849], [15.9720324, 45.0460111], [15.97196, 45.0461511], [15.971994, 45.0463103], [15.9716229, 45.0463532], [15.9712157, 45.0466024], [15.9707556, 45.0467719], [15.970649, 45.0471043], [15.9706485, 45.0473386], [15.9707492, 45.0476087], [15.9705527, 45.0480064], [15.9698816, 45.0482565], [15.9692075, 45.0487204], [15.9691417, 45.0489109], [15.9692636, 45.0498046], [15.9692095, 45.0504212], [15.969246, 45.0511112], [15.9694363, 45.0513668], [15.9698098, 45.0515387], [15.9699144, 45.0518526], [15.9698557, 45.0519832], [15.9696583, 45.0520472], [15.9694497, 45.0521001], [15.9692799, 45.0520572], [15.9691993, 45.0521137], [15.9691754, 45.0524808], [15.9691246, 45.0525763], [15.9693057, 45.0526997], [15.9694469, 45.0528728], [15.9693313, 45.0530894], [15.9692212, 45.053155], [15.9690955, 45.0531955], [15.9690522, 45.053353], [15.9688577, 45.0534497], [15.9685501, 45.0535567], [15.9683724, 45.0535589], [15.9683461, 45.0536308], [15.9685177, 45.0537074], [15.9687088, 45.0537743], [15.9688481, 45.0539197], [15.9687748, 45.0540346], [15.968606, 45.05415], [15.9683509, 45.0542093], [15.9683108, 45.0544522], [15.9685211, 45.0545974], [15.9686576, 45.0547454], [15.9686037, 45.054867], [15.9684526, 45.0549728], [15.9683264, 45.055151], [15.9682833, 45.0553459], [15.9680551, 45.0555246], [15.9678088, 45.0555669], [15.967733, 45.055601], [15.967647, 45.0557829], [15.9674982, 45.05579], [15.9674111, 45.0556814], [15.9673352, 45.05566], [15.967161, 45.0557966], [15.9671937, 45.0559694], [15.9671844, 45.0561251], [15.9670088, 45.0561726], [15.9667697, 45.0561409], [15.9663471, 45.0562229], [15.9662631, 45.0563477], [15.9661301, 45.0564172], [15.9660585, 45.0563873], [15.9660498, 45.0561955], [15.965965, 45.0560812], [15.9657656, 45.0561797], [15.9655461, 45.0562091], [15.9653566, 45.0563501], [15.9653747, 45.0564671], [15.9656115, 45.0566054], [15.9655929, 45.0567352], [15.9654737, 45.056859], [15.9652621, 45.0569107], [15.9651762, 45.0569916], [15.9652452, 45.0571417], [15.9653849, 45.0572627], [15.9653202, 45.0573423], [15.9651017, 45.0573635], [15.9649988, 45.0573853], [15.9649764, 45.0574657], [15.9650635, 45.057605], [15.9647647, 45.0578585], [15.9646386, 45.0580076], [15.9647221, 45.0583888], [15.9646326, 45.0584604], [15.9646208, 45.0586192], [15.9647119, 45.0587199], [15.9648844, 45.058763], [15.9649549, 45.0588491], [15.9649584, 45.0590517], [15.9647939, 45.0592569], [15.9647924, 45.0593198], [15.9649474, 45.0593499], [15.9654566, 45.0592463], [15.9655177, 45.0593083], [15.9655056, 45.0595159], [15.9655981, 45.0595905], [15.9655357, 45.0597337], [15.9654081, 45.0598063], [15.9651287, 45.0598385], [15.9649108, 45.0602425], [15.9648582, 45.0608895], [15.9645914, 45.0613047], [15.9640489, 45.0618177], [15.9639478, 45.0617153], [15.9639875, 45.0615389], [15.9640715, 45.0613705], [15.9640329, 45.0612736], [15.9641023, 45.0611198], [15.964044, 45.0610556], [15.9639008, 45.0610476], [15.9638095, 45.0609674], [15.963666, 45.0609721], [15.9635817, 45.0610306], [15.9634384, 45.0609855], [15.9632388, 45.0608881], [15.9631406, 45.0607178], [15.9629337, 45.0603855], [15.9627892, 45.0603228], [15.9627393, 45.0602288], [15.9625551, 45.0602266], [15.9623058, 45.0601514], [15.9620276, 45.0601597], [15.9617547, 45.0600039], [15.9609231, 45.0599376], [15.9600492, 45.05963], [15.9590928, 45.0594689], [15.9588392, 45.0595428], [15.9587112, 45.0596408], [15.9585833, 45.0596735], [15.9584872, 45.0595989], [15.9585073, 45.0594295], [15.9583585, 45.0593341], [15.9578323, 45.0594471], [15.9577986, 45.0595457], [15.9579093, 45.0596501], [15.9578548, 45.059815], [15.9578382, 45.0599676], [15.957649, 45.0600739], [15.9573842, 45.0600845], [15.9572802, 45.0599996], [15.9572754, 45.0598897], [15.9570606, 45.059863], [15.9568001, 45.0597715], [15.9565899, 45.0598386], [15.9564187, 45.0596981], [15.9562163, 45.0596287], [15.9559203, 45.0597802], [15.9558861, 45.059912], [15.9556554, 45.0599645], [15.9555216, 45.0598712], [15.9552427, 45.0598737], [15.9551229, 45.0599621], [15.954728, 45.0597143], [15.9540909, 45.0594235], [15.9527144, 45.0592378], [15.9524696, 45.0593642], [15.9523932, 45.0594575], [15.9521466, 45.0593718], [15.9516446, 45.0592548], [15.9511853, 45.0592693], [15.9509482, 45.0593795], [15.9511145, 45.0595749], [15.950962, 45.0597247], [15.9507357, 45.0597407], [15.9506123, 45.0597674], [15.9505826, 45.0599], [15.9504295, 45.0598742], [15.9503104, 45.0598887], [15.9500349, 45.0597658], [15.949856, 45.0598555], [15.9497767, 45.0599178], [15.9494728, 45.0599933], [15.9494469, 45.0598634], [15.9490151, 45.0598134], [15.9488945, 45.0596618], [15.9483676, 45.0595286], [15.9475882, 45.0591974], [15.9470716, 45.0591105], [15.9463539, 45.0590999], [15.9461807, 45.0589782], [15.9463084, 45.0586568], [15.94626, 45.0580642], [15.9460522, 45.0574169], [15.9459345, 45.0571902], [15.9455238, 45.0570542], [15.9455743, 45.0568732], [15.9453437, 45.0567245], [15.9452466, 45.0566761], [15.9452484, 45.0565388], [15.9449979, 45.0565961], [15.9448156, 45.0567568], [15.9446334, 45.0567656], [15.944436, 45.0566709], [15.9439087, 45.0568667], [15.9425393, 45.0577865], [15.9421732, 45.0582932], [15.9405742, 45.0591271], [15.9403052, 45.0592967], [15.9402, 45.0592255], [15.9401485, 45.0592133], [15.9401228, 45.0592543], [15.9401099, 45.0593482], [15.9400498, 45.0594407], [15.9399339, 45.0594801], [15.9398981, 45.0594801], [15.9398781, 45.0594801], [15.9397344, 45.0594362], [15.9394104, 45.0591406], [15.9391207, 45.0590542], [15.9386207, 45.0590406], [15.9378719, 45.059036], [15.9376229, 45.0589572], [15.9370758, 45.0587435], [15.9369578, 45.0589481], [15.9367804, 45.0595034], [15.9368993, 45.0600114], [15.9367691, 45.0603594], [15.9369503, 45.0604914], [15.9368314, 45.0608834], [15.9361519, 45.0612994], [15.9356875, 45.0615914], [15.9351835, 45.0619513], [15.9349174, 45.0620313], [15.9348777, 45.0618073], [15.9347305, 45.0616194], [15.9343568, 45.0613794], [15.9338358, 45.0610194], [15.933094, 45.0604754], [15.9328845, 45.0602754], [15.9319445, 45.0607394], [15.9323578, 45.0611234], [15.932573, 45.0613354], [15.9319048, 45.0615354], [15.9323239, 45.0620193], [15.9312366, 45.0623193], [15.9310724, 45.0624473], [15.9295661, 45.0623513], [15.9289715, 45.0624113], [15.928796, 45.0625673], [15.9287677, 45.0627353], [15.9288017, 45.0629033], [15.9287337, 45.0631273], [15.9287337, 45.0633753], [15.9289092, 45.0638672], [15.9290395, 45.0642672], [15.9290168, 45.0644552], [15.9289602, 45.0646471], [15.9286997, 45.0648511], [15.9287337, 45.0646031], [15.9286318, 45.0643232], [15.9284732, 45.0641512], [15.9282977, 45.0640592], [15.927771, 45.0639512], [15.9276861, 45.0644632], [15.9276012, 45.0648231], [15.927301, 45.0648151], [15.9268593, 45.0650271], [15.9265422, 45.0654351], [15.925959, 45.0654271], [15.9251662, 45.065627], [15.9244527, 45.065891], [15.9237675, 45.066091], [15.9232748, 45.066363], [15.9230823, 45.0667629], [15.923054, 45.0672068], [15.9232126, 45.0678348], [15.9230823, 45.0686706], [15.9227142, 45.0686466], [15.922516, 45.0687266], [15.9222159, 45.0689746], [15.9220347, 45.0691945], [15.9219611, 45.0693265], [15.92161, 45.0694425], [15.9210437, 45.0694465], [15.9205964, 45.0694465], [15.9203641, 45.0696223], [15.9202926, 45.0698842], [15.9201104, 45.0700082], [15.9193884, 45.0701368], [15.9180614, 45.0703665], [15.9176777, 45.0705457], [15.9168646, 45.0708489], [15.9165003, 45.0710464], [15.9159344, 45.0715288], [15.9157327, 45.0713496], [15.9153875, 45.0713369], [15.9152319, 45.0713312], [15.9151733, 45.0714966], [15.9149131, 45.0717171], [15.9145554, 45.0720524], [15.9141391, 45.072227], [15.9136772, 45.072544], [15.9133325, 45.0727139], [15.9128511, 45.0728104], [15.9122657, 45.0735362], [15.9116608, 45.0738761], [15.911303, 45.0740369], [15.9099825, 45.0740645], [15.9096963, 45.0740185], [15.9094687, 45.0740369], [15.9090272, 45.0741913], [15.9089348, 45.0743087], [15.9086783, 45.0742261], [15.9082484, 45.0749972], [15.9073912, 45.0749462], [15.9068282, 45.074953], [15.9063785, 45.0749958], [15.9065179, 45.0753937], [15.9067063, 45.0758356], [15.9070538, 45.0764105], [15.9071292, 45.0766013], [15.9073138, 45.0769346], [15.9075283, 45.0772377], [15.9077343, 45.0778165], [15.9076743, 45.0780528], [15.9075369, 45.0781741], [15.9070262, 45.0781589], [15.906846, 45.0782771], [15.9064812, 45.0782801], [15.906198, 45.0783316], [15.9060478, 45.0784347], [15.9061937, 45.0792802], [15.9060606, 45.0794074], [15.9057817, 45.0795105], [15.9053955, 45.0797165], [15.9053568, 45.079859], [15.9045457, 45.0802135], [15.9044084, 45.0803468], [15.9046573, 45.0805074], [15.9045371, 45.0807165], [15.9046874, 45.0812377], [15.9047732, 45.081362], [15.903769, 45.0824711], [15.9036102, 45.0831407], [15.9037943, 45.0834768], [15.9038157, 45.0837435], [15.9037385, 45.084304], [15.9037042, 45.0845283], [15.9033522, 45.0844434], [15.9029102, 45.0842071], [15.9025454, 45.0840737], [15.9022364, 45.0840374], [15.9019875, 45.0840646], [15.901026, 45.0844556], [15.9005067, 45.0846828], [15.8998329, 45.0851646], [15.8996527, 45.0852555], [15.8993866, 45.0852858], [15.8991377, 45.0852586], [15.8989102, 45.0851464], [15.8979017, 45.0843435], [15.8976657, 45.0842374], [15.8973353, 45.084195], [15.8969876, 45.0841253], [15.8966143, 45.0839465], [15.8962667, 45.0839253], [15.8960006, 45.0838799], [15.8957002, 45.0839586], [15.8954298, 45.0841859], [15.8950764, 45.0845437], [15.8944488, 45.0849157], [15.8940266, 45.0853325], [15.893851, 45.0856015], [15.893724, 45.0857413], [15.8930216, 45.0860051], [15.8926592, 45.0862319], [15.8923902, 45.0865696], [15.8922109, 45.0869125], [15.8920465, 45.0874506], [15.8919905, 45.0880678], [15.8919793, 45.0882973], [15.8921773, 45.0886402], [15.8924836, 45.0895792], [15.8925322, 45.0899537], [15.8924201, 45.0902623], [15.892181, 45.0904733], [15.8916057, 45.0908637], [15.8914263, 45.0910378], [15.8911984, 45.091349], [15.8911536, 45.0916681], [15.8911461, 45.0918765], [15.8910639, 45.092098], [15.8906754, 45.092491], [15.8901449, 45.0928339], [15.8898946, 45.092942], [15.8893827, 45.0929499], [15.8889606, 45.0929236], [15.8886729, 45.0929368], [15.8875446, 45.0925411], [15.8872719, 45.0924066], [15.8874811, 45.0920321], [15.8876193, 45.0916576], [15.8877837, 45.0914387], [15.8878211, 45.0913437], [15.8877912, 45.0912619], [15.8876754, 45.0912593], [15.8874961, 45.0911907], [15.8874886, 45.0910984], [15.8876044, 45.0909191], [15.8875857, 45.0907977], [15.8874213, 45.0907951], [15.8873504, 45.090687], [15.8873242, 45.0905155], [15.887171, 45.0905182], [15.8870477, 45.0906078], [15.8869431, 45.0905946], [15.8869132, 45.0904971], [15.8867152, 45.0904338], [15.8867302, 45.0903467], [15.8867563, 45.0902148], [15.8866443, 45.0901383], [15.8865172, 45.0901779], [15.8863566, 45.0901146], [15.8863902, 45.08993], [15.886577, 45.089355], [15.8867862, 45.0886323], [15.8868497, 45.0880256], [15.8866928, 45.0878515], [15.8867115, 45.0876985], [15.8866517, 45.087535], [15.8867115, 45.0874532], [15.886902, 45.0874796], [15.8869954, 45.0874242], [15.8870365, 45.0871604], [15.8870179, 45.0870707], [15.8868572, 45.0869916], [15.8866667, 45.0868861], [15.8866779, 45.0867832], [15.8868161, 45.0866909], [15.8869693, 45.0867648], [15.8871598, 45.086741], [15.8872159, 45.0866434], [15.8874101, 45.0861475], [15.8877949, 45.0861185], [15.8879108, 45.0860077], [15.8878174, 45.0858521], [15.8878061, 45.0857202], [15.8876754, 45.0856279], [15.8874811, 45.0855699], [15.8873317, 45.0853615], [15.8869768, 45.0849843], [15.8868086, 45.0849025], [15.886633, 45.0846783], [15.8867713, 45.0846361], [15.8868946, 45.0845569], [15.8868198, 45.0843037], [15.8866069, 45.0840821], [15.8864537, 45.0838394], [15.886521, 45.0838078], [15.8868423, 45.0837919], [15.8870814, 45.0837049], [15.8873541, 45.0835783], [15.8875745, 45.0833804], [15.8877352, 45.0832512], [15.8877352, 45.0828529], [15.8877949, 45.0822567], [15.8878697, 45.0817476], [15.8877688, 45.0812727], [15.8877202, 45.0811408], [15.8876081, 45.081096], [15.8874176, 45.0809667], [15.8873391, 45.080724], [15.8872906, 45.0803336], [15.8872831, 45.0801173], [15.8874064, 45.0799484], [15.8874288, 45.079864], [15.887384, 45.0797506], [15.8872868, 45.0795448], [15.887313, 45.0793153], [15.8874363, 45.0786848], [15.8875259, 45.0784896], [15.8875521, 45.0782126], [15.8876754, 45.0779646], [15.8878958, 45.0779092], [15.8880714, 45.0778116], [15.8882096, 45.0776533], [15.8882694, 45.0775029], [15.8881723, 45.0772839], [15.8882993, 45.0771283], [15.8884076, 45.0770518], [15.888445, 45.0769119], [15.888445, 45.0767167], [15.8883703, 45.0765505], [15.8882096, 45.0762946], [15.8878174, 45.076007], [15.8876455, 45.0757933], [15.8875895, 45.0755216], [15.8876642, 45.0753132], [15.8876717, 45.0751338], [15.8875857, 45.0749253], [15.8875895, 45.0748277], [15.887653, 45.0746615], [15.8877837, 45.0745349], [15.8878174, 45.0744452], [15.8877576, 45.0743475], [15.887638, 45.074271], [15.8874849, 45.0741022], [15.8873055, 45.07387], [15.8871636, 45.0736616], [15.8871411, 45.0733212], [15.8871, 45.0731867], [15.8871523, 45.0730205], [15.8874876, 45.0727537], [15.8873712, 45.0726754], [15.8872644, 45.0725904], [15.8870265, 45.0725704], [15.8864942, 45.0723785], [15.8862847, 45.0723585], [15.885826, 45.0723465], [15.8855321, 45.0722998], [15.8851759, 45.0721846], [15.8849999, 45.0720968], [15.8846566, 45.0721362], [15.8842789, 45.0720937], [15.8837554, 45.0721543], [15.8836223, 45.0722483], [15.8834807, 45.0723241], [15.8832962, 45.0723241], [15.8830988, 45.0721937], [15.8830644, 45.0720331], [15.8829872, 45.0719452], [15.8825795, 45.0719028], [15.8815667, 45.0716906], [15.8810646, 45.0716573], [15.8805067, 45.071633], [15.8801247, 45.0716452], [15.8795196, 45.0717785], [15.8788845, 45.0719664], [15.8786313, 45.0721331], [15.8784596, 45.0721998], [15.8782879, 45.0722028], [15.8777858, 45.0721968], [15.8773223, 45.072315], [15.8766185, 45.072418], [15.8757001, 45.0723422], [15.874889, 45.0723574], [15.8740822, 45.0723695], [15.8741337, 45.0724998], [15.8738762, 45.0725483], [15.8734171, 45.0725847], [15.8733055, 45.0725756], [15.8732711, 45.0723271], [15.8731295, 45.0721604], [15.8728205, 45.0719907], [15.8726274, 45.0717179], [15.871679, 45.0712481], [15.8708078, 45.0709754], [15.8704387, 45.0707238], [15.8702842, 45.0703995], [15.8704301, 45.0702722], [15.8700825, 45.0699024], [15.8699752, 45.0698782], [15.8695289, 45.0699085], [15.8693401, 45.0700328], [15.8692199, 45.0700419], [15.8690308, 45.0699487], [15.8687774, 45.0702223], [15.8683133, 45.0704422], [15.86854, 45.0706185], [15.8686551, 45.070819], [15.8687565, 45.071017], [15.868637, 45.0715374], [15.8685181, 45.0720453], [15.8686483, 45.0725612], [15.8691183, 45.0731571], [15.8696733, 45.0740008], [15.8698205, 45.0742688], [15.8697469, 45.0745767], [15.869526, 45.0748806], [15.8693788, 45.0753845], [15.8691466, 45.0757564], [15.8689088, 45.0759083], [15.8685577, 45.0760963], [15.8682463, 45.0761922], [15.867748, 45.0760643], [15.8668872, 45.0758443], [15.8665758, 45.0757444], [15.8661284, 45.0755884], [15.8654772, 45.0754085], [15.8650921, 45.0753805], [15.864809, 45.0754085], [15.8645315, 45.0755364], [15.8641635, 45.0755524], [15.8636312, 45.0754005], [15.8631102, 45.0752285], [15.8627251, 45.0751205], [15.8624024, 45.0751605], [15.8622778, 45.0753525], [15.8620513, 45.0751525], [15.8617908, 45.0749726], [15.8613548, 45.0748286], [15.8606866, 45.0746367], [15.8598032, 45.0743088], [15.8595823, 45.0744367], [15.8596673, 45.0747286], [15.8592539, 45.0750366], [15.8591973, 45.0753245], [15.85905, 45.0753085], [15.8587839, 45.0751565], [15.8585007, 45.0752405], [15.8582346, 45.0751645], [15.8575324, 45.0748646], [15.8569548, 45.0745647], [15.8564508, 45.0744447], [15.8555335, 45.0743527], [15.8549162, 45.0744007], [15.8539423, 45.0744367], [15.8520339, 45.0743887], [15.8510939, 45.0745367], [15.850018, 45.0743487], [15.8488005, 45.0741608], [15.8475555, 45.0739786], [15.8455299, 45.0738513], [15.8437704, 45.0738513], [15.8431009, 45.0737968], [15.8426803, 45.073524], [15.8425344, 45.0732088], [15.8423456, 45.0725542], [15.8421052, 45.0721965], [15.8417179, 45.0720164], [15.841967, 45.0716285], [15.8423181, 45.0712206], [15.8426805, 45.0703887], [15.8427598, 45.0701648], [15.8431166, 45.0698848], [15.8441245, 45.0692809], [15.8445266, 45.068945], [15.8448777, 45.068733], [15.845166, 45.0685753], [15.8455437, 45.068442], [15.8457754, 45.0683965], [15.8459514, 45.0683025], [15.8461316, 45.0681358], [15.8466766, 45.0671204], [15.8470843, 45.066487], [15.8474749, 45.0660323], [15.8477066, 45.0658595], [15.8480499, 45.0657868], [15.8485048, 45.065805], [15.8488696, 45.0657625], [15.8491014, 45.0656959], [15.8494232, 45.065417], [15.8499382, 45.0647501], [15.8500798, 45.0643834], [15.8501785, 45.0636013], [15.8501185, 45.0631982], [15.8501442, 45.0624919], [15.8497181, 45.0624709], [15.8490355, 45.0624454], [15.8483256, 45.0622748], [15.8470636, 45.062052], [15.8468615, 45.0620485], [15.8463932, 45.0621042], [15.8452988, 45.0623201], [15.8448108, 45.0624211], [15.8430805, 45.0624837], [15.8422523, 45.0623305], [15.8409903, 45.0621982], [15.8404529, 45.0622365], [15.8402656, 45.0622504], [15.8397184, 45.0622191], [15.8390825, 45.0621947], [15.8380966, 45.0621007], [15.8374606, 45.062052], [15.8370318, 45.0619196], [15.8361493, 45.0615401], [15.8358634, 45.0614844], [15.8356268, 45.0614983], [15.8353113, 45.0615331], [15.8349958, 45.0614356], [15.8345127, 45.0613312], [15.8341134, 45.0611466], [15.8338521, 45.0609203], [15.8335711, 45.0607775], [15.8332113, 45.0606104], [15.8323242, 45.0597797], [15.8318264, 45.0591552], [15.831732, 45.0586399], [15.8318178, 45.0582882], [15.8321955, 45.0575243], [15.8317148, 45.0574879], [15.8311827, 45.0574273], [15.8308308, 45.0574818], [15.8304445, 45.0577001], [15.8294918, 45.058367], [15.8290884, 45.0586096], [15.8288996, 45.0586459], [15.8285477, 45.0586217], [15.8283624, 45.0585635], [15.8280566, 45.0582143], [15.8279721, 45.0580719], [15.8277704, 45.0579432], [15.8277639, 45.0578145], [15.827894, 45.0576951], [15.8281217, 45.0576537], [15.8281542, 45.0575434], [15.8279526, 45.0574148], [15.8275753, 45.0572677], [15.8270549, 45.0572264], [15.8268012, 45.0570794], [15.8264955, 45.0566658], [15.8263719, 45.0563717], [15.8266256, 45.0560363], [15.8266906, 45.0558617], [15.826502, 45.0559214], [15.8260402, 45.0559444], [15.8252791, 45.0559398], [15.8250254, 45.0560271], [15.8245311, 45.0563442], [15.8243424, 45.0565877], [15.8241798, 45.0567118], [15.8240237, 45.0567118], [15.8239456, 45.056505], [15.8239717, 45.0561925], [15.8239326, 45.0560179], [15.8238416, 45.0559214], [15.823502, 45.0558922], [15.8232445, 45.0560801], [15.8229441, 45.0565591], [15.822781, 45.0567349], [15.8225998, 45.0568282], [15.8226274, 45.0570729], [15.8227418, 45.0571441], [15.8227829, 45.0571837], [15.8227306, 45.0572945], [15.8227456, 45.0574555], [15.8228128, 45.0576059], [15.8228988, 45.0576455], [15.8229983, 45.0577352], [15.8231856, 45.0579859], [15.8232251, 45.0584352], [15.8233483, 45.0585779], [15.8235455, 45.0587869], [15.8230378, 45.059048], [15.8229145, 45.0592604], [15.822811, 45.0593928], [15.8224906, 45.0596888], [15.8224728, 45.0599084], [15.822772, 45.0603495], [15.8230517, 45.0606574], [15.8230062, 45.0609974], [15.8225964, 45.061319], [15.8224143, 45.0614476], [15.8221931, 45.0618979], [15.8209702, 45.0617509], [15.8205929, 45.061829], [15.820684, 45.0621322], [15.8207035, 45.0627892], [15.8206515, 45.0633727], [15.8204043, 45.0635381], [15.8198449, 45.0639057], [15.8193766, 45.0644432], [15.8187001, 45.0646132], [15.8180821, 45.065307], [15.8181472, 45.0655091], [15.8179455, 45.0657894], [15.8182122, 45.0662672], [15.8175552, 45.0665337], [15.817256, 45.067016], [15.8169178, 45.0672963], [15.816612, 45.0674617], [15.8163388, 45.0674984], [15.81589, 45.0674709], [15.8150209, 45.0673158], [15.8151008, 45.0679551], [15.815012, 45.0683624], [15.8151205, 45.0686131], [15.8146916, 45.0687106], [15.8148198, 45.0688359], [15.8141198, 45.0690448], [15.814243, 45.0692433], [15.8133014, 45.0695671], [15.8134838, 45.0696889], [15.813962, 45.0704026], [15.8138289, 45.0708831], [15.8136022, 45.0711268], [15.8125524, 45.0718252], [15.8123421, 45.0719221], [15.8117284, 45.0720828], [15.8114966, 45.0723071], [15.8113894, 45.072498], [15.8113078, 45.072701], [15.811149, 45.0729314], [15.8103851, 45.0729284], [15.810368, 45.0731163], [15.8105439, 45.073486], [15.8104838, 45.0735618], [15.8107671, 45.0737648], [15.8104753, 45.0741315], [15.8100418, 45.0744164], [15.8092607, 45.0738436], [15.8094625, 45.0738163], [15.8096642, 45.0736406], [15.8095697, 45.073489], [15.8096341, 45.073292], [15.8096684, 45.0731193], [15.8096727, 45.0728405], [15.8095397, 45.072695], [15.8088531, 45.0723495], [15.8083338, 45.0724343], [15.8077415, 45.0724313], [15.8072566, 45.0723677], [15.8068961, 45.072401], [15.8064455, 45.0724647], [15.8060206, 45.0725616], [15.805879, 45.0726283], [15.8054928, 45.0724525], [15.8051752, 45.072401], [15.8052052, 45.0722343], [15.8048748, 45.072207], [15.8041367, 45.07191], [15.8039435, 45.0720828], [15.8039521, 45.0723889], [15.8041281, 45.0730072], [15.8042182, 45.0732163], [15.8045315, 45.0733011], [15.8048576, 45.0735042], [15.8043727, 45.0738648], [15.8038706, 45.0742709], [15.8034843, 45.0745316], [15.8029565, 45.0747407], [15.8027548, 45.0748589], [15.8026518, 45.075071], [15.8022655, 45.0750922], [15.8017634, 45.0750286], [15.8016519, 45.0751104], [15.8016347, 45.0753135], [15.8018621, 45.0754408], [15.801948, 45.0755256], [15.8019952, 45.0757408], [15.8019437, 45.0757984], [15.801845, 45.0759499], [15.8016476, 45.0759408], [15.8013429, 45.0759256], [15.8010897, 45.0756802], [15.800815, 45.0754923], [15.8006176, 45.0755317], [15.8003301, 45.0756529], [15.8000082, 45.075759], [15.7999438, 45.0758135], [15.7999267, 45.0761499], [15.8000726, 45.0765166], [15.8000339, 45.076759], [15.8001026, 45.0769287], [15.8002099, 45.0770015], [15.8004374, 45.0771257], [15.8007549, 45.0772773], [15.800785, 45.0774318], [15.8011111, 45.0775621], [15.8013686, 45.0780167], [15.8014244, 45.0784197], [15.8015489, 45.0787985], [15.8019351, 45.0791137], [15.8022484, 45.0792834], [15.8028492, 45.0795289], [15.8028749, 45.0798652], [15.8029908, 45.0801107], [15.8030895, 45.0802925], [15.8028492, 45.0806592], [15.8032269, 45.0809077], [15.8028234, 45.0812319], [15.8023814, 45.0813834], [15.802051, 45.0814228], [15.8016519, 45.0814076], [15.8014158, 45.0811925], [15.8010682, 45.0813167], [15.8005661, 45.0814228], [15.8006219, 45.0815258], [15.8006734, 45.0817379], [15.8005017, 45.0818773], [15.8002485, 45.082044], [15.7998966, 45.0820834], [15.7984332, 45.0822197], [15.7981113, 45.0823349], [15.7976221, 45.0826531], [15.7977122, 45.0829531], [15.7970127, 45.083353], [15.7970342, 45.08345], [15.7974419, 45.083847], [15.7976994, 45.0840469], [15.7974719, 45.084256], [15.7970513, 45.0842075], [15.7969784, 45.0842984], [15.7964033, 45.0838257], [15.7962316, 45.08345], [15.7957081, 45.08345], [15.7953691, 45.0835742], [15.7953605, 45.0839136], [15.7953347, 45.08425], [15.7952403, 45.0843803], [15.7948626, 45.0843348], [15.7947468, 45.0843045], [15.794382, 45.0847105], [15.7944077, 45.0852681], [15.7946609, 45.0856499], [15.7946824, 45.0858014], [15.794588, 45.0859165], [15.7943949, 45.0859741], [15.7940687, 45.0859862], [15.793837, 45.0860135], [15.7937039, 45.0861953], [15.7931377, 45.0865896], [15.7930467, 45.0869866], [15.7928774, 45.0869097], [15.7928774, 45.0867976], [15.7925126, 45.0863158], [15.7924654, 45.0859552], [15.7929632, 45.0855128], [15.7924396, 45.0854583], [15.7922765, 45.0853341], [15.7918002, 45.0854825], [15.7909247, 45.0853432], [15.7907058, 45.0854825], [15.7905127, 45.0854947], [15.7903282, 45.085325], [15.7903282, 45.0852129], [15.7901994, 45.0851917], [15.7900879, 45.0846978], [15.7906071, 45.0845856], [15.7908646, 45.0845402], [15.7907573, 45.0841311], [15.7896415, 45.0843917], [15.7894613, 45.084013], [15.7900964, 45.0838221], [15.7911951, 45.0834403], [15.7921092, 45.0829039], [15.7923452, 45.0827554], [15.7923452, 45.0826857], [15.7922336, 45.0825948], [15.7923495, 45.0815646], [15.791856, 45.0816888], [15.7906973, 45.0818524], [15.7906243, 45.0817524], [15.7904698, 45.0817737], [15.7903883, 45.0811161], [15.7901136, 45.0807403], [15.7906372, 45.0805797], [15.7908217, 45.0806373], [15.7909762, 45.0803706], [15.7908861, 45.0801888], [15.7907616, 45.0801009], [15.7907316, 45.0798524], [15.7906114, 45.0796524], [15.7905041, 45.0794979], [15.7903711, 45.0793646], [15.790281, 45.0788827], [15.7903883, 45.0786221], [15.7907745, 45.0779675], [15.7903926, 45.0781585], [15.7901394, 45.0780403], [15.790281, 45.0778463], [15.7902981, 45.0777251], [15.7902381, 45.0775493], [15.7901308, 45.0773918], [15.790487, 45.0772039], [15.7904312, 45.0770523], [15.7902552, 45.0767948], [15.7898218, 45.0763887], [15.7897574, 45.076222], [15.7901994, 45.0761341], [15.790178, 45.0759977], [15.7904601, 45.0759668], [15.7904488, 45.0756185], [15.7905348, 45.0752149], [15.7902733, 45.075207], [15.7901911, 45.074959], [15.7898137, 45.0750249], [15.7898772, 45.0751041], [15.7890628, 45.0754101], [15.7887079, 45.0753969], [15.788394, 45.0752228], [15.7886257, 45.0749722], [15.7878038, 45.0744946], [15.7875011, 45.0746846], [15.7874152, 45.0748244], [15.7872957, 45.0751964], [15.7871313, 45.0751806], [15.7870267, 45.0753442], [15.7868399, 45.0753099], [15.7867054, 45.0752861], [15.7867726, 45.0748719], [15.7868772, 45.0746582], [15.786952, 45.0743917], [15.7863019, 45.0742229], [15.7858498, 45.074178], [15.785125, 45.0740593], [15.7848299, 45.0740435], [15.7846618, 45.0740672], [15.7847664, 45.0739089], [15.7847776, 45.0738113], [15.7846954, 45.0736477], [15.7844862, 45.0734235], [15.7844414, 45.0732704], [15.7843143, 45.0732388], [15.7841836, 45.0732071], [15.7840715, 45.0730304], [15.784008, 45.0728166], [15.7839407, 45.072661], [15.7833915, 45.0723127], [15.7829619, 45.0720964], [15.7823417, 45.0717613], [15.782125, 45.0715502], [15.7820279, 45.071318], [15.781856, 45.0711096], [15.7817552, 45.0708616], [15.7815833, 45.070537], [15.7813928, 45.0703523], [15.781191, 45.0701914], [15.7808585, 45.0699539], [15.7806531, 45.0698985], [15.7803542, 45.0697771], [15.7801375, 45.0696663], [15.7798013, 45.0697006], [15.7794912, 45.0696769], [15.7791998, 45.069603], [15.7789494, 45.0695555], [15.7787739, 45.069632], [15.7786543, 45.0696478], [15.7784003, 45.0695661], [15.7780752, 45.069537], [15.7774812, 45.0695027], [15.7773841, 45.0695608], [15.7773841, 45.0699645], [15.7773131, 45.070136], [15.7773056, 45.0703734], [15.7774252, 45.0706927], [15.7773392, 45.070975], [15.7773878, 45.0712283], [15.7772757, 45.0713787], [15.7772981, 45.0715396], [15.7771263, 45.0718958], [15.7770628, 45.0720304], [15.7769768, 45.0721597], [15.7769993, 45.0723523], [15.7769096, 45.072537], [15.7767863, 45.0727454], [15.7767863, 45.0729143], [15.7765621, 45.0731016], [15.7765173, 45.0732441], [15.7763865, 45.0733338], [15.7762296, 45.0734551], [15.7761512, 45.0735923], [15.7757327, 45.0738034], [15.7755721, 45.0739643], [15.7754152, 45.0741991], [15.7753704, 45.0744577], [15.7753741, 45.0747242], [15.775008, 45.074959], [15.7748212, 45.0751938], [15.7745933, 45.0755948], [15.7745223, 45.0757425], [15.7743579, 45.0757874], [15.7741636, 45.0759562], [15.7741263, 45.0761145], [15.7741562, 45.076315], [15.7741898, 45.0765235], [15.7741898, 45.076811], [15.7740217, 45.0770063], [15.7738722, 45.0771118], [15.7738894, 45.0772642], [15.7713832, 45.077284], [15.7712085, 45.0767424], [15.7708662, 45.0763271], [15.7693259, 45.0754407], [15.7690922, 45.0750005], [15.7668103, 45.0742282], [15.7661737, 45.0739956], [15.7646306, 45.0734633], [15.7635807, 45.0729438], [15.7623645, 45.0718626], [15.7614575, 45.0716999], [15.7612304, 45.071648], [15.760366, 45.0714502], [15.7591936, 45.0706739], [15.7585518, 45.0705764], [15.7576049, 45.0702165], [15.7565869, 45.0696434], [15.7564418, 45.0691162], [15.7563655, 45.0688738], [15.7561415, 45.0684247], [15.7560445, 45.068184], [15.7553111, 45.067212], [15.7548983, 45.066722], [15.7542546, 45.0660074], [15.7530863, 45.0654539], [15.7525861, 45.0652063], [15.7521618, 45.0650438], [15.7521147, 45.0650829], [15.7519901, 45.0650202], [15.7517774, 45.0650261], [15.7516849, 45.065102], [15.7516361, 45.0650163], [15.7513383, 45.0650042], [15.7510753, 45.0651663], [15.7502303, 45.0651268], [15.750279, 45.0650247], [15.7501769, 45.0649804], [15.7500155, 45.0651434], [15.749947, 45.0650674], [15.7498748, 45.0651319], [15.7498074, 45.0650678], [15.7495261, 45.0651017], [15.7493532, 45.0651714], [15.7492228, 45.0653348], [15.7490122, 45.0652603], [15.7488299, 45.0652677], [15.7485414, 45.0651295], [15.7484881, 45.0649842], [15.7483626, 45.0650496], [15.7482906, 45.0650017], [15.7483894, 45.0647812], [15.7482594, 45.0647371], [15.7482479, 45.0646483], [15.7480473, 45.064604], [15.7480573, 45.064528], [15.7482269, 45.0645483], [15.7482145, 45.0644027], [15.7480195, 45.0644141], [15.7481839, 45.0642421], [15.7479201, 45.0642815], [15.7480795, 45.064088], [15.7480345, 45.0640462], [15.7478444, 45.0641313], [15.7476768, 45.0639389], [15.7477806, 45.0639218], [15.7474824, 45.063767], [15.7474428, 45.063888], [15.7471232, 45.0637866], [15.7470682, 45.0635784], [15.7469633, 45.0635739], [15.7469638, 45.0637348], [15.7467723, 45.0637158], [15.7466841, 45.063528], [15.7464627, 45.0635884], [15.7462895, 45.0633973], [15.7465349, 45.063335], [15.7462994, 45.0631193], [15.7461268, 45.0630958], [15.745789, 45.0628617], [15.7454238, 45.0628523], [15.7452428, 45.0627895], [15.7452592, 45.0627161], [15.7451215, 45.0626805], [15.7452522, 45.0625374], [15.7449669, 45.0626219], [15.7448339, 45.0624063], [15.7447069, 45.0624031], [15.7445505, 45.0625785], [15.744398, 45.062575], [15.7442139, 45.0624513], [15.7440568, 45.0624523], [15.7440573, 45.0621903], [15.743777, 45.0621173], [15.7437945, 45.0619377], [15.7436534, 45.0620174], [15.7436334, 45.0621166], [15.7433252, 45.0622243], [15.7432623, 45.0621488], [15.7429705, 45.0622874], [15.7426103, 45.0620529], [15.7424098, 45.062079], [15.7422884, 45.0619476], [15.7420966, 45.0619161], [15.7415804, 45.061946], [15.7413292, 45.0618504], [15.7411928, 45.0616651]]]}}]}