{"type": "FeatureCollection", "features": [{"type": "Feature", "properties": {"name": "Općina Čelić, Tuzlanski kanton, Federacija Bosne i Hercegovine, Bosna i Hercegovina / Босна и Херцеговина", "source": "OpenStreetMap relation 2528178", "licence": "ODbL 1.0"}, "geometry": {"type": "Polygon", "coordinates": [[[18.6360582, 44.6621322], [18.6361739, 44.6615903], [18.6360847, 44.661075], [18.6361015, 44.6607644], [18.6362442, 44.6604957], [18.6361854, 44.6601553], [18.6361519, 44.6597611], [18.6362274, 44.6591221], [18.6367242, 44.6590682], [18.6372856, 44.6589252], [18.6383683, 44.6588587], [18.6427759, 44.6591386], [18.6472033, 44.656835], [18.6441662, 44.6546836], [18.6461137, 44.6512884], [18.6489175, 44.6481434], [18.650856, 44.6446437], [18.6525167, 44.641539], [18.6560005, 44.6392855], [18.6594843, 44.6365812], [18.662018, 44.6341021], [18.6658185, 44.6322991], [18.6712026, 44.6318484], [18.6746864, 44.6332006], [18.679437, 44.6336514], [18.6810206, 44.6327499], [18.6829208, 44.6307214], [18.6841877, 44.6284675], [18.687038, 44.6235086], [18.6886216, 44.6223816], [18.691472, 44.6192256], [18.6949558, 44.6162949], [18.6993897, 44.6135896], [18.7038237, 44.6120114], [18.7092077, 44.6099822], [18.7120581, 44.607502], [18.7152252, 44.6056982], [18.7190257, 44.6059237], [18.7215594, 44.6077275], [18.7253599, 44.607953], [18.7288437, 44.611335], [18.7310607, 44.6106586], [18.7339111, 44.6095313], [18.7367615, 44.6084039], [18.740562, 44.607953], [18.7465795, 44.607953], [18.7535573, 44.6097988], [18.750032, 44.6126248], [18.7487476, 44.6136826], [18.7476365, 44.6145976], [18.7467894, 44.6164273], [18.7444743, 44.6214271], [18.7368939, 44.6269655], [18.7364087, 44.6277621], [18.7326895, 44.6338679], [18.7317056, 44.6388324], [18.731728, 44.6439873], [18.7334498, 44.6472646], [18.7385481, 44.6579384], [18.7407395, 44.6651433], [18.7411196, 44.6709956], [18.7418799, 44.6726017], [18.7419235, 44.675092], [18.7419693, 44.677706], [18.7424166, 44.6803772], [18.7445856, 44.6834457], [18.7458825, 44.6867685], [18.7522778, 44.6907269], [18.7600371, 44.6940175], [18.7770952, 44.699881], [18.7838517, 44.7022033], [18.7922747, 44.7033994], [18.8051172, 44.705223], [18.8144417, 44.7068758], [18.8205911, 44.7080995], [18.8267851, 44.7097682], [18.8289318, 44.7122949], [18.829938, 44.7176022], [18.8338686, 44.7315679], [18.8340769, 44.7324009], [18.8348785, 44.7356068], [18.8371421, 44.7384379], [18.8376052, 44.7410352], [18.8369976, 44.7426814], [18.8354257, 44.7440473], [18.834375, 44.7452429], [18.8332922, 44.7470379], [18.8306243, 44.7479655], [18.8255172, 44.7495657], [18.8217692, 44.7499775], [18.8204574, 44.7501216], [18.8163683, 44.7504577], [18.8161186, 44.7506559], [18.8133027, 44.7528901], [18.8102167, 44.7553777], [18.8100925, 44.7553429], [18.8099606, 44.7552915], [18.8097337, 44.7552136], [18.8094715, 44.7551641], [18.8091107, 44.755102], [18.8090177, 44.7550904], [18.8089302, 44.7550826], [18.8087389, 44.7550731], [18.8086434, 44.7550791], [18.808556, 44.7551099], [18.8084889, 44.755142], [18.808426, 44.7551828], [18.808351, 44.7552285], [18.8078312, 44.7555252], [18.8069892, 44.7558902], [18.8060761, 44.7561232], [18.805409, 44.7560999], [18.804742, 44.7560222], [18.8039656, 44.7557776], [18.8028228, 44.7551486], [18.8020574, 44.7545041], [18.8012973, 44.754011], [18.8000562, 44.7530247], [18.7991431, 44.7525821], [18.7990665, 44.7525471], [18.7989845, 44.7525083], [18.798897, 44.7524734], [18.7988205, 44.7524384], [18.798733, 44.7524073], [18.7986455, 44.7523724], [18.7985635, 44.7523452], [18.798476, 44.752318], [18.7983995, 44.7522909], [18.798312, 44.752252], [18.7982354, 44.7522132], [18.7981589, 44.7521666], [18.7980769, 44.7521239], [18.7979347, 44.7520385], [18.7977926, 44.7519414], [18.7977324, 44.7518909], [18.7976668, 44.7518366], [18.7976121, 44.7517783], [18.7975575, 44.7517162], [18.7975137, 44.7516618], [18.7974481, 44.7516036], [18.7973934, 44.7515492], [18.7972349, 44.7513745], [18.7971856, 44.7513085], [18.7971364, 44.7512502], [18.7970927, 44.751192], [18.7970599, 44.7511299], [18.7970435, 44.7510638], [18.7969177, 44.7508542], [18.7968631, 44.7507882], [18.7968084, 44.7507338], [18.7967592, 44.7506794], [18.7967045, 44.7506173], [18.7966443, 44.7505591], [18.7965951, 44.7505047], [18.7965405, 44.7504503], [18.7964913, 44.7503921], [18.7963764, 44.7502717], [18.7963272, 44.7502173], [18.7962725, 44.7501591], [18.7962233, 44.7501047], [18.7961687, 44.7500465], [18.796114, 44.7499882], [18.7960593, 44.7499339], [18.7959937, 44.7498756], [18.7959335, 44.7498213], [18.7958734, 44.7497669], [18.7958133, 44.7497125], [18.7957531, 44.7496582], [18.7956836, 44.7496037], [18.7956219, 44.7495339], [18.7955617, 44.7494796], [18.7955016, 44.7494252], [18.7954305, 44.7493708], [18.7953594, 44.7493165], [18.7952938, 44.7492699], [18.7951735, 44.7491611], [18.7951079, 44.7491145], [18.7950314, 44.7490718], [18.7948783, 44.7489942], [18.7947963, 44.7489631], [18.7947033, 44.7489359], [18.7946104, 44.7489087], [18.794512, 44.7488893], [18.7944245, 44.748866], [18.7943151, 44.7488427], [18.7942222, 44.7488194], [18.7941292, 44.7488039], [18.7939324, 44.7487806], [18.7938449, 44.7487612], [18.7937519, 44.7487418], [18.7936645, 44.7487146], [18.7935551, 44.7486835], [18.7934458, 44.7486563], [18.7933309, 44.748602], [18.7928771, 44.7483845], [18.7919941, 44.7480195], [18.789602, 44.7473788], [18.7878578, 44.746872], [18.7871333, 44.7465885], [18.7866549, 44.7462565], [18.7861382, 44.745775], [18.7860781, 44.7458157], [18.786089, 44.7458507], [18.7860808, 44.7458837], [18.7860617, 44.7459109], [18.7860562, 44.7459419], [18.7860507, 44.7459847], [18.7860398, 44.7460157], [18.7860288, 44.7460487], [18.7860042, 44.7460895], [18.7859824, 44.7461186], [18.7859058, 44.746173], [18.785873, 44.7462041], [18.7858429, 44.7462351], [18.7858211, 44.7462643], [18.7857992, 44.7463147], [18.7857254, 44.7464196], [18.7856926, 44.7464526], [18.7856598, 44.7464778], [18.7856242, 44.7464973], [18.7855477, 44.7465322], [18.7855012, 44.7465477], [18.7854657, 44.746571], [18.7854083, 44.7466254], [18.7853809, 44.7466507], [18.7853454, 44.7466856], [18.785277, 44.7467322], [18.7852251, 44.7467555], [18.7851403, 44.7467885], [18.7850939, 44.746804], [18.7850583, 44.7468215], [18.7850201, 44.7468468], [18.7849955, 44.7468739], [18.7849435, 44.7469302], [18.7848533, 44.7470933], [18.7848314, 44.7471264], [18.7848096, 44.7471574], [18.7847685, 44.7472137], [18.7847412, 44.7472564], [18.7846975, 44.7473166], [18.7846319, 44.7473788], [18.7846045, 44.7474079], [18.7845635, 44.7474351], [18.7845225, 44.7474642], [18.7844815, 44.7474953], [18.7844432, 44.7475166], [18.7844049, 44.7475399], [18.7843175, 44.7475865], [18.7842683, 44.7476137], [18.7841288, 44.7477166], [18.7840988, 44.7477477], [18.7840714, 44.7477729], [18.7840468, 44.747802], [18.7839375, 44.7479574], [18.7839156, 44.7479865], [18.7838965, 44.7480156], [18.7838773, 44.7480447], [18.7838636, 44.7480777], [18.7838418, 44.7481185], [18.7838281, 44.7481496], [18.7838144, 44.7481826], [18.7838008, 44.7482117], [18.7837789, 44.7482408], [18.7837188, 44.7482758], [18.7835684, 44.748303], [18.7835219, 44.7482991], [18.7834727, 44.7482874], [18.7834372, 44.7482661], [18.7834071, 44.7482428], [18.7833634, 44.7482331], [18.7833196, 44.748237], [18.7832786, 44.7482525], [18.7832376, 44.7483088], [18.7832239, 44.7483437], [18.783213, 44.7483748], [18.7831993, 44.7484059], [18.783172, 44.7484369], [18.7831255, 44.7484466], [18.7830845, 44.7484292], [18.7830681, 44.7483981], [18.7830599, 44.7483593], [18.7830517, 44.7483263], [18.7830353, 44.7482952], [18.7829888, 44.7482855], [18.7829041, 44.7483127], [18.7828576, 44.748303], [18.7828221, 44.7482855], [18.7827783, 44.7482719], [18.7827346, 44.748268], [18.7826936, 44.7482836], [18.7826498, 44.748303], [18.7825979, 44.7483049], [18.7825487, 44.748301], [18.7825159, 44.7482758], [18.7824967, 44.7482467], [18.7824721, 44.7482195], [18.7824448, 44.7481923], [18.782401, 44.7481748], [18.7823546, 44.7481748], [18.7823081, 44.7481768], [18.7822589, 44.7481904], [18.7822151, 44.7482078], [18.7821796, 44.7482311], [18.7821441, 44.7482544], [18.7821031, 44.7482874], [18.7820484, 44.748336], [18.7820238, 44.748367], [18.7820101, 44.7483981], [18.7819964, 44.7484292], [18.7819828, 44.7484602], [18.7819527, 44.7484894], [18.7819226, 44.7485107], [18.7818843, 44.7485263], [18.7818351, 44.7485379], [18.7817422, 44.7485379], [18.7816984, 44.7485321], [18.7816574, 44.7485204], [18.7816356, 44.7484913], [18.781641, 44.7484544], [18.7816383, 44.7484195], [18.7816082, 44.7483903], [18.7815672, 44.7483729], [18.7815235, 44.7483729], [18.7814825, 44.7483884], [18.7814743, 44.7484214], [18.7814661, 44.7484564], [18.7814415, 44.7484855], [18.7813977, 44.7484971], [18.7813594, 44.7484758], [18.7813321, 44.7484466], [18.7812911, 44.7483884], [18.7812583, 44.7483632], [18.7812118, 44.7483476], [18.7811653, 44.7483399], [18.7811216, 44.7483418], [18.7810779, 44.7483515], [18.7809849, 44.7483515], [18.7809384, 44.7483476], [18.7806404, 44.7483651], [18.7804395, 44.7484294], [18.7800431, 44.7488138], [18.7798463, 44.7490779], [18.7795893, 44.7493614], [18.7793979, 44.7495458], [18.7792722, 44.7496856], [18.7791491, 44.7498176], [18.7789222, 44.7499691], [18.7786652, 44.7500623], [18.7783372, 44.7501458], [18.7780337, 44.7502758], [18.7770878, 44.7510563], [18.776932, 44.751099], [18.776839, 44.7511845], [18.7767406, 44.7512912], [18.7765684, 44.7513922], [18.7763743, 44.7514854], [18.7760982, 44.7516058], [18.7759423, 44.7517339], [18.7759013, 44.751798], [18.7758795, 44.7518543], [18.7758549, 44.7519242], [18.7759041, 44.7520698], [18.7759423, 44.7526522], [18.7758658, 44.7528677], [18.7756006, 44.7532288], [18.7754256, 44.7535763], [18.7753956, 44.7536346], [18.7753983, 44.7536637], [18.7754803, 44.7537258], [18.7757564, 44.7538578], [18.776038, 44.7540733], [18.7762841, 44.7543742], [18.7765465, 44.7546596], [18.7767297, 44.7548654], [18.7768445, 44.7550654], [18.7771507, 44.7554575], [18.7774569, 44.7557448], [18.777826, 44.7560613], [18.7780857, 44.7562146], [18.7784219, 44.7564476], [18.7788648, 44.7568223], [18.7787992, 44.7568728], [18.7787008, 44.7568766], [18.778575, 44.7568844], [18.7784301, 44.7569155], [18.7782524, 44.756964], [18.7780146, 44.7570572], [18.777908, 44.7571329], [18.7777002, 44.7572028], [18.7775307, 44.7572358], [18.7773803, 44.7572552], [18.7771963, 44.7572957], [18.777107, 44.7573154], [18.7768172, 44.7574163], [18.7764317, 44.7575949], [18.7762731, 44.75769], [18.7761638, 44.7578589], [18.7759751, 44.7582782], [18.7759205, 44.7583831], [18.7759123, 44.7585015], [18.7759041, 44.7586005], [18.7758767, 44.7587267], [18.7757455, 44.7588567], [18.7756553, 44.7589557], [18.7755569, 44.7590703], [18.7754585, 44.7591557], [18.7753491, 44.7592353], [18.7752397, 44.7593226], [18.7751741, 44.7592916], [18.7750456, 44.7593149], [18.774939, 44.7591304], [18.7738318, 44.7591149], [18.7736514, 44.7590974], [18.7734491, 44.7590567], [18.7732249, 44.7590198], [18.773039, 44.7590179], [18.7728722, 44.7590489], [18.7726699, 44.759113], [18.7724157, 44.7588664], [18.7724184, 44.7587131], [18.7721396, 44.758781], [18.771981, 44.7587888], [18.7718088, 44.7587771], [18.7715955, 44.7587733], [18.7711335, 44.7588354], [18.7708246, 44.7587441], [18.7707836, 44.7588043], [18.7707535, 44.7588956], [18.7706906, 44.7590489], [18.7706196, 44.7591964], [18.7705266, 44.7593479], [18.7704938, 44.759509], [18.7694331, 44.7597186], [18.7691241, 44.7595653], [18.7682685, 44.75855], [18.7681454, 44.7586044], [18.7677272, 44.7581404], [18.7670574, 44.7585461], [18.7664176, 44.7584316], [18.7663138, 44.7583171], [18.7657943, 44.7583035], [18.7651245, 44.7575037], [18.7648594, 44.7575328], [18.7640474, 44.7576862], [18.7629867, 44.7579793], [18.7628144, 44.758121], [18.7625575, 44.7581326], [18.7625602, 44.7580977], [18.7625711, 44.7580647], [18.7625575, 44.7580317], [18.7625219, 44.7580006], [18.7624864, 44.7579793], [18.7624536, 44.7579541], [18.7624344, 44.7579249], [18.7624317, 44.7578919], [18.7624344, 44.7578589], [18.7624426, 44.757824], [18.762459, 44.757789], [18.7624782, 44.757758], [18.7624973, 44.7577269], [18.7625028, 44.7576939], [18.7625001, 44.757659], [18.7624864, 44.7576279], [18.7624454, 44.7576104], [18.7623579, 44.7576027], [18.7623114, 44.757591], [18.7622649, 44.7575755], [18.7622321, 44.7575522], [18.7622103, 44.7575231], [18.7621802, 44.7574998], [18.7621419, 44.7574823], [18.7621064, 44.7574571], [18.762079, 44.7574299], [18.762079, 44.7573969], [18.7621036, 44.7573678], [18.7621392, 44.7573445], [18.7621665, 44.7573134], [18.7621665, 44.7572804], [18.7621611, 44.7572435], [18.7621474, 44.7572125], [18.7621228, 44.7571814], [18.7620626, 44.7571271], [18.7619779, 44.7571038], [18.7619451, 44.7570785], [18.7619341, 44.7570455], [18.7618959, 44.7570281], [18.7618467, 44.7570319], [18.7618057, 44.7570416], [18.7617564, 44.7570552], [18.7617182, 44.7570746], [18.7616799, 44.7570921], [18.7616471, 44.7571115], [18.7616088, 44.757129], [18.7615651, 44.7571348], [18.7615213, 44.7571348], [18.7614776, 44.757129], [18.7614311, 44.7571193], [18.7613901, 44.7571057], [18.7613409, 44.757096], [18.7612917, 44.757096], [18.7612507, 44.7571057], [18.7612124, 44.7571212], [18.7611796, 44.7571445], [18.7611441, 44.757162], [18.7611058, 44.7571737], [18.7610621, 44.7571775], [18.7610156, 44.7571737], [18.7609718, 44.7571581], [18.7609336, 44.7571407], [18.7608898, 44.7571407], [18.7608433, 44.7571445], [18.7607996, 44.7571581], [18.7607531, 44.7571659], [18.7607094, 44.7571562], [18.7606684, 44.7571426], [18.7606274, 44.7571212], [18.7605973, 44.7570921], [18.7605782, 44.757063], [18.7605672, 44.75703], [18.7605481, 44.7570009], [18.7605153, 44.7569756], [18.7604852, 44.7569523], [18.7604469, 44.7569349], [18.7604005, 44.7569232], [18.7603567, 44.7569155], [18.7603075, 44.7569077], [18.7602638, 44.756898], [18.7602146, 44.7568844], [18.7601271, 44.7568592], [18.7600861, 44.7568456], [18.7600451, 44.75683], [18.7600041, 44.7568106], [18.7599111, 44.7568106], [18.7598701, 44.7568223], [18.7598346, 44.7568417], [18.7597881, 44.7568456], [18.7597307, 44.7568436], [18.7596787, 44.7568378], [18.7596268, 44.7568223], [18.7595858, 44.7568048], [18.7595475, 44.7567796], [18.7594846, 44.756731], [18.7594546, 44.7567058], [18.7594299, 44.7566786], [18.759419, 44.7566456], [18.7594272, 44.7566107], [18.75946, 44.7565874], [18.7595065, 44.7565874], [18.7595557, 44.7565835], [18.7596076, 44.7565719], [18.7596405, 44.7565447], [18.7596569, 44.7565117], [18.759676, 44.7564767], [18.7596733, 44.7564437], [18.7596432, 44.7564204], [18.7595994, 44.7564165], [18.7595557, 44.7564301], [18.7595338, 44.7564593], [18.759512, 44.7564903], [18.7594874, 44.7565175], [18.7594409, 44.7565156], [18.7593999, 44.756502], [18.7593561, 44.756502], [18.7593124, 44.7565136], [18.7592823, 44.7565408], [18.7592386, 44.7565388], [18.7591948, 44.7565272], [18.7591839, 44.7564961], [18.7591921, 44.7564593], [18.7592058, 44.7564088], [18.7592058, 44.7563758], [18.7591976, 44.7563428], [18.7591675, 44.7563175], [18.759121, 44.756304], [18.7590773, 44.7562942], [18.7590281, 44.7562865], [18.7589816, 44.7562884], [18.7589406, 44.756304], [18.7588941, 44.7563117], [18.7588504, 44.7563059], [18.7588176, 44.7562826], [18.7587957, 44.7562515], [18.7587629, 44.7562224], [18.7587164, 44.7562146], [18.7586699, 44.7562185], [18.7586563, 44.7562496], [18.7586453, 44.7562807], [18.7586262, 44.7563098], [18.7585934, 44.7563311], [18.7585469, 44.7563331], [18.7585004, 44.7563272], [18.7584485, 44.7563175], [18.7584075, 44.756302], [18.758372, 44.7562826], [18.7583419, 44.7562515], [18.7583009, 44.7562302], [18.7582517, 44.7562205], [18.7582025, 44.7562127], [18.7581642, 44.7561991], [18.7581286, 44.7561758], [18.7581013, 44.7561467], [18.7580876, 44.7561156], [18.7580876, 44.7560788], [18.7581095, 44.7560496], [18.7581478, 44.7560263], [18.7581888, 44.7560089], [18.7582161, 44.7559817], [18.7582271, 44.7559448], [18.7582025, 44.7559137], [18.7581614, 44.755904], [18.7581122, 44.7559079], [18.7580767, 44.7559312], [18.7580412, 44.7559933], [18.7580084, 44.7560166], [18.7579646, 44.7560341], [18.7579127, 44.7560399], [18.757817, 44.7560399], [18.757765, 44.756038], [18.7577213, 44.7560341], [18.7576721, 44.7560225], [18.7576365, 44.756003], [18.7576365, 44.7559681], [18.7576448, 44.7559332], [18.757642, 44.7558982], [18.7576338, 44.7558633], [18.7576065, 44.7558361], [18.7575682, 44.7558206], [18.7575545, 44.7558186], [18.7573741, 44.755805], [18.757221, 44.7557351], [18.7569941, 44.755675], [18.7568519, 44.7556458], [18.7567973, 44.7556148], [18.7567152, 44.7555585], [18.7565157, 44.7554769], [18.7563762, 44.7554847], [18.7562696, 44.7555138], [18.7560783, 44.7555197], [18.7557885, 44.7548693], [18.7551406, 44.7542966], [18.7542165, 44.7549858], [18.7540443, 44.7550498], [18.7538447, 44.7551158], [18.753719, 44.7551391], [18.7533581, 44.7551333], [18.752784, 44.7550324], [18.7527617, 44.7548782], [18.7524705, 44.7548544], [18.7521989, 44.7548246], [18.7518107, 44.7547586], [18.7512722, 44.7545529], [18.7507883, 44.755341], [18.7503835, 44.7550812], [18.7498478, 44.7555992], [18.7495498, 44.7560768], [18.7494979, 44.7560632], [18.749405, 44.7560186], [18.7492874, 44.7559235], [18.7490359, 44.7561855], [18.7488062, 44.7564321], [18.7484262, 44.7567699], [18.7478029, 44.7573095], [18.7475186, 44.7575464], [18.7473901, 44.7577056], [18.7473272, 44.7578356], [18.7472698, 44.7579191], [18.7470539, 44.7580608], [18.7469308, 44.7582744], [18.7466137, 44.7581695], [18.7464059, 44.7580744], [18.7462009, 44.7579696], [18.7461025, 44.7578997], [18.7459446, 44.7577434], [18.7458154, 44.7576318], [18.7456049, 44.757527], [18.7447738, 44.7571892], [18.7440029, 44.7568961], [18.7434671, 44.7567], [18.7430898, 44.7564398], [18.7427863, 44.7561622], [18.7425895, 44.7558846], [18.7424993, 44.7556148], [18.7423434, 44.755374], [18.7422669, 44.7553857], [18.741783, 44.7555235], [18.7410558, 44.7558109], [18.7405856, 44.7560749], [18.7402357, 44.7562942], [18.7397108, 44.7564728], [18.7396369, 44.7563777], [18.7395823, 44.756269], [18.7395823, 44.7561409], [18.7395932, 44.7559429], [18.7395741, 44.7557759], [18.7394374, 44.7555294], [18.7393472, 44.7554071], [18.7391777, 44.7552265], [18.7391159, 44.7551442], [18.7391695, 44.7549042], [18.7389617, 44.7545742], [18.7387184, 44.7536637], [18.738691, 44.7535064], [18.7380841, 44.752724], [18.7375237, 44.751765], [18.7374007, 44.751299], [18.7370863, 44.7508971], [18.7366516, 44.7506738], [18.7362005, 44.750868], [18.7361147, 44.750906], [18.736066, 44.7508796], [18.7360869, 44.7507726], [18.7360894, 44.7505998], [18.7360483, 44.7504598], [18.7359135, 44.7503069], [18.7356729, 44.7501225], [18.7354268, 44.7499477], [18.735066, 44.7496138], [18.7345875, 44.7491206], [18.7344098, 44.7489711], [18.734255, 44.7488944], [18.7341337, 44.748843], [18.7338412, 44.7487245], [18.7335733, 44.7486003], [18.7333819, 44.7484644], [18.733196, 44.748278], [18.7330566, 44.7481265], [18.7329008, 44.748043], [18.7327149, 44.7479751], [18.732436, 44.747911], [18.7318783, 44.7477227], [18.7315229, 44.7475343], [18.7313534, 44.7474023], [18.7312605, 44.7474217], [18.7312468, 44.7474508], [18.7311784, 44.747544], [18.7310335, 44.7477227], [18.7309242, 44.7479362], [18.7308094, 44.7481595], [18.7306782, 44.7482857], [18.7305579, 44.7483964], [18.7305032, 44.7485614], [18.7304376, 44.7488391], [18.7303966, 44.7489614], [18.7303446, 44.7491031], [18.7302025, 44.7492274], [18.72994, 44.749441], [18.729601, 44.74974], [18.7292292, 44.7500273], [18.7289968, 44.7501147], [18.7286469, 44.7501788], [18.7284337, 44.7502156], [18.7282505, 44.7502409], [18.7280865, 44.7502389], [18.7279416, 44.7502079], [18.7278459, 44.7501438], [18.7277201, 44.7500506], [18.7274468, 44.7501438], [18.7270011, 44.7502972], [18.725749, 44.7493555], [18.7258639, 44.7493051], [18.7259595, 44.749241], [18.7260662, 44.7491653], [18.7261345, 44.7490973], [18.7262876, 44.7488449], [18.7263532, 44.7487071], [18.7263778, 44.7485634], [18.7263559, 44.7483537], [18.7263423, 44.7481809], [18.7262603, 44.7479867], [18.7261892, 44.7477091], [18.7260416, 44.7475635], [18.726058, 44.7474974], [18.7259486, 44.7474722], [18.7256792, 44.7475911], [18.7253151, 44.7473841], [18.7251121, 44.7472839], [18.7248113, 44.7470412], [18.7241907, 44.7465247], [18.7237069, 44.7462917], [18.7233433, 44.746181], [18.7233897, 44.746115], [18.7234007, 44.7459286], [18.7233843, 44.7457364], [18.7234471, 44.7456043], [18.7235501, 44.7454872], [18.7233991, 44.7454884], [18.7231583, 44.745536], [18.7229065, 44.7456185], [18.7228402, 44.7455383], [18.7226571, 44.7455849], [18.7222962, 44.7456276], [18.7219162, 44.7456238], [18.7215608, 44.745583], [18.7213831, 44.7455208], [18.7209129, 44.7452878], [18.7206149, 44.7451422], [18.7204454, 44.7450082], [18.7202321, 44.7447985], [18.7200134, 44.7445869], [18.7197783, 44.7444238], [18.7194721, 44.7443189], [18.7191277, 44.7442665], [18.7187887, 44.7441869], [18.7185044, 44.7440898], [18.7181599, 44.744049], [18.7174054, 44.7439597], [18.7168941, 44.7438665], [18.7162817, 44.7436529], [18.7154479, 44.7434141], [18.7148684, 44.743249], [18.7145184, 44.743115], [18.7143106, 44.7429985], [18.714174, 44.7428782], [18.7140564, 44.7426859], [18.7139443, 44.7424063], [18.713783, 44.7421267], [18.713526, 44.7419306], [18.7132472, 44.7417985], [18.7129765, 44.7416238], [18.7128113, 44.7414855], [18.7125364, 44.7410723], [18.7123806, 44.7408218], [18.7123149, 44.7405926], [18.7122521, 44.740313], [18.7120662, 44.7401887], [18.7119021, 44.7401713], [18.7117709, 44.7401596], [18.7113991, 44.7401052], [18.7109781, 44.7400198], [18.7106309, 44.7399169], [18.7100978, 44.7397848], [18.7096002, 44.7396605], [18.7092694, 44.7395537], [18.7090699, 44.7394722], [18.7087692, 44.7393518], [18.7086325, 44.7393129], [18.7084247, 44.7392974], [18.7081322, 44.7393032], [18.7079053, 44.7393013], [18.7076674, 44.7392663], [18.707014, 44.7391324], [18.7064536, 44.7390275], [18.7058932, 44.7389362], [18.7055678, 44.7388488], [18.7051359, 44.7386721], [18.7047422, 44.7384915], [18.7043923, 44.7382857], [18.7042501, 44.7381284], [18.7041736, 44.738008], [18.7041517, 44.7378449], [18.7040779, 44.7375322], [18.7039439, 44.7371904], [18.7038537, 44.7369496], [18.7037772, 44.7365709], [18.7037334, 44.7361398], [18.7037033, 44.735666], [18.7035393, 44.7351416], [18.7034382, 44.7348289], [18.7032741, 44.7345454], [18.7028996, 44.7341104], [18.7024294, 44.7336792], [18.7022544, 44.733555], [18.7020986, 44.7334637], [18.7018279, 44.7333918], [18.7016284, 44.7333724], [18.7013905, 44.7333899], [18.7011663, 44.7334462], [18.7009531, 44.7334714], [18.700543, 44.7334617], [18.7001685, 44.7334676], [18.699742, 44.7335025], [18.6983696, 44.7336598], [18.6974401, 44.7337414], [18.6969043, 44.7337569], [18.6966473, 44.7337414], [18.6964067, 44.7336812], [18.6962536, 44.7336035], [18.6961251, 44.7334753], [18.6960267, 44.7333122], [18.6959693, 44.73305], [18.6958791, 44.7326946], [18.6958381, 44.7325198], [18.6957697, 44.732345], [18.6956877, 44.7321683], [18.6955674, 44.7319682], [18.6954882, 44.7318109], [18.6953624, 44.7315235], [18.6952558, 44.7313351], [18.6949578, 44.7310302], [18.6947828, 44.7308748], [18.6946051, 44.7307758], [18.6942935, 44.7306456], [18.6940611, 44.7305679], [18.6938943, 44.7305408], [18.6937139, 44.7305233], [18.69361, 44.7304922], [18.6934542, 44.7304126], [18.693081, 44.7301659], [18.6928691, 44.7299892], [18.6926914, 44.729794], [18.6925165, 44.7295036], [18.6923853, 44.729322], [18.692198, 44.7291783], [18.692075, 44.7290559], [18.6919697, 44.7289219], [18.6918836, 44.7287714], [18.6918549, 44.7286937], [18.691844, 44.7286218], [18.6918549, 44.7285247], [18.6918727, 44.7281945], [18.6918904, 44.7277362], [18.6918891, 44.7275274], [18.6918576, 44.7273739], [18.6917947, 44.7272448], [18.6917237, 44.7271564], [18.6916143, 44.7270573], [18.6914653, 44.726969], [18.6912425, 44.7268767], [18.6908953, 44.7267505], [18.69076, 44.7266864], [18.6905823, 44.7265931], [18.6905016, 44.7265242], [18.6904169, 44.7264319], [18.6903827, 44.7263814], [18.6903759, 44.7263047], [18.6904018, 44.7261668], [18.6904757, 44.7260075], [18.6905508, 44.7258842], [18.6906288, 44.7258065], [18.6907313, 44.72572], [18.6908584, 44.7256084], [18.6909609, 44.7255044], [18.6910197, 44.7254015], [18.6910457, 44.7252655], [18.6910334, 44.7250373], [18.6910183, 44.7249198], [18.6909678, 44.7248207], [18.690693, 44.7245061], [18.690596, 44.7243643], [18.690559, 44.7242497], [18.6905508, 44.7241331], [18.6905331, 44.7240331], [18.6905016, 44.7238699], [18.6904388, 44.7237534], [18.6903362, 44.7236407], [18.6902255, 44.7235319], [18.6901503, 44.7234115], [18.690097, 44.7232406], [18.6900259, 44.7230191], [18.6899303, 44.7227045], [18.6899002, 44.7225821], [18.6898455, 44.7225782], [18.6816905, 44.7233222], [18.6816413, 44.7233766], [18.6815647, 44.7233571], [18.6814663, 44.7233202], [18.6813651, 44.7232542], [18.6812995, 44.7231707], [18.6812585, 44.7230832], [18.6811683, 44.7230347], [18.6810672, 44.7229609], [18.6809086, 44.722957], [18.6806379, 44.7229162], [18.6804384, 44.7228599], [18.6803482, 44.7227861], [18.6802907, 44.722687], [18.6802142, 44.7226423], [18.6799299, 44.7226307], [18.6796045, 44.7225025], [18.6792245, 44.7224927], [18.6790168, 44.7224403], [18.6787899, 44.7224422], [18.6785575, 44.7223956], [18.6781392, 44.7223762], [18.6779396, 44.7223917], [18.6778494, 44.7224189], [18.6776034, 44.7225724], [18.6774831, 44.7226035], [18.6769187, 44.7223749], [18.6753845, 44.7223521], [18.6744726, 44.7231068], [18.6744618, 44.7251726], [18.6721873, 44.7261101], [18.6710286, 44.7261559], [18.6681224, 44.7249396], [18.6673706, 44.7247207], [18.6672695, 44.7246683], [18.6671492, 44.7246255], [18.6669824, 44.7246178], [18.6666707, 44.7244954], [18.6660092, 44.7244196], [18.665908, 44.7243594], [18.6658041, 44.7242992], [18.6653148, 44.7239068], [18.665148, 44.7237942], [18.665066, 44.7236893], [18.6650605, 44.723631], [18.6650715, 44.7235611], [18.6650906, 44.7234931], [18.6651343, 44.7234173], [18.6651644, 44.7233086], [18.6651671, 44.7231532], [18.6647598, 44.7227744], [18.6644782, 44.7227103], [18.6644017, 44.722685], [18.6643306, 44.7225724], [18.6641611, 44.7223626], [18.6640189, 44.7222635], [18.6638412, 44.722114], [18.6635952, 44.7219877], [18.6633655, 44.7219178], [18.6631988, 44.7218498], [18.6626493, 44.7216769], [18.6622993, 44.7215021], [18.6619344, 44.7213855], [18.6618988, 44.7213583], [18.6617403, 44.7213185], [18.6616706, 44.7212758], [18.6613288, 44.7211136], [18.6611662, 44.7210106], [18.6608559, 44.7208649], [18.6607151, 44.7208562], [18.66051, 44.7208241], [18.6603159, 44.7208339], [18.6602121, 44.7208339], [18.6600603, 44.7207775], [18.6598908, 44.7206552], [18.6598279, 44.7206328], [18.6597965, 44.7206124], [18.6594684, 44.7204395], [18.6594151, 44.720424], [18.6592716, 44.720424], [18.6592634, 44.7203307], [18.6591308, 44.720389], [18.6590748, 44.7204075], [18.6588369, 44.7205124], [18.6584378, 44.7206406], [18.6581371, 44.7207202], [18.6578664, 44.7207435], [18.6575192, 44.7207241], [18.6573743, 44.7207183], [18.6567428, 44.7208931], [18.6564202, 44.7209805], [18.6561058, 44.720998], [18.6558598, 44.7209805], [18.6555946, 44.7209805], [18.655462, 44.7210063], [18.6553609, 44.7210077], [18.6552727, 44.7209936], [18.6551538, 44.7209504], [18.6550389, 44.7208936], [18.6549583, 44.7208611], [18.6548845, 44.7208445], [18.6547895, 44.720845], [18.654687, 44.7208606], [18.6545906, 44.7209009], [18.6545298, 44.7209417], [18.6544915, 44.7209829], [18.6544676, 44.7210335], [18.6544512, 44.7210942], [18.6543979, 44.721132], [18.6543172, 44.7211626], [18.6542215, 44.721184], [18.6540336, 44.7211879], [18.6539727, 44.7211743], [18.6538039, 44.7210956], [18.6536365, 44.7210286], [18.6535818, 44.7210296], [18.6534895, 44.7210437], [18.6534417, 44.7210606], [18.6534027, 44.7210801], [18.6533727, 44.7211102], [18.6533494, 44.7212355], [18.6533207, 44.7212627], [18.653264, 44.721287], [18.6531232, 44.7212865], [18.6530309, 44.7212729], [18.6529763, 44.7212593], [18.6529113, 44.7212515], [18.6527664, 44.7212777], [18.6526872, 44.7213005], [18.6526379, 44.7213302], [18.6525682, 44.7213894], [18.6525341, 44.7214482], [18.6524589, 44.7215545], [18.6524049, 44.7216138], [18.6522299, 44.7216444], [18.6520365, 44.7216788], [18.6519224, 44.721708], [18.6518192, 44.7217415], [18.6516797, 44.7218255], [18.6515882, 44.721878], [18.6515389, 44.72191], [18.6514487, 44.7219867], [18.6513694, 44.7220571], [18.6512943, 44.7220853], [18.6511911, 44.7220877], [18.6509293, 44.7221489], [18.6508313, 44.7221854], [18.6488447, 44.722639], [18.648629, 44.7226074], [18.6483269, 44.7225982], [18.64809, 44.7226535], [18.6480252, 44.7227141], [18.6479997, 44.722767], [18.6479527, 44.7227767], [18.6478802, 44.7227566], [18.6477501, 44.7227066], [18.6476351, 44.7226959], [18.6474107, 44.7227535], [18.6472042, 44.7228319], [18.6470248, 44.7228481], [18.6468356, 44.7227999], [18.6466118, 44.72266], [18.6464945, 44.7226188], [18.6466259, 44.7222539], [18.6467582, 44.7216557], [18.6469134, 44.721085], [18.6469466, 44.7207859], [18.6468358, 44.7204474], [18.6463262, 44.7199554], [18.6462542, 44.719731], [18.6462265, 44.7195657], [18.6462431, 44.7193964], [18.6465145, 44.7190579], [18.6466364, 44.7189517], [18.6467749, 44.7187391], [18.6468136, 44.7185108], [18.6467009, 44.7180316], [18.6463382, 44.7168153], [18.6463764, 44.7166661], [18.6465355, 44.7165123], [18.6467645, 44.7163721], [18.6468982, 44.7162727], [18.6468854, 44.7161144], [18.6467645, 44.7159607], [18.6464782, 44.7158341], [18.6462173, 44.7158341], [18.6457464, 44.7158928], [18.645301, 44.7158974], [18.6451547, 44.7157979], [18.645091, 44.7155537], [18.6450401, 44.7148981], [18.6451419, 44.7146358], [18.6451865, 44.7144323], [18.6450974, 44.7142334], [18.6447792, 44.7140344], [18.6445311, 44.7138807], [18.644512, 44.7135415], [18.6445756, 44.713234], [18.6447156, 44.712913], [18.6447538, 44.712601], [18.6446711, 44.7123342], [18.6443656, 44.7120854], [18.6441938, 44.711891], [18.6440411, 44.7116242], [18.644022, 44.7113936], [18.6441384, 44.710957], [18.6444953, 44.7105458], [18.6459999, 44.7091817], [18.6460674, 44.7090241], [18.6460674, 44.7087979], [18.6460963, 44.7084689], [18.6462506, 44.7083386], [18.6468583, 44.708133], [18.647109, 44.7080302], [18.6473984, 44.7077217], [18.6477649, 44.7071117], [18.6482278, 44.7067073], [18.6483339, 44.7064194], [18.6479385, 44.705919], [18.6479578, 44.7057476], [18.6480156, 44.705446], [18.6486618, 44.7052266], [18.6489512, 44.704829], [18.6492887, 44.7046508], [18.6494913, 44.7045137], [18.649636, 44.7042806], [18.6496167, 44.7038213], [18.6495009, 44.7035951], [18.649173, 44.7032729], [18.6488258, 44.7031633], [18.6481121, 44.703081], [18.6476877, 44.7029713], [18.6473405, 44.7028274], [18.6471187, 44.7026354], [18.6469933, 44.7023201], [18.6469065, 44.7016894], [18.6465786, 44.7012986], [18.6461735, 44.700428], [18.6456527, 44.7000921], [18.6452862, 44.699859], [18.6449679, 44.6994339], [18.6443217, 44.6992351], [18.6441481, 44.6989815], [18.6440902, 44.6988238], [18.6442349, 44.6985976], [18.6441963, 44.6984056], [18.6439359, 44.6979805], [18.6440227, 44.6974732], [18.6442831, 44.697007], [18.6444374, 44.6966917], [18.6445242, 44.6963146], [18.6444181, 44.6956358], [18.6447557, 44.6950736], [18.6451608, 44.6940246], [18.6450933, 44.6936201], [18.6446689, 44.6927082], [18.6444687, 44.6920217], [18.6440009, 44.6906603], [18.6438254, 44.6893404], [18.6435038, 44.6877295], [18.6429337, 44.6866382], [18.6422028, 44.6856092], [18.6415011, 44.6853078], [18.6409602, 44.6844971], [18.6405216, 44.683281], [18.6404924, 44.6826262], [18.6405801, 44.6816699], [18.6400392, 44.6803914], [18.6398053, 44.6795598], [18.6392644, 44.6790921], [18.6388697, 44.678458], [18.6384604, 44.6774913], [18.6368377, 44.6755682], [18.6372004, 44.6752907], [18.6383041, 44.6746982], [18.6390935, 44.674298], [18.6397499, 44.6735219], [18.6408686, 44.6725343], [18.6424723, 44.6712885], [18.6418615, 44.6709265], [18.6413142, 44.670827], [18.6413652, 44.6704468], [18.6412888, 44.66994], [18.6406143, 44.6689987], [18.6400034, 44.6684557], [18.6396598, 44.6678674], [18.639049, 44.6670347], [18.6385465, 44.6665773], [18.6385272, 44.6662824], [18.6387394, 44.6660011], [18.6387298, 44.6657954], [18.6384501, 44.6656101], [18.6381993, 44.665473], [18.6379485, 44.6651917], [18.6375917, 44.6650339], [18.6373988, 44.6648624], [18.6372927, 44.6645538], [18.6370419, 44.6642519], [18.6364343, 44.6637786], [18.6362993, 44.6634905], [18.6363378, 44.6632092], [18.6361642, 44.6626467], [18.6360582, 44.6621322]]]}}]}