{"type": "FeatureCollection", "features": [{"type": "Feature", "properties": {"name": "Općina Centar, Grad Sarajevo, Kanton Sarajevo, Federacija Bosne i Hercegovine, 71107, Bosna i Hercegovina / Босна и Херцеговина", "source": "OpenStreetMap relation 2528180", "licence": "ODbL 1.0"}, "geometry": {"type": "Polygon", "coordinates": [[[18.3835913, 43.9033886], [18.383621, 43.9032389], [18.3838587, 43.9030436], [18.3840302, 43.9030584], [18.3842426, 43.903042], [18.3846144, 43.9028552], [18.3851013, 43.9027578], [18.3854296, 43.902541], [18.3859068, 43.902277], [18.3860671, 43.9021134], [18.3863445, 43.9018467], [18.3864832, 43.9016028], [18.3864904, 43.9013476], [18.3864414, 43.9011515], [18.386335, 43.900904], [18.3863012, 43.9007685], [18.3863489, 43.9006212], [18.3864024, 43.9004013], [18.3863039, 43.9003093], [18.3862358, 43.9001777], [18.3862582, 43.89999], [18.3864182, 43.8996535], [18.3866791, 43.899334], [18.3869282, 43.8991283], [18.3869317, 43.8989897], [18.386772, 43.8988398], [18.3866884, 43.8987126], [18.3866361, 43.8985124], [18.386639, 43.8982023], [18.3869093, 43.8981401], [18.3875241, 43.8978921], [18.3878472, 43.8974821], [18.3882049, 43.8972279], [18.3885748, 43.8970506], [18.3888135, 43.8969996], [18.3890811, 43.8969713], [18.3893916, 43.8969935], [18.3895682, 43.8969866], [18.3898764, 43.8968375], [18.3903237, 43.8966233], [18.3905631, 43.8965143], [18.3909446, 43.8964223], [18.3913539, 43.8963703], [18.391826, 43.8963279], [18.3920817, 43.8962714], [18.3924582, 43.8960915], [18.3927661, 43.8957059], [18.3928437, 43.8956554], [18.3929795, 43.8956113], [18.393003, 43.8955742], [18.3929804, 43.8954721], [18.3928216, 43.8950818], [18.3927394, 43.894755], [18.3927167, 43.8945992], [18.3926703, 43.89447], [18.3925053, 43.8942638], [18.3924771, 43.8940918], [18.392361, 43.8939506], [18.3922161, 43.8938041], [18.3920963, 43.8936493], [18.3920239, 43.8934831], [18.3920537, 43.8933533], [18.3921292, 43.8932145], [18.3922205, 43.8931022], [18.3922291, 43.8929662], [18.3922115, 43.892853], [18.3918025, 43.8923398], [18.3914696, 43.8920061], [18.3909017, 43.8915907], [18.3907477, 43.8914561], [18.3907173, 43.8913744], [18.3907795, 43.8912697], [18.3908706, 43.8911809], [18.3912197, 43.8909755], [18.3918012, 43.8907431], [18.3922557, 43.8905725], [18.3925913, 43.8903636], [18.3931507, 43.8900698], [18.3938561, 43.8895709], [18.3938509, 43.8894849], [18.3938036, 43.8893627], [18.3944525, 43.8890027], [18.3944645, 43.8887475], [18.3930062, 43.8888195], [18.3929859, 43.888953], [18.3928865, 43.8890709], [18.3924074, 43.8890762], [18.3921566, 43.888347], [18.3921664, 43.8881004], [18.3922681, 43.8876203], [18.3922507, 43.8873655], [18.3920871, 43.8869642], [18.3920298, 43.8866928], [18.3918419, 43.8865155], [18.3917889, 43.8863759], [18.3917959, 43.8861934], [18.3920376, 43.8857239], [18.3922868, 43.8855092], [18.3924694, 43.8854157], [18.392665, 43.8853234], [18.3928484, 43.885194], [18.3929871, 43.8850406], [18.3931553, 43.8847583], [18.3933273, 43.8844841], [18.3937521, 43.8841855], [18.3941099, 43.8839807], [18.3943651, 43.8837093], [18.3944546, 43.8835482], [18.3943989, 43.8834703], [18.3942223, 43.8834708], [18.3941016, 43.8835759], [18.3939645, 43.8836145], [18.3937944, 43.8836111], [18.3936559, 43.8836713], [18.3934268, 43.883745], [18.3932229, 43.883771], [18.3930242, 43.8836848], [18.392416, 43.8837649], [18.3920622, 43.8837273], [18.3917116, 43.8836513], [18.3915547, 43.8836123], [18.3913479, 43.8836063], [18.3912476, 43.883653], [18.3911787, 43.8837824], [18.3906327, 43.8841222], [18.39033, 43.8842213], [18.3898805, 43.8838456], [18.3894573, 43.883549], [18.389123, 43.8833208], [18.3883311, 43.8827517], [18.3882511, 43.8825629], [18.3880789, 43.8823997], [18.3872235, 43.8819636], [18.386809, 43.8816955], [18.3866152, 43.8815265], [18.3867697, 43.8814446], [18.3866398, 43.8811388], [18.386185, 43.881034], [18.3861399, 43.8808665], [18.3862143, 43.8807312], [18.3861804, 43.8806246], [18.3860254, 43.8804491], [18.385815, 43.8801357], [18.3856562, 43.8799845], [18.3856048, 43.8799034], [18.3856402, 43.8797854], [18.3858398, 43.8795221], [18.3859373, 43.879382], [18.3860063, 43.8792436], [18.3860177, 43.879126], [18.3859596, 43.8790525], [18.385712, 43.8789526], [18.3861638, 43.8786502], [18.3866451, 43.8783826], [18.386798, 43.8782713], [18.3869847, 43.878119], [18.387056, 43.8778858], [18.3872223, 43.877558], [18.3872942, 43.8774893], [18.3874049, 43.8774516], [18.3875403, 43.8774194], [18.3877275, 43.8773151], [18.3880568, 43.876969], [18.3882445, 43.8766398], [18.3883956, 43.8764107], [18.3884283, 43.87629], [18.3883845, 43.8761724], [18.3883015, 43.8760849], [18.3882013, 43.8760269], [18.3882157, 43.875952], [18.3882635, 43.8758438], [18.3883885, 43.8757325], [18.3885115, 43.875595], [18.3888404, 43.8753013], [18.3888606, 43.8752087], [18.3888794, 43.8751268], [18.3889324, 43.8750573], [18.3890402, 43.8749555], [18.3891378, 43.8748666], [18.3893274, 43.8746044], [18.3896062, 43.8742671], [18.3897694, 43.874111], [18.3903743, 43.8742313], [18.390787, 43.8743428], [18.3913481, 43.8744813], [18.3917024, 43.8746197], [18.3914233, 43.8751075], [18.3911222, 43.8754042], [18.39132, 43.875548], [18.3910604, 43.8757515], [18.3918867, 43.8763275], [18.3924899, 43.8757643], [18.3940523, 43.8764871], [18.3942949, 43.8762207], [18.3945465, 43.8758259], [18.3949424, 43.8754818], [18.3953408, 43.8752069], [18.3956371, 43.8749294], [18.3957756, 43.8747701], [18.3959793, 43.8743472], [18.396177, 43.8737887], [18.3964725, 43.8738629], [18.3970322, 43.8733016], [18.3974004, 43.872914], [18.3977066, 43.8727313], [18.3980236, 43.8723483], [18.3987724, 43.8726719], [18.3995619, 43.8731077], [18.3997554, 43.8728046], [18.3998971, 43.8726285], [18.3999549, 43.8724534], [18.399962, 43.8720978], [18.4003631, 43.8720806], [18.4003836, 43.8718664], [18.4007003, 43.87181], [18.4014512, 43.871658], [18.4013638, 43.871419], [18.4013634, 43.8712929], [18.4013949, 43.8711323], [18.4015016, 43.8708487], [18.40178, 43.8702558], [18.4019355, 43.8697601], [18.4021256, 43.8697496], [18.4023285, 43.8703923], [18.4029435, 43.8705986], [18.4029351, 43.8703497], [18.4027514, 43.8695825], [18.4027645, 43.8690581], [18.4029213, 43.8682927], [18.4024071, 43.8671153], [18.4030016, 43.8656222], [18.4029961, 43.8654731], [18.4029186, 43.8652282], [18.4028109, 43.8649833], [18.4026296, 43.8648007], [18.4025412, 43.8647019], [18.4025144, 43.864604], [18.402486, 43.8644191], [18.4021081, 43.8638452], [18.4022724, 43.8637887], [18.4020845, 43.8634562], [18.4018813, 43.8631791], [18.4016882, 43.8628996], [18.4013889, 43.8622151], [18.4013644, 43.8621582], [18.4012393, 43.8618889], [18.4010719, 43.8617107], [18.4008368, 43.8614932], [18.4004315, 43.8610691], [18.4003907, 43.8609426], [18.4003892, 43.8607814], [18.4004961, 43.8605185], [18.4011125, 43.8590583], [18.4009983, 43.8588906], [18.4010551, 43.8585496], [18.4011278, 43.8574842], [18.4012937, 43.8558921], [18.4013349, 43.855338], [18.4016888, 43.8553376], [18.4018149, 43.8543297], [18.4018207, 43.8539996], [18.4016743, 43.8533727], [18.4027217, 43.8532687], [18.403861, 43.8531894], [18.4043662, 43.8532041], [18.4061909, 43.8532667], [18.4062654, 43.8525953], [18.4062836, 43.85251], [18.4063276, 43.8524783], [18.4066098, 43.8522715], [18.4066917, 43.8521894], [18.4067904, 43.8519914], [18.4068328, 43.8519574], [18.4069087, 43.8519443], [18.4069967, 43.8519542], [18.4070999, 43.8520122], [18.407244, 43.8521588], [18.4073169, 43.8522124], [18.4073882, 43.852243], [18.4075126, 43.8522594], [18.4077584, 43.852243], [18.4078418, 43.85222], [18.4078828, 43.8521599], [18.4078585, 43.8520844], [18.4077887, 43.8520504], [18.4074033, 43.8519191], [18.4072061, 43.8518086], [18.4071196, 43.8517156], [18.4069922, 43.8515395], [18.4068556, 43.8513152], [18.4067715, 43.8512131], [18.4067519, 43.8511682], [18.4067534, 43.8511047], [18.4068532, 43.8509805], [18.4069358, 43.8508705], [18.4069956, 43.8507876], [18.4070236, 43.8507154], [18.407001, 43.8506516], [18.4068765, 43.8505514], [18.4067313, 43.8504181], [18.4066652, 43.850213], [18.4069029, 43.8499655], [18.4072817, 43.849752], [18.4083363, 43.8485311], [18.4082112, 43.8484436], [18.4074495, 43.848467], [18.4073165, 43.8482874], [18.4072695, 43.8481922], [18.4073083, 43.8481385], [18.4075554, 43.8480521], [18.4077481, 43.8479461], [18.4079459, 43.8477554], [18.4082788, 43.8473564], [18.4083463, 43.8473435], [18.4094598, 43.8476797], [18.4099749, 43.847828], [18.4102756, 43.8478932], [18.4105277, 43.8479263], [18.4108803, 43.8479365], [18.4111343, 43.8479696], [18.4111282, 43.8474626], [18.4113015, 43.8472969], [18.411372, 43.8469519], [18.4112536, 43.8466958], [18.4110356, 43.8464168], [18.4107895, 43.8462383], [18.4105217, 43.8461196], [18.4101567, 43.8460198], [18.4098059, 43.8460316], [18.4094611, 43.8461047], [18.4094416, 43.8459864], [18.4095682, 43.8457852], [18.4096304, 43.8456862], [18.4096433, 43.8455547], [18.4096368, 43.8454107], [18.4097162, 43.8452421], [18.4096154, 43.8451415], [18.409521, 43.8449929], [18.4094587, 43.8448521], [18.4093386, 43.8446973], [18.4091905, 43.8445921], [18.4091433, 43.8445178], [18.4091087, 43.8443898], [18.41575, 43.8453437], [18.4158362, 43.8454543], [18.4159545, 43.8456046], [18.4159447, 43.8457314], [18.4159689, 43.8457871], [18.4161707, 43.845864], [18.4163374, 43.8459542], [18.4165539, 43.8460068], [18.4167692, 43.8461345], [18.4170444, 43.8461909], [18.4174267, 43.8462579], [18.4178036, 43.8463165], [18.417951, 43.8464036], [18.4180351, 43.8466259], [18.4180673, 43.8467033], [18.4180136, 43.846773], [18.4180136, 43.8468503], [18.4181745, 43.8468503], [18.4182496, 43.8469122], [18.418432, 43.8470128], [18.4186117, 43.8469857], [18.4192341, 43.8468281], [18.4193853, 43.8467541], [18.4194377, 43.8467886], [18.4192723, 43.8469126], [18.4193115, 43.8470016], [18.419431, 43.8470674], [18.4192939, 43.8472595], [18.4193289, 43.8473672], [18.4194158, 43.8474399], [18.419617, 43.8473685], [18.4198864, 43.8473637], [18.4201035, 43.8472986], [18.4201247, 43.8474149], [18.4195875, 43.8484791], [18.4198888, 43.8485621], [18.4197184, 43.8489054], [18.4200588, 43.8491102], [18.4198573, 43.8493961], [18.4210754, 43.8501951], [18.421937, 43.8492851], [18.4221875, 43.8495184], [18.4223485, 43.8497217], [18.4224755, 43.849852], [18.4226126, 43.8499655], [18.4236456, 43.8506851], [18.4239189, 43.8509126], [18.4244192, 43.8513488], [18.4239809, 43.8517537], [18.4236174, 43.851711], [18.4233036, 43.8515311], [18.4228026, 43.852073], [18.4224429, 43.8520708], [18.4221078, 43.8520862], [18.4221835, 43.8524106], [18.42213, 43.8526613], [18.4220717, 43.8528026], [18.4219772, 43.8528721], [18.4221846, 43.853012], [18.4223368, 43.853142], [18.4224197, 43.853297], [18.4227929, 43.8534766], [18.4231086, 43.8536415], [18.4230318, 43.8537436], [18.4229859, 43.8538041], [18.4228933, 43.8537665], [18.422744, 43.854014], [18.4228657, 43.854066], [18.422786, 43.8542389], [18.4227764, 43.8544029], [18.4230429, 43.8545069], [18.4232023, 43.8546331], [18.4233506, 43.8545877], [18.4234824, 43.8548179], [18.4233767, 43.8548946], [18.4234922, 43.8549698], [18.4233575, 43.855094], [18.4235811, 43.8552081], [18.4233785, 43.8554318], [18.4235283, 43.8560386], [18.4236987, 43.8560426], [18.423726, 43.8562469], [18.4237242, 43.8564363], [18.4237241, 43.856452], [18.4237223, 43.856657], [18.4238314, 43.8567403], [18.4238879, 43.856782], [18.4238795, 43.857082], [18.4238202, 43.8575387], [18.4238016, 43.8577679], [18.4238152, 43.8578101], [18.4239181, 43.857991], [18.4236979, 43.8587265], [18.4235169, 43.8592802], [18.4234361, 43.8593565], [18.4227341, 43.859214], [18.4226938, 43.8593381], [18.4224645, 43.8593379], [18.4223033, 43.8598501], [18.4224263, 43.8598691], [18.4224038, 43.8601836], [18.4226542, 43.8601906], [18.4226053, 43.860441], [18.4224099, 43.8606244], [18.4223674, 43.8607599], [18.4225848, 43.8607609], [18.4225469, 43.8609238], [18.4231739, 43.8610036], [18.4231032, 43.8611891], [18.4243672, 43.8614573], [18.4244254, 43.8612921], [18.4245383, 43.8613139], [18.4245923, 43.8611957], [18.4248074, 43.8611858], [18.4247241, 43.8614738], [18.4249308, 43.8615094], [18.4248558, 43.8618694], [18.424921, 43.8618831], [18.4248784, 43.8621129], [18.4248213, 43.8621107], [18.4247708, 43.8624221], [18.4249282, 43.8624532], [18.4249081, 43.8627072], [18.4251002, 43.8629165], [18.4252837, 43.8628209], [18.4254744, 43.8634669], [18.4254315, 43.8636591], [18.4252522, 43.8635899], [18.4249311, 43.8637808], [18.4250768, 43.8639278], [18.425258, 43.8641081], [18.4249207, 43.8641699], [18.4249523, 43.8643893], [18.4250381, 43.8645832], [18.4252556, 43.8648559], [18.4252717, 43.8648761], [18.4255199, 43.8651942], [18.4256163, 43.8654122], [18.4256803, 43.8655568], [18.4257065, 43.8657161], [18.4257252, 43.8658299], [18.4256994, 43.8662173], [18.4257397, 43.866452], [18.4257436, 43.8664744], [18.4260673, 43.8668315], [18.4260756, 43.866988], [18.4260469, 43.8673313], [18.4260065, 43.8678204], [18.4260775, 43.868219], [18.4260972, 43.8684246], [18.4262829, 43.8686641], [18.4263697, 43.8688775], [18.4263709, 43.8691008], [18.4266493, 43.8694609], [18.4266485, 43.8695378], [18.426575, 43.8696217], [18.4264897, 43.8696761], [18.4261032, 43.8703297], [18.4266548, 43.8709735], [18.4266465, 43.8714233], [18.4267688, 43.8718758], [18.4269629, 43.8721129], [18.4270191, 43.8722184], [18.4268331, 43.8722372], [18.4266892, 43.872247], [18.4265502, 43.8723004], [18.4264873, 43.8723747], [18.4266823, 43.8724307], [18.4273185, 43.8725367], [18.4274886, 43.8725303], [18.4276946, 43.8724792], [18.4279578, 43.8723867], [18.4280971, 43.8723885], [18.4285564, 43.8724576], [18.428681, 43.8725118], [18.4287314, 43.8727293], [18.4292381, 43.8730912], [18.4296052, 43.8733896], [18.4297143, 43.8734428], [18.4299459, 43.8734841], [18.4302651, 43.8735158], [18.4303841, 43.8735759], [18.4305517, 43.8737294], [18.4307027, 43.8739008], [18.4308795, 43.8742953], [18.4311722, 43.8748256], [18.4313455, 43.8750119], [18.4318692, 43.8752665], [18.432376, 43.8759693], [18.4326667, 43.8763207], [18.4336648, 43.8771448], [18.4334473, 43.8772709], [18.4334099, 43.8773428], [18.4333963, 43.8774271], [18.4334565, 43.8775658], [18.4333776, 43.8775548], [18.4332683, 43.8775212], [18.433091, 43.8773859], [18.432729, 43.8772012], [18.432703, 43.8772253], [18.4328412, 43.8775439], [18.4324994, 43.8772944], [18.4324408, 43.8773166], [18.4325546, 43.8775141], [18.4327056, 43.8778638], [18.4327217, 43.8780051], [18.4325736, 43.8782145], [18.4324688, 43.878613], [18.4324565, 43.8790683], [18.4324746, 43.8801144], [18.4325847, 43.8802717], [18.4327558, 43.8804626], [18.4343908, 43.881614], [18.4349909, 43.8819122], [18.434939, 43.88196], [18.4348958, 43.8820294], [18.4348707, 43.8821118], [18.4348948, 43.882306], [18.4350136, 43.8824688], [18.4352886, 43.8827592], [18.4353554, 43.8829685], [18.4354109, 43.8833318], [18.4353939, 43.8840804], [18.4353022, 43.8842688], [18.4351655, 43.8844271], [18.434982, 43.8845545], [18.4348156, 43.8846562], [18.4347671, 43.8848718], [18.4347646, 43.8852162], [18.4347973, 43.885472], [18.4355268, 43.8869656], [18.4359125, 43.8874438], [18.4361098, 43.8878027], [18.436236, 43.8879026], [18.4364317, 43.8879922], [18.4364974, 43.8880759], [18.4364894, 43.8881588], [18.4364404, 43.8882104], [18.4362295, 43.8882697], [18.4366622, 43.8883373], [18.4367451, 43.8886394], [18.4369345, 43.8888122], [18.4374256, 43.8889974], [18.4379998, 43.8892763], [18.4384555, 43.8896407], [18.4385498, 43.88987], [18.4386506, 43.8899976], [18.4388064, 43.8900682], [18.4389494, 43.8901241], [18.4391173, 43.8901612], [18.4399318, 43.8908313], [18.4405989, 43.8917817], [18.441137, 43.8914107], [18.4415414, 43.891956], [18.4418766, 43.8926849], [18.4420584, 43.8927514], [18.4419664, 43.8932883], [18.4422526, 43.893341], [18.4424776, 43.8934286], [18.4426647, 43.8935362], [18.4458358, 43.8943828], [18.4458155, 43.8944543], [18.4456886, 43.8945003], [18.4453044, 43.8945053], [18.4449311, 43.894584], [18.4447251, 43.8946869], [18.4445933, 43.8947956], [18.4441546, 43.8958252], [18.4440633, 43.8958592], [18.4439704, 43.8958404], [18.4437251, 43.8957608], [18.4436381, 43.8957726], [18.4436377, 43.8958259], [18.4438162, 43.8959118], [18.4440368, 43.8960706], [18.4441345, 43.8962359], [18.4441539, 43.8964126], [18.4441527, 43.8968901], [18.4442113, 43.8972302], [18.444336, 43.8977236], [18.4443167, 43.8977969], [18.4442204, 43.8981065], [18.444033, 43.8984519], [18.4439475, 43.8985095], [18.4438622, 43.8985029], [18.4437904, 43.8984571], [18.4436922, 43.8982578], [18.4436437, 43.8981859], [18.4435945, 43.8981817], [18.44355, 43.8982248], [18.4435395, 43.8983268], [18.4435143, 43.8994141], [18.4435606, 43.8996261], [18.4437371, 43.8999837], [18.444645, 43.9009894], [18.4450341, 43.9012334], [18.4452552, 43.9011563], [18.4455209, 43.9011133], [18.4457181, 43.9012227], [18.4460178, 43.9015639], [18.4466705, 43.9017688], [18.4467935, 43.9019536], [18.4468961, 43.9024708], [18.4470296, 43.90282], [18.4472193, 43.9030867], [18.4475012, 43.9033855], [18.4475649, 43.903511], [18.4475596, 43.9036132], [18.4474963, 43.9036942], [18.4472845, 43.9037661], [18.4471801, 43.9038486], [18.446995, 43.9040515], [18.4468427, 43.9041681], [18.4467534, 43.9042386], [18.4467246, 43.9043819], [18.44674, 43.9045572], [18.4468034, 43.9046377], [18.4470215, 43.9047559], [18.4473132, 43.9048154], [18.4474443, 43.9048875], [18.4475419, 43.9049929], [18.4475836, 43.9052292], [18.4475777, 43.9054527], [18.4475081, 43.9059189], [18.4475335, 43.9061581], [18.4478091, 43.9064662], [18.4480757, 43.9068696], [18.4486823, 43.9073278], [18.4489676, 43.9075877], [18.4492448, 43.9078266], [18.449707, 43.907959], [18.4501693, 43.9080645], [18.4509509, 43.9081748], [18.4513632, 43.9082182], [18.451525, 43.9083263], [18.4515659, 43.9084055], [18.4513519, 43.9084343], [18.4509208, 43.9083732], [18.450371, 43.9083699], [18.4490092, 43.9081866], [18.4485785, 43.9081382], [18.4476214, 43.908246], [18.4471819, 43.9084626], [18.4466473, 43.9085594], [18.4460156, 43.9085247], [18.4453719, 43.90858], [18.4449614, 43.9088079], [18.4446756, 43.9090657], [18.4444726, 43.9093674], [18.443282, 43.9095254], [18.441501, 43.9099827], [18.4403983, 43.9104645], [18.4390019, 43.9106185], [18.4373647, 43.9104107], [18.4361539, 43.9105295], [18.4349416, 43.9106485], [18.4327402, 43.9106817], [18.4318848, 43.9107675], [18.4312064, 43.9109341], [18.4304725, 43.9110214], [18.4298506, 43.9108704], [18.4292646, 43.9110392], [18.4285921, 43.9114056], [18.4277568, 43.912088], [18.4280185, 43.9126976], [18.4284292, 43.9133295], [18.4289736, 43.9139414], [18.4292235, 43.9131134], [18.4298683, 43.9126687], [18.4307907, 43.9123916], [18.4314682, 43.9134512], [18.4314472, 43.9139051], [18.4326811, 43.9158778], [18.4328937, 43.921959], [18.4332976, 43.9217566], [18.43363, 43.9215395], [18.4342845, 43.9214362], [18.4346028, 43.9215642], [18.4350129, 43.9215379], [18.4355864, 43.9212122], [18.4359761, 43.9211365], [18.4357636, 43.9219173], [18.4348571, 43.9225584], [18.4355338, 43.9232901], [18.4368716, 43.9246526], [18.4377178, 43.9257102], [18.4382854, 43.9266817], [18.4379225, 43.9266212], [18.4377208, 43.9265635], [18.4373886, 43.9266173], [18.4370784, 43.926611], [18.4365753, 43.9264436], [18.4363132, 43.9266519], [18.4364742, 43.9267485], [18.4365731, 43.9268924], [18.4365776, 43.9270785], [18.4365358, 43.9272562], [18.4366535, 43.9273737], [18.4368684, 43.927431], [18.4359119, 43.9275809], [18.4365185, 43.9279435], [18.4367031, 43.9286978], [18.4362157, 43.9287036], [18.4358393, 43.9286732], [18.4353824, 43.9285813], [18.4349522, 43.9287508], [18.4346581, 43.9290365], [18.434927, 43.9293039], [18.4352734, 43.9294385], [18.4347821, 43.9304634], [18.4344457, 43.9305329], [18.4340621, 43.9305406], [18.4336982, 43.9304881], [18.4336573, 43.9307971], [18.4331032, 43.9307415], [18.4330744, 43.9310813], [18.432941, 43.9316195], [18.4323709, 43.9322821], [18.4331172, 43.9351091], [18.4325545, 43.9359707], [18.4335868, 43.9351543], [18.4359701, 43.9359092], [18.4362431, 43.9358317], [18.4364732, 43.9357448], [18.4367054, 43.9357459], [18.4369588, 43.9357863], [18.4371606, 43.9358701], [18.4373539, 43.935988], [18.4375334, 43.9361598], [18.4392846, 43.9367685], [18.4415466, 43.9371944], [18.4419753, 43.9372238], [18.4423037, 43.9372792], [18.4427676, 43.9374624], [18.4431185, 43.9376476], [18.4433454, 43.9378232], [18.4434996, 43.93806], [18.4435329, 43.9383561], [18.4435849, 43.9384448], [18.4437223, 43.9384845], [18.4437655, 43.9390182], [18.4438748, 43.9393059], [18.4438405, 43.9399586], [18.4441522, 43.9401623], [18.4449743, 43.9397633], [18.4453563, 43.9396276], [18.4457476, 43.9395379], [18.4460787, 43.9395429], [18.4463806, 43.9396974], [18.4466961, 43.9399603], [18.4469349, 43.9403618], [18.4473072, 43.9411257], [18.4477194, 43.9425603], [18.4478186, 43.9442035], [18.4483857, 43.9455789], [18.4481693, 43.9463104], [18.4482916, 43.9469292], [18.4482955, 43.9471074], [18.4485314, 43.9471901], [18.4486089, 43.9474001], [18.4486811, 43.947693], [18.4484918, 43.9480798], [18.4489208, 43.9492022], [18.4490738, 43.9498393], [18.4485905, 43.950672], [18.4483989, 43.9515109], [18.4480586, 43.952123], [18.4481679, 43.9528231], [18.4483676, 43.9532835], [18.4484366, 43.9538373], [18.4478946, 43.9539705], [18.4475198, 43.95401], [18.4471345, 43.9539015], [18.4467236, 43.9537685], [18.4460782, 43.953835], [18.4455456, 43.9540152], [18.4448688, 43.9540375], [18.4440843, 43.9538785], [18.4429947, 43.9535023], [18.4426362, 43.9534317], [18.4422894, 43.9534071], [18.4419351, 43.9532861], [18.4416886, 43.9530426], [18.4412896, 43.9528528], [18.4409717, 43.9527995], [18.4407581, 43.952889], [18.4405446, 43.9529919], [18.440321, 43.9529777], [18.4401559, 43.9528483], [18.4400728, 43.9524939], [18.4399212, 43.9522838], [18.439411, 43.9520168], [18.4389744, 43.9519353], [18.4381877, 43.951898], [18.4378259, 43.9516336], [18.437558, 43.9516111], [18.437164, 43.9516848], [18.4369437, 43.951886], [18.4367118, 43.9521249], [18.4364149, 43.9522227], [18.4358757, 43.9522219], [18.4355017, 43.9520945], [18.4348697, 43.9516791], [18.4341602, 43.9510848], [18.4339828, 43.9510458], [18.4335332, 43.9509877], [18.4333743, 43.950712], [18.4331381, 43.9505776], [18.4328956, 43.950471], [18.4326684, 43.9504351], [18.4321355, 43.9504509], [18.4319233, 43.9505719], [18.4315607, 43.9508023], [18.4312876, 43.9508358], [18.4308029, 43.9508191], [18.4302742, 43.9507336], [18.4298943, 43.950725], [18.4295061, 43.950591], [18.4292755, 43.9504521], [18.4288476, 43.9504245], [18.428715, 43.9503373], [18.4286067, 43.9500437], [18.4284269, 43.9498423], [18.4283241, 43.9495417], [18.4281161, 43.9493058], [18.4276261, 43.9491262], [18.4272183, 43.9488471], [18.4268481, 43.9484237], [18.4264716, 43.9484074], [18.4260707, 43.9485507], [18.4254058, 43.9486808], [18.4247474, 43.94869], [18.4242912, 43.9485782], [18.4239728, 43.9482192], [18.4236919, 43.9478061], [18.4237576, 43.9467951], [18.423567, 43.9465777], [18.4231706, 43.9464083], [18.4223825, 43.9464259], [18.4222119, 43.9463514], [18.4222863, 43.9459178], [18.4220941, 43.945703], [18.4213192, 43.9456095], [18.4210288, 43.9454748], [18.4206524, 43.9448636], [18.4199573, 43.9446477], [18.4195904, 43.9441596], [18.4193183, 43.9439705], [18.4183556, 43.9437466], [18.4181323, 43.9436152], [18.4178941, 43.9430965], [18.41746, 43.9429578], [18.4169593, 43.9429869], [18.4166614, 43.9428583], [18.4160644, 43.9423108], [18.4157979, 43.941906], [18.4155512, 43.9413293], [18.4152252, 43.9409682], [18.4142111, 43.940728], [18.4137799, 43.9405066], [18.4138059, 43.9402252], [18.4139142, 43.9398578], [18.4136842, 43.9396035], [18.4131425, 43.9394728], [18.4121962, 43.9393427], [18.4117321, 43.939181], [18.4114034, 43.9390331], [18.4110649, 43.9387823], [18.4112724, 43.9386012], [18.4117224, 43.9384564], [18.4120881, 43.9382661], [18.4123676, 43.9375917], [18.4128773, 43.9366419], [18.4130473, 43.9360444], [18.4133015, 43.9355605], [18.4138333, 43.9350009], [18.4144061, 43.9346286], [18.4149903, 43.9343427], [18.4153379, 43.9338079], [18.4155547, 43.932962], [18.4159836, 43.9323414], [18.4154033, 43.9322878], [18.4147907, 43.9324639], [18.4141281, 43.9325498], [18.413708, 43.9324093], [18.4133102, 43.9321858], [18.4130626, 43.9318541], [18.4136682, 43.9314859], [18.4140184, 43.9310938], [18.4140873, 43.9307506], [18.4138933, 43.9304976], [18.4135015, 43.9301185], [18.4133087, 43.9296812], [18.4134164, 43.9290456], [18.4135995, 43.9287286], [18.4136947, 43.9282442], [18.4135002, 43.9279416], [18.4132882, 43.927618], [18.413213, 43.9271409], [18.4128795, 43.9266809], [18.4116546, 43.925842], [18.4110406, 43.9256334], [18.4104549, 43.9255396], [18.4096611, 43.9253183], [18.4096904, 43.9259371], [18.4085811, 43.9262895], [18.4075188, 43.9268599], [18.4068714, 43.926751], [18.4071426, 43.9260993], [18.4075431, 43.9253754], [18.4075418, 43.9247496], [18.3999013, 43.9277381], [18.397639, 43.9243708], [18.3973173, 43.9241027], [18.3971593, 43.923663], [18.3974273, 43.9233207], [18.3984548, 43.9224335], [18.3983808, 43.921918], [18.3985398, 43.9213789], [18.3988233, 43.9207258], [18.3987712, 43.9203349], [18.3984552, 43.9197826], [18.398056, 43.9193293], [18.3976975, 43.91904], [18.3972577, 43.9188105], [18.3966176, 43.9187525], [18.3962348, 43.9186479], [18.3961341, 43.9182639], [18.396324, 43.9176052], [18.3962586, 43.9167904], [18.3958792, 43.9163164], [18.3952785, 43.9159382], [18.3947085, 43.915777], [18.3942812, 43.9158309], [18.3938469, 43.9159015], [18.3925996, 43.9154026], [18.3921679, 43.9152501], [18.3909236, 43.9143014], [18.3886334, 43.9120274], [18.390867, 43.9086087], [18.3903636, 43.9084017], [18.3898945, 43.9080915], [18.3897092, 43.9078601], [18.3892337, 43.9076109], [18.3880989, 43.9065913], [18.3873183, 43.9060071], [18.3859271, 43.9053154], [18.3851695, 43.9050014], [18.3844916, 43.9047384], [18.3841714, 43.9044081], [18.3837767, 43.9037773], [18.3837387, 43.903548], [18.3835913, 43.9033886]]]}}]}