{"type": "FeatureCollection", "features": [{"type": "Feature", "properties": {"name": "Općina Čitluk, Hercegovačko-neretvanska županija (kanton), Federacija Bosne i Hercegovine, Bosna i Hercegovina / Босна и Херцеговина", "source": "OpenStreetMap relation 2528181", "licence": "ODbL 1.0"}, "geometry": {"type": "Polygon", "coordinates": [[[17.5645262, 43.2439835], [17.564612, 43.2439367], [17.5653684, 43.2435928], [17.5665325, 43.2431434], [17.5669724, 43.2429793], [17.5681257, 43.2423501], [17.5689036, 43.241846], [17.5693111, 43.2415154], [17.5699112, 43.2411573], [17.5706854, 43.2409107], [17.5714999, 43.2406971], [17.5729588, 43.2401169], [17.5736135, 43.240021], [17.5743109, 43.2398921], [17.5747937, 43.2397318], [17.5752389, 43.2395599], [17.5756413, 43.2395912], [17.575947, 43.2396967], [17.5763386, 43.239724], [17.5767088, 43.2395599], [17.5772828, 43.2390753], [17.5779051, 43.2385321], [17.5787634, 43.2382898], [17.5795627, 43.2379498], [17.5800669, 43.2377036], [17.5842941, 43.2309618], [17.584632, 43.2306804], [17.5868261, 43.2298791], [17.5879633, 43.2293632], [17.5888592, 43.2288942], [17.5905436, 43.228175], [17.5913376, 43.2278896], [17.591874, 43.227745], [17.5926948, 43.2275926], [17.5937462, 43.2272877], [17.5947171, 43.2269085], [17.5956505, 43.2264707], [17.596423, 43.2260955], [17.5972009, 43.225775], [17.5978178, 43.225517], [17.5984669, 43.225259], [17.5990462, 43.2248759], [17.5994378, 43.2247235], [17.599749, 43.2245202], [17.6000333, 43.2242192], [17.6007038, 43.2239339], [17.6014119, 43.2236954], [17.6017392, 43.2235352], [17.6018465, 43.2233475], [17.6019591, 43.2233045], [17.6019376, 43.2231716], [17.6027584, 43.2228589], [17.6033002, 43.2226439], [17.6040029, 43.2223038], [17.6048881, 43.2217605], [17.6052529, 43.2215416], [17.6057625, 43.2212992], [17.6060414, 43.2211506], [17.6063418, 43.2208887], [17.6070982, 43.2203454], [17.6075649, 43.2200717], [17.6083535, 43.2203571], [17.6089758, 43.2204783], [17.6096356, 43.2206385], [17.6104563, 43.2208536], [17.6117009, 43.2212523], [17.6123446, 43.2214595], [17.6127309, 43.2212992], [17.6132244, 43.2212054], [17.6133799, 43.2212406], [17.6134765, 43.2212757], [17.6139218, 43.2212796], [17.6140827, 43.2211624], [17.6142544, 43.2208926], [17.6143509, 43.2207167], [17.6148176, 43.2205174], [17.6157135, 43.2201577], [17.6162124, 43.2199857], [17.6171994, 43.2197355], [17.6183259, 43.2193681], [17.6196831, 43.2189126], [17.6204717, 43.2185803], [17.6205602, 43.21851], [17.6206112, 43.2184201], [17.6208499, 43.2183184], [17.6211905, 43.2182148], [17.6216224, 43.2181738], [17.6220703, 43.2181503], [17.6224592, 43.2181308], [17.6230861, 43.2179334], [17.621566, 43.2151616], [17.6213461, 43.2142194], [17.6213, 43.2135634], [17.6212925, 43.2133475], [17.6213193, 43.2128197], [17.6213407, 43.2124209], [17.6210993, 43.2122254], [17.6210057, 43.2121377], [17.6210158, 43.2119917], [17.6210245, 43.2119575], [17.6210389, 43.2119014], [17.6210835, 43.2117917], [17.6211642, 43.2116095], [17.6212521, 43.2113622], [17.6213717, 43.2109606], [17.6213819, 43.2109278], [17.621399, 43.2108729], [17.6214358, 43.2107747], [17.6215021, 43.2106576], [17.6215907, 43.2105201], [17.6217412, 43.2103127], [17.6217945, 43.2102486], [17.621863, 43.2101641], [17.6219242, 43.2100806], [17.6219609, 43.2100234], [17.6221376, 43.2100798], [17.622246, 43.2101114], [17.6224081, 43.2101574], [17.6225599, 43.2102002], [17.6227354, 43.2102642], [17.6229811, 43.2103462], [17.6231753, 43.2103914], [17.6237555, 43.210493], [17.623994, 43.2105426], [17.6243027, 43.2106194], [17.6246682, 43.2107225], [17.624791, 43.210755], [17.6248696, 43.2107759], [17.6250895, 43.2108233], [17.6253507, 43.2108707], [17.6258979, 43.2109452], [17.6259511, 43.2109507], [17.6263853, 43.2109957], [17.6265381, 43.2110107], [17.6268138, 43.2110491], [17.6271225, 43.2111258], [17.6272804, 43.2111567], [17.6273754, 43.2111627], [17.6275334, 43.2111627], [17.6276061, 43.2111605], [17.6276628, 43.2111589], [17.6277089, 43.2111575], [17.6278248, 43.2111423], [17.6279041, 43.2111319], [17.628093, 43.2111146], [17.6282407, 43.211107], [17.6283749, 43.2111093], [17.6284169, 43.2111139], [17.6285927, 43.2111334], [17.6286966, 43.2111508], [17.6288705, 43.21118], [17.6293413, 43.2112786], [17.629358, 43.2112817], [17.6295323, 43.211314], [17.6297171, 43.2113388], [17.6299122, 43.2113721], [17.6300227, 43.2113493], [17.6308797, 43.2113456], [17.6310893, 43.2113516], [17.6314114, 43.2113734], [17.6315353, 43.2113734], [17.6316954, 43.2113772], [17.6318379, 43.2113892], [17.6319731, 43.2114073], [17.6321435, 43.2114396], [17.6322448, 43.2114456], [17.6322963, 43.2114487], [17.6324222, 43.2114509], [17.6325441, 43.2114306], [17.6326618, 43.2113945], [17.6326991, 43.2113799], [17.632733, 43.2113667], [17.6328105, 43.2113328], [17.6329013, 43.2113027], [17.6330469, 43.2112651], [17.6338853, 43.2111116], [17.6341352, 43.2110446], [17.6342436, 43.2110197], [17.6343768, 43.2110047], [17.6345182, 43.2109866], [17.6346338, 43.2109678], [17.6348507, 43.2109151], [17.6349178, 43.2108956], [17.6350004, 43.210861], [17.6350995, 43.2108188], [17.6352864, 43.2107187], [17.6353865, 43.2106751], [17.6354732, 43.2106363], [17.6355466, 43.2106156], [17.6356983, 43.2105788], [17.6358388, 43.2105449], [17.6360649, 43.2104689], [17.6362745, 43.2103974], [17.6364025, 43.210359], [17.6365625, 43.2103154], [17.636767, 43.210262], [17.6369714, 43.2101987], [17.6373431, 43.2100977], [17.638021, 43.20991], [17.6389891, 43.2096015], [17.6391804, 43.2095456], [17.6394433, 43.2094707], [17.6396571, 43.2094146], [17.6398407, 43.2093664], [17.6399318, 43.2093386], [17.6404941, 43.2091854], [17.6411623, 43.2089683], [17.6412307, 43.2089161], [17.6412616, 43.208851], [17.640892, 43.2088416], [17.6406826, 43.2088348], [17.6404765, 43.2088048], [17.6401213, 43.2087158], [17.6396422, 43.2085094], [17.6391345, 43.2081631], [17.6389468, 43.2079676], [17.6386946, 43.2076665], [17.6380563, 43.2064818], [17.6378202, 43.2054886], [17.6377909, 43.2027829], [17.6486671, 43.1959237], [17.6488066, 43.1958298], [17.6499546, 43.1945275], [17.6502496, 43.1943828], [17.6504749, 43.1941169], [17.6506895, 43.1938666], [17.6522691, 43.1930979], [17.652787, 43.1928458], [17.6533547, 43.1931442], [17.6538096, 43.1927861], [17.6533444, 43.1923201], [17.6541826, 43.1912472], [17.6542984, 43.1913069], [17.654393, 43.1913349], [17.6546087, 43.1914448], [17.6547492, 43.191503], [17.6548737, 43.1916256], [17.6551033, 43.1914707], [17.6553576, 43.1916681], [17.6554779, 43.1917614], [17.6556838, 43.191958], [17.6557402, 43.1919312], [17.6563904, 43.1916222], [17.6564079, 43.1916139], [17.6573628, 43.1911328], [17.6574431, 43.1911015], [17.6575935, 43.1910429], [17.6580936, 43.1908031], [17.658165, 43.1907689], [17.6584297, 43.1906787], [17.6584786, 43.19073], [17.6588756, 43.1908551], [17.6592511, 43.1909607], [17.6594657, 43.1909686], [17.6595137, 43.1909525], [17.6595387, 43.1909441], [17.6597446, 43.1908747], [17.6597923, 43.1908529], [17.6600885, 43.1907172], [17.6603937, 43.1905774], [17.6605204, 43.1905448], [17.6608497, 43.1904601], [17.6609802, 43.1904265], [17.6610433, 43.1904103], [17.6611177, 43.1903911], [17.6612145, 43.1903662], [17.6613372, 43.190312], [17.6614431, 43.1902653], [17.6614954, 43.1902422], [17.6617992, 43.1901081], [17.6618314, 43.1900651], [17.6616919, 43.1897796], [17.6617234, 43.1897688], [17.662046, 43.1896583], [17.6621289, 43.1897642], [17.6621532, 43.1897952], [17.6625663, 43.1896857], [17.6629955, 43.1896896], [17.6629863, 43.1896547], [17.6629364, 43.1894667], [17.6638716, 43.1893278], [17.6639413, 43.1893174], [17.6639044, 43.1892624], [17.6638766, 43.1892208], [17.6638264, 43.1891469], [17.6637734, 43.1890849], [17.6637481, 43.1890448], [17.6637438, 43.1890018], [17.6637393, 43.1889562], [17.6636988, 43.1888805], [17.6636002, 43.1887676], [17.6634523, 43.1885904], [17.6633027, 43.1884749], [17.6631689, 43.1883761], [17.6630527, 43.1882862], [17.6629723, 43.188248], [17.6630036, 43.1882226], [17.6633016, 43.1879196], [17.6635285, 43.1877803], [17.6636112, 43.1877295], [17.6638666, 43.1876423], [17.6643446, 43.1874601], [17.664475, 43.1873888], [17.6649911, 43.1872502], [17.6653388, 43.1871789], [17.665715, 43.1870226], [17.6656709, 43.1869828], [17.6653528, 43.1867785], [17.6653303, 43.1867377], [17.6653256, 43.1867072], [17.6653698, 43.18667], [17.6655332, 43.1864229], [17.6656615, 43.1862024], [17.6657313, 43.186022], [17.6657861, 43.1859267], [17.6660772, 43.1856048], [17.6662288, 43.1854162], [17.6663642, 43.1852805], [17.6663931, 43.1852253], [17.6663939, 43.1851452], [17.6662725, 43.1848892], [17.6662446, 43.1847908], [17.6662976, 43.1846669], [17.6663934, 43.1845087], [17.6663846, 43.184337], [17.6663466, 43.184252], [17.6663132, 43.1841912], [17.6661757, 43.1839981], [17.6660907, 43.1839204], [17.6658118, 43.1836231], [17.6654644, 43.183597], [17.6653773, 43.1832867], [17.6650661, 43.1829582], [17.6652637, 43.1828548], [17.6651922, 43.1828257], [17.6650839, 43.1827694], [17.6649491, 43.1826648], [17.6649037, 43.1826356], [17.6648004, 43.1825931], [17.6646805, 43.1825559], [17.6646131, 43.1825291], [17.6646195, 43.1824819], [17.6646048, 43.1823714], [17.6627111, 43.1808732], [17.6620245, 43.1805994], [17.6590526, 43.1790425], [17.6586287, 43.1787768], [17.6656013, 43.173545], [17.6678502, 43.1724781], [17.6718306, 43.170835], [17.6743519, 43.1695908], [17.6783645, 43.1666564], [17.6791584, 43.1664686], [17.68507, 43.1621645], [17.6861, 43.1608811], [17.6866364, 43.1600672], [17.6872373, 43.1595898], [17.6874947, 43.1595115], [17.688117, 43.1593159], [17.6890075, 43.1588776], [17.6897156, 43.1583376], [17.6909172, 43.1576019], [17.6916361, 43.1571949], [17.6918024, 43.1571597], [17.6919097, 43.157148], [17.69243, 43.156831], [17.6929933, 43.1562362], [17.6941144, 43.1554457], [17.6955038, 43.1544126], [17.69876, 43.1521858], [17.7003157, 43.1532424], [17.7013993, 43.1536416], [17.7025473, 43.1538999], [17.7120101, 43.1498454], [17.7139628, 43.1505499], [17.7142632, 43.1508473], [17.7166021, 43.1520253], [17.7162695, 43.1523815], [17.7156472, 43.1527493], [17.715261, 43.1529528], [17.7150893, 43.1530624], [17.7149347, 43.1532242], [17.7148425, 43.1533207], [17.7145207, 43.1535947], [17.7141023, 43.153939], [17.713877, 43.1543695], [17.7136946, 43.1545026], [17.7128792, 43.1549252], [17.711935, 43.1553166], [17.7103901, 43.1558175], [17.7087164, 43.1564906], [17.7079255, 43.1568517], [17.7078357, 43.1568927], [17.7072251, 43.1571715], [17.7057767, 43.1577976], [17.7057267, 43.1578341], [17.7053261, 43.1581263], [17.7050578, 43.1583532], [17.7049254, 43.1584982], [17.7048218, 43.1586115], [17.7037018, 43.1591359], [17.7029451, 43.1594902], [17.7149659, 43.1639936], [17.7149659, 43.1706514], [17.714569, 43.1732564], [17.714569, 43.1758613], [17.7173472, 43.1787555], [17.7185378, 43.1799132], [17.7221098, 43.1810708], [17.7233004, 43.1825178], [17.7252848, 43.1839648], [17.7275802, 43.1849029], [17.7293318, 43.1831264], [17.7322233, 43.181061], [17.7396798, 43.176934], [17.7450013, 43.1723255], [17.7469379, 43.1707137], [17.7494967, 43.1669342], [17.7504408, 43.166046], [17.7505374, 43.1659247], [17.750591, 43.1657604], [17.750693, 43.1655139], [17.750988, 43.1647861], [17.7510605, 43.1647537], [17.7511543, 43.1647118], [17.7511704, 43.164567], [17.7513796, 43.1643557], [17.7514031, 43.1643323], [17.7515835, 43.1641523], [17.7518731, 43.1639253], [17.7520215, 43.1638381], [17.7528119, 43.1633736], [17.7527314, 43.1632445], [17.7529031, 43.1631349], [17.7547032, 43.1625884], [17.7547841, 43.1625639], [17.7549523, 43.1625128], [17.7572635, 43.1623112], [17.7576882, 43.1622741], [17.7581774, 43.1620996], [17.75827, 43.1620665], [17.7587512, 43.1618948], [17.759942, 43.1620354], [17.7625917, 43.1628356], [17.7653699, 43.1608091], [17.7689418, 43.1610986], [17.77172, 43.1628356], [17.7733075, 43.165441], [17.7788639, 43.1677568], [17.7806482, 43.1687268], [17.781415, 43.1690646], [17.7820975, 43.1694176], [17.7825525, 43.1699306], [17.7840595, 43.1715587], [17.7849614, 43.1729755], [17.7854787, 43.1742244], [17.7859658, 43.1757731], [17.7861256, 43.1763958], [17.7859654, 43.177766], [17.7858409, 43.1788519], [17.7855643, 43.1795775], [17.7851299, 43.1800333], [17.7849445, 43.180135], [17.7845086, 43.180374], [17.7832388, 43.1810688], [17.7808999, 43.1824613], [17.7785181, 43.1845892], [17.7767474, 43.1868201], [17.7758576, 43.1880548], [17.7752011, 43.1895833], [17.7752089, 43.1910013], [17.7755361, 43.1929642], [17.7764488, 43.1945127], [17.779076, 43.1969482], [17.7848481, 43.2010465], [17.7868437, 43.2022822], [17.7878139, 43.2031344], [17.7887534, 43.2051289], [17.7892684, 43.2066773], [17.789998, 43.2080067], [17.7924012, 43.2112284], [17.7941915, 43.2125837], [17.7957953, 43.2137692], [17.7963494, 43.2140823], [17.7967658, 43.2142983], [17.797162, 43.2144915], [17.7984989, 43.2147362], [17.8004264, 43.2148566], [17.8039623, 43.2148845], [17.8053582, 43.2151801], [17.8062918, 43.2153058], [17.8069875, 43.2153701], [17.8072026, 43.2153505], [17.8071803, 43.215961], [17.8013545, 43.2185784], [17.8020197, 43.2205604], [17.8014135, 43.2233632], [17.7997106, 43.2256254], [17.7970503, 43.2273214], [17.7958596, 43.2284781], [17.7942721, 43.2293456], [17.7918908, 43.2313698], [17.7907002, 43.2322373], [17.7871282, 43.2336831], [17.7855407, 43.2357071], [17.7855407, 43.2365746], [17.7875251, 43.2380203], [17.7895095, 43.2403333], [17.7895095, 43.24467], [17.7887158, 43.24785], [17.7887158, 43.2518971], [17.7883189, 43.2547877], [17.7817099, 43.2605839], [17.7832337, 43.2620836], [17.7795548, 43.2620836], [17.7776243, 43.2635994], [17.7768522, 43.2639667], [17.7740311, 43.2623027], [17.7720467, 43.2631697], [17.7700623, 43.2631697], [17.7656966, 43.2651928], [17.7621247, 43.2657708], [17.7601403, 43.2657708], [17.7581559, 43.2654818], [17.7557746, 43.2640368], [17.7533933, 43.2637478], [17.7506151, 43.2623027], [17.7494245, 43.2625917], [17.7466463, 43.2625917], [17.7434712, 43.2611466], [17.7410899, 43.2611466], [17.7387086, 43.2608576], [17.737518, 43.2599905], [17.7343429, 43.2582563], [17.7303741, 43.2588344], [17.7256115, 43.2614356], [17.724024, 43.2620137], [17.7212458, 43.2640368], [17.7204521, 43.2660598], [17.7204521, 43.2672158], [17.7180708, 43.2692387], [17.7148957, 43.2712616], [17.7144989, 43.2724175], [17.7133082, 43.2741513], [17.7117207, 43.2753071], [17.71053, 43.2779077], [17.7015609, 43.2839603], [17.6993018, 43.2851213], [17.6987654, 43.2853674], [17.698245, 43.2856212], [17.6975745, 43.2858594], [17.6979768, 43.2869372], [17.6981056, 43.2871714], [17.6976711, 43.2872417], [17.6952459, 43.2874454], [17.6946402, 43.2875112], [17.6921886, 43.2881242], [17.6915234, 43.2883741], [17.6908261, 43.2888349], [17.6906115, 43.2890419], [17.6903379, 43.2892059], [17.689957, 43.2893152], [17.6896459, 43.2892762], [17.6892489, 43.289077], [17.6888305, 43.2888779], [17.6872855, 43.289038], [17.6866096, 43.2890887], [17.6864326, 43.28912], [17.6858479, 43.2893425], [17.6854294, 43.2889482], [17.6850003, 43.2887295], [17.682656, 43.2890223], [17.6823664, 43.2885811], [17.6810789, 43.2886592], [17.6808, 43.2886436], [17.6802313, 43.2884171], [17.6799041, 43.2880774], [17.6793301, 43.2882023], [17.67874, 43.2884015], [17.6774847, 43.2886553], [17.6765728, 43.2889091], [17.6763582, 43.2887178], [17.6728392, 43.2893035], [17.6727855, 43.2894675], [17.6726353, 43.2895612], [17.67241, 43.2894597], [17.6713264, 43.2900142], [17.6711976, 43.290186], [17.6710582, 43.2902094], [17.6707899, 43.2900298], [17.6692343, 43.2901782], [17.6690411, 43.2902719], [17.6686871, 43.2903656], [17.6684618, 43.2903734], [17.668333, 43.2902484], [17.6673467, 43.2903916], [17.6646209, 43.2907873], [17.6619065, 43.2909825], [17.6607692, 43.2914589], [17.6594388, 43.2920133], [17.6590311, 43.2922476], [17.6584947, 43.2925678], [17.6577008, 43.2930519], [17.6547825, 43.2945122], [17.6539671, 43.2948636], [17.653377, 43.2950667], [17.6523685, 43.29534], [17.6512957, 43.2958007], [17.6499438, 43.2965113], [17.6490426, 43.2969095], [17.6483238, 43.2971281], [17.6466393, 43.2977684], [17.6461136, 43.2979871], [17.6449656, 43.2989475], [17.643882, 43.2996737], [17.642616, 43.3006263], [17.6415217, 43.3014149], [17.6407546, 43.3022113], [17.6403469, 43.3023791], [17.6395959, 43.3026485], [17.6390111, 43.302789], [17.6383513, 43.3032614], [17.6378739, 43.3034917], [17.6372462, 43.3036518], [17.6362216, 43.3037572], [17.635873, 43.3037104], [17.6354706, 43.3035659], [17.6351702, 43.3033551], [17.6315224, 43.305022], [17.6297843, 43.305834], [17.6278961, 43.3065211], [17.6274133, 43.3066069], [17.6261365, 43.3067319], [17.6249778, 43.3070129], [17.6242268, 43.3072862], [17.6237547, 43.3074814], [17.6221776, 43.305428], [17.622081, 43.3042491], [17.6218557, 43.3032731], [17.6214051, 43.3022894], [17.6183903, 43.2984634], [17.6162419, 43.2963436], [17.6159775, 43.2964716], [17.6157106, 43.2965787], [17.6153165, 43.2967666], [17.6149573, 43.2969164], [17.6146643, 43.2970144], [17.6142614, 43.2971342], [17.6139409, 43.2972577], [17.6136622, 43.2973869], [17.6135631, 43.2974328], [17.6133261, 43.2975354], [17.6129931, 43.2976525], [17.612634, 43.297795], [17.6121725, 43.2979729], [17.6119406, 43.2980519], [17.6117086, 43.2981317], [17.6115353, 43.2982034], [17.6113444, 43.298306], [17.6111892, 43.2983833], [17.6109816, 43.2984522], [17.61058, 43.2986047], [17.61032, 43.2987254], [17.6102171, 43.2987654], [17.6099814, 43.2988911], [17.6099097, 43.2989265], [17.609727, 43.2989782], [17.6096154, 43.2990036], [17.6094065, 43.2990322], [17.6090405, 43.2990831], [17.6088528, 43.2991321], [17.608646, 43.2991866], [17.6084527, 43.2991856], [17.6083884, 43.2991368], [17.6083884, 43.2990139], [17.6081765, 43.2984009], [17.6070081, 43.2958764], [17.6063311, 43.2959959], [17.6029837, 43.2969485], [17.5978768, 43.2985258], [17.5912571, 43.3009386], [17.5890738, 43.2984087], [17.5884139, 43.2978856], [17.5881833, 43.297745], [17.5875717, 43.2972453], [17.5874484, 43.2969563], [17.5873089, 43.2966206], [17.5870782, 43.2964488], [17.5869065, 43.296398], [17.5865257, 43.2963043], [17.5863057, 43.2961325], [17.5860697, 43.2958436], [17.5859946, 43.2955547], [17.5861019, 43.295133], [17.5857049, 43.2950706], [17.585603, 43.2949964], [17.5855279, 43.2947738], [17.5852007, 43.2944224], [17.5850612, 43.2941335], [17.5847071, 43.2940554], [17.5845247, 43.2938524], [17.5844228, 43.2936571], [17.5843048, 43.293337], [17.5836074, 43.2922164], [17.5829422, 43.2915057], [17.5801742, 43.2892098], [17.5800937, 43.2892566], [17.5799382, 43.2892879], [17.5798416, 43.2892059], [17.5799221, 43.2891122], [17.5759041, 43.2862265], [17.5746488, 43.2851565], [17.5742841, 43.2849534], [17.5738227, 43.2848753], [17.5730181, 43.284313], [17.5720847, 43.2836257], [17.5714409, 43.2827275], [17.5705182, 43.2824073], [17.5685871, 43.2817668], [17.5672352, 43.2811576], [17.5658995, 43.2800758], [17.5656956, 43.279822], [17.5655508, 43.2793026], [17.5654381, 43.2787636], [17.5651431, 43.2779864], [17.5649607, 43.2772131], [17.5654596, 43.2771585], [17.5657654, 43.2770764], [17.5662804, 43.2769554], [17.5681525, 43.2763539], [17.5692147, 43.2760883], [17.5695205, 43.2761391], [17.5696975, 43.2761821], [17.569896, 43.2760258], [17.5702178, 43.2760766], [17.5705236, 43.2760532], [17.5711352, 43.2759048], [17.5718379, 43.2756431], [17.5722885, 43.2752838], [17.5739193, 43.273698], [17.5741339, 43.2734246], [17.5743216, 43.2728856], [17.5745737, 43.2727294], [17.5748098, 43.2724638], [17.5750029, 43.2722607], [17.5754428, 43.2717842], [17.5763869, 43.2708311], [17.5771004, 43.2702335], [17.5776797, 43.2699523], [17.5786292, 43.2694094], [17.5791335, 43.2691281], [17.5805926, 43.268425], [17.581408, 43.2680422], [17.5822341, 43.2673704], [17.5825345, 43.2669876], [17.5828081, 43.2662923], [17.5830066, 43.2657024], [17.5830281, 43.2652766], [17.5830924, 43.2649524], [17.5833768, 43.2646751], [17.5835484, 43.2644407], [17.583645, 43.2640696], [17.5836235, 43.2637336], [17.5835538, 43.2632844], [17.5835216, 43.2626515], [17.5837684, 43.2621398], [17.5839025, 43.2616671], [17.5838059, 43.2616515], [17.5838703, 43.2614874], [17.5838596, 43.2609795], [17.5839454, 43.2591825], [17.5839454, 43.2585809], [17.584117, 43.2579011], [17.5844175, 43.2572877], [17.5847179, 43.256647], [17.5848144, 43.2559125], [17.5847822, 43.2552327], [17.5847179, 43.2544708], [17.5845945, 43.2537871], [17.5844067, 43.2531385], [17.5842404, 43.2526853], [17.5840098, 43.2525134], [17.583704, 43.2523571], [17.5829315, 43.2521188], [17.5826257, 43.2520367], [17.5813919, 43.2516226], [17.5811237, 43.251521], [17.5806034, 43.2511889], [17.58026, 43.2508607], [17.5798845, 43.2510091], [17.5794876, 43.2512748], [17.5791174, 43.2515952], [17.5786561, 43.2518453], [17.5779641, 43.252193], [17.5777978, 43.2523415], [17.5775349, 43.2525954], [17.5768322, 43.2528494], [17.5749761, 43.2534198], [17.5740373, 43.2536543], [17.5729537, 43.2538652], [17.5725514, 43.2539082], [17.5720042, 43.2541231], [17.5715804, 43.2543497], [17.5713658, 43.254549], [17.5709528, 43.2548225], [17.5706363, 43.2550491], [17.570368, 43.2548928], [17.5706041, 43.2544318], [17.5704539, 43.2543106], [17.5704646, 43.2540919], [17.5704753, 43.2533417], [17.5704753, 43.2530721], [17.5697994, 43.2507122], [17.5696331, 43.2501574], [17.5694883, 43.2498526], [17.5691879, 43.2493681], [17.5687158, 43.2487429], [17.566967, 43.2467189], [17.5645262, 43.2439835]]]}}]}