{"type": "FeatureCollection", "features": [{"type": "Feature", "properties": {"name": "Općina Doboj Jug, Zeničko-dobojski kanton, Federacija Bosne i Hercegovine, 74203, Bosna i Hercegovina / Босна и Херцеговина", "source": "OpenStreetMap relation 2528184", "licence": "ODbL 1.0"}, "geometry": {"type": "Polygon", "coordinates": [[[18.0371235, 44.6935475], [18.037385, 44.6931637], [18.0375625, 44.6929646], [18.0380197, 44.6925141], [18.0386511, 44.6920209], [18.0385435, 44.6918478], [18.0398006, 44.6907629], [18.0402564, 44.6909662], [18.0404575, 44.6910286], [18.0405962, 44.690775], [18.0406613, 44.6905616], [18.0406879, 44.6900424], [18.0407814, 44.689815], [18.0411802, 44.689535], [18.0414193, 44.6893331], [18.0415538, 44.689025], [18.0411727, 44.6888577], [18.0409037, 44.688701], [18.0410793, 44.6882229], [18.0411764, 44.6879918], [18.0414828, 44.6877182], [18.0417032, 44.6873543], [18.0419274, 44.6870462], [18.0421515, 44.6866239], [18.0424579, 44.6861192], [18.0425587, 44.6855003], [18.0426596, 44.6851418], [18.0435488, 44.6839597], [18.0437991, 44.6837844], [18.0437244, 44.683471], [18.0436497, 44.6832983], [18.0435114, 44.6829769], [18.0435563, 44.6828149], [18.0437094, 44.6825067], [18.0437954, 44.6821773], [18.0439934, 44.6817656], [18.0441727, 44.6813724], [18.0441167, 44.6812449], [18.0441615, 44.6811041], [18.0445089, 44.6808252], [18.044748, 44.6808305], [18.0449124, 44.6807827], [18.0449926, 44.6807088], [18.0450041, 44.6805941], [18.04489, 44.6803311], [18.044494, 44.6798902], [18.0442175, 44.6795236], [18.0441764, 44.6793589], [18.0442362, 44.6791623], [18.044281, 44.6789179], [18.0442549, 44.6786416], [18.0441988, 44.6781422], [18.044225, 44.6777835], [18.0443072, 44.6774515], [18.0445127, 44.6769786], [18.0448975, 44.6759478], [18.0450432, 44.6756795], [18.0452113, 44.6755254], [18.0454952, 44.6754085], [18.0457642, 44.6752677], [18.0459996, 44.6750578], [18.0461939, 44.6747815], [18.0463881, 44.6744415], [18.0465189, 44.6741652], [18.0466609, 44.6737746], [18.0466795, 44.6735037], [18.0466459, 44.6732088], [18.0467057, 44.672959], [18.0468551, 44.6725658], [18.046829, 44.672417], [18.0466795, 44.6722071], [18.0463844, 44.6718352], [18.0463209, 44.67162], [18.0462424, 44.6711046], [18.0461752, 44.6705599], [18.0461715, 44.6703739], [18.0462536, 44.6700923], [18.0459959, 44.6698133], [18.0458091, 44.6696672], [18.0457829, 44.6691969], [18.0455774, 44.6685858], [18.0454878, 44.6684184], [18.0453234, 44.6682563], [18.0452225, 44.6680066], [18.0450955, 44.6673317], [18.0450133, 44.6667259], [18.0449124, 44.6665], [18.0447406, 44.6662742], [18.0443632, 44.6660589], [18.044083, 44.6658198], [18.043885, 44.6655381], [18.0437318, 44.6651794], [18.0435264, 44.6645922], [18.0433508, 44.6642494], [18.0432312, 44.6640767], [18.0425326, 44.6636728], [18.0420768, 44.6633911], [18.0418937, 44.6630988], [18.0417443, 44.6627242], [18.0416957, 44.6625063], [18.0417406, 44.6622299], [18.0418153, 44.6617702], [18.0417406, 44.6609332], [18.0416658, 44.6602449], [18.0417107, 44.6599579], [18.0418302, 44.6596736], [18.0419871, 44.6594477], [18.0422599, 44.6591926], [18.0423271, 44.6590969], [18.0423271, 44.6589215], [18.0423533, 44.6588073], [18.0425363, 44.6587488], [18.0428128, 44.6586425], [18.0433433, 44.6583847], [18.0438178, 44.6580074], [18.0441428, 44.6578107], [18.0443147, 44.6576513], [18.044423, 44.6574174], [18.0446845, 44.6569444], [18.0449348, 44.6565431], [18.0450357, 44.6562773], [18.0452449, 44.6556129], [18.0452524, 44.6550336], [18.0450992, 44.6546376], [18.0449124, 44.6544436], [18.0445463, 44.6541193], [18.0443296, 44.653718], [18.0439224, 44.6534071], [18.0437094, 44.6532104], [18.0435973, 44.6530058], [18.0442287, 44.6532157], [18.0446322, 44.653346], [18.044961, 44.6534284], [18.0455886, 44.653524], [18.0470121, 44.6538057], [18.04789, 44.6539785], [18.04857, 44.6541778], [18.048758, 44.6544121], [18.049246, 44.6547488], [18.0492806, 44.6549662], [18.0495714, 44.655394], [18.0498747, 44.6556476], [18.0501239, 44.6560383], [18.0504184, 44.6562116], [18.0505882, 44.6561914], [18.0509053, 44.65628], [18.0511772, 44.6562599], [18.0515622, 44.6562559], [18.0517831, 44.6563727], [18.0520436, 44.656566], [18.052355, 44.6567553], [18.0524739, 44.6569366], [18.0527344, 44.6572105], [18.0530402, 44.6575166], [18.0534762, 44.6577825], [18.0538783, 44.6578953], [18.0540029, 44.6580363], [18.0541331, 44.6582779], [18.0543086, 44.6583746], [18.0546654, 44.6583665], [18.0548013, 44.6584592], [18.0548239, 44.6585236], [18.0546654, 44.6586002], [18.0546088, 44.6586928], [18.0546824, 44.658862], [18.0549655, 44.6590956], [18.0551977, 44.6591037], [18.0555714, 44.6589788], [18.055764, 44.6590996], [18.0561887, 44.6591359], [18.0566134, 44.6591842], [18.0568852, 44.6591882], [18.057123, 44.6591721], [18.0572249, 44.6590432], [18.0574118, 44.6588257], [18.0574118, 44.6585317], [18.0577459, 44.6584713], [18.0580064, 44.6583504], [18.0586689, 44.6583746], [18.0590766, 44.6583061], [18.0592239, 44.6580403], [18.0595353, 44.6578349], [18.0599657, 44.6579436], [18.0602375, 44.658004], [18.0607415, 44.658004], [18.0616532, 44.6583061], [18.0620156, 44.658435], [18.0624403, 44.658435], [18.0626045, 44.6585478], [18.0628877, 44.6589385], [18.0631821, 44.6590634], [18.0634709, 44.6594299], [18.0638843, 44.659869], [18.0642354, 44.6599978], [18.0648413, 44.6599978], [18.0655378, 44.6601308], [18.0665571, 44.660449], [18.0675537, 44.661033], [18.0677632, 44.6611417], [18.0678142, 44.6612626], [18.0679841, 44.6616895], [18.0681143, 44.6618828], [18.0683578, 44.6619271], [18.0684625, 44.662067], [18.068423, 44.6621862], [18.0684773, 44.6622668], [18.0686399, 44.662344], [18.0688273, 44.6625368], [18.0689111, 44.6627402], [18.0688982, 44.6628003], [18.068947, 44.6628558], [18.0691779, 44.6629114], [18.0693047, 44.6631034], [18.0694576, 44.6632375], [18.0695454, 44.6633231], [18.0697113, 44.6633393], [18.0698609, 44.6633416], [18.0701146, 44.6633185], [18.0701991, 44.6632838], [18.0704495, 44.6633069], [18.0705406, 44.663418], [18.0706252, 44.6635776], [18.0705309, 44.6635938], [18.0703455, 44.6635521], [18.0701568, 44.6635591], [18.0701276, 44.6636077], [18.0701503, 44.6636655], [18.0703195, 44.6637488], [18.0705357, 44.6638228], [18.0711683, 44.6641281], [18.0687924, 44.6651879], [18.0674612, 44.6656171], [18.0663542, 44.6662429], [18.0654188, 44.6672399], [18.0649983, 44.6685653], [18.0653117, 44.669277], [18.0662952, 44.6699622], [18.0690072, 44.6710066], [18.0696227, 44.6718927], [18.0703727, 44.6731401], [18.0709807, 44.6744724], [18.0714503, 44.6764627], [18.0719796, 44.6778578], [18.0718563, 44.6783778], [18.071295, 44.6791842], [18.0714986, 44.6806103], [18.0706102, 44.6812875], [18.0695601, 44.6831434], [18.068625, 44.6837777], [18.0665292, 44.6848423], [18.0661467, 44.6852967], [18.0663879, 44.6862728], [18.0664038, 44.6873318], [18.0664016, 44.6887101], [18.0665238, 44.6910128], [18.066577, 44.6920968], [18.0666361, 44.693303], [18.0669271, 44.6946712], [18.0685491, 44.6999008], [18.0687595, 44.7009791], [18.0689178, 44.7022793], [18.0683594, 44.702587], [18.0671207, 44.7029017], [18.0656026, 44.7035228], [18.0636065, 44.7039357], [18.0621083, 44.7044153], [18.0619678, 44.7043717], [18.0618003, 44.7042974], [18.0613893, 44.7039947], [18.0611539, 44.7036309], [18.0610381, 44.7034397], [18.0609373, 44.7032883], [18.0607355, 44.7031795], [18.060276, 44.7030918], [18.0598463, 44.7030918], [18.0591552, 44.7032671], [18.0584603, 44.7033919], [18.0578364, 44.7034397], [18.0570742, 44.7033733], [18.0566595, 44.7032405], [18.0563457, 44.7029962], [18.056058, 44.7027865], [18.0556508, 44.7025953], [18.0549566, 44.7023987], [18.0544833, 44.7023391], [18.0539904, 44.7023041], [18.0532706, 44.7023286], [18.0524769, 44.7025178], [18.0519248, 44.7025949], [18.0516438, 44.7027035], [18.05121, 44.702735], [18.0500072, 44.7022866], [18.049041, 44.7022165], [18.046517, 44.7015612], [18.0461916, 44.7015788], [18.0456345, 44.7016979], [18.0447441, 44.7016195], [18.0444597, 44.7015256], [18.0440669, 44.7013825], [18.0435493, 44.7011092], [18.0431303, 44.7003629], [18.0426127, 44.6996446], [18.0420162, 44.6989893], [18.0416612, 44.6987055], [18.0412619, 44.6984637], [18.0403499, 44.6982605], [18.0398126, 44.6982149], [18.038876, 44.6980082], [18.0386749, 44.6980381], [18.0387771, 44.6974266], [18.0386992, 44.6969328], [18.0402538, 44.6963641], [18.0406669, 44.6961467], [18.0409077, 44.6959697], [18.0410309, 44.6958509], [18.0392315, 44.6949915], [18.0380705, 44.6943934], [18.0374037, 44.6940136], [18.037527, 44.6938795], [18.0371235, 44.6935475]]]}}]}