{"type": "FeatureCollection", "features": [{"type": "Feature", "properties": {"name": "Općina Doboj Istok, Tuzlanski kanton, Federacija Bosne i Hercegovine, 74207, Bosna i Hercegovina / Босна и Херцеговина", "source": "OpenStreetMap relation 2528183", "licence": "ODbL 1.0"}, "geometry": {"type": "Polygon", "coordinates": [[[18.1336525, 44.733851], [18.1341799, 44.7327759], [18.1346433, 44.732198], [18.1352201, 44.7313085], [18.1361074, 44.729004], [18.1364328, 44.7284437], [18.137399, 44.7273019], [18.1379019, 44.7265944], [18.138592, 44.7256838], [18.1395829, 44.7246716], [18.139997, 44.723873], [18.141535, 44.7217539], [18.1419984, 44.7214177], [18.145209, 44.7200707], [18.1449687, 44.7209733], [18.1454493, 44.7221747], [18.1459042, 44.7224919], [18.1469857, 44.7224553], [18.1476638, 44.7216808], [18.1484191, 44.7214551], [18.1492946, 44.7215771], [18.15017, 44.7220833], [18.1509425, 44.7221443], [18.1512343, 44.722004], [18.1515948, 44.7215893], [18.1516034, 44.7211624], [18.1514403, 44.7208818], [18.1515176, 44.7205891], [18.151921, 44.7203452], [18.1526849, 44.7203208], [18.153114, 44.7204732], [18.1560494, 44.7221808], [18.1582725, 44.7228517], [18.1588132, 44.7229005], [18.159311, 44.7226138], [18.1592423, 44.7221869], [18.1586072, 44.7213941], [18.1584956, 44.7209611], [18.1585814, 44.720644], [18.158899, 44.7204183], [18.1598603, 44.7202049], [18.161431, 44.7200829], [18.1626756, 44.7200158], [18.1633965, 44.7203879], [18.1660267, 44.7206082], [18.167063, 44.7207732], [18.1677765, 44.7211273], [18.1684281, 44.72207], [18.1686481, 44.7225652], [18.1698644, 44.7234988], [18.1709637, 44.7243954], [18.1727721, 44.72501], [18.1732469, 44.7247928], [18.1734941, 44.7244323], [18.1736177, 44.7238639], [18.1738649, 44.7231198], [18.1745284, 44.722445], [18.1757512, 44.7219043], [18.1758748, 44.7215022], [18.175348, 44.7209429], [18.1752179, 44.7206286], [18.1757187, 44.7191912], [18.1756927, 44.7180403], [18.1758293, 44.7169587], [18.1764473, 44.7164826], [18.1773319, 44.7161452], [18.1788085, 44.7154149], [18.1791662, 44.7154981], [18.1796931, 44.7154749], [18.1805583, 44.7163023], [18.1804672, 44.7167692], [18.1813063, 44.7181189], [18.181638, 44.7183685], [18.1832837, 44.7188538], [18.1838171, 44.7186966], [18.1860613, 44.718974], [18.1865296, 44.7191357], [18.1872647, 44.718766], [18.1875509, 44.7183546], [18.1876224, 44.7179386], [18.1872712, 44.7176058], [18.1869329, 44.7171436], [18.1870825, 44.7165566], [18.1875834, 44.7162238], [18.1883054, 44.7159973], [18.1894568, 44.7160204], [18.1905626, 44.7162839], [18.1912976, 44.7164641], [18.1920587, 44.7166167], [18.1926506, 44.7151699], [18.1930474, 44.7138895], [18.1929888, 44.7132146], [18.1932685, 44.711985], [18.1934832, 44.7116059], [18.1938995, 44.7113424], [18.1944849, 44.7114488], [18.1946736, 44.7118186], [18.1960526, 44.7126044], [18.196625, 44.7122438], [18.1970283, 44.7117215], [18.1973145, 44.7106999], [18.1971584, 44.7100897], [18.1948492, 44.7089941], [18.1945044, 44.7085965], [18.1947321, 44.7080371], [18.19522, 44.7074685], [18.1958379, 44.7072928], [18.196625, 44.7073159], [18.197295, 44.7078337], [18.1981016, 44.7080279], [18.1992269, 44.7081019], [18.2005278, 44.7080695], [18.2022321, 44.7077505], [18.2032273, 44.7077829], [18.2049082, 44.7082419], [18.2057837, 44.7084809], [18.2063886, 44.7082914], [18.2064537, 44.7077274], [18.2059983, 44.707376], [18.2026224, 44.706715], [18.2023297, 44.7065624], [18.2021735, 44.7059891], [18.202141, 44.7052818], [18.2024953, 44.7044759], [18.202706, 44.7042589], [18.2029734, 44.7040385], [18.2033023, 44.7037307], [18.2037449, 44.7034633], [18.2041685, 44.7032597], [18.2045685, 44.7031319], [18.2049282, 44.7030612], [18.2051767, 44.7029973], [18.2056974, 44.7027753], [18.2061518, 44.7025919], [18.206502, 44.702496], [18.2069043, 44.7024405], [18.2073658, 44.7025162], [18.2076072, 44.7026172], [18.2076711, 44.7026558], [18.2078628, 44.7028712], [18.2080072, 44.7031167], [18.2080806, 44.703327], [18.2082131, 44.7036281], [18.2083622, 44.7038182], [18.2085421, 44.7039729], [18.2089515, 44.7040705], [18.2095739, 44.7041243], [18.2100188, 44.7040873], [18.2106507, 44.70402], [18.2110341, 44.7039073], [18.2114672, 44.7036786], [18.211763, 44.7034363], [18.2119973, 44.7033758], [18.2122009, 44.7032984], [18.212402, 44.7031487], [18.2126718, 44.7030057], [18.2129771, 44.702787], [18.2134339, 44.70238], [18.2135404, 44.7022269], [18.2138551, 44.7016499], [18.2139238, 44.7014212], [18.2139806, 44.7011318], [18.2139498, 44.7008156], [18.213964, 44.7006659], [18.2139309, 44.7005296], [18.2139569, 44.700316], [18.2139924, 44.7000233], [18.2139782, 44.6998315], [18.2138977, 44.6997036], [18.2138928, 44.6995127], [18.2139856, 44.6993704], [18.2142882, 44.6992579], [18.2147426, 44.6991923], [18.2148893, 44.6990728], [18.2150597, 44.698881], [18.2151378, 44.6986472], [18.2153769, 44.6982485], [18.215623, 44.6979642], [18.2160324, 44.6975336], [18.2165625, 44.6973115], [18.2167874, 44.6972711], [18.217185, 44.6972829], [18.2176985, 44.6973317], [18.2188132, 44.6974982], [18.2192037, 44.69769], [18.2192558, 44.6978229], [18.2191138, 44.6980921], [18.2188534, 44.6983696], [18.2188321, 44.698627], [18.2188795, 44.6988323], [18.2190925, 44.6990038], [18.2193765, 44.6991283], [18.2195989, 44.6991687], [18.2200013, 44.699199], [18.2204509, 44.699125], [18.2207254, 44.699093], [18.2211041, 44.6990846], [18.2215845, 44.699125], [18.222065, 44.6992545], [18.2222898, 44.6994597], [18.2225878, 44.6998417], [18.2227807, 44.7000198], [18.2227297, 44.7001414], [18.2228326, 44.7006139], [18.2236421, 44.701494], [18.2238603, 44.7015904], [18.2241905, 44.7016952], [18.2246446, 44.7019006], [18.2248627, 44.7021395], [18.2248686, 44.7024287], [18.2248097, 44.7025586], [18.2259418, 44.7034932], [18.2257885, 44.703577], [18.2260244, 44.7040045], [18.2261836, 44.7044362], [18.2264254, 44.705287], [18.2267386, 44.7060466], [18.2271179, 44.706682], [18.227504, 44.7071634], [18.2282558, 44.707693], [18.2307079, 44.7089061], [18.2302337, 44.7091227], [18.2304573, 44.7091949], [18.2305656, 44.7093923], [18.2309043, 44.7094886], [18.2315342, 44.7095608], [18.2319, 44.7095752], [18.2321913, 44.7096667], [18.2325232, 44.70984], [18.2329025, 44.7102636], [18.2333902, 44.7108509], [18.2335121, 44.711183], [18.2335731, 44.7115778], [18.2337492, 44.7117944], [18.2340743, 44.7120399], [18.2342572, 44.7121698], [18.2343588, 44.7124009], [18.2344943, 44.7128919], [18.2347585, 44.7134166], [18.2351581, 44.7140327], [18.2356864, 44.715005], [18.2360116, 44.7155345], [18.2364248, 44.7155008], [18.2365196, 44.7156644], [18.2359371, 44.7159099], [18.2358693, 44.7171132], [18.2358896, 44.7178063], [18.2358761, 44.7182684], [18.2357459, 44.7186876], [18.2360338, 44.7190083], [18.2363139, 44.7192681], [18.2367652, 44.7207387], [18.2370608, 44.7214464], [18.2378389, 44.7227124], [18.2383213, 44.7234753], [18.2384225, 44.7237462], [18.2389438, 44.7264827], [18.2389204, 44.7274832], [18.2388971, 44.7281189], [18.2391539, 44.7286386], [18.2396985, 44.7293295], [18.2404377, 44.7303743], [18.2406244, 44.7303411], [18.2421183, 44.7306009], [18.2426552, 44.7304517], [18.2431843, 44.73012], [18.2431687, 44.7302416], [18.242593, 44.7307833], [18.242344, 44.7311481], [18.2421339, 44.7314466], [18.2421339, 44.7316954], [18.242095, 44.7322094], [18.2422662, 44.7323808], [18.2424451, 44.7324803], [18.2426085, 44.732718], [18.2426863, 44.7329722], [18.2428186, 44.7331049], [18.2432932, 44.7331491], [18.2436978, 44.7332596], [18.2439779, 44.7334531], [18.2441958, 44.7338013], [18.2442425, 44.7341109], [18.2445226, 44.734249], [18.2446471, 44.7344701], [18.2447638, 44.734636], [18.2445226, 44.7351002], [18.244437, 44.7354319], [18.2445304, 44.7356198], [18.244367, 44.7359901], [18.2442114, 44.7362941], [18.2437601, 44.7368137], [18.2434488, 44.7373332], [18.2432932, 44.7376924], [18.243371, 44.7380517], [18.2430909, 44.7383723], [18.2428964, 44.7386707], [18.2426007, 44.7384331], [18.2422273, 44.7388697], [18.2417371, 44.7386762], [18.2416593, 44.7398313], [18.2416359, 44.7404559], [18.2411302, 44.7407046], [18.2401342, 44.7411191], [18.2405544, 44.7424178], [18.2408034, 44.7431473], [18.2417137, 44.7429373], [18.2420172, 44.7433131], [18.2419238, 44.7437994], [18.2420327, 44.7443355], [18.2420872, 44.7448329], [18.2415892, 44.7450705], [18.2415581, 44.7452418], [18.2416437, 44.7453744], [18.2417915, 44.7454794], [18.2420561, 44.7455292], [18.2418927, 44.7458663], [18.2423907, 44.7465239], [18.2422739, 44.7466841], [18.2422739, 44.7468112], [18.2426319, 44.747281], [18.2422039, 44.7472754], [18.2417215, 44.7472533], [18.2408423, 44.7474854], [18.2403054, 44.7479164], [18.2399631, 44.748038], [18.2392317, 44.7480546], [18.2376911, 44.7482149], [18.2369208, 44.7483751], [18.2356681, 44.7486072], [18.2350689, 44.7486956], [18.2344387, 44.7487509], [18.2344154, 44.7491156], [18.234252, 44.7494913], [18.2338474, 44.7497455], [18.2329214, 44.7500494], [18.231871, 44.7503865], [18.2315209, 44.7503202], [18.2309685, 44.7502815], [18.2304005, 44.7501765], [18.230206, 44.7503092], [18.2301748, 44.750602], [18.2300892, 44.7514419], [18.2301359, 44.7518563], [18.2304549, 44.7527404], [18.2304083, 44.7529394], [18.2300192, 44.7534256], [18.2295212, 44.7538842], [18.22928, 44.7545196], [18.22914, 44.7551329], [18.2293034, 44.7554645], [18.2291944, 44.7559562], [18.2292956, 44.7564369], [18.229459, 44.756796], [18.2296734, 44.7571073], [18.2293352, 44.7572705], [18.2290065, 44.7574057], [18.2288055, 44.7575229], [18.2281051, 44.7573596], [18.2272959, 44.7569176], [18.2268991, 44.7567574], [18.2257242, 44.756448], [18.2245571, 44.7561275], [18.2239658, 44.756017], [18.2233044, 44.7556302], [18.2230554, 44.7552545], [18.2224719, 44.7550169], [18.2220673, 44.7550003], [18.2212658, 44.7548401], [18.2209313, 44.7547572], [18.2201921, 44.7545252], [18.2195307, 44.7540666], [18.2195541, 44.7538897], [18.2194685, 44.7533261], [18.2189549, 44.7533096], [18.2182858, 44.7532212], [18.2178578, 44.7530554], [18.2174844, 44.7527294], [18.2174377, 44.7524476], [18.2171654, 44.7522873], [18.2166285, 44.7521879], [18.2159204, 44.7520332], [18.2147767, 44.7515911], [18.2140297, 44.7514585], [18.213345, 44.7515469], [18.2131271, 44.7514585], [18.2130649, 44.7511877], [18.2130182, 44.750392], [18.2128937, 44.7499997], [18.212777, 44.7498892], [18.2125591, 44.7499058], [18.212415, 44.7499679], [18.2122712, 44.7501434], [18.2119911, 44.7503644], [18.2108785, 44.7507236], [18.2101315, 44.7509446], [18.2096336, 44.7510164], [18.2092134, 44.7509059], [18.2083186, 44.7504639], [18.2073771, 44.7500329], [18.2071048, 44.7500494], [18.2059844, 44.7497013], [18.2053775, 44.7492427], [18.2045138, 44.7488282], [18.2043193, 44.7491653], [18.2039536, 44.7498505], [18.2040158, 44.750066], [18.2042181, 44.7505136], [18.2032922, 44.7508507], [18.2028487, 44.7512817], [18.2031055, 44.7513922], [18.2032922, 44.7515801], [18.2032378, 44.7517072], [18.2030666, 44.7518895], [18.2016038, 44.7520884], [18.2006468, 44.7523813], [18.1998453, 44.7522045], [18.1989039, 44.7518619], [18.1980635, 44.7513701], [18.1967252, 44.7512706], [18.1952158, 44.7515138], [18.194002, 44.751884], [18.1934807, 44.7518563], [18.192951, 44.7516652], [18.1911871, 44.7509624], [18.1903876, 44.7504901], [18.1895507, 44.7497048], [18.1889829, 44.7492166], [18.1884673, 44.7487443], [18.1878023, 44.7485161], [18.1865395, 44.7482667], [18.1851348, 44.7478103], [18.184948, 44.7477042], [18.184664, 44.7475874], [18.1842456, 44.7476299], [18.1836404, 44.7475556], [18.183334, 44.7476139], [18.1832294, 44.7478634], [18.1831323, 44.7479589], [18.1826989, 44.7481287], [18.1826242, 44.7479483], [18.1822879, 44.7476511], [18.1812419, 44.7476723], [18.1805395, 44.7477997], [18.1791572, 44.7481712], [18.1784156, 44.7482353], [18.1782762, 44.7482739], [18.1782184, 44.7483806], [18.1782008, 44.7494713], [18.177999, 44.7503044], [18.1777823, 44.7507607], [18.1774312, 44.7515461], [18.1774237, 44.7519441], [18.1774835, 44.7524376], [18.1773788, 44.7528037], [18.1766541, 44.7537588], [18.1763851, 44.7542098], [18.1761236, 44.7543159], [18.1754137, 44.7543637], [18.1752942, 44.7545813], [18.1753838, 44.7550004], [18.1754511, 44.7555151], [18.1753539, 44.7560139], [18.1749355, 44.7564596], [18.1745245, 44.7567832], [18.1744345, 44.7573275], [18.174242, 44.7576733], [18.1739475, 44.7581237], [18.1731887, 44.7584775], [18.1725205, 44.7587912], [18.1722261, 44.7590485], [18.1717391, 44.7598205], [18.1717731, 44.7607212], [18.171841, 44.7616138], [18.1718637, 44.7623054], [18.1720335, 44.762627], [18.1724299, 44.7631819], [18.172747, 44.7633668], [18.1722827, 44.7635437], [18.1720335, 44.7637448], [18.1720222, 44.7641468], [18.1721581, 44.7645006], [18.1723053, 44.7648464], [18.1722374, 44.7651037], [18.1719316, 44.7654254], [18.17132, 44.765739], [18.1714333, 44.765948], [18.171807, 44.7660606], [18.17226, 44.7662777], [18.1724526, 44.766728], [18.1730415, 44.7673873], [18.1721355, 44.7678939], [18.1721241, 44.7680306], [18.1722714, 44.768312], [18.1729509, 44.7690759], [18.1724866, 44.7689874], [18.171841, 44.7689392], [18.1710822, 44.7691804], [18.1712861, 44.7697915], [18.1707424, 44.7700246], [18.1712181, 44.7704749], [18.171388, 44.7712387], [18.1710482, 44.7712387], [18.1707651, 44.7709091], [18.1705046, 44.7707322], [18.1701309, 44.7705955], [18.1695533, 44.7705714], [18.1694513, 44.7708689], [18.1698024, 44.7710779], [18.1699836, 44.7712387], [18.1700176, 44.7714076], [18.1699044, 44.771496], [18.1685113, 44.7715603], [18.1687265, 44.7720669], [18.1693721, 44.7724367], [18.1687265, 44.7731523], [18.1689077, 44.7736507], [18.1692588, 44.7739], [18.1702101, 44.7742135], [18.1709916, 44.7745029], [18.1714786, 44.7745914], [18.1711049, 44.775331], [18.1708557, 44.7758536], [18.1707764, 44.776336], [18.1701988, 44.7769229], [18.1704706, 44.7772284], [18.1705952, 44.7776062], [18.170833, 44.7778554], [18.1714559, 44.7782091], [18.171841, 44.7782976], [18.1722827, 44.7784825], [18.1727276, 44.7789487], [18.1707898, 44.7787974], [18.1689274, 44.7786168], [18.1655378, 44.7784122], [18.1630743, 44.7784999], [18.1589284, 44.7783264], [18.158215, 44.7781383], [18.1568985, 44.7776537], [18.1542961, 44.7759811], [18.1527616, 44.7750565], [18.1514474, 44.7741733], [18.148089, 44.772393], [18.1463435, 44.7713166], [18.1435043, 44.7677689], [18.1427222, 44.7671218], [18.1421742, 44.7660684], [18.1409447, 44.7646835], [18.1408283, 44.7642582], [18.1409331, 44.7635651], [18.1417998, 44.7619204], [18.1426015, 44.7599708], [18.1436196, 44.7581279], [18.1444816, 44.7560262], [18.1451004, 44.7548439], [18.1451858, 44.7538001], [18.1455596, 44.7532061], [18.1454156, 44.7523254], [18.1455448, 44.7497539], [18.1454381, 44.749327], [18.1454876, 44.748743], [18.1444238, 44.7474405], [18.143078, 44.7456269], [18.1413871, 44.7437957], [18.1399575, 44.7415653], [18.1394448, 44.7409455], [18.1390258, 44.7402557], [18.1385674, 44.739804], [18.1381188, 44.7391247], [18.1374237, 44.7383298], [18.1367138, 44.7372233], [18.1358511, 44.7362778], [18.1346335, 44.7349961], [18.1336525, 44.733851]]]}}]}