{"type": "FeatureCollection", "features": [{"type": "Feature", "properties": {"name": "Općina Dobretići, Srednjobosanski kanton / Županija Središnja Bosna, Federacija Bosne i Hercegovine, Bosna i Hercegovina / Босна и Херцеговина", "source": "OpenStreetMap relation 2528186", "licence": "ODbL 1.0"}, "geometry": {"type": "Polygon", "coordinates": [[[17.3227864, 44.4514268], [17.323383, 44.4513424], [17.3318199, 44.4436146], [17.3343847, 44.4423719], [17.3444269, 44.4396633], [17.3491451, 44.4367762], [17.3497559, 44.4364024], [17.3506729, 44.43686], [17.3512743, 44.4369797], [17.3518833, 44.4369844], [17.3522719, 44.4368403], [17.3524661, 44.4366269], [17.3526455, 44.4364935], [17.3529518, 44.4364935], [17.353034, 44.4366429], [17.3530639, 44.4368083], [17.3532432, 44.4370057], [17.35343, 44.4370377], [17.3536766, 44.4370537], [17.3539082, 44.4368563], [17.354095, 44.4366856], [17.3545583, 44.4366109], [17.3548497, 44.4365736], [17.3551262, 44.4364028], [17.3553877, 44.4361734], [17.3554176, 44.4359013], [17.3551337, 44.4353465], [17.3540502, 44.4332283], [17.3601698, 44.4298562], [17.3622066, 44.4282349], [17.3623783, 44.4280387], [17.362507, 44.4277384], [17.3624298, 44.4274626], [17.3622753, 44.4271438], [17.3624126, 44.4269048], [17.3625928, 44.4266719], [17.3628933, 44.4262857], [17.3633482, 44.4261386], [17.3639747, 44.4260037], [17.3646442, 44.4261018], [17.3645498, 44.425875], [17.3642923, 44.4254643], [17.364258, 44.424974], [17.3644554, 44.4246], [17.3649103, 44.4240054], [17.3652536, 44.4238093], [17.3656999, 44.4235151], [17.3658716, 44.4232392], [17.3659488, 44.4228898], [17.3659488, 44.4221235], [17.3662321, 44.4216761], [17.3663694, 44.4213634], [17.3663951, 44.421106], [17.3663093, 44.4207381], [17.3659402, 44.4201619], [17.3658716, 44.4199596], [17.3658544, 44.4197696], [17.367099, 44.4196408], [17.3671333, 44.4193527], [17.3671934, 44.4191627], [17.3673565, 44.4189971], [17.3677942, 44.4189726], [17.368292, 44.4187887], [17.3680603, 44.4184393], [17.3685237, 44.4181941], [17.3692791, 44.4180837], [17.3696224, 44.4180285], [17.3696996, 44.4177343], [17.3701202, 44.4175013], [17.3704378, 44.4172745], [17.370927, 44.4164346], [17.371442, 44.4156621], [17.3715536, 44.4153985], [17.3714763, 44.4152023], [17.3710386, 44.4148406], [17.3712188, 44.4147548], [17.3711158, 44.4145524], [17.3709957, 44.4142459], [17.3706609, 44.4138474], [17.3705322, 44.4135225], [17.370309, 44.4129094], [17.370043, 44.4121859], [17.3697769, 44.4116586], [17.3693906, 44.4111681], [17.3693477, 44.4110946], [17.3699485, 44.4111007], [17.3709356, 44.4108554], [17.3717939, 44.4106899], [17.3723175, 44.4106899], [17.3733045, 44.4104201], [17.3737251, 44.410181], [17.3739654, 44.4099603], [17.3738195, 44.4095433], [17.3738023, 44.4093226], [17.3744546, 44.4091203], [17.376918, 44.4085868], [17.3779823, 44.4083661], [17.3786089, 44.4082803], [17.3790809, 44.4081147], [17.3794071, 44.4076855], [17.3797332, 44.4073053], [17.3798105, 44.4069865], [17.3800422, 44.4066063], [17.3802482, 44.4063304], [17.3808013, 44.4057219], [17.3817244, 44.4048619], [17.3828363, 44.4040939], [17.3843623, 44.4026982], [17.3849855, 44.4021673], [17.3854041, 44.4016438], [17.3855334, 44.4013861], [17.3856497, 44.4009239], [17.3858803, 44.4004564], [17.3863902, 44.3996034], [17.3862932, 44.3992626], [17.3865284, 44.3990265], [17.3859585, 44.3985134], [17.3856876, 44.3980697], [17.3862237, 44.3978577], [17.3860788, 44.3974974], [17.3875919, 44.3973145], [17.3874736, 44.3968075], [17.3875004, 44.3966312], [17.3877525, 44.3964702], [17.3879993, 44.3963744], [17.3881119, 44.3962594], [17.3882085, 44.3961252], [17.3881978, 44.3958799], [17.388348, 44.39542], [17.3883372, 44.3953586], [17.3884124, 44.3950635], [17.3885786, 44.3948335], [17.3886323, 44.3946304], [17.3886645, 44.394431], [17.388702, 44.3940822], [17.3886377, 44.3929629], [17.3891473, 44.3927521], [17.3893833, 44.3925605], [17.3895818, 44.3922768], [17.3895603, 44.392066], [17.3895228, 44.3912456], [17.3893833, 44.390571], [17.3891848, 44.3902758], [17.389217, 44.3899385], [17.3897803, 44.3893941], [17.3903811, 44.3888805], [17.3907942, 44.3883936], [17.3911053, 44.3877726], [17.3908301, 44.3874252], [17.3909926, 44.3863618], [17.3913583, 44.385061], [17.3921835, 44.3821255], [17.3926878, 44.3820872], [17.3929721, 44.3819223], [17.3932671, 44.3816731], [17.3933208, 44.3815351], [17.3931526, 44.3810554], [17.393195, 44.3806588], [17.3933959, 44.3801894], [17.3935354, 44.3799286], [17.395196, 44.3787021], [17.3953342, 44.3789729], [17.3961958, 44.3787995], [17.396159, 44.3785974], [17.3965073, 44.3783873], [17.3968202, 44.3781355], [17.396296, 44.3775297], [17.3971242, 44.3768422], [17.3975694, 44.3764587], [17.398771, 44.3761251], [17.3988515, 44.3759641], [17.3986459, 44.375508], [17.3986101, 44.3751129], [17.3986584, 44.3749365], [17.3988408, 44.3745339], [17.3990285, 44.374139], [17.3987576, 44.3735962], [17.3987174, 44.3731343], [17.3987389, 44.3730116], [17.399286, 44.3728544], [17.399447, 44.3727432], [17.3995274, 44.3726052], [17.3997152, 44.3720031], [17.3996884, 44.3715468], [17.399679, 44.3712043], [17.4001277, 44.370409], [17.4004403, 44.369626], [17.4004601, 44.3687739], [17.4039016, 44.365833], [17.4084227, 44.3554361], [17.4159214, 44.3387808], [17.4300844, 44.3303371], [17.4309656, 44.3298014], [17.4315905, 44.3296888], [17.4322021, 44.329589], [17.4326312, 44.3294202], [17.4331462, 44.3293051], [17.4336076, 44.329236], [17.4341869, 44.3291669], [17.4348092, 44.3291669], [17.4355602, 44.3291516], [17.4363434, 44.3291132], [17.4367795, 44.3291926], [17.4373734, 44.3291592], [17.4388325, 44.3292974], [17.4393046, 44.3292974], [17.4396801, 44.3292667], [17.4404311, 44.329213], [17.4409461, 44.3292897], [17.4414503, 44.3295813], [17.4419117, 44.3299574], [17.4425447, 44.3303258], [17.4429631, 44.3304102], [17.4431455, 44.3304102], [17.4439287, 44.3303181], [17.444551, 44.3303949], [17.4450338, 44.3306251], [17.4448353, 44.3308745], [17.4445403, 44.3309436], [17.4441755, 44.3311163], [17.4438268, 44.3314424], [17.4436122, 44.3318377], [17.4430811, 44.3324478], [17.4428397, 44.3325207], [17.4426198, 44.3327509], [17.442829, 44.3327969], [17.4430543, 44.3328622], [17.4430168, 44.3330617], [17.4429148, 44.3332267], [17.4429524, 44.3334262], [17.4429578, 44.3336948], [17.4430597, 44.334186], [17.443065, 44.3348651], [17.443065, 44.3354138], [17.4432743, 44.3358666], [17.4433976, 44.3360392], [17.4435961, 44.3362081], [17.4438322, 44.3363769], [17.4442559, 44.3365687], [17.4450231, 44.3367222], [17.4480379, 44.3370867], [17.4463642, 44.3392353], [17.4459886, 44.3400257], [17.4463749, 44.3401945], [17.4465994, 44.3403526], [17.4463067, 44.3407269], [17.4463793, 44.341601], [17.4462945, 44.3418904], [17.4459323, 44.3421532], [17.4446517, 44.3429868], [17.4442238, 44.343444], [17.443741, 44.3438583], [17.443226, 44.3444338], [17.4427754, 44.3449325], [17.4426413, 44.3452663], [17.4425501, 44.3456921], [17.4424857, 44.3462983], [17.442432, 44.3469964], [17.4422711, 44.347476], [17.4419922, 44.3479632], [17.441327, 44.3485462], [17.4410266, 44.3487841], [17.4406457, 44.3490948], [17.440297, 44.3493403], [17.4398839, 44.349816], [17.4395299, 44.3502379], [17.4392027, 44.3505448], [17.4387252, 44.3508824], [17.4378294, 44.3517071], [17.4372125, 44.3523055], [17.436896, 44.3526392], [17.4368584, 44.352785], [17.4368477, 44.3530228], [17.4368155, 44.3537056], [17.4367672, 44.3545072], [17.4366438, 44.3550174], [17.4366331, 44.3555084], [17.4366438, 44.3558459], [17.4365741, 44.3560568], [17.4366009, 44.3561451], [17.4368852, 44.3564481], [17.4369728, 44.356613], [17.4368876, 44.3571027], [17.4366546, 44.3575642], [17.43622, 44.3581626], [17.4357533, 44.3586151], [17.4358016, 44.3587455], [17.4360055, 44.3588951], [17.4360967, 44.3590025], [17.4360752, 44.3593362], [17.4362189, 44.3596417], [17.4351808, 44.3600536], [17.4346751, 44.360506], [17.4348628, 44.3606479], [17.4349326, 44.3611925], [17.4350774, 44.3612654], [17.4349007, 44.361781], [17.4343163, 44.36275], [17.4337441, 44.3633847], [17.434057, 44.3635755], [17.4343323, 44.3638536], [17.4346778, 44.3642555], [17.4350466, 44.3646765], [17.4352633, 44.3648437], [17.4354435, 44.3649695], [17.4356345, 44.3651459], [17.435774, 44.3653745], [17.4359285, 44.3655447], [17.4360658, 44.3656245], [17.4362525, 44.3656766], [17.4366052, 44.3657574], [17.4370971, 44.3658927], [17.4373001, 44.3659633], [17.4378235, 44.3654639], [17.4384714, 44.3648677], [17.4392198, 44.3641038], [17.4402219, 44.3630626], [17.4406028, 44.3631638], [17.4408763, 44.3631883], [17.4412029, 44.363173], [17.4419404, 44.3628692], [17.4429077, 44.362542], [17.4430168, 44.3625924], [17.4430168, 44.3626806], [17.4428016, 44.362988], [17.4427178, 44.3632269], [17.4427661, 44.36373], [17.4429738, 44.3642397], [17.443285, 44.3645176], [17.4434727, 44.3646902], [17.4436015, 44.3648052], [17.4441379, 44.3644831], [17.444846, 44.3649855], [17.4454093, 44.3651695], [17.445597, 44.3652194], [17.4459511, 44.3642203], [17.4463052, 44.3632213], [17.4466753, 44.3628301], [17.4469542, 44.3626384], [17.4473405, 44.3625732], [17.4477643, 44.3624926], [17.4481827, 44.3625847], [17.4489444, 44.362554], [17.4492502, 44.362485], [17.4494004, 44.3623929], [17.4496311, 44.3619289], [17.4496686, 44.3617371], [17.4495614, 44.3615607], [17.4490517, 44.3606556], [17.4495077, 44.3605213], [17.449851, 44.3603257], [17.45013, 44.3601531], [17.4502426, 44.3600381], [17.4505699, 44.3599077], [17.451219, 44.3597351], [17.4516052, 44.35962], [17.4517232, 44.3595471], [17.4520987, 44.3593055], [17.4534954, 44.3592071], [17.4538333, 44.3591828], [17.4545288, 44.3583812], [17.4546736, 44.3581741], [17.454797, 44.3579708], [17.454958, 44.3578442], [17.4552047, 44.3576755], [17.4557197, 44.3573571], [17.4558699, 44.3572152], [17.4565566, 44.3567281], [17.4566746, 44.3565938], [17.4567765, 44.3561105], [17.457034, 44.3557462], [17.4573076, 44.3555467], [17.4577904, 44.3552207], [17.4581712, 44.3549292], [17.4584663, 44.3545418], [17.4587721, 44.3541774], [17.4590456, 44.3539549], [17.4592602, 44.353836], [17.459904, 44.3534562], [17.4604779, 44.3532031], [17.4604189, 44.3530305], [17.4604404, 44.3528579], [17.4604726, 44.3526968], [17.4605155, 44.3524935], [17.4604726, 44.3522863], [17.4605262, 44.3520408], [17.4606603, 44.3518721], [17.4607998, 44.3516649], [17.4608695, 44.3515345], [17.4608642, 44.3513849], [17.4607515, 44.3512775], [17.4603921, 44.3507903], [17.4598986, 44.350284], [17.460081, 44.350142], [17.4598503, 44.3499042], [17.4601335, 44.3497669], [17.4603814, 44.3497393], [17.4606389, 44.3498045], [17.4607784, 44.3498198], [17.4614328, 44.3497086], [17.4621034, 44.3494899], [17.4626398, 44.3492291], [17.4628758, 44.3490795], [17.463659, 44.3488723], [17.4646461, 44.348646], [17.4652308, 44.3486498], [17.4658906, 44.3486115], [17.466647, 44.3484081], [17.4669796, 44.3481741], [17.4672747, 44.348224], [17.4675107, 44.3477023], [17.467854, 44.3471614], [17.4683261, 44.346655], [17.4684602, 44.3464632], [17.4684817, 44.3463635], [17.4685299, 44.3460105], [17.4685675, 44.345811], [17.4686855, 44.3457151], [17.4690986, 44.3455233], [17.4695653, 44.3451052], [17.4703538, 44.3445374], [17.4708366, 44.3448213], [17.4709547, 44.3449594], [17.4714267, 44.3453507], [17.4718183, 44.345485], [17.4720973, 44.3455962], [17.4722421, 44.3456883], [17.4725693, 44.3459875], [17.4728805, 44.3458149], [17.4730843, 44.3457919], [17.4732399, 44.3463942], [17.4732828, 44.3465514], [17.4734706, 44.3467855], [17.473433, 44.3470348], [17.4735832, 44.3471039], [17.4738085, 44.3471345], [17.4741679, 44.3471806], [17.474522, 44.3471767], [17.4748117, 44.3471614], [17.4750745, 44.3471883], [17.4752355, 44.3472611], [17.4755412, 44.3474261], [17.4757558, 44.3475258], [17.4758792, 44.3475795], [17.4761957, 44.3476256], [17.4765658, 44.3477023], [17.4767482, 44.3477176], [17.4769682, 44.3477061], [17.4771988, 44.3476601], [17.4773812, 44.3476371], [17.4776709, 44.3475565], [17.4778855, 44.3475105], [17.4781698, 44.3475028], [17.4783039, 44.3475105], [17.4785024, 44.3475335], [17.478658, 44.3475795], [17.478835, 44.3476294], [17.4792051, 44.3476141], [17.4794787, 44.3475258], [17.4797362, 44.3474568], [17.4798274, 44.3474376], [17.4801922, 44.3471883], [17.4804336, 44.347031], [17.4805462, 44.3469696], [17.4807984, 44.3467548], [17.4809432, 44.346632], [17.4811578, 44.3464901], [17.4812436, 44.346352], [17.4813509, 44.3462254], [17.4815547, 44.3460911], [17.481662, 44.3460297], [17.4818873, 44.3459146], [17.4829173, 44.3452394], [17.4833196, 44.3450246], [17.4834752, 44.3449325], [17.4838829, 44.3445834], [17.4840707, 44.3444108], [17.4843067, 44.3442727], [17.4847627, 44.3439773], [17.4849933, 44.343866], [17.4852937, 44.3436972], [17.4853903, 44.343632], [17.4856317, 44.3434517], [17.4858409, 44.3433136], [17.4861681, 44.3431793], [17.4865544, 44.3429606], [17.4866456, 44.3428033], [17.4869996, 44.3424043], [17.4872947, 44.3421818], [17.4876058, 44.3420284], [17.4879384, 44.3418634], [17.48833, 44.3416831], [17.4892634, 44.3410731], [17.4897301, 44.3408659], [17.4899876, 44.3407047], [17.4901003, 44.3406011], [17.4905294, 44.3403441], [17.4908835, 44.3403249], [17.4910444, 44.3403134], [17.4924391, 44.3404208], [17.4931419, 44.340417], [17.4934852, 44.3401714], [17.4952114, 44.3396483], [17.4980516, 44.3393774], [17.4987745, 44.3389744], [17.499083, 44.3378409], [17.4994156, 44.3380327], [17.4996892, 44.3381094], [17.5000861, 44.3381401], [17.5002041, 44.3382629], [17.5004507, 44.3384393], [17.5005105, 44.3386317], [17.5007869, 44.3389737], [17.501041, 44.3389897], [17.501422, 44.3389363], [17.5020123, 44.3389363], [17.5022963, 44.3390646], [17.5027446, 44.3392569], [17.5029762, 44.3395455], [17.5031054, 44.3397766], [17.503178, 44.3400158], [17.5031555, 44.3403632], [17.5028492, 44.3409243], [17.5028641, 44.3412503], [17.5030808, 44.3416457], [17.5033833, 44.3423418], [17.5031368, 44.3428777], [17.5025453, 44.3433008], [17.5020819, 44.3440482], [17.5019833, 44.3444149], [17.5022495, 44.3448027], [17.5021312, 44.3452187], [17.5021904, 44.3455641], [17.5026537, 44.3461282], [17.5029298, 44.3465935], [17.5029298, 44.3472281], [17.5029298, 44.3475877], [17.5032354, 44.3478486], [17.5036791, 44.3480389], [17.5039355, 44.348194], [17.5039355, 44.348335], [17.5039848, 44.3489555], [17.5039256, 44.3494702], [17.5036495, 44.3499425], [17.5032946, 44.3504783], [17.5033242, 44.3509366], [17.5032157, 44.3512186], [17.5027622, 44.3516064], [17.5023382, 44.3520294], [17.5022298, 44.352396], [17.5020819, 44.3528331], [17.5014706, 44.3530093], [17.5012833, 44.3531292], [17.5011157, 44.3532772], [17.5010171, 44.3536508], [17.5008889, 44.3541514], [17.5003664, 44.3545321], [17.5001297, 44.3549198], [17.4999424, 44.3552652], [17.4994692, 44.3555613], [17.4989663, 44.3555472], [17.4983551, 44.3557164], [17.4976058, 44.3557446], [17.4972508, 44.3559349], [17.4965212, 44.3566751], [17.4962353, 44.3570629], [17.4963536, 44.3573871], [17.4963635, 44.3575352], [17.4962747, 44.3576198], [17.4959494, 44.3576973], [17.4955451, 44.3578453], [17.4953677, 44.3584727], [17.4948747, 44.3591917], [17.494362, 44.3592622], [17.4938296, 44.3594103], [17.493731, 44.3597275], [17.4935437, 44.3601927], [17.4932972, 44.360383], [17.4927155, 44.3604958], [17.4921437, 44.3607707], [17.4913451, 44.3611232], [17.4909112, 44.3615179], [17.4906746, 44.3618845], [17.4904676, 44.362103], [17.4904068, 44.3622972], [17.4898908, 44.3631901], [17.4898745, 44.3641842], [17.4900171, 44.3648242], [17.4900946, 44.3654084], [17.4901883, 44.3660326], [17.4894569, 44.367427], [17.4881719, 44.3691927], [17.487355, 44.3696712], [17.4854211, 44.3712249], [17.4844255, 44.372739], [17.484569, 44.3733341], [17.4814017, 44.3740695], [17.4790715, 44.3751101], [17.4789733, 44.3753756], [17.47902, 44.3764164], [17.4786701, 44.3767843], [17.4778497, 44.3770457], [17.4760199, 44.3784189], [17.4748925, 44.3793426], [17.4733234, 44.3805547], [17.4727735, 44.380836], [17.4714762, 44.3806555], [17.4707002, 44.3806359], [17.4694542, 44.380698], [17.4685621, 44.3811453], [17.4680592, 44.3810079], [17.4663847, 44.3825503], [17.4648366, 44.3835637], [17.4629567, 44.3848933], [17.4620656, 44.3854093], [17.4614216, 44.3857161], [17.4601012, 44.3861949], [17.4596914, 44.3864134], [17.4587222, 44.3872594], [17.458527, 44.3878218], [17.4583969, 44.3880636], [17.4577139, 44.388389], [17.4568423, 44.3882542], [17.4558405, 44.3886586], [17.4552909, 44.389952], [17.4548189, 44.3904856], [17.4534456, 44.3913566], [17.4529735, 44.3924176], [17.4529821, 44.3929573], [17.4527932, 44.3935645], [17.4523383, 44.393865], [17.451686, 44.3941165], [17.4510766, 44.3950671], [17.4512826, 44.3956252], [17.45148, 44.396447], [17.4508191, 44.3969437], [17.4505702, 44.3975447], [17.4503385, 44.3984339], [17.4493085, 44.3996911], [17.4481412, 44.4000897], [17.4473258, 44.4005373], [17.4466049, 44.4014081], [17.4448625, 44.4020029], [17.4442874, 44.4027511], [17.4410945, 44.4038303], [17.4404079, 44.4037935], [17.438511, 44.4048543], [17.4362794, 44.4063382], [17.4342529, 44.407114], [17.4334456, 44.4077368], [17.4325801, 44.4084046], [17.4311553, 44.4088767], [17.4299537, 44.4093243], [17.4294301, 44.4101643], [17.4283058, 44.4109859], [17.4279195, 44.4116419], [17.4275419, 44.4120036], [17.4262802, 44.4121447], [17.4250099, 44.4126535], [17.4239713, 44.4134138], [17.4229838, 44.4139712], [17.4225547, 44.4143697], [17.42228, 44.4146701], [17.4222886, 44.4151729], [17.4200313, 44.4191026], [17.4172675, 44.4225171], [17.4158856, 44.4242702], [17.4148986, 44.4247422], [17.4131047, 44.4252142], [17.4114388, 44.4254392], [17.4097215, 44.4260259], [17.4088613, 44.4261508], [17.4083068, 44.4263132], [17.4077523, 44.4264755], [17.4055212, 44.4278366], [17.404604, 44.4287795], [17.403921, 44.4300198], [17.4029585, 44.4307433], [17.4022182, 44.4313816], [17.4013126, 44.432556], [17.3984072, 44.4353722], [17.3978751, 44.4361291], [17.397124, 44.4366469], [17.3965104, 44.4369564], [17.3952873, 44.4382036], [17.3941414, 44.4399317], [17.3914753, 44.4403497], [17.3898733, 44.4402016], [17.3887617, 44.440364], [17.3848997, 44.441423], [17.3797291, 44.442714], [17.3779657, 44.4433061], [17.3763592, 44.4437062], [17.3748625, 44.4445389], [17.374128, 44.4450622], [17.3741192, 44.4459854], [17.3733842, 44.448038], [17.3711661, 44.4489574], [17.370379, 44.4501461], [17.3700798, 44.4510748], [17.3696765, 44.4515299], [17.3683235, 44.4519524], [17.3655924, 44.4528026], [17.3635826, 44.454594], [17.3627676, 44.4547962], [17.3618316, 44.4548191], [17.3593524, 44.4542409], [17.3578065, 44.4546249], [17.356017, 44.4550695], [17.3513227, 44.453675], [17.3503826, 44.4544592], [17.3462551, 44.4540033], [17.3455602, 44.4542807], [17.343625, 44.4545687], [17.3402925, 44.4543714], [17.3394182, 44.4543607], [17.3381704, 44.454606], [17.3351667, 44.4554701], [17.3341878, 44.4559447], [17.3339562, 44.4565954], [17.3321181, 44.4576887], [17.3315652, 44.4583021], [17.3305444, 44.4586912], [17.3285459, 44.4594455], [17.3274275, 44.4593885], [17.3262487, 44.458989], [17.3262346, 44.4565872], [17.3260859, 44.4558919], [17.3239202, 44.4529111], [17.323107, 44.4524712], [17.3227864, 44.4514268]]]}}]}