{"type": "FeatureCollection", "features": [{"type": "Feature", "properties": {"name": "Općina Domaljevac-Šamac, Županija Posavska, Federacija Bosne i Hercegovine, Bosna i Hercegovina / Босна и Херцеговина", "source": "OpenStreetMap relation 2528187", "licence": "ODbL 1.0"}, "geometry": {"type": "Polygon", "coordinates": [[[18.4833769, 45.0612554], [18.4916612, 45.0550196], [18.4920807, 45.054711], [18.5037501, 45.0463523], [18.5138637, 45.0431747], [18.5165147, 45.0423375], [18.5183462, 45.0416527], [18.5197909, 45.0412956], [18.5240984, 45.03995], [18.5256782, 45.0395137], [18.5281083, 45.038591], [18.5297201, 45.0379371], [18.5311975, 45.0373677], [18.5346921, 45.035964], [18.5446597, 45.0316536], [18.552234, 45.0285651], [18.5546705, 45.0276018], [18.5579089, 45.0260147], [18.564149, 45.0204842], [18.5658053, 45.0187817], [18.5683056, 45.0170886], [18.569004, 45.01747], [18.5697158, 45.0178955], [18.5702759, 45.0184868], [18.5705247, 45.0183743], [18.5712065, 45.0188991], [18.5715461, 45.0191675], [18.5717328, 45.019605], [18.5719943, 45.0203913], [18.571995, 45.0211519], [18.5721781, 45.0213479], [18.572779, 45.0218548], [18.5736387, 45.0224473], [18.5743587, 45.0231344], [18.5747455, 45.0234008], [18.5750431, 45.0233878], [18.5751694, 45.0237331], [18.5751237, 45.0243027], [18.5749651, 45.0247997], [18.5734415, 45.0253146], [18.5728513, 45.0256627], [18.5720779, 45.0263], [18.5716298, 45.0271229], [18.5715282, 45.0277856], [18.5716066, 45.0284515], [18.5718818, 45.028822], [18.572319, 45.029238], [18.5730269, 45.0296352], [18.5736609, 45.0297949], [18.5746029, 45.0298951], [18.5752828, 45.0298963], [18.5760558, 45.029669], [18.5770471, 45.029372], [18.5784012, 45.0290169], [18.5795522, 45.028893], [18.5815073, 45.0289882], [18.5829651, 45.0289428], [18.5850594, 45.028873], [18.5860322, 45.0288986], [18.5863475, 45.02885], [18.5866097, 45.029091], [18.5871416, 45.0293638], [18.5881755, 45.0300073], [18.5890808, 45.0304145], [18.5893567, 45.0306898], [18.5899277, 45.0312828], [18.590881, 45.0315818], [18.5917643, 45.0314077], [18.5926585, 45.0321017], [18.5931236, 45.0329911], [18.593084, 45.0334763], [18.5928629, 45.0338174], [18.5922269, 45.0344486], [18.5917577, 45.0349172], [18.5917577, 45.0351722], [18.5919878, 45.0356567], [18.5919698, 45.0358002], [18.5918254, 45.0359946], [18.5910044, 45.0363229], [18.5907112, 45.0365716], [18.5906751, 45.0368521], [18.5908014, 45.0370338], [18.5910676, 45.037123], [18.5916044, 45.037174], [18.5921051, 45.0370689], [18.5925878, 45.0371007], [18.5930524, 45.0373175], [18.594135, 45.0379104], [18.5952221, 45.0382323], [18.5958401, 45.0386722], [18.5965161, 45.0402455], [18.5966494, 45.0406442], [18.5967294, 45.0407166], [18.596868, 45.0407873], [18.5970077, 45.0408282], [18.5969561, 45.0409215], [18.5959042, 45.041507], [18.5954451, 45.0420842], [18.5948979, 45.0424936], [18.5938465, 45.0428423], [18.594458, 45.0432895], [18.5954022, 45.0437899], [18.5958313, 45.0442144], [18.5963356, 45.0448511], [18.5973226, 45.0447147], [18.5981809, 45.0447905], [18.6003482, 45.0451619], [18.6020111, 45.0456319], [18.6025583, 45.045973], [18.6032879, 45.0467387], [18.6035775, 45.0474967], [18.6039112, 45.0485847], [18.60416, 45.0486027], [18.6047341, 45.0486929], [18.60527, 45.0488912], [18.6062524, 45.0492698], [18.6071328, 45.0496484], [18.6073114, 45.0499143], [18.6073121, 45.0501211], [18.6070771, 45.0503225], [18.6059227, 45.0508653], [18.605656, 45.0510347], [18.6059006, 45.0518992], [18.6059006, 45.052135], [18.6056806, 45.052671], [18.6053533, 45.0530622], [18.6049816, 45.0533838], [18.6039422, 45.0541931], [18.6032101, 45.0548603], [18.6027874, 45.0552023], [18.6027647, 45.0553512], [18.6026956, 45.0557688], [18.6026938, 45.0560316], [18.6027242, 45.0562701], [18.6028604, 45.0569729], [18.6033577, 45.0578472], [18.6034411, 45.0580575], [18.6034997, 45.058279], [18.6035291, 45.0586375], [18.6036847, 45.0589402], [18.6040369, 45.0595547], [18.604355, 45.0603272], [18.604642, 45.0606832], [18.6047441, 45.0609941], [18.6045272, 45.0612915], [18.6029962, 45.0630714], [18.6025113, 45.063184], [18.602601, 45.0634164], [18.6019211, 45.0644445], [18.6013066, 45.0657037], [18.6005403, 45.0672308], [18.6005707, 45.0677505], [18.6007528, 45.0691811], [18.6005783, 45.0699098], [18.6004872, 45.0726904], [18.6003507, 45.0763442], [18.6004462, 45.0774853], [18.6017891, 45.0798148], [18.6015691, 45.0798845], [18.60248, 45.0815369], [18.5971858, 45.083109], [18.5929097, 45.0865239], [18.5879009, 45.0906185], [18.5852096, 45.0920243], [18.582926, 45.0931879], [18.574283, 45.095207], [18.5714205, 45.0951812], [18.5702854, 45.0950821], [18.5691347, 45.0946966], [18.5685128, 45.094179], [18.5679057, 45.0934572], [18.5677975, 45.0919541], [18.5678908, 45.0905884], [18.568921, 45.0894436], [18.5735196, 45.0863586], [18.5804731, 45.0820962], [18.5819007, 45.0804981], [18.5826782, 45.078405], [18.5828182, 45.0749566], [18.5817476, 45.0718186], [18.5798955, 45.069296], [18.5775329, 45.0676712], [18.5758896, 45.0669715], [18.5751057, 45.0666377], [18.5741284, 45.0665782], [18.573162, 45.06677], [18.5722601, 45.0670895], [18.5712317, 45.0680315], [18.5704144, 45.0719334], [18.5695761, 45.0773251], [18.5664811, 45.0803847], [18.5576604, 45.0862851], [18.5527143, 45.0897634], [18.5481409, 45.0926865], [18.5443894, 45.0939204], [18.5401254, 45.0939922], [18.536949, 45.0930682], [18.5307009, 45.0897542], [18.5295439, 45.088512], [18.5299482, 45.0864853], [18.5315031, 45.0853617], [18.5369519, 45.0834119], [18.5429426, 45.0814907], [18.545795, 45.0802399], [18.5484841, 45.0785464], [18.5494136, 45.0777622], [18.5502245, 45.0769232], [18.5507982, 45.0760433], [18.5511494, 45.0748775], [18.5511466, 45.0739889], [18.5508999, 45.0728898], [18.5497741, 45.071352], [18.5484349, 45.0703074], [18.5468423, 45.0694014], [18.5430204, 45.0675481], [18.5408364, 45.0662439], [18.5396998, 45.0654252], [18.5385674, 45.064566], [18.5375882, 45.0636104], [18.5363769, 45.0614422], [18.5359518, 45.0599346], [18.5358948, 45.0593686], [18.5360302, 45.0576301], [18.5367671, 45.054725], [18.5373459, 45.0515877], [18.5373611, 45.0500639], [18.5371719, 45.0485921], [18.5369509, 45.0477235], [18.5365098, 45.0466088], [18.5357327, 45.0452595], [18.5344584, 45.0441808], [18.5337114, 45.0438697], [18.5330053, 45.0437204], [18.5322842, 45.0437965], [18.5314323, 45.0440606], [18.5308096, 45.0444584], [18.529826, 45.0453778], [18.5295433, 45.0465762], [18.5295795, 45.0477225], [18.5296248, 45.0498071], [18.5303734, 45.0529315], [18.5303887, 45.0549878], [18.5302426, 45.0558694], [18.529885, 45.0569727], [18.5293156, 45.0581123], [18.5289385, 45.0586176], [18.5284459, 45.0590724], [18.5278873, 45.0595036], [18.5266483, 45.0603084], [18.5259722, 45.0606121], [18.5251665, 45.0608255], [18.524412, 45.0609233], [18.5239878, 45.0609598], [18.5235488, 45.0609756], [18.5227278, 45.0609626], [18.5219215, 45.0608714], [18.5211228, 45.0607569], [18.5196659, 45.0604425], [18.5138011, 45.0581066], [18.5115366, 45.0574464], [18.5093028, 45.0572512], [18.5068989, 45.0575659], [18.5052897, 45.057898], [18.5000956, 45.059596], [18.4981188, 45.0604045], [18.4966448, 45.0608812], [18.4964034, 45.0609494], [18.4962423, 45.0610014], [18.4952288, 45.0613356], [18.4938459, 45.0615607], [18.4917352, 45.0617337], [18.4897616, 45.0617334], [18.484991, 45.0612869], [18.4833769, 45.0612554]]]}}]}