{"type": "FeatureCollection", "features": [{"type": "Feature", "properties": {"name": "Općina Donji Vakuf, Srednjobosanski kanton / Županija Središnja Bosna, Federacija Bosne i Hercegovine, 70220, Bosna i Hercegovina / Босна и Херцеговина", "source": "OpenStreetMap relation 2528188", "licence": "ODbL 1.0"}, "geometry": {"type": "Polygon", "coordinates": [[[17.2454234, 44.2452734], [17.2462423, 44.2405123], [17.2483596, 44.2310542], [17.2649266, 44.2202129], [17.2775629, 44.212038], [17.2887508, 44.2039053], [17.2929793, 44.1945908], [17.295508, 44.1890199], [17.2992241, 44.1801013], [17.2970543, 44.1687663], [17.2968744, 44.1678267], [17.2957247, 44.162717], [17.2931731, 44.1508469], [17.2914343, 44.1422088], [17.2903496, 44.1403091], [17.2855893, 44.1319715], [17.2832668, 44.1278715], [17.2808449, 44.1244739], [17.2775738, 44.1198846], [17.2750019, 44.1152394], [17.2722335, 44.1100626], [17.2708381, 44.1075077], [17.2692883, 44.1050279], [17.2676525, 44.1019644], [17.267265, 44.101231], [17.2657429, 44.0988597], [17.2641005, 44.0964819], [17.2625623, 44.0943237], [17.2621817, 44.093774], [17.2614044, 44.0926953], [17.2603031, 44.0909987], [17.2590133, 44.0891995], [17.2579612, 44.0871927], [17.2582772, 44.0855514], [17.2583594, 44.0851738], [17.2588179, 44.0831906], [17.2592583, 44.0808425], [17.2618075, 44.0769147], [17.2639671, 44.0746348], [17.2641714, 44.0740349], [17.2638665, 44.0739732], [17.264003, 44.0736181], [17.2640426, 44.0731085], [17.2642616, 44.0728028], [17.2649985, 44.0723632], [17.2656652, 44.0718706], [17.2660124, 44.0713148], [17.2661626, 44.0702511], [17.266109, 44.0692721], [17.2662163, 44.0686939], [17.2664308, 44.0668824], [17.2661948, 44.0655718], [17.2661948, 44.0650476], [17.2669458, 44.0640993], [17.2676968, 44.0635751], [17.2693351, 44.0629575], [17.2695855, 44.0626164], [17.2694474, 44.0620624], [17.2695932, 44.0614654], [17.2704552, 44.0603376], [17.270093, 44.0591853], [17.2837354, 44.0560221], [17.2838204, 44.05578], [17.283705, 44.0552499], [17.2833504, 44.0542044], [17.2830414, 44.0534964], [17.2821352, 44.0527193], [17.2815573, 44.0521841], [17.2804748, 44.0513756], [17.2797159, 44.0502903], [17.2798124, 44.0497486], [17.280043, 44.0490835], [17.2807404, 44.0485958], [17.2815906, 44.0484069], [17.2831625, 44.0479654], [17.2836855, 44.047333], [17.2838277, 44.0469629], [17.2842139, 44.0464655], [17.2847799, 44.045754], [17.2850561, 44.0452509], [17.2851848, 44.0446687], [17.2853995, 44.0441307], [17.2854048, 44.0436622], [17.2850882, 44.0433538], [17.2845492, 44.042997], [17.2839403, 44.0427773], [17.2835835, 44.042623], [17.2831812, 44.0424128], [17.2827735, 44.0422625], [17.2825241, 44.0422278], [17.2820843, 44.0424051], [17.2805822, 44.0405079], [17.2814673, 44.0404346], [17.2823685, 44.0402882], [17.2829103, 44.0401918], [17.2840798, 44.040157], [17.2845573, 44.0401724], [17.2852277, 44.0400684], [17.2855871, 44.0399218], [17.286762, 44.0398292], [17.2877168, 44.0398794], [17.2902489, 44.0401995], [17.2910481, 44.0402149], [17.2916704, 44.0401416], [17.2925126, 44.0400529], [17.2941542, 44.0399449], [17.296772, 44.0341178], [17.2955284, 44.0299439], [17.2948462, 44.0276538], [17.2949803, 44.0273607], [17.2951734, 44.0272681], [17.295506, 44.0272064], [17.2957474, 44.0272025], [17.2962838, 44.0273414], [17.2974694, 44.0276962], [17.2978556, 44.0278119], [17.2981077, 44.0278582], [17.2983599, 44.0278582], [17.2986388, 44.0278775], [17.2988695, 44.0279315], [17.2994649, 44.0282285], [17.2996473, 44.0282709], [17.2998512, 44.0282902], [17.3000443, 44.0283018], [17.3007095, 44.0281205], [17.3009133, 44.0280318], [17.3011601, 44.0280048], [17.3013747, 44.0280318], [17.3015785, 44.0280974], [17.3017394, 44.0281475], [17.3019808, 44.0281437], [17.3022276, 44.0281167], [17.3024207, 44.0280357], [17.3026943, 44.0280781], [17.3028982, 44.0281051], [17.3030913, 44.0280897], [17.3034936, 44.0278659], [17.3038959, 44.027461], [17.3039134, 44.0274371], [17.3040569, 44.0272411], [17.3040569, 44.0270444], [17.3039764, 44.0267937], [17.3037565, 44.0263424], [17.3035097, 44.0260454], [17.3033541, 44.0257407], [17.3032147, 44.0255093], [17.301482, 44.0230946], [17.3010513, 44.0232491], [17.3002374, 44.0225199], [17.3001569, 44.0222306], [17.3000926, 44.021949], [17.3000014, 44.021733], [17.3001677, 44.0215671], [17.3009026, 44.0216404], [17.3016107, 44.0217252], [17.3028445, 44.0218101], [17.303617, 44.02176], [17.304143, 44.0214888], [17.3042232, 44.0214475], [17.3044646, 44.0212353], [17.304647, 44.0211119], [17.3048723, 44.0210733], [17.305398, 44.021054], [17.305634, 44.0209692], [17.3059505, 44.0211158], [17.3061329, 44.0212508], [17.3068893, 44.0216481], [17.3076457, 44.0219991], [17.3080319, 44.0220801], [17.3090404, 44.0221881], [17.310065, 44.022408], [17.3105425, 44.022597], [17.3113525, 44.0228709], [17.3117602, 44.0229172], [17.313332, 44.0229365], [17.3142707, 44.0230098], [17.314657, 44.0230175], [17.3150486, 44.0230098], [17.3159498, 44.0231149], [17.3157487, 44.0227124], [17.3169062, 44.0229444], [17.317071, 44.0229056], [17.3173821, 44.0228323], [17.3183209, 44.022597], [17.3182189, 44.0229905], [17.3184389, 44.0231332], [17.3187661, 44.0231872], [17.3190129, 44.0231525], [17.3218399, 44.0224697], [17.3213621, 44.0234745], [17.3229504, 44.0234173], [17.3238516, 44.0236372], [17.3248842, 44.0237085], [17.3261851, 44.0237027], [17.3267645, 44.0238628], [17.3274458, 44.0237413], [17.3279581, 44.0238242], [17.3283228, 44.024048], [17.3285385, 44.0243987], [17.3293434, 44.0244192], [17.3305021, 44.0242555], [17.3312623, 44.0242876], [17.3316323, 44.0249688], [17.3325226, 44.0252085], [17.3331365, 44.0253429], [17.3341081, 44.0252406], [17.3350269, 44.0256206], [17.3362385, 44.0258223], [17.3366653, 44.026138], [17.3363401, 44.02705], [17.3368279, 44.0272839], [17.337141, 44.0276084], [17.3374744, 44.0277253], [17.3378931, 44.0277399], [17.3384948, 44.0280468], [17.3394583, 44.0280468], [17.3401291, 44.0284444], [17.340373, 44.0287484], [17.3403568, 44.0290377], [17.3399258, 44.0294294], [17.3390905, 44.0302885], [17.3368676, 44.0309331], [17.3361764, 44.0314972], [17.3359989, 44.0321956], [17.3352237, 44.0324977], [17.3337013, 44.0329543], [17.3333466, 44.0330187], [17.3332018, 44.033119], [17.333073, 44.0332964], [17.3330301, 44.0334892], [17.3330623, 44.0336396], [17.3331642, 44.0338016], [17.3333681, 44.0339212], [17.3335451, 44.0339944], [17.3337221, 44.034087], [17.3340547, 44.0342875], [17.334972, 44.0348853], [17.3352832, 44.0353095], [17.3354334, 44.0355448], [17.3355836, 44.0356991], [17.336002, 44.0358533], [17.3364204, 44.0359343], [17.3367852, 44.0359536], [17.3372197, 44.0359921], [17.3376006, 44.0361503], [17.3377454, 44.0363662], [17.3376381, 44.0366169], [17.3375148, 44.0369138], [17.3376328, 44.0370141], [17.3379385, 44.0371067], [17.3386198, 44.0372686], [17.3394889, 44.0371915], [17.3402238, 44.0370874], [17.340787, 44.036991], [17.3413986, 44.0370565], [17.3422247, 44.0372185], [17.3440057, 44.0376928], [17.3442686, 44.0377815], [17.3444349, 44.0378895], [17.3443866, 44.0380129], [17.3441935, 44.0383099], [17.3439521, 44.0387071], [17.3440325, 44.0390001], [17.3440164, 44.0392585], [17.3439199, 44.0395439], [17.3437482, 44.0398601], [17.3437267, 44.0401223], [17.3438984, 44.0404925], [17.3442793, 44.0408781], [17.3446709, 44.0412213], [17.3448533, 44.0415645], [17.3450947, 44.0418769], [17.3454112, 44.0421738], [17.3452771, 44.0427908], [17.3451912, 44.0430607], [17.3452985, 44.0433422], [17.3457491, 44.0436584], [17.3462588, 44.043882], [17.3467737, 44.0441249], [17.3472726, 44.044364], [17.34808, 44.0451738], [17.3482302, 44.0455034], [17.3484448, 44.045889], [17.3484769, 44.0463729], [17.3484153, 44.046799], [17.3482838, 44.0469552], [17.3481095, 44.0471479], [17.3482141, 44.0473041], [17.3484072, 44.0474217], [17.3487559, 44.0475624], [17.3489892, 44.047653], [17.3496518, 44.0481697], [17.3501533, 44.0484454], [17.3504859, 44.048563], [17.3509392, 44.0488984], [17.3509875, 44.0490546], [17.3509607, 44.049338], [17.3510224, 44.0494826], [17.3511967, 44.0496657], [17.3514837, 44.0498701], [17.352106, 44.0499915], [17.3526344, 44.0501052], [17.3532647, 44.0502961], [17.3536107, 44.0504465], [17.3544851, 44.0508937], [17.354984, 44.051285], [17.3554426, 44.0515916], [17.3562339, 44.0517978], [17.357296, 44.0520561], [17.3579854, 44.0522277], [17.3581597, 44.0523318], [17.3584226, 44.0525304], [17.3585728, 44.0529891], [17.358554, 44.0531202], [17.3585996, 44.0532513], [17.3587283, 44.0533573], [17.3589, 44.0534537], [17.3590931, 44.0535906], [17.3594767, 44.0537621], [17.3600131, 44.0539453], [17.3608205, 44.0541149], [17.3611155, 44.0542074], [17.361365, 44.0542807], [17.3615795, 44.0543829], [17.3617539, 44.0546238], [17.3616278, 44.0549052], [17.3616237, 44.0550476], [17.3617246, 44.055227], [17.3619741, 44.0554418], [17.3621825, 44.0556068], [17.3624108, 44.0557848], [17.3624624, 44.055921], [17.3624978, 44.0561526], [17.3624781, 44.0563023], [17.3623479, 44.0564756], [17.3622301, 44.0566687], [17.3621486, 44.0568076], [17.3619694, 44.0570072], [17.3619194, 44.057174], [17.3618503, 44.0573652], [17.3618022, 44.057681], [17.3615661, 44.058238], [17.36155, 44.0583691], [17.3616412, 44.0585079], [17.3617539, 44.0586004], [17.3619121, 44.058664], [17.3620704, 44.0587045], [17.3622501, 44.058743], [17.3624352, 44.0588413], [17.3624781, 44.0589686], [17.3625532, 44.0593945], [17.3625961, 44.0598359], [17.3625022, 44.0601424], [17.3623896, 44.0602619], [17.3621643, 44.0604392], [17.3619497, 44.060605], [17.3618317, 44.0608035], [17.3617941, 44.0609751], [17.3618156, 44.0611871], [17.3619524, 44.0615841], [17.3620205, 44.0617436], [17.3624352, 44.062012], [17.3627517, 44.0621816], [17.362918, 44.0623223], [17.3629931, 44.0624707], [17.3630038, 44.0626644], [17.3635134, 44.0633775], [17.3636636, 44.0635279], [17.3638621, 44.063605], [17.364082, 44.0636242], [17.3643449, 44.0636705], [17.3647859, 44.0638033], [17.3648921, 44.0639509], [17.3649994, 44.0640223], [17.3650745, 44.0641533], [17.3651388, 44.0643403], [17.3653089, 44.0647266], [17.365348, 44.0651767], [17.36534, 44.0653405], [17.3653319, 44.0654388], [17.3653963, 44.0654822], [17.3655572, 44.0654128], [17.3657718, 44.0653781], [17.3659274, 44.065355], [17.3660543, 44.0652963], [17.3660776, 44.0652856], [17.3661902, 44.0652509], [17.3664209, 44.0652355], [17.3666516, 44.0652432], [17.3671075, 44.0654745], [17.3675743, 44.0657289], [17.3677566, 44.0659023], [17.3678532, 44.0659486], [17.3683682, 44.0661143], [17.3689154, 44.0663148], [17.369248, 44.0663764], [17.3699239, 44.0664959], [17.3711845, 44.066758], [17.3714742, 44.0668505], [17.3716995, 44.0669353], [17.3720294, 44.0670375], [17.3724264, 44.067103], [17.373054, 44.0672033], [17.3737353, 44.0673459], [17.3740357, 44.0674654], [17.3743629, 44.0676041], [17.374835, 44.0677467], [17.3759132, 44.0680667], [17.376219, 44.068217], [17.3768359, 44.0684868], [17.3770666, 44.0685908], [17.3775011, 44.0688645], [17.3777586, 44.069011], [17.378177, 44.0692991], [17.378287, 44.0695573], [17.3784131, 44.0696701], [17.378574, 44.069805], [17.3787725, 44.0699938], [17.3790085, 44.0701133], [17.3794913, 44.0702444], [17.3799473, 44.0703214], [17.3802423, 44.070333], [17.3807788, 44.0703638], [17.3810899, 44.0703793], [17.3813581, 44.0704409], [17.3816049, 44.0705296], [17.3818302, 44.070703], [17.3818999, 44.070861], [17.3819482, 44.070942], [17.3820662, 44.0712156], [17.3821896, 44.0713235], [17.382372, 44.0714353], [17.383005, 44.0717475], [17.3832035, 44.0718246], [17.3833376, 44.0719248], [17.383402, 44.0720481], [17.3835254, 44.0721637], [17.383638, 44.07221], [17.3837989, 44.0722447], [17.3839599, 44.0723025], [17.3840403, 44.0723642], [17.3841208, 44.0724605], [17.3842013, 44.0726262], [17.3842925, 44.0727496], [17.3844051, 44.0728729], [17.3845231, 44.0729538], [17.3847645, 44.0732188], [17.3849577, 44.0734385], [17.3852849, 44.0739087], [17.3855799, 44.0742594], [17.3858052, 44.074533], [17.3859179, 44.0746294], [17.3861754, 44.0747604], [17.3864517, 44.0747989], [17.3865643, 44.0747161], [17.3866984, 44.0746621], [17.3868352, 44.074639], [17.3869666, 44.0747026], [17.3870981, 44.0748009], [17.3873314, 44.0750128], [17.3876265, 44.0751728], [17.3877391, 44.0752441], [17.3878712, 44.0752851], [17.3879859, 44.0753269], [17.3880878, 44.0753289], [17.3882326, 44.0752691], [17.3885062, 44.0751959], [17.3886564, 44.0751574], [17.3887718, 44.0751342], [17.3889193, 44.0751092], [17.3890856, 44.0750957], [17.3892224, 44.075088], [17.3893779, 44.0751111], [17.3895416, 44.0751786], [17.3896891, 44.0752614], [17.3899868, 44.075456], [17.3900834, 44.0755293], [17.3901987, 44.0755678], [17.3903972, 44.0755582], [17.3905125, 44.0755273], [17.3906547, 44.0754714], [17.3907593, 44.0754079], [17.3908424, 44.075325], [17.3908988, 44.0752595], [17.39099, 44.0751458], [17.3911214, 44.0750957], [17.391234, 44.0750822], [17.3913199, 44.0750938], [17.3914432, 44.0751246], [17.3915586, 44.0752171], [17.3917061, 44.0753289], [17.3920545, 44.0754927], [17.3921312, 44.0755283], [17.3922855, 44.0755562], [17.3924048, 44.0755967], [17.3924799, 44.0756218], [17.3926127, 44.0756198], [17.39272, 44.0755977], [17.392838, 44.075537], [17.3929721, 44.0754454], [17.3932095, 44.0753693], [17.3934093, 44.0753115], [17.3935729, 44.0752865], [17.3932497, 44.0758279], [17.3930754, 44.0762066], [17.3928487, 44.0763848], [17.3927146, 44.0764947], [17.3923901, 44.0766893], [17.3920387, 44.0768309], [17.3920897, 44.0769745], [17.3921889, 44.077225], [17.3922144, 44.0773406], [17.3921178, 44.0773781], [17.3918939, 44.0774369], [17.3917986, 44.0774764], [17.3916753, 44.0775516], [17.391572, 44.0776171], [17.3914365, 44.0776662], [17.3912448, 44.0777394], [17.3911603, 44.0778011], [17.3910543, 44.0778926], [17.3909645, 44.0780082], [17.3909993, 44.0781354], [17.3911925, 44.0783849], [17.3913185, 44.0783204], [17.3915237, 44.0782096], [17.3917316, 44.0781373], [17.3917812, 44.0781961], [17.3921353, 44.0785169], [17.3917691, 44.0788474], [17.3916243, 44.0790362], [17.3914768, 44.0793031], [17.3913454, 44.0795517], [17.3913775, 44.079727], [17.3912662, 44.0798917], [17.3910758, 44.0800873], [17.3911281, 44.0800921], [17.3913199, 44.0800748], [17.3914929, 44.0799476], [17.3916283, 44.0798927], [17.3918067, 44.0798465], [17.3920883, 44.0797973], [17.3923016, 44.0797694], [17.3924156, 44.0798465], [17.392555, 44.0800093], [17.3926958, 44.0801885], [17.3927441, 44.0803995], [17.3927361, 44.0806124], [17.3927817, 44.0807887], [17.3928595, 44.0809968], [17.393066, 44.0812655], [17.3932672, 44.0814129], [17.3934107, 44.0814794], [17.3935528, 44.0813879], [17.3938814, 44.0811384], [17.3942676, 44.0807049], [17.3946646, 44.0804206], [17.3950441, 44.0801827], [17.3952332, 44.0799698], [17.3954344, 44.0797684], [17.3955725, 44.0794929], [17.3956516, 44.0792173], [17.3957026, 44.0789794], [17.3957831, 44.078778], [17.3959976, 44.0785545], [17.396294, 44.0782472], [17.3965716, 44.0779292], [17.3967232, 44.0778078], [17.396758, 44.0778348], [17.3968171, 44.077882], [17.3969015, 44.0781508], [17.3969592, 44.0785776], [17.3970142, 44.078885], [17.3969941, 44.0791451], [17.3969378, 44.0796201], [17.3968452, 44.0799977], [17.3968251, 44.0802116], [17.3969793, 44.0802405], [17.397045, 44.0802588], [17.3970705, 44.0803619], [17.3969699, 44.0807993], [17.3969726, 44.0810112], [17.3972945, 44.0810122], [17.3974474, 44.0810102], [17.3978242, 44.0809197], [17.3981179, 44.0808802], [17.398598, 44.0808012], [17.398999, 44.0807598], [17.3993558, 44.0807241], [17.3995462, 44.0806788], [17.3996817, 44.0806085], [17.3997822, 44.0804929], [17.3998573, 44.0803137], [17.3998922, 44.080174], [17.3998573, 44.0799322], [17.3997943, 44.0796769], [17.3997165, 44.0794197], [17.3997192, 44.0792222], [17.3997058, 44.0790353], [17.399675, 44.0788493], [17.3996079, 44.0785882], [17.399561, 44.0783753], [17.3995931, 44.0780583], [17.3996776, 44.0777626], [17.3998412, 44.077435], [17.4000075, 44.0771932], [17.4002396, 44.0769648], [17.400316, 44.0768964], [17.4004689, 44.0768733], [17.400717, 44.0768945], [17.4013996, 44.0769725], [17.4017456, 44.0770342], [17.4022686, 44.0771171], [17.4025851, 44.0771768], [17.4028453, 44.07725], [17.4030841, 44.0772916], [17.4036506, 44.0778027], [17.4039423, 44.0780121], [17.4042481, 44.0781614], [17.4044386, 44.0782308], [17.4046183, 44.077989], [17.4050421, 44.0780892], [17.4056549, 44.0781836], [17.4060868, 44.0782568], [17.4065334, 44.078331], [17.4066675, 44.0797376], [17.4069008, 44.0807954], [17.4066433, 44.0814736], [17.406882, 44.0818763], [17.4072388, 44.0822636], [17.4077833, 44.0827665], [17.4083143, 44.0830709], [17.4086443, 44.0833561], [17.4088079, 44.083595], [17.4089152, 44.0838493], [17.4089769, 44.084331], [17.4089822, 44.0845101], [17.4090064, 44.0849591], [17.4091378, 44.0850361], [17.4093711, 44.0851787], [17.4095482, 44.085302], [17.4097225, 44.0854176], [17.4098942, 44.0855332], [17.4100655, 44.0855855], [17.4101999, 44.0856315], [17.4104977, 44.0858106], [17.4106908, 44.0859474], [17.4111709, 44.0862422], [17.4115545, 44.0864695], [17.4117261, 44.0866198], [17.4119005, 44.0867701], [17.412048, 44.0868317], [17.4122116, 44.0869049], [17.4127293, 44.0871304], [17.4130806, 44.0873519], [17.4132872, 44.0874906], [17.413483, 44.0876486], [17.4136573, 44.0877276], [17.4137968, 44.0878085], [17.4139658, 44.0879357], [17.4141589, 44.0880609], [17.4144888, 44.0882189], [17.4147919, 44.088215], [17.4149957, 44.088269], [17.4151942, 44.088398], [17.4153712, 44.0885425], [17.4154463, 44.0885926], [17.4157602, 44.0887814], [17.4160793, 44.0888912], [17.4163744, 44.0888893], [17.4165541, 44.0888758], [17.4167123, 44.0889278], [17.4169886, 44.0891128], [17.4169591, 44.0892553], [17.4169216, 44.0893208], [17.4170986, 44.0893979], [17.4172381, 44.0894422], [17.4174178, 44.0895328], [17.4175331, 44.0896695], [17.4175787, 44.0897967], [17.4176082, 44.0899219], [17.4177825, 44.0903554], [17.4179435, 44.0905095], [17.4181473, 44.0906848], [17.4183163, 44.0908909], [17.4184075, 44.0910759], [17.4185765, 44.0912165], [17.4186274, 44.091309], [17.4186301, 44.0914689], [17.4187884, 44.0916037], [17.4190432, 44.0917771], [17.4192685, 44.0919158], [17.4195421, 44.092041], [17.4197191, 44.0921662], [17.4198988, 44.092276], [17.420049, 44.092276], [17.4201992, 44.0922587], [17.4203709, 44.0923165], [17.4206123, 44.0924224], [17.4207357, 44.0924706], [17.4211326, 44.0926363], [17.4213445, 44.092748], [17.421535, 44.0927711], [17.4218112, 44.0928732], [17.4220285, 44.092931], [17.4222431, 44.0928925], [17.4224603, 44.0928944], [17.4226212, 44.0929907], [17.4228546, 44.0930601], [17.4229807, 44.093089], [17.4231711, 44.0932855], [17.4232945, 44.0934569], [17.423391, 44.0936072], [17.4234796, 44.0937497], [17.4235895, 44.0938403], [17.4238443, 44.0939289], [17.4242949, 44.0940618], [17.424598, 44.0941523], [17.4247563, 44.0942853], [17.4249333, 44.0943642], [17.425105, 44.0944143], [17.425459, 44.0944317], [17.4258211, 44.094449], [17.4260893, 44.0944779], [17.4265909, 44.0946474], [17.4269235, 44.0947091], [17.4275324, 44.094842], [17.4278676, 44.0949287], [17.4281493, 44.0949364], [17.428557, 44.0950442], [17.4287796, 44.0951425], [17.4289942, 44.095285], [17.4291337, 44.0953447], [17.429367, 44.0955027], [17.4296299, 44.0958494], [17.4299973, 44.096148], [17.4305794, 44.0964928], [17.4313357, 44.0967991], [17.4323201, 44.0971766], [17.4329719, 44.0973789], [17.4330792, 44.0978007], [17.4331677, 44.098186], [17.4332515, 44.0982179], [17.4335727, 44.0983401], [17.4336398, 44.0984653], [17.4338168, 44.0986309], [17.4338578, 44.098667], [17.4339348, 44.098735], [17.4339268, 44.0988139], [17.433857, 44.0989199], [17.4337122, 44.0991048], [17.4337631, 44.0992338], [17.433739, 44.0995074], [17.4337873, 44.099829], [17.433849, 44.1000968], [17.433967, 44.1002952], [17.4340233, 44.1004261], [17.434026, 44.1005475], [17.4339777, 44.1007189], [17.4340287, 44.1010098], [17.4339777, 44.1012159], [17.4338973, 44.1013777], [17.4338195, 44.1015915], [17.4337363, 44.1016724], [17.4335057, 44.1017186], [17.4334627, 44.1017783], [17.4331972, 44.1016512], [17.4328431, 44.1015279], [17.4326822, 44.1014085], [17.4324355, 44.1011639], [17.4319822, 44.1002509], [17.4318051, 44.1000602], [17.4315557, 44.0998599], [17.4313143, 44.0997135], [17.4306706, 44.0994477], [17.4303728, 44.0993302], [17.430169, 44.0992107], [17.4298686, 44.099047], [17.429654, 44.0989218], [17.429418, 44.099334], [17.4291846, 44.0992589], [17.4287045, 44.0992859], [17.4283612, 44.0993802], [17.4277416, 44.0996172], [17.4273178, 44.0997077], [17.4270925, 44.0997424], [17.4262664, 44.0997982], [17.4258131, 44.0999176], [17.4254242, 44.1000101], [17.4250138, 44.1000294], [17.4246812, 44.100064], [17.4235091, 44.1000062], [17.422758, 44.0998599], [17.422066, 44.1013507], [17.4221545, 44.1016801], [17.4222887, 44.1021693], [17.4224496, 44.1026624], [17.4225435, 44.1028973], [17.4224952, 44.1031689], [17.4223262, 44.1033461], [17.4221197, 44.1033134], [17.4219614, 44.1032517], [17.4217844, 44.1031747], [17.421653, 44.1030322], [17.4215671, 44.1029224], [17.4214518, 44.1028376], [17.4212587, 44.1027644], [17.4206123, 44.1026393], [17.419813, 44.1024755], [17.4194267, 44.1023638], [17.419129, 44.1024948], [17.4190432, 44.1024832], [17.4190941, 44.1023812], [17.4192625, 44.1020973], [17.4193409, 44.1019651], [17.4193777, 44.1017917], [17.4193892, 44.1017378], [17.4194401, 44.1016358], [17.4195072, 44.1014624], [17.4197701, 44.100769], [17.4196091, 44.1006804], [17.4195689, 44.1006014], [17.4197566, 44.1002817], [17.4200463, 44.0997058], [17.4202234, 44.0991703], [17.4202046, 44.0991163], [17.4193704, 44.0990162], [17.4192658, 44.0990123], [17.4194321, 44.0976332], [17.419121, 44.0974906], [17.4188608, 44.0973693], [17.4185657, 44.0972421], [17.4182224, 44.0971458], [17.4179193, 44.0970842], [17.4177209, 44.0970283], [17.4173534, 44.0966546], [17.4172488, 44.0965024], [17.4163261, 44.0959592], [17.4149904, 44.0953987], [17.4150521, 44.0953024], [17.4147087, 44.0951945], [17.4143171, 44.0955432], [17.414647, 44.0964581], [17.4128553, 44.096801], [17.4129438, 44.0971227], [17.4129438, 44.0973115], [17.4128419, 44.097795], [17.4126407, 44.0986907], [17.4126488, 44.0991452], [17.4128473, 44.099752], [17.4131235, 44.1002875], [17.4134347, 44.1013391], [17.4135795, 44.1014778], [17.4137458, 44.1016242], [17.4138772, 44.1017956], [17.4137887, 44.1018707], [17.4135795, 44.101863], [17.4134186, 44.1017995], [17.412681, 44.1016242], [17.4123752, 44.1014065], [17.4120238, 44.1013083], [17.4116161, 44.1012814], [17.4112916, 44.1012833], [17.4105084, 44.1012717], [17.4100444, 44.101239], [17.4093872, 44.1011793], [17.4080998, 44.1011157], [17.4074882, 44.101083], [17.405498, 44.1009712], [17.4051279, 44.1009578], [17.4050394, 44.1009924], [17.4050072, 44.1010714], [17.4052352, 44.1013449], [17.405431, 44.1016492], [17.405718, 44.1020017], [17.4053076, 44.102152], [17.4051306, 44.1022752], [17.4050286, 44.1024158], [17.4050045, 44.1025718], [17.4048355, 44.1030437], [17.4045244, 44.1036312], [17.4046183, 44.1037602], [17.4045163, 44.1040318], [17.404393, 44.1044574], [17.4041757, 44.1048369], [17.4041301, 44.1050834], [17.4039799, 44.1052355], [17.4039584, 44.1053761], [17.4040765, 44.1055476], [17.4042588, 44.1057768], [17.4042508, 44.1059405], [17.4040899, 44.1060387], [17.4038646, 44.1060271], [17.4036553, 44.1059848], [17.4035025, 44.1059251], [17.4030545, 44.1056439], [17.4024966, 44.105405], [17.4020568, 44.1053376], [17.4013942, 44.1053049], [17.4009919, 44.1052413], [17.4005252, 44.1051161], [17.3999405, 44.1048715], [17.3993933, 44.1047772], [17.398771, 44.104652], [17.398425, 44.1045653], [17.3970759, 44.1053184], [17.3973709, 44.1055264], [17.3975721, 44.1057151], [17.3976579, 44.1058962], [17.3978886, 44.1062871], [17.3980227, 44.1066338], [17.3981997, 44.1071191], [17.3982668, 44.107408], [17.3984277, 44.1078529], [17.3987201, 44.1082805], [17.3989427, 44.1084557], [17.3991895, 44.1086733], [17.3993826, 44.1088775], [17.3995811, 44.109072], [17.3999083, 44.109384], [17.4001095, 44.1095901], [17.4002302, 44.1097884], [17.400316, 44.110112], [17.4003911, 44.1105511], [17.4003482, 44.1110845], [17.4002141, 44.1112694], [17.4001256, 44.111566], [17.4001551, 44.1118067], [17.4002275, 44.1120493], [17.4003428, 44.1123902], [17.4002355, 44.1128235], [17.4002784, 44.1131066], [17.4003321, 44.1133646], [17.4003991, 44.1136015], [17.400324, 44.1140078], [17.4002892, 44.1144218], [17.4002811, 44.1145412], [17.4001148, 44.1151324], [17.4000075, 44.1154213], [17.3999861, 44.1158391], [17.4000612, 44.1161395], [17.4000853, 44.1164149], [17.4000773, 44.1168096], [17.4002516, 44.1171447], [17.4004421, 44.1176665], [17.400426, 44.1179611], [17.4005333, 44.1184676], [17.4007237, 44.1190241], [17.40089, 44.1194612], [17.4009785, 44.1198424], [17.4010804, 44.1200099], [17.4011904, 44.1201601], [17.4016383, 44.1205317], [17.4018824, 44.1208167], [17.4020755, 44.1209804], [17.4022847, 44.1210844], [17.4025583, 44.1212191], [17.4029955, 44.1215234], [17.4032423, 44.1216832], [17.4034327, 44.1218449], [17.4036205, 44.1219932], [17.4037975, 44.1221453], [17.4041033, 44.1222839], [17.4044225, 44.1223898], [17.4047336, 44.1225284], [17.4052097, 44.1227316], [17.4053626, 44.1227865], [17.4059044, 44.1230733], [17.406068, 44.1232052], [17.4063228, 44.1234132], [17.4065387, 44.1236519], [17.4066447, 44.123753], [17.4069491, 44.1240283], [17.4070859, 44.1240697], [17.4073313, 44.1240447], [17.4075137, 44.1239995], [17.4076907, 44.1240177], [17.4077444, 44.1240312], [17.4081806, 44.1243453], [17.4082677, 44.1242813], [17.4087038, 44.1238906], [17.4090921, 44.123573], [17.4093531, 44.1233994], [17.4095058, 44.1233103], [17.4096682, 44.1232212], [17.4097541, 44.1231435], [17.4099451, 44.1229356], [17.4101615, 44.1226545], [17.4103493, 44.1224352], [17.4106103, 44.1222775], [17.4108236, 44.1221861], [17.4111068, 44.1221176], [17.4115206, 44.122097], [17.4118771, 44.1220902], [17.4120331, 44.1220993], [17.4121635, 44.122209], [17.4122145, 44.1224101], [17.4122368, 44.1226568], [17.4121731, 44.123027], [17.4122177, 44.1231595], [17.4122654, 44.1232463], [17.4124245, 44.1232897], [17.412555, 44.1233126], [17.4127778, 44.1232737], [17.4131248, 44.1231778], [17.4134829, 44.123056], [17.4135481, 44.1230338], [17.4142738, 44.1227368], [17.4150218, 44.1223804], [17.4156775, 44.1221062], [17.4162727, 44.1218388], [17.4168042, 44.1216195], [17.4172148, 44.1214001], [17.4176381, 44.1211557], [17.4178832, 44.120982], [17.4179914, 44.1208792], [17.418106, 44.1207078], [17.4181633, 44.1205616], [17.4181888, 44.1202326], [17.4182206, 44.1200498], [17.4183033, 44.119915], [17.4184084, 44.1198396], [17.418628, 44.1197047], [17.4189908, 44.1195722], [17.4193632, 44.1195128], [17.4197993, 44.1194374], [17.4203086, 44.1192569], [17.4208115, 44.1190307], [17.421413, 44.1187748], [17.4218045, 44.1185623], [17.4219859, 44.1184709], [17.4221101, 44.1183223], [17.4221801, 44.1181921], [17.4221992, 44.118023], [17.4222087, 44.1178676], [17.4224389, 44.1176126], [17.4226132, 44.1174875], [17.4227393, 44.1173565], [17.4227473, 44.1172814], [17.4227554, 44.1171774], [17.4228278, 44.1170561], [17.4229646, 44.1169906], [17.4230719, 44.1169233], [17.4231014, 44.1168405], [17.423096, 44.1167711], [17.4230021, 44.1166171], [17.4226883, 44.1163302], [17.4225327, 44.1161376], [17.4225354, 44.1160221], [17.4225408, 44.1159662], [17.4228224, 44.1159489], [17.4229512, 44.1158873], [17.4236914, 44.1153962], [17.4237772, 44.1153709], [17.4244049, 44.1151863], [17.4249199, 44.1151112], [17.4251291, 44.1150689], [17.4256065, 44.1149918], [17.4261484, 44.1150246], [17.426489, 44.1149533], [17.426717, 44.1148609], [17.4269155, 44.11478], [17.4271274, 44.1146568], [17.4273285, 44.1145817], [17.4275297, 44.1145817], [17.427586, 44.1145913], [17.4279991, 44.1146375], [17.4282485, 44.1145701], [17.4285194, 44.1145046], [17.428911, 44.1144526], [17.4292409, 44.1144469], [17.4292409, 44.1145682], [17.4292973, 44.1146914], [17.4295011, 44.1147723], [17.4298069, 44.1147896], [17.43, 44.1148127], [17.430177, 44.1148339], [17.4305686, 44.1148166], [17.4312124, 44.1148378], [17.4314269, 44.1148127], [17.4313867, 44.11452], [17.4314913, 44.114418], [17.4318883, 44.1144295], [17.4321189, 44.1142312], [17.4322236, 44.1140117], [17.4323255, 44.1138229], [17.4323711, 44.1137209], [17.4325508, 44.1134744], [17.4327171, 44.1133377], [17.4328458, 44.1133646], [17.4330363, 44.113457], [17.4332535, 44.1135495], [17.4334547, 44.1136554], [17.4337122, 44.1137421], [17.4338865, 44.1137478], [17.4342433, 44.1136689], [17.4344391, 44.1135918], [17.4347717, 44.1135726], [17.4350131, 44.1135822], [17.4351338, 44.113511], [17.4353993, 44.1130103], [17.4355549, 44.1128119], [17.4356326, 44.1126925], [17.4357077, 44.1126001], [17.4362388, 44.1127965], [17.4366251, 44.1129602], [17.4368396, 44.1130738], [17.4375316, 44.1132664], [17.4375772, 44.1133338], [17.437419, 44.1135918], [17.438162, 44.1136342], [17.4389586, 44.113769], [17.4400127, 44.1141715], [17.4407369, 44.1144661], [17.4409541, 44.1145066], [17.4410963, 44.1145431], [17.4414879, 44.1142543], [17.4416891, 44.1140733], [17.4418285, 44.1138441], [17.4418795, 44.1137709], [17.4423328, 44.1138865], [17.4429148, 44.1141233], [17.4432045, 44.1143429], [17.4433655, 44.1144719], [17.4435478, 44.1146163], [17.4439985, 44.1149649], [17.4442291, 44.1150419], [17.4445966, 44.1151324], [17.4448246, 44.1151613], [17.4453664, 44.1153462], [17.4457204, 44.1153616], [17.4476623, 44.115945], [17.4484992, 44.1162685], [17.4490464, 44.1163302], [17.4494862, 44.1162994], [17.4499123, 44.1161006], [17.4511949, 44.1169191], [17.4527824, 44.117489], [17.4547668, 44.1177739], [17.457545, 44.1183437], [17.464292, 44.1183437], [17.464292, 44.1203382], [17.4654826, 44.1214778], [17.4670702, 44.1231872], [17.4694515, 44.1246117], [17.4698483, 44.1254664], [17.4702452, 44.1260361], [17.4702452, 44.1271757], [17.4726265, 44.1297395], [17.4734203, 44.1303093], [17.4754047, 44.1334427], [17.4773891, 44.1351518], [17.4793735, 44.1360063], [17.4821517, 44.1368608], [17.4825486, 44.1377153], [17.4837392, 44.138285], [17.487708, 44.138285], [17.4904862, 44.1394243], [17.4932644, 44.1425572], [17.4952488, 44.144266], [17.498027, 44.1462596], [17.4992176, 44.1468291], [17.5004082, 44.1459748], [17.5019958, 44.1445508], [17.5043771, 44.1425572], [17.5071552, 44.1422724], [17.5095365, 44.1422724], [17.5111241, 44.1425572], [17.5135053, 44.1425572], [17.514696, 44.1431268], [17.5142991, 44.1465444], [17.5139022, 44.1471139], [17.5127116, 44.1493922], [17.5127116, 44.1502465], [17.5139022, 44.1519551], [17.5162835, 44.1525246], [17.5190617, 44.1539484], [17.5230305, 44.1553721], [17.5242212, 44.1573653], [17.5230305, 44.1602125], [17.5230305, 44.1613514], [17.5234274, 44.1639138], [17.5238243, 44.1644832], [17.5262056, 44.1670455], [17.5266024, 44.1687536], [17.523481, 44.1712165], [17.5206746, 44.1740345], [17.5167457, 44.1744371], [17.5122555, 44.1752422], [17.5094491, 44.1768524], [17.5060814, 44.17806], [17.5015912, 44.1784625], [17.4987848, 44.1792676], [17.4965397, 44.1808776], [17.4926108, 44.1820852], [17.4858755, 44.1836952], [17.4813853, 44.1845002], [17.4802627, 44.1861101], [17.480824, 44.1881225], [17.4819466, 44.1893299], [17.4825078, 44.1913421], [17.4847529, 44.1957688], [17.4869981, 44.1977809], [17.4886819, 44.198988], [17.4914883, 44.2001952], [17.4931721, 44.2018047], [17.4954172, 44.2034142], [17.4982236, 44.2062306], [17.4965397, 44.2086446], [17.4942946, 44.2114609], [17.4931721, 44.2130701], [17.4903657, 44.2162883], [17.4903657, 44.2170929], [17.4920495, 44.2191042], [17.4942946, 44.2219199], [17.4954172, 44.2235288], [17.497101, 44.2275509], [17.4914883, 44.2291597], [17.4875593, 44.2311706], [17.4836304, 44.2323771], [17.4797015, 44.2323771], [17.47465, 44.2315727], [17.4695985, 44.229964], [17.4673534, 44.2283553], [17.4617406, 44.2267465], [17.4578117, 44.2275509], [17.4544441, 44.2283553], [17.4516377, 44.2295619], [17.4505151, 44.2307684], [17.4449024, 44.2368007], [17.4432185, 44.2404198], [17.4432185, 44.2436366], [17.4404122, 44.2472552], [17.4376058, 44.2496675], [17.4317622, 44.2505288], [17.4258613, 44.2514549], [17.420218, 44.2509938], [17.4149394, 44.2530072], [17.4107337, 44.2534222], [17.4020219, 44.2500178], [17.3985028, 44.2497642], [17.3965394, 44.2473279], [17.3928165, 44.2482886], [17.3921728, 44.2485268], [17.3917579, 44.2484906], [17.3909604, 44.2485038], [17.390703, 44.2484654], [17.3893833, 44.2475124], [17.3890936, 44.2473625], [17.3886806, 44.2469859], [17.3883855, 44.2467054], [17.3882139, 44.2465978], [17.3880154, 44.2465286], [17.3879027, 44.2463711], [17.3878813, 44.2461405], [17.3873234, 44.2455564], [17.3872858, 44.245345], [17.3871303, 44.2449569], [17.3868996, 44.2448724], [17.3863578, 44.2448916], [17.3859662, 44.2449953], [17.3855263, 44.2453105], [17.3847055, 44.2462135], [17.3843676, 44.2466823], [17.384035, 44.2474932], [17.3836917, 44.2481503], [17.3835307, 44.2485076], [17.3833162, 44.2491263], [17.382946, 44.2496758], [17.3826563, 44.2500677], [17.3819375, 44.2508324], [17.381444, 44.2511513], [17.3811865, 44.2513665], [17.3807412, 44.2516124], [17.380296, 44.2518929], [17.3801458, 44.2519697], [17.3798025, 44.2521004], [17.379384, 44.2522502], [17.3789924, 44.2523117], [17.3788583, 44.2523232], [17.378059, 44.2523694], [17.3776889, 44.2524231], [17.3768413, 44.252646], [17.3753714, 44.2530533], [17.3747921, 44.2531839], [17.3741698, 44.2535297], [17.373569, 44.2539293], [17.3722708, 44.255082], [17.3720348, 44.2551896], [17.3716593, 44.2554201], [17.3714983, 44.2555585], [17.3714018, 44.2557582], [17.3712087, 44.255958], [17.3710585, 44.2560041], [17.3708761, 44.256081], [17.3703933, 44.2563346], [17.3695805, 44.2569387], [17.369121, 44.2572528], [17.3684579, 44.257874], [17.368077, 44.2583612], [17.3679422, 44.2585894], [17.3678899, 44.2587642], [17.3680061, 44.2588357], [17.3679745, 44.2590196], [17.3679632, 44.2590855], [17.3678739, 44.2591628], [17.3677057, 44.2593083], [17.3674981, 44.2594484], [17.3673635, 44.2595391], [17.3672444, 44.2596195], [17.3670096, 44.2597705], [17.366832, 44.2598847], [17.3667234, 44.2599546], [17.3666114, 44.2600267], [17.3662684, 44.2602631], [17.3660374, 44.2604224], [17.3657106, 44.2606407], [17.3652734, 44.2609328], [17.3651576, 44.2610102], [17.3645312, 44.2613768], [17.3642621, 44.2615343], [17.3642188, 44.2615596], [17.3635997, 44.2619532], [17.3633605, 44.2621052], [17.3630528, 44.2622948], [17.3628992, 44.2623894], [17.3627757, 44.2624369], [17.3626095, 44.2625009], [17.3623636, 44.2625589], [17.3621535, 44.2626084], [17.3618493, 44.2626891], [17.361719, 44.2627237], [17.3613389, 44.2628418], [17.3611504, 44.2629004], [17.3607103, 44.2630705], [17.3605442, 44.2631347], [17.3603354, 44.2631964], [17.360115, 44.2632615], [17.3599978, 44.2632755], [17.3597932, 44.2632999], [17.3595814, 44.2632984], [17.3594551, 44.2632975], [17.3592728, 44.2632961], [17.3591035, 44.2632705], [17.358933, 44.2632447], [17.3588893, 44.2632381], [17.35879, 44.2632231], [17.35828, 44.263029], [17.3577601, 44.2628312], [17.3572897, 44.2626813], [17.3568803, 44.2625508], [17.3565034, 44.2623876], [17.3559844, 44.2621628], [17.3557993, 44.2620965], [17.3556411, 44.2620398], [17.3554373, 44.2619937], [17.3553528, 44.2619864], [17.3550832, 44.261963], [17.3547275, 44.2619282], [17.3545736, 44.2619131], [17.3540899, 44.2618438], [17.3538762, 44.2618132], [17.3534686, 44.2616786], [17.3531628, 44.2616057], [17.3528945, 44.2614789], [17.352527, 44.2613563], [17.352342, 44.2612945], [17.3519355, 44.2611955], [17.3515534, 44.2611025], [17.3512982, 44.2609647], [17.3511833, 44.2609027], [17.3504054, 44.2605684], [17.3502231, 44.2604878], [17.3501028, 44.260455], [17.3499978, 44.2604263], [17.3497992, 44.2604049], [17.3497134, 44.2603956], [17.3494566, 44.2603182], [17.3491394, 44.2602227], [17.3489081, 44.26018], [17.3486149, 44.2601258], [17.3484528, 44.2600959], [17.3482758, 44.2600959], [17.3481256, 44.2601151], [17.3479378, 44.2602035], [17.3477295, 44.260306], [17.3476803, 44.2603302], [17.3475212, 44.2603539], [17.347396, 44.2603725], [17.3471302, 44.2603426], [17.3470205, 44.2603302], [17.3468864, 44.2603072], [17.3467554, 44.2602933], [17.3465967, 44.2602765], [17.3463982, 44.2602918], [17.3461622, 44.260384], [17.3459648, 44.2604684], [17.345776, 44.2605492], [17.3456253, 44.2606103], [17.3454916, 44.2606645], [17.3454217, 44.2607606], [17.3453575, 44.2608489], [17.3453044, 44.2609091], [17.3452288, 44.2609949], [17.3451614, 44.2610492], [17.3451, 44.2610986], [17.3447893, 44.261186], [17.3446494, 44.2612254], [17.3443201, 44.2613237], [17.3441988, 44.2613599], [17.3438179, 44.2614367], [17.3435277, 44.2615223], [17.3430884, 44.2616518], [17.3427207, 44.2617647], [17.3425251, 44.2618247], [17.3421789, 44.2619876], [17.3418905, 44.2621233], [17.3417902, 44.2621705], [17.3415971, 44.2622473], [17.3413932, 44.2623626], [17.3411035, 44.2624279], [17.3407012, 44.262401], [17.3405861, 44.2623513], [17.3403633, 44.262255], [17.3402548, 44.262235], [17.3399663, 44.262182], [17.3398109, 44.262182], [17.3396337, 44.262182], [17.33936, 44.2622405], [17.3392743, 44.2622588], [17.3391724, 44.2623203], [17.3390793, 44.2623903], [17.3389631, 44.2624778], [17.338872, 44.2625393], [17.3387647, 44.2624624], [17.3386091, 44.2622166], [17.3381907, 44.2614521], [17.3379439, 44.261137], [17.3372894, 44.260238], [17.3369139, 44.2600267], [17.3364419, 44.2599998], [17.3361307, 44.2600882], [17.3359376, 44.2601074], [17.3358142, 44.2600767], [17.3357284, 44.2599307], [17.3355514, 44.2597578], [17.3350149, 44.2595234], [17.3347789, 44.2595427], [17.3344517, 44.2597232], [17.3336685, 44.2601919], [17.33347, 44.260361], [17.3332903, 44.2602566], [17.333132, 44.2602995], [17.3329174, 44.2603648], [17.332719, 44.2602918], [17.3327726, 44.2601497], [17.3327941, 44.2599691], [17.3329121, 44.2588012], [17.3329443, 44.2581019], [17.332837, 44.257418], [17.3327082, 44.2570377], [17.3323971, 44.2566611], [17.3321074, 44.2562923], [17.3319358, 44.2561271], [17.3318285, 44.255935], [17.3317158, 44.2553202], [17.3316139, 44.255155], [17.3314959, 44.2550551], [17.331351, 44.2549667], [17.331174, 44.2549168], [17.3309863, 44.2548861], [17.3307073, 44.2548246], [17.3303425, 44.2546594], [17.3301065, 44.2546133], [17.3298007, 44.2545441], [17.3295057, 44.2545364], [17.3291999, 44.2545825], [17.3290229, 44.2546209], [17.3287815, 44.2546901], [17.3281807, 44.2548015], [17.3280519, 44.2549053], [17.3277408, 44.2550666], [17.3274404, 44.2551396], [17.3273063, 44.255132], [17.3271024, 44.2550897], [17.3267001, 44.2551089], [17.3265016, 44.2551627], [17.3260403, 44.2552626], [17.3256969, 44.2553202], [17.3253375, 44.2553241], [17.3250318, 44.2553049], [17.3248494, 44.2552626], [17.3245597, 44.2551589], [17.3242164, 44.2550551], [17.3237282, 44.255009], [17.3232508, 44.2549552], [17.3229182, 44.2549322], [17.3226875, 44.2548515], [17.3224354, 44.2547977], [17.3221511, 44.25479], [17.321915, 44.2548169], [17.3216683, 44.2549091], [17.3214537, 44.2549744], [17.3207241, 44.2550782], [17.3204237, 44.2551589], [17.3201823, 44.255228], [17.3195279, 44.2553779], [17.3191416, 44.2554278], [17.3187232, 44.2554317], [17.3182458, 44.2555431], [17.3177791, 44.2555969], [17.3170334, 44.2557813], [17.3167223, 44.2557813], [17.316504, 44.2556943], [17.3161429, 44.255593], [17.3158264, 44.2555239], [17.3153222, 44.2553971], [17.3149145, 44.2553049], [17.3140148, 44.2552335], [17.3135208, 44.2552053], [17.31322, 44.2550556], [17.3123664, 44.254863], [17.3121303, 44.2547746], [17.3118621, 44.254644], [17.3115456, 44.2544173], [17.3112935, 44.254279], [17.3111004, 44.2541983], [17.3108, 44.2540869], [17.3105854, 44.2539639], [17.3100811, 44.2537334], [17.3096091, 44.2536296], [17.3093569, 44.2535297], [17.309196, 44.2535374], [17.3089492, 44.253572], [17.3085737, 44.2534183], [17.3083055, 44.253353], [17.3079568, 44.2533453], [17.3073077, 44.2533645], [17.307018, 44.2533568], [17.3063636, 44.2535028], [17.3060632, 44.2535835], [17.3058754, 44.2536143], [17.3054838, 44.2537065], [17.3053336, 44.2537833], [17.3052263, 44.2539255], [17.305178, 44.254133], [17.3050868, 44.2542867], [17.3048615, 44.254425], [17.3047167, 44.2544557], [17.3043573, 44.2544519], [17.303785, 44.2543926], [17.3033434, 44.2544519], [17.3029625, 44.2544903], [17.3025672, 44.2544942], [17.3021569, 44.2544339], [17.3017324, 44.2542335], [17.3012981, 44.2541197], [17.3008543, 44.2541003], [17.3006853, 44.2540811], [17.3004386, 44.2540081], [17.3001945, 44.2538487], [17.2998968, 44.2535989], [17.2998297, 44.2535144], [17.2997063, 44.253426], [17.2995079, 44.2533626], [17.2994542, 44.2533319], [17.2994086, 44.2532435], [17.2993726, 44.253154], [17.2993294, 44.252985], [17.2993702, 44.2529517], [17.2992823, 44.2528896], [17.2992531, 44.2529098], [17.2990313, 44.2527185], [17.2991835, 44.2526357], [17.2993286, 44.2525233], [17.2994554, 44.2523533], [17.2995367, 44.2521459], [17.299592, 44.2519013], [17.2996928, 44.2515239], [17.2996603, 44.2513282], [17.2995237, 44.2509508], [17.2993318, 44.2506317], [17.2991692, 44.250436], [17.2991367, 44.2502962], [17.299205, 44.2500702], [17.299346, 44.2494121], [17.2993159, 44.2489233], [17.2992601, 44.2483208], [17.2991228, 44.2476352], [17.2989683, 44.2471341], [17.2987237, 44.2468359], [17.2982387, 44.2462672], [17.2980499, 44.2461504], [17.2977924, 44.2460151], [17.2971916, 44.2458676], [17.2966595, 44.2457323], [17.2960329, 44.2454249], [17.2955222, 44.2451205], [17.2952862, 44.2448838], [17.2951875, 44.2445917], [17.2951102, 44.2440629], [17.2950511, 44.2434947], [17.2943473, 44.2434755], [17.2941488, 44.243487], [17.2937196, 44.243585], [17.2928023, 44.2435312], [17.2923464, 44.2434467], [17.2919655, 44.2432968], [17.2915846, 44.242974], [17.2911394, 44.2424552], [17.2909033, 44.2421516], [17.2907317, 44.2419479], [17.2905439, 44.2418211], [17.2904152, 44.2418518], [17.2903186, 44.2419863], [17.2898251, 44.2419517], [17.2898465, 44.2418211], [17.2897553, 44.2417403], [17.2886985, 44.2415213], [17.2886878, 44.2413637], [17.2886664, 44.2412062], [17.2879744, 44.2410563], [17.2880387, 44.2408795], [17.2867491, 44.2404714], [17.286233, 44.2401774], [17.2864938, 44.239519], [17.2866976, 44.2388964], [17.2867513, 44.2384429], [17.2866547, 44.2381201], [17.2864079, 44.2376435], [17.2859144, 44.2371515], [17.2854102, 44.2364443], [17.2851634, 44.2360907], [17.2850132, 44.2359601], [17.2844016, 44.2358063], [17.2839296, 44.2355834], [17.2836399, 44.2354297], [17.2836506, 44.2352606], [17.2837365, 44.2347763], [17.2836721, 44.234415], [17.2836506, 44.2342151], [17.2835755, 44.2341075], [17.2833395, 44.2339537], [17.2828781, 44.2337231], [17.2825241, 44.2334925], [17.2822451, 44.2333695], [17.2820091, 44.233185], [17.2817945, 44.233062], [17.2812259, 44.2328929], [17.2807217, 44.2327622], [17.2800779, 44.2325085], [17.2797882, 44.2323471], [17.2796917, 44.232178], [17.2798204, 44.2319627], [17.2798633, 44.2317244], [17.2798204, 44.2315476], [17.2796531, 44.2313769], [17.2793602, 44.2309941], [17.2789128, 44.2307097], [17.2783935, 44.2305559], [17.2775566, 44.2301331], [17.2768485, 44.2295719], [17.2762906, 44.2289569], [17.2756469, 44.2280804], [17.2755289, 44.2277037], [17.2755396, 44.2273808], [17.2757971, 44.2274654], [17.2763121, 44.227796], [17.2771168, 44.2281112], [17.2777712, 44.2282111], [17.2788334, 44.228142], [17.2790265, 44.227919], [17.2789943, 44.2275039], [17.2786617, 44.2270349], [17.2783828, 44.2266351], [17.2800243, 44.2259201], [17.2800457, 44.223652], [17.2778356, 44.2239057], [17.2768056, 44.2239749], [17.2755182, 44.2238827], [17.2737816, 44.2238691], [17.2731149, 44.2238519], [17.2724878, 44.2239254], [17.2715056, 44.2241825], [17.2707653, 44.2244747], [17.2697353, 44.2248591], [17.2685766, 44.2254434], [17.2677934, 44.2256356], [17.2660661, 44.2257894], [17.2655404, 44.2259508], [17.2650146, 44.2261815], [17.2638988, 44.2264198], [17.2635555, 44.2264352], [17.2632551, 44.2263968], [17.2623002, 44.2265813], [17.252891, 44.2324394], [17.2521186, 44.2352836], [17.2454234, 44.2452734]]]}}]}