{"type": "FeatureCollection", "features": [{"type": "Feature", "properties": {"name": "Općina Drvar, Hercegbosanska županija, Federacija Bosne i Hercegovine, 80260, Bosna i Hercegovina / Босна и Херцеговина", "source": "OpenStreetMap relation 2528190", "licence": "ODbL 1.0"}, "geometry": {"type": "Polygon", "coordinates": [[[16.276416, 44.4610748], [16.2786611, 44.4558668], [16.2831513, 44.453463], [16.2859577, 44.4506584], [16.2870802, 44.4470522], [16.2876415, 44.4434459], [16.2904479, 44.441843], [16.292693, 44.4414423], [16.2966219, 44.4390378], [16.2999896, 44.4306215], [16.3011121, 44.427415], [16.3005509, 44.4242082], [16.3016734, 44.422204], [16.3033572, 44.4193978], [16.302796, 44.4173934], [16.3005509, 44.4157898], [16.2949381, 44.4161907], [16.2932543, 44.4169925], [16.2893253, 44.4181952], [16.2859577, 44.4157898], [16.2870802, 44.4137852], [16.2887641, 44.4105778], [16.2915704, 44.4069691], [16.2932543, 44.4033603], [16.2943768, 44.4001523], [16.2971832, 44.3977461], [16.298867, 44.3953399], [16.2999896, 44.3925325], [16.2999896, 44.3901261], [16.3016734, 44.3873184], [16.3016734, 44.3833072], [16.3022347, 44.3804992], [16.3039185, 44.3764876], [16.3056023, 44.3740805], [16.3061636, 44.3704696], [16.3078474, 44.367661], [16.3078474, 44.362846], [16.3100925, 44.3584319], [16.3095313, 44.3552214], [16.3072862, 44.3500039], [16.3061636, 44.3475957], [16.3061636, 44.3443846], [16.3056023, 44.3423776], [16.3033572, 44.3395677], [16.3033572, 44.3355532], [16.30894, 44.3334052], [16.3176714, 44.3305663], [16.3200527, 44.3288629], [16.3303716, 44.3163697], [16.3335467, 44.3140979], [16.3430719, 44.3106901], [16.3486282, 44.3089861], [16.352597, 44.3072821], [16.3573596, 44.3050099], [16.3605347, 44.3044419], [16.3668848, 44.3021697], [16.3716474, 44.3004654], [16.3819663, 44.2970568], [16.3875226, 44.2953524], [16.3906977, 44.2947843], [16.3970478, 44.2908072], [16.4018104, 44.287398], [16.406573, 44.2851251], [16.4089542, 44.2800108], [16.4137168, 44.2777376], [16.4105418, 44.274896], [16.4089542, 44.2720542], [16.4121293, 44.2697808], [16.4202949, 44.269323], [16.4259213, 44.2689206], [16.4320283, 44.2680633], [16.4436473, 44.2633768], [16.4782527, 44.2536842], [16.4857016, 44.2537417], [16.4865964, 44.2535847], [16.4907196, 44.2535578], [16.5058662, 44.2533959], [16.5091825, 44.2538244], [16.5119062, 44.2545908], [16.5179093, 44.256175], [16.5301386, 44.2531716], [16.5315941, 44.2511712], [16.5307234, 44.2498583], [16.5292808, 44.248496], [16.5303714, 44.247819], [16.5307036, 44.2471955], [16.5351627, 44.2419234], [16.537544, 44.2407861], [16.5391315, 44.2402174], [16.5446878, 44.2379427], [16.5518317, 44.2396487], [16.557388, 44.2413547], [16.5605631, 44.242492], [16.5661194, 44.2436293], [16.581201, 44.23908], [16.5929049, 44.2372871], [16.5951356, 44.2373381], [16.5954472, 44.2377574], [16.5924126, 44.2421858], [16.5940437, 44.245615], [16.5949938, 44.248812], [16.5949941, 44.2501124], [16.5950202, 44.2504364], [16.5951374, 44.2505927], [16.5957578, 44.2508211], [16.5962396, 44.251009], [16.5979092, 44.2542834], [16.5995135, 44.2552125], [16.5998872, 44.2562398], [16.6003131, 44.2565776], [16.6007744, 44.257775], [16.6017464, 44.2587242], [16.6022606, 44.2600639], [16.6032983, 44.2607152], [16.603146, 44.2608784], [16.6033853, 44.2610667], [16.6039017, 44.2607287], [16.6051295, 44.2623447], [16.6063016, 44.2627163], [16.6070807, 44.2634801], [16.6083022, 44.2633868], [16.6083398, 44.2638524], [16.6074609, 44.2639642], [16.6080492, 44.2646442], [16.6085855, 44.2648771], [16.610758, 44.2668814], [16.6111695, 44.2666524], [16.6122787, 44.2661785], [16.6124858, 44.2664658], [16.6133996, 44.2669031], [16.6142282, 44.2671292], [16.6146086, 44.2671414], [16.6148706, 44.2672524], [16.615701, 44.2676057], [16.6162258, 44.2680437], [16.6157747, 44.2683411], [16.615462, 44.2686226], [16.6155384, 44.2689439], [16.616093, 44.2692898], [16.6178668, 44.2721919], [16.6206135, 44.2761759], [16.6225877, 44.2766059], [16.6238456, 44.2776984], [16.6274049, 44.2777198], [16.6316986, 44.2793996], [16.6496332, 44.281784], [16.6719459, 44.294733], [16.6831101, 44.3061016], [16.687031, 44.3184606], [16.6950882, 44.3295729], [16.7013281, 44.328965], [16.7037829, 44.3284738], [16.7053789, 44.3285176], [16.7000794, 44.3310245], [16.6893242, 44.336392], [16.6838959, 44.3382913], [16.6777597, 44.3403544], [16.6753488, 44.3414656], [16.6747122, 44.3418612], [16.6703667, 44.3445614], [16.6647507, 44.3479917], [16.6554666, 44.3539026], [16.6521919, 44.3555859], [16.6466016, 44.3589354], [16.6394484, 44.3628377], [16.6350396, 44.3632102], [16.6152381, 44.364411], [16.6105727, 44.368279], [16.6003286, 44.376805], [16.5949659, 44.3811963], [16.5896069, 44.3854681], [16.5891093, 44.3857725], [16.5824003, 44.389687], [16.5809694, 44.3904191], [16.5745238, 44.3931587], [16.5697209, 44.395073], [16.5628269, 44.3986605], [16.5568721, 44.4016438], [16.5509276, 44.4044813], [16.541067, 44.4094135], [16.5355172, 44.4119679], [16.5318555, 44.4136015], [16.5255577, 44.418324], [16.521098, 44.4216907], [16.5166929, 44.4249783], [16.5129995, 44.4277487], [16.509126, 44.4303866], [16.5051337, 44.4324464], [16.5040631, 44.4329332], [16.5037824, 44.4330593], [16.4841663, 44.4419485], [16.4677374, 44.4489368], [16.4511957, 44.4564828], [16.4507018, 44.460464], [16.4500238, 44.4630925], [16.4464548, 44.4646358], [16.4267618, 44.4731509], [16.415561, 44.4762025], [16.4010875, 44.4732826], [16.4001957, 44.4733616], [16.3991738, 44.4740348], [16.3911575, 44.4784068], [16.3863949, 44.4778405], [16.3840137, 44.4778405], [16.376076, 44.4772741], [16.3721072, 44.4750086], [16.3705197, 44.4750086], [16.3578195, 44.4761413], [16.3562319, 44.4761413], [16.3490881, 44.4778405], [16.3403567, 44.4778405], [16.3363878, 44.4806722], [16.3316253, 44.4840702], [16.329244, 44.4846365], [16.3252751, 44.4880342], [16.3149562, 44.4908655], [16.3070186, 44.4919979], [16.3006685, 44.494829], [16.2943184, 44.4959614], [16.2904463, 44.4974958], [16.2887641, 44.4943149], [16.2876415, 44.4907115], [16.2859577, 44.4887095], [16.2853964, 44.4839044], [16.2837126, 44.4803003], [16.2831513, 44.478298], [16.2820288, 44.4754946], [16.2797837, 44.4730915], [16.2792224, 44.4686857], [16.2786611, 44.4662824], [16.2769773, 44.4626772], [16.276416, 44.4610748]]]}}]}