{"type": "FeatureCollection", "features": [{"type": "Feature", "properties": {"name": "Općina Foča (FBiH), Bosansko-podrinjski kanton Goražde, Federacija Bosne i Hercegovine, 73250, Bosna i Hercegovina / Босна и Херцеговина", "source": "OpenStreetMap relation 2528284", "licence": "ODbL 1.0"}, "geometry": {"type": "Polygon", "coordinates": [[[18.5254977, 43.6462393], [18.5279559, 43.6466633], [18.5413196, 43.6458317], [18.5556493, 43.6337716], [18.5585158, 43.6313588], [18.5628563, 43.6270254], [18.5677885, 43.6261813], [18.5738886, 43.6249365], [18.5750834, 43.6246927], [18.586089, 43.6218453], [18.5966683, 43.6179077], [18.6002694, 43.6165581], [18.6269654, 43.6082921], [18.6534905, 43.5988829], [18.6649914, 43.5948028], [18.6691015, 43.5933446], [18.6921097, 43.5869384], [18.6929356, 43.5867084], [18.7018092, 43.5842375], [18.7161819, 43.5837558], [18.7174754, 43.5837125], [18.7416046, 43.5829039], [18.7469624, 43.5827244], [18.7685878, 43.5734368], [18.773207, 43.5714528], [18.7775986, 43.57077], [18.7950241, 43.5680606], [18.7996426, 43.5692315], [18.7998816, 43.5692921], [18.8195362, 43.5742748], [18.8335409, 43.5778249], [18.848359, 43.581543], [18.864948, 43.5857051], [18.8684695, 43.5865761], [18.8847461, 43.5913005], [18.8845004, 43.5942793], [18.8806268, 43.5963627], [18.8781076, 43.5968328], [18.8759217, 43.597161], [18.8747052, 43.5973437], [18.8716183, 43.5975072], [18.8695824, 43.5974264], [18.8673496, 43.5976693], [18.8661532, 43.5979032], [18.8650912, 43.5972684], [18.8643067, 43.5968096], [18.8638817, 43.5963152], [18.862619, 43.5959656], [18.8612839, 43.5962564], [18.8598588, 43.5964429], [18.8589434, 43.5964154], [18.8579348, 43.5967482], [18.8547385, 43.5980141], [18.8535366, 43.5986942], [18.8557865, 43.6006417], [18.8584519, 43.6029488], [18.8605333, 43.6047617], [18.8606235, 43.6048402], [18.8619655, 43.6058196], [18.8624795, 43.6067319], [18.8633159, 43.607587], [18.8639409, 43.6081761], [18.8643789, 43.6085412], [18.8655111, 43.6094124], [18.8623221, 43.6105944], [18.8621943, 43.6109016], [18.8614757, 43.611812], [18.8612082, 43.6119494], [18.8604027, 43.6118818], [18.8592428, 43.6114148], [18.8586787, 43.6112635], [18.8578214, 43.6116022], [18.8573582, 43.6125814], [18.8564611, 43.6129238], [18.8561494, 43.61369], [18.8546526, 43.6138309], [18.8536118, 43.614061], [18.8527548, 43.6150186], [18.8522031, 43.6152073], [18.8516191, 43.6149314], [18.8506161, 43.6159761], [18.8481272, 43.6167113], [18.8464852, 43.6169401], [18.8453602, 43.6171112], [18.8441794, 43.6177111], [18.843071, 43.6177009], [18.8411698, 43.6171137], [18.8401888, 43.6171993], [18.8388073, 43.6176111], [18.8362007, 43.6167718], [18.8341497, 43.6173449], [18.8330613, 43.6165855], [18.8319771, 43.6168292], [18.8303116, 43.6172979], [18.8283912, 43.6173157], [18.8279636, 43.6176216], [18.8266657, 43.6182773], [18.8251572, 43.6181302], [18.8242008, 43.6185878], [18.8234205, 43.6191424], [18.8225178, 43.6204584], [18.8217429, 43.6210567], [18.821322, 43.621778], [18.8206628, 43.6225831], [18.8191543, 43.6226196], [18.8174105, 43.6241375], [18.8174413, 43.6251544], [18.8169092, 43.6262762], [18.8144424, 43.6297668], [18.8137944, 43.6296494], [18.8131711, 43.6284438], [18.8125461, 43.6277972], [18.8113419, 43.627436], [18.8091982, 43.627643], [18.8046983, 43.6281544], [18.8017666, 43.6285546], [18.8000833, 43.6271828], [18.7963657, 43.6229574], [18.7960698, 43.6220885], [18.7946672, 43.6214362], [18.7923256, 43.6214658], [18.7904022, 43.6214113], [18.7892186, 43.6215213], [18.7860226, 43.6211435], [18.7839916, 43.6211787], [18.7824404, 43.6202222], [18.7810389, 43.6198289], [18.7790727, 43.6193903], [18.7768853, 43.6192803], [18.7745329, 43.6193691], [18.7728491, 43.6201817], [18.7708846, 43.6216038], [18.7703233, 43.6224164], [18.7701323, 43.6226584], [18.7692008, 43.6238385], [18.7683015, 43.6248675], [18.767589, 43.6258153], [18.7664105, 43.6271558], [18.7647106, 43.6293233], [18.763588, 43.6317608], [18.7624655, 43.6333858], [18.7621848, 43.633792], [18.7627461, 43.6354169], [18.763588, 43.6366356], [18.7638686, 43.6380573], [18.7638686, 43.6400883], [18.7630267, 43.6427284], [18.7627461, 43.6429315], [18.7619042, 43.64415], [18.7616235, 43.6461808], [18.7613429, 43.6469931], [18.7599397, 43.6480084], [18.7576946, 43.649836], [18.7562914, 43.649836], [18.754327, 43.6508513], [18.7523625, 43.6514605], [18.7509593, 43.6516635], [18.7489948, 43.6512574], [18.7459078, 43.6500391], [18.7433821, 43.6500391], [18.7414176, 43.649633], [18.7400144, 43.6488207], [18.7377693, 43.6488207], [18.7344017, 43.6484146], [18.734343, 43.6483715], [18.7306378, 43.6489669], [18.7286916, 43.6498213], [18.7272311, 43.6502679], [18.7262757, 43.6505649], [18.7252003, 43.6508014], [18.7249468, 43.6512407], [18.7243651, 43.6524443], [18.7218959, 43.6539882], [18.7189974, 43.6557509], [18.7171663, 43.656482], [18.7146436, 43.6578083], [18.7125119, 43.6593792], [18.7108281, 43.6608003], [18.7097055, 43.6622215], [18.7088636, 43.6630336], [18.7074604, 43.6638456], [18.7047955, 43.6650328], [18.7024142, 43.6633102], [18.7000329, 43.6618746], [18.6980485, 43.6613004], [18.6964609, 43.6621617], [18.6944765, 43.6633102], [18.6920952, 43.6638844], [18.6913015, 43.6647457], [18.6909046, 43.665607], [18.6889202, 43.6667554], [18.6881264, 43.668765], [18.6837607, 43.6710616], [18.6820155, 43.6756208], [18.6788797, 43.6771834], [18.6759556, 43.6773274], [18.6742012, 43.6780259], [18.6731787, 43.6784337], [18.6701632, 43.6789835], [18.6684126, 43.6796499], [18.6670135, 43.6801491], [18.6663362, 43.6803908], [18.6657767, 43.6804479], [18.6630075, 43.6807304], [18.6583635, 43.6809236], [18.6557127, 43.6823474], [18.6544078, 43.6821514], [18.6528234, 43.68192], [18.6515179, 43.6813693], [18.6488115, 43.6800468], [18.6370807, 43.6782582], [18.6330445, 43.6791022], [18.6285169, 43.6805984], [18.6243274, 43.6800566], [18.6234687, 43.6787481], [18.6217056, 43.6783433], [18.6220932, 43.6772151], [18.6220122, 43.6763484], [18.6232427, 43.6750711], [18.6244458, 43.6747763], [18.6252687, 43.6736725], [18.6264006, 43.6736511], [18.6272037, 43.6728886], [18.6283651, 43.6725466], [18.6290115, 43.6715464], [18.6294767, 43.6702431], [18.6296225, 43.6692921], [18.6287806, 43.6679058], [18.6265632, 43.6667854], [18.6240045, 43.6662722], [18.6219717, 43.6661547], [18.6204042, 43.6652237], [18.6202914, 43.6635063], [18.6182476, 43.662371], [18.6181736, 43.6617272], [18.6149002, 43.6605292], [18.6148372, 43.6591988], [18.6147042, 43.6576921], [18.6153852, 43.6544184], [18.6153482, 43.652758], [18.614331, 43.651708], [18.6125383, 43.6507902], [18.6109708, 43.6505403], [18.6090914, 43.6503452], [18.606719, 43.6496116], [18.6061502, 43.6486939], [18.605358, 43.6480902], [18.6048227, 43.647563], [18.60455, 43.6472295], [18.6017696, 43.6467837], [18.5994488, 43.6462104], [18.5980391, 43.647139], [18.596628, 43.6467528], [18.5956309, 43.6463116], [18.5909041, 43.6498764], [18.5898169, 43.6500587], [18.5899763, 43.6510844], [18.5891697, 43.6513809], [18.5883343, 43.6524358], [18.5847041, 43.6523811], [18.5828428, 43.6513413], [18.5809671, 43.6513527], [18.5805847, 43.6517552], [18.5792767, 43.6519112], [18.5787559, 43.6524195], [18.5744547, 43.6533998], [18.5734851, 43.6541092], [18.5716043, 43.6544046], [18.5661035, 43.6579282], [18.5653582, 43.6575995], [18.5644903, 43.6575541], [18.5639643, 43.6580395], [18.5548644, 43.6571601], [18.5495475, 43.6559596], [18.5479524, 43.6547582], [18.5479761, 43.6530033], [18.5491982, 43.6523848], [18.5481448, 43.6518388], [18.5485171, 43.651322], [18.5474572, 43.6507551], [18.5462409, 43.6508675], [18.5451053, 43.6515664], [18.5452034, 43.6522095], [18.5445627, 43.6529632], [18.5437208, 43.6523154], [18.5417419, 43.6522814], [18.5408661, 43.6526453], [18.5402291, 43.6527266], [18.5394917, 43.6529014], [18.5388561, 43.6531358], [18.5383093, 43.6533295], [18.5303521, 43.6512458], [18.5254977, 43.6462393]]]}}]}