{"type": "FeatureCollection", "features": [{"type": "Feature", "properties": {"name": "Općina Fojnica, Srednjobosanski kanton / Županija Središnja Bosna, Federacija Bosne i Hercegovine, 71270, Bosna i Hercegovina / Босна и Херцеговина", "source": "OpenStreetMap relation 2528197", "licence": "ODbL 1.0"}, "geometry": {"type": "Polygon", "coordinates": [[[17.7142499, 43.9664579], [17.7147648, 43.9654727], [17.7148506, 43.9651774], [17.7151778, 43.9637758], [17.7152476, 43.9629263], [17.7151537, 43.9621791], [17.7150491, 43.9617061], [17.7148586, 43.961096], [17.7146199, 43.9602234], [17.7145931, 43.9595611], [17.7145663, 43.9589684], [17.7146226, 43.9588429], [17.714797, 43.9585552], [17.7155212, 43.9576979], [17.7159771, 43.9571979], [17.7161702, 43.9571399], [17.7165323, 43.9568831], [17.7170098, 43.9566128], [17.717286, 43.9565433], [17.7175194, 43.9564506], [17.7178547, 43.9563695], [17.7180988, 43.9561764], [17.7186942, 43.9558154], [17.7194104, 43.9555702], [17.7199495, 43.9554601], [17.7205798, 43.9552825], [17.721194, 43.9550681], [17.7218753, 43.9549851], [17.723026, 43.9549021], [17.7233613, 43.9548615], [17.7237099, 43.9548538], [17.7239996, 43.9547882], [17.7245441, 43.9545487], [17.7270466, 43.9536933], [17.7275053, 43.9536006], [17.7280513, 43.9535673], [17.7280739, 43.9535659], [17.7287874, 43.953647], [17.7291387, 43.9537088], [17.729592, 43.9538768], [17.7301204, 43.9540563], [17.7304798, 43.9541819], [17.7310377, 43.954402], [17.732242, 43.9545931], [17.7326819, 43.9546086], [17.7331164, 43.9546491], [17.7335322, 43.9546356], [17.7337521, 43.9546974], [17.734133, 43.954736], [17.7342913, 43.9548364], [17.734656, 43.9550759], [17.734876, 43.9553153], [17.7350342, 43.9555373], [17.7357343, 43.955966], [17.7359408, 43.9561417], [17.736209, 43.9563927], [17.7362707, 43.9562672], [17.7364987, 43.9554852], [17.7367938, 43.9551183], [17.736901, 43.9550411], [17.7379471, 43.9547051], [17.7381161, 43.9546105], [17.7383414, 43.9544329], [17.7384835, 43.95429], [17.7385613, 43.9539907], [17.7386767, 43.9535022], [17.7387035, 43.9534481], [17.7388322, 43.9532589], [17.7389878, 43.953116], [17.7392399, 43.9528534], [17.7394143, 43.9526217], [17.7396744, 43.952166], [17.7397978, 43.9519323], [17.7399185, 43.9518087], [17.7401438, 43.9517102], [17.7403906, 43.9515847], [17.7407017, 43.9514611], [17.7409244, 43.9512642], [17.7411818, 43.9507544], [17.7415466, 43.9502813], [17.7421957, 43.9496112], [17.7424344, 43.9491825], [17.742641, 43.9490068], [17.7430513, 43.948804], [17.7440491, 43.9485414], [17.7437326, 43.9481629], [17.7435905, 43.947993], [17.7434429, 43.9475778], [17.743333, 43.9465581], [17.7432418, 43.9460039], [17.7432042, 43.9454419], [17.7431934, 43.9451278], [17.7433189, 43.9436926], [17.7437621, 43.9386225], [17.7517065, 43.9420652], [17.7525002, 43.9409221], [17.753294, 43.9403505], [17.7544846, 43.9374926], [17.7552784, 43.9366353], [17.756469, 43.9357779], [17.7580566, 43.9343488], [17.7596441, 43.9332056], [17.763216, 43.9323481], [17.7691693, 43.932634], [17.7711537, 43.9334914], [17.7731381, 43.9343488], [17.7751225, 43.9343488], [17.7790913, 43.9332056], [17.7802819, 43.9320623], [17.7854414, 43.9297757], [17.7886165, 43.9286324], [17.7898071, 43.9272032], [17.7917915, 43.9263457], [17.7941728, 43.9252023], [17.7985385, 43.9260598], [17.8005229, 43.9272032], [17.8017136, 43.9277749], [17.8017523, 43.9300894], [17.8027224, 43.9296736], [17.8033482, 43.9294153], [17.8045571, 43.9289163], [17.8055656, 43.9284836], [17.8064132, 43.9279891], [17.8074217, 43.9269691], [17.808398, 43.9259878], [17.8092027, 43.9251223], [17.8097498, 43.9247127], [17.8101039, 43.9244577], [17.8102434, 43.9241795], [17.8106403, 43.9236386], [17.8108549, 43.9224717], [17.8109836, 43.9216449], [17.8109085, 43.9206016], [17.81093, 43.9195274], [17.8109836, 43.9191951], [17.8111768, 43.9189401], [17.8116381, 43.9185923], [17.8124857, 43.9181209], [17.8132796, 43.9178967], [17.8145885, 43.9177422], [17.8157687, 43.9176185], [17.8169167, 43.9177113], [17.8178072, 43.9177267], [17.818526, 43.9175953], [17.8193951, 43.9173712], [17.8204143, 43.9165752], [17.8210068, 43.9165654], [17.8215945, 43.9164979], [17.8222382, 43.9166138], [17.8248238, 43.9159414], [17.8264332, 43.9159492], [17.8272378, 43.9160264], [17.8280103, 43.9160651], [17.8294909, 43.9159569], [17.830238, 43.9157201], [17.8310573, 43.9153927], [17.8315294, 43.9147203], [17.8320873, 43.9132827], [17.8324735, 43.9127108], [17.8330314, 43.9123552], [17.8338039, 43.912247], [17.8347266, 43.9121929], [17.8357136, 43.9123011], [17.836808, 43.9125098], [17.8374088, 43.9125871], [17.837913, 43.9125871], [17.8386426, 43.9125176], [17.8389645, 43.9123707], [17.8392327, 43.9120615], [17.8399622, 43.9109485], [17.8401768, 43.9106007], [17.8408849, 43.9099824], [17.8412569, 43.9096559], [17.8425924, 43.910622], [17.8441799, 43.9111938], [17.8449737, 43.9117657], [17.847355, 43.9137671], [17.8497363, 43.9123375], [17.8501331, 43.9094783], [17.8501331, 43.9091924], [17.8525144, 43.9074768], [17.8537051, 43.9066189], [17.8564833, 43.9046173], [17.857277, 43.9031875], [17.857277, 43.9017577], [17.8584677, 43.9008998], [17.8596583, 43.8997559], [17.860849, 43.898612], [17.8588645, 43.898326], [17.8576739, 43.8980401], [17.8560864, 43.8966101], [17.8548957, 43.8957522], [17.8537051, 43.8946082], [17.8533082, 43.8934642], [17.8517207, 43.8923201], [17.8501331, 43.890604], [17.8471876, 43.8881063], [17.8484548, 43.8873453], [17.8501386, 43.8869408], [17.8495774, 43.8841091], [17.846771, 43.8816818], [17.846771, 43.8804681], [17.8490161, 43.8784453], [17.8506999, 43.8776361], [17.8557514, 43.876827], [17.8568739, 43.8756132], [17.8596803, 43.876827], [17.8624867, 43.8792544], [17.8669769, 43.8824909], [17.8703446, 43.8824909], [17.8742735, 43.8849181], [17.8804475, 43.8853227], [17.8826926, 43.8828954], [17.8826926, 43.8804681], [17.8838152, 43.8784453], [17.8860603, 43.8772316], [17.8883054, 43.8760178], [17.8922343, 43.8739948], [17.8927956, 43.8739948], [17.8939181, 43.8723764], [17.8927956, 43.8703533], [17.8911118, 43.8683301], [17.8894279, 43.8667115], [17.8894279, 43.8654975], [17.8922343, 43.8634742], [17.8944794, 43.8622601], [17.8950407, 43.8602367], [17.8961632, 43.8602367], [17.9000922, 43.8594273], [17.9034598, 43.8590226], [17.9073887, 43.8590226], [17.9101951, 43.856999], [17.9124402, 43.8557848], [17.9169304, 43.8537612], [17.9174917, 43.8529517], [17.9191755, 43.8484993], [17.9197368, 43.8468802], [17.9197368, 43.8416177], [17.9214206, 43.838379], [17.9225432, 43.835545], [17.9261875, 43.8359599], [17.9284044, 43.8368737], [17.9293546, 43.8382444], [17.9303047, 43.8405288], [17.9312548, 43.8418994], [17.9337885, 43.8434983], [17.9360055, 43.8446404], [17.9382224, 43.8457825], [17.9372723, 43.8473814], [17.9353721, 43.8498938], [17.9341052, 43.8524061], [17.9341052, 43.8544616], [17.9353721, 43.8574304], [17.9366389, 43.8594857], [17.939806, 43.8624543], [17.9413895, 43.8647378], [17.9442399, 43.8695328], [17.9464569, 43.8706744], [17.9489906, 43.8688478], [17.9508908, 43.8677061], [17.9540579, 43.8663362], [17.9569083, 43.8651945], [17.957225, 43.8667928], [17.9584919, 43.8674778], [17.9610255, 43.8674778], [17.9638759, 43.8683911], [17.9664096, 43.8693044], [17.9689433, 43.8681628], [17.9702101, 43.8663362], [17.9717937, 43.8640528], [17.9749608, 43.8631394], [17.9778112, 43.8638244], [17.9793947, 43.8651945], [17.9816117, 43.8656511], [17.9838287, 43.8651945], [17.9863623, 43.8638244], [17.9876292, 43.8633677], [17.9930132, 43.8631394], [17.9949135, 43.8624543], [17.9977639, 43.8619976], [17.9990307, 43.862911], [18.000931, 43.8635961], [18.0037814, 43.8649661], [18.0056816, 43.8661078], [18.0059983, 43.8677061], [18.0059983, 43.8699894], [18.0037814, 43.8715876], [18.0018811, 43.8718159], [17.998714, 43.8718159], [17.9958636, 43.8734141], [17.9949135, 43.8750122], [17.9917464, 43.8770669], [17.9907963, 43.8779801], [17.9879459, 43.8804912], [17.9835119, 43.8836871], [17.9816117, 43.8859697], [17.981295, 43.8864262], [17.9816117, 43.8877957], [17.9822451, 43.8882522], [17.9838287, 43.8900782], [17.9844621, 43.8912194], [17.9857289, 43.8928171], [17.9873125, 43.8935018], [17.9901628, 43.8944147], [17.9942801, 43.8962405], [17.9980806, 43.8971534], [18.0006143, 43.8987508], [18.0031479, 43.8998919], [18.0044148, 43.9003483], [18.0078986, 43.9017175], [18.008532, 43.9035431], [18.008532, 43.9049122], [18.0094821, 43.9058249], [18.0104323, 43.9092476], [18.0123325, 43.9119856], [18.0135994, 43.9133545], [18.0089736, 43.9199447], [18.0091989, 43.9200452], [18.0093706, 43.9203002], [18.0097461, 43.9206016], [18.0103683, 43.9210962], [18.0105507, 43.9216758], [18.0106473, 43.9220544], [18.0108189, 43.9225567], [18.0113661, 43.9233836], [18.0119455, 43.92394], [18.0121386, 43.9241255], [18.0126214, 43.9245891], [18.0130505, 43.9250914], [18.0138123, 43.9258023], [18.0149281, 43.9266523], [18.0163979, 43.9275641], [18.0179429, 43.9283291], [18.0192411, 43.9287309], [18.0194235, 43.9290554], [18.0193591, 43.9297972], [18.0193376, 43.9304308], [18.0192303, 43.9311417], [18.0192089, 43.9317289], [18.0192518, 43.9323315], [18.0193376, 43.9327951], [18.0199814, 43.9336296], [18.0217623, 43.9391768], [18.0121922, 43.9431167], [18.0060553, 43.942576], [17.9958629, 43.9422052], [17.9942858, 43.9426223], [17.9930305, 43.9429236], [17.9922366, 43.9432403], [17.9907024, 43.9436806], [17.9902178, 43.9438615], [17.9902089, 43.9441441], [17.990402, 43.9443991], [17.9904234, 43.9447003], [17.9902303, 43.9449475], [17.9899299, 43.9452256], [17.9886248, 43.9457979], [17.9981053, 43.9504937], [17.9985559, 43.9506945], [17.9991889, 43.9510498], [17.9997361, 43.951382], [18.0004871, 43.9515905], [18.0012488, 43.9517296], [18.0017424, 43.9520462], [18.0020749, 43.9526024], [18.0023754, 43.9530812], [18.0028045, 43.9534211], [18.0033517, 43.9536296], [18.0045747, 43.9541162], [18.005948, 43.9543943], [18.0070853, 43.9551203], [18.0078685, 43.9556686], [18.0082977, 43.955993], [18.0089307, 43.9564101], [18.0093598, 43.9567113], [18.0100572, 43.9572983], [18.0104756, 43.9574527], [18.0110443, 43.9576072], [18.0124926, 43.9584567], [18.0130935, 43.9588583], [18.0128574, 43.9591055], [18.0129218, 43.9601635], [18.0125892, 43.9603025], [18.0119669, 43.9604879], [18.0119347, 43.9606501], [18.0121279, 43.9610362], [18.0123532, 43.9615613], [18.0123424, 43.9617621], [18.0121493, 43.9617312], [18.0114627, 43.9614764], [18.0107975, 43.9609899], [18.0106687, 43.9612215], [18.0106258, 43.9613219], [18.010422, 43.9614146], [18.0105936, 43.9616308], [18.0108726, 43.9619397], [18.010937, 43.9629128], [18.0109048, 43.9631522], [18.0107009, 43.9633452], [18.0105722, 43.9636387], [18.0105829, 43.9639862], [18.0105829, 43.9645422], [18.0106795, 43.9648048], [18.0107331, 43.9650673], [18.0107331, 43.9654071], [18.0106473, 43.9657546], [18.0102825, 43.9667276], [18.0099285, 43.9675616], [18.0100143, 43.9679631], [18.0102503, 43.9683801], [18.0109584, 43.969075], [18.0120737, 43.9707484], [18.0122292, 43.9710692], [18.0122909, 43.9711094], [18.012637, 43.9713834], [18.0127023, 43.9714664], [18.0126523, 43.9715605], [18.012414, 43.971721], [18.0120641, 43.9719589], [18.0119245, 43.9721628], [18.0118885, 43.9723627], [18.0120218, 43.9727144], [18.0123459, 43.9732692], [18.0127664, 43.9738201], [18.0135581, 43.9748387], [18.0139333, 43.9752105], [18.0141019, 43.9754805], [18.0142482, 43.975938], [18.0142856, 43.9763889], [18.0143411, 43.9766183], [18.0141288, 43.9766379], [18.0133188, 43.9767267], [18.0120099, 43.9770549], [18.012101, 43.9777034], [18.0123854, 43.9778655], [18.0124015, 43.977935], [18.0124819, 43.9779852], [18.0125999, 43.9780624], [18.0125785, 43.9781435], [18.012498, 43.9782207], [18.0112427, 43.9793865], [18.0111623, 43.9794019], [18.0108404, 43.9793826], [18.009848, 43.979398], [18.0095637, 43.9794096], [18.0091721, 43.9795331], [18.0086195, 43.9798034], [18.0085766, 43.9799539], [18.0087107, 43.9802164], [18.0089307, 43.9804673], [18.0090648, 43.9807143], [18.0093437, 43.981054], [18.0095905, 43.9812586], [18.0101645, 43.9813937], [18.0104113, 43.9814207], [18.0107707, 43.9814478], [18.0110979, 43.9814169], [18.0113822, 43.981606], [18.0114573, 43.9817681], [18.0115646, 43.9819534], [18.0118167, 43.9821271], [18.0119455, 43.9823549], [18.012042, 43.9825247], [18.0122459, 43.9826868], [18.01238, 43.9828181], [18.012439, 43.9829647], [18.0123639, 43.98315], [18.0122083, 43.9832967], [18.0120313, 43.9835051], [18.0120152, 43.9837522], [18.0121654, 43.9840494], [18.0123317, 43.9841999], [18.0125087, 43.9842887], [18.0126589, 43.9843543], [18.012733, 43.9844906], [18.0125401, 43.9845657], [18.0115367, 43.9849487], [18.0111037, 43.9851408], [18.0105734, 43.9854387], [18.0102586, 43.9856542], [18.0099515, 43.9858532], [18.0097054, 43.9859877], [18.0093029, 43.9861771], [18.0088909, 43.9863473], [18.0084445, 43.9864941], [18.0082423, 43.986549], [18.0073061, 43.9868322], [18.0066833, 43.9870373], [18.0063156, 43.9871418], [18.0060137, 43.9872757], [18.0057437, 43.987439], [18.0054305, 43.9876888], [18.0051695, 43.9879517], [18.0050696, 43.9880236], [18.0049181, 43.9881214], [18.0044138, 43.9882835], [18.0037808, 43.9885228], [18.0025953, 43.9889975], [18.002311, 43.9890593], [18.0020267, 43.9890747], [18.0016565, 43.9891519], [18.0012059, 43.989341], [18.0009538, 43.9894568], [18.0007499, 43.9894684], [18.0004495, 43.9894375], [18.0001169, 43.9894375], [17.9999345, 43.9895803], [17.9995537, 43.9899007], [17.9987383, 43.9904873], [17.9984701, 43.990661], [17.9983199, 43.9908424], [17.9982233, 43.9909659], [17.9980677, 43.9909157], [17.9977405, 43.9905722], [17.9972684, 43.9902171], [17.9971021, 43.9901129], [17.9968554, 43.9900357], [17.996587, 43.9899937], [17.9965986, 43.9900811], [17.9965824, 43.9903], [17.9965607, 43.9904724], [17.9964964, 43.9906938], [17.996422, 43.9908496], [17.9962867, 43.9910589], [17.9960972, 43.9912366], [17.9959518, 43.9913728], [17.995852, 43.9914337], [17.9958194, 43.9914383], [17.9956304, 43.9914653], [17.9954478, 43.99157], [17.995123, 43.9916965], [17.994707, 43.9918085], [17.9943078, 43.991918], [17.9938004, 43.9920324], [17.9936421, 43.9921314], [17.9928803, 43.9924903], [17.9926336, 43.9926331], [17.9925263, 43.9927064], [17.9921561, 43.9928763], [17.9919523, 43.9928724], [17.9915607, 43.9927643], [17.9913998, 43.9926987], [17.9912066, 43.99261], [17.990858, 43.9925559], [17.9900479, 43.9941267], [17.9895651, 43.9952535], [17.9889858, 43.9965734], [17.9887605, 43.9969515], [17.9887283, 43.9975304], [17.9886317, 43.9979472], [17.988342, 43.9981864], [17.9881167, 43.9983639], [17.9878592, 43.9987807], [17.9875696, 43.9989736], [17.9871941, 43.9991975], [17.987076, 43.9994367], [17.9869902, 43.9996914], [17.9868615, 43.9999075], [17.9867434, 44.0001776], [17.9866362, 44.0003628], [17.9864859, 44.0005249], [17.9858959, 44.0007024], [17.984941, 44.0011269], [17.9844582, 44.0012735], [17.9835033, 44.0014742], [17.983278, 44.0014742], [17.9827738, 44.0014124], [17.9824519, 44.0012735], [17.9819476, 44.001204], [17.9813039, 44.0013893], [17.9807031, 44.0016362], [17.9795551, 44.0019295], [17.9789758, 44.0018909], [17.9785681, 44.0017751], [17.978096, 44.0017751], [17.9778921, 44.0018755], [17.9773557, 44.0020838], [17.9767764, 44.0021996], [17.9761004, 44.0021996], [17.9754782, 44.0021996], [17.9749203, 44.0020684], [17.9745018, 44.0020298], [17.9737401, 44.0020298], [17.9726243, 44.0016825], [17.9721308, 44.0016054], [17.9715836, 44.0016054], [17.9708004, 44.0016902], [17.9699421, 44.0018523], [17.9688585, 44.0017443], [17.9675496, 44.0016825], [17.9666161, 44.0015899], [17.9663157, 44.001397], [17.9660582, 44.0011809], [17.96579, 44.0011192], [17.9652965, 44.0012426], [17.9649854, 44.0016208], [17.9530909, 44.0010195], [17.9344108, 44.0095576], [17.931245, 44.0211587], [17.935644, 44.0277924], [17.9334271, 44.0296141], [17.9321602, 44.0305249], [17.9296265, 44.0332573], [17.9327936, 44.0328019], [17.935644, 44.033485], [17.9388111, 44.034168], [17.9416615, 44.0348511], [17.9422949, 44.0373556], [17.9413448, 44.039177], [17.9388111, 44.0400877], [17.9365942, 44.0396324], [17.9343772, 44.038494], [17.9321602, 44.038494], [17.9283597, 44.0396324], [17.925826, 44.0400877], [17.9236091, 44.0403154], [17.9217683, 44.0411424], [17.9210754, 44.0414537], [17.9172749, 44.0421367], [17.9144245, 44.0421367], [17.9103072, 44.0430473], [17.9080903, 44.0437303], [17.9046065, 44.0446409], [17.9020728, 44.042592], [17.9011227, 44.0403154], [17.8995391, 44.0382663], [17.8973221, 44.0350788], [17.8957386, 44.0328019], [17.8903545, 44.0277924], [17.8856039, 44.0273369], [17.8821201, 44.0261983], [17.8792697, 44.0243765], [17.8776861, 44.0223269], [17.8770527, 44.021416], [17.876736, 44.020505], [17.8735689, 44.0184553], [17.8700851, 44.0184553], [17.8672347, 44.017772], [17.8650177, 44.0164055], [17.8618506, 44.0164055], [17.859317, 44.0173165], [17.8561499, 44.019594], [17.8539329, 44.0209605], [17.8479154, 44.0216437], [17.8469653, 44.0216437], [17.8437982, 44.0227824], [17.8412645, 44.0234656], [17.837464, 44.0236933], [17.8368266, 44.0233565], [17.8364233, 44.0233378], [17.835942, 44.023263], [17.8353435, 44.0230853], [17.8346931, 44.0230665], [17.8342768, 44.0231694], [17.8338474, 44.0233659], [17.8331059, 44.0234594], [17.8320912, 44.0236652], [17.8306601, 44.0239739], [17.8296714, 44.0243013], [17.8284615, 44.0245539], [17.8279802, 44.0248065], [17.8276029, 44.0251339], [17.8270175, 44.0253303], [17.8261328, 44.0254987], [17.8256775, 44.0257513], [17.8255344, 44.0260506], [17.825092, 44.0261815], [17.8244676, 44.0264715], [17.823622, 44.0269579], [17.8230235, 44.0270702], [17.8220738, 44.0273695], [17.8210071, 44.0277624], [17.8251961, 44.0349364], [17.8244416, 44.0352263], [17.8230886, 44.0357033], [17.8224251, 44.0360306], [17.8217486, 44.0362177], [17.8210591, 44.0366572], [17.8197582, 44.0369565], [17.8183401, 44.0372558], [17.8178327, 44.0372558], [17.8174164, 44.0373867], [17.8165578, 44.0376205], [17.8149837, 44.0377889], [17.81406, 44.0377889], [17.8135396, 44.0379759], [17.812759, 44.0384809], [17.8120435, 44.0392572], [17.8110418, 44.0407815], [17.8106775, 44.0413707], [17.8101832, 44.0415951], [17.8092074, 44.0420347], [17.8084139, 44.0424461], [17.8073341, 44.0431288], [17.8066446, 44.0435309], [17.8062413, 44.043746], [17.8055128, 44.0438208], [17.8047322, 44.0440078], [17.8035483, 44.0442416], [17.8026246, 44.0446437], [17.8016359, 44.045345], [17.8009334, 44.0459155], [17.8002959, 44.0466822], [17.7999187, 44.0470563], [17.7996325, 44.0471778], [17.7993332, 44.0471685], [17.7988129, 44.0470469], [17.7984746, 44.0467664], [17.7982665, 44.0464672], [17.7979412, 44.0457939], [17.7979933, 44.0454012], [17.7979412, 44.044812], [17.7980063, 44.0443538], [17.7982404, 44.0439798], [17.7985397, 44.0436805], [17.7987868, 44.0433532], [17.7991901, 44.0429792], [17.7993072, 44.0426332], [17.7995544, 44.0424368], [17.7992821, 44.0424171], [17.798685, 44.0419404], [17.7979901, 44.0416826], [17.796137, 44.040936], [17.7955168, 44.0407104], [17.7948219, 44.0405707], [17.794142, 44.0405815], [17.7933574, 44.0407587], [17.7921993, 44.0407641], [17.790944, 44.0405439], [17.7905031, 44.0403827], [17.7899502, 44.0402968], [17.7893001, 44.0403022], [17.7885006, 44.0403989], [17.7881046, 44.0405116], [17.7877609, 44.040603], [17.7873873, 44.0409145], [17.7873275, 44.041081], [17.7873499, 44.0413496], [17.7871183, 44.0416235], [17.7868194, 44.0417416], [17.7865729, 44.0417739], [17.7861544, 44.04179], [17.7858331, 44.0416503], [17.7855268, 44.0415053], [17.7846227, 44.041747], [17.784122, 44.0420478], [17.7836588, 44.0421176], [17.7832329, 44.0421015], [17.7829116, 44.0420156], [17.7825978, 44.0418491], [17.7820598, 44.041559], [17.781477, 44.0414624], [17.7809838, 44.0414301], [17.7802964, 44.0413334], [17.7804458, 44.0404741], [17.7808568, 44.039518], [17.7812677, 44.0386693], [17.7817534, 44.0382503], [17.7819253, 44.0380623], [17.7822466, 44.0376326], [17.7824857, 44.0373963], [17.7825978, 44.0371492], [17.7826202, 44.0367785], [17.7826202, 44.0365046], [17.7826202, 44.0362414], [17.7829415, 44.0355377], [17.7832329, 44.0348823], [17.7834047, 44.0344042], [17.7836438, 44.0338939], [17.7836737, 44.0335555], [17.7840226, 44.03282], [17.7841812, 44.0322989], [17.7840566, 44.031786], [17.7840793, 44.031387], [17.7843284, 44.0308577], [17.7843876, 44.0304564], [17.7918148, 44.0182066], [17.7918148, 44.0149856], [17.7931585, 44.0140193], [17.7940543, 44.0117645], [17.7922627, 44.010476], [17.7900233, 44.0095096], [17.7900233, 44.0066102], [17.7877838, 44.0037108], [17.7837527, 44.0020999], [17.7797217, 43.9988781], [17.778378, 43.9982337], [17.7747948, 44.0001668], [17.7721074, 44.0017778], [17.7685243, 44.0033886], [17.7658369, 44.0027443], [17.7627016, 43.9995225], [17.7600143, 43.9988781], [17.7519522, 43.9988781], [17.7492648, 43.9972671], [17.7456816, 43.9953338], [17.7456816, 43.9927561], [17.7506085, 43.9888892], [17.7515043, 43.9856666], [17.7541916, 43.983733], [17.7559832, 43.9808324], [17.7550874, 43.9795432], [17.7532958, 43.9779317], [17.7497127, 43.9747085], [17.7479211, 43.9727745], [17.7456816, 43.9705181], [17.7443379, 43.9676169], [17.7420985, 43.9669722], [17.7380674, 43.9666498], [17.7362758, 43.9672946], [17.7317969, 43.9672946], [17.7142499, 43.9664579]]]}}]}