{"type": "FeatureCollection", "features": [{"type": "Feature", "properties": {"name": "Opština Gacko, Република Српска / Republika Srpska, Bosna i Hercegovina / Босна и Херцеговина", "source": "OpenStreetMap relation 2528198", "licence": "ODbL 1.0"}, "geometry": {"type": "Polygon", "coordinates": [[[18.3269849, 43.3045026], [18.3291669, 43.2944566], [18.3297915, 43.2898646], [18.3318312, 43.2671987], [18.3373969, 43.2673138], [18.3528687, 43.2626737], [18.3562896, 43.2604007], [18.3565356, 43.2599915], [18.3565132, 43.2599549], [18.3563315, 43.2598979], [18.3562002, 43.2598409], [18.3560716, 43.2597371], [18.3560241, 43.2596231], [18.3559682, 43.2595254], [18.3557893, 43.2594562], [18.3556104, 43.2594073], [18.3554063, 43.2593483], [18.3552386, 43.2593035], [18.3549647, 43.2592445], [18.3547914, 43.2591753], [18.3546013, 43.2591468], [18.3543861, 43.2591407], [18.3541178, 43.2591386], [18.3537516, 43.2592221], [18.3535867, 43.2592608], [18.3535615, 43.2593341], [18.3535028, 43.2594175], [18.3535, 43.2595234], [18.3534861, 43.2596435], [18.3534302, 43.2597697], [18.3531954, 43.2599244], [18.3529354, 43.2600363], [18.3527034, 43.2600913], [18.3525022, 43.2601116], [18.3523009, 43.2600954], [18.3521081, 43.2600363], [18.3517279, 43.2599081], [18.3514736, 43.259788], [18.3511885, 43.2595844], [18.3508251, 43.2592811], [18.3506238, 43.2590816], [18.3503387, 43.2587559], [18.3500089, 43.2583346], [18.3499083, 43.2581534], [18.3498552, 43.2580842], [18.3498272, 43.2580048], [18.3498468, 43.2579437], [18.3498887, 43.2578766], [18.3498971, 43.2578277], [18.3498412, 43.2577198], [18.3496819, 43.2575712], [18.349489, 43.2572842], [18.3493381, 43.2571356], [18.3492179, 43.2570664], [18.3491173, 43.2570196], [18.3489719, 43.2569463], [18.3487791, 43.2567916], [18.3486477, 43.2566959], [18.3485638, 43.2566083], [18.3484884, 43.2565025], [18.3483402, 43.2563702], [18.3481362, 43.2562623], [18.3479601, 43.2561422], [18.3476862, 43.2559508], [18.3474122, 43.255845], [18.347197, 43.2557249], [18.3470489, 43.2556414], [18.3469147, 43.2556027], [18.3467861, 43.2556007], [18.3466659, 43.255617], [18.34661, 43.2556516], [18.3465234, 43.2557432], [18.3464227, 43.255847], [18.346269, 43.2559223], [18.3462047, 43.2559895], [18.3460957, 43.2560567], [18.3460007, 43.2561055], [18.3458973, 43.2561666], [18.3457855, 43.256187], [18.3456597, 43.2561788], [18.345492, 43.256132], [18.3451901, 43.2559854], [18.3450224, 43.2558959], [18.3446646, 43.2556495], [18.3444885, 43.2555396], [18.3442873, 43.2554012], [18.3441391, 43.2552261], [18.3440972, 43.2551487], [18.3440553, 43.2550266], [18.3440804, 43.2549696], [18.3440637, 43.2548495], [18.3440357, 43.2546948], [18.3439602, 43.254593], [18.3438009, 43.2544932], [18.3436192, 43.2543385], [18.3433872, 43.2541105], [18.3428086, 43.2536464], [18.3424229, 43.2533817], [18.3420372, 43.2531578], [18.3416794, 43.2529664], [18.3413552, 43.2528443], [18.3411483, 43.2528076], [18.3409946, 43.2528035], [18.3408325, 43.2528239], [18.3405613, 43.2528809], [18.3399967, 43.2528972], [18.339706, 43.2528768], [18.3391805, 43.2528626], [18.3386606, 43.2528117], [18.3382721, 43.2526346], [18.3380261, 43.2525002], [18.3376572, 43.2523007], [18.3374503, 43.2521236], [18.3372519, 43.2518711], [18.3371373, 43.2516044], [18.3370031, 43.2512197], [18.3369249, 43.250841], [18.336936, 43.250558], [18.3370395, 43.2501264], [18.3370786, 43.2498984], [18.3371988, 43.2497844], [18.337319, 43.2497375], [18.3374503, 43.2496968], [18.3376236, 43.2496643], [18.3377886, 43.2496317], [18.3379479, 43.2496256], [18.3380848, 43.2496032], [18.3382665, 43.2495278], [18.3384929, 43.2494118], [18.3386495, 43.2493466], [18.3387752, 43.2493141], [18.338943, 43.2493141], [18.3390771, 43.2493243], [18.3392672, 43.2493181], [18.3394601, 43.2492896], [18.3397088, 43.249196], [18.3399576, 43.2490066], [18.3403014, 43.2487013], [18.3405054, 43.2484284], [18.3406005, 43.2481516], [18.3406815, 43.2479704], [18.3407235, 43.2477138], [18.3407207, 43.2473412], [18.3406648, 43.2471213], [18.3405781, 43.2468607], [18.3404943, 43.2465207], [18.340416, 43.2460524], [18.3403657, 43.2456371], [18.3403265, 43.2453724], [18.3402399, 43.2449611], [18.3401532, 43.2445356], [18.34017, 43.2443605], [18.340198, 43.2442383], [18.3403741, 43.2439818], [18.340634, 43.2437089], [18.3408492, 43.243485], [18.340961, 43.243318], [18.3410868, 43.2428415], [18.3412769, 43.2422266], [18.341358, 43.2419477], [18.3415872, 43.2415649], [18.3419659, 43.2410914], [18.3421434, 43.2408573], [18.3422119, 43.2406801], [18.3422328, 43.2405427], [18.3422161, 43.24045], [18.3421168, 43.2402902], [18.3419715, 43.2401517], [18.3418834, 43.2400886], [18.3416752, 43.2400163], [18.3414404, 43.2399695], [18.3412573, 43.2399318], [18.3409638, 43.239829], [18.3407863, 43.2397221], [18.3406354, 43.2395826], [18.3404132, 43.2393525], [18.3401127, 43.2390695], [18.3399083, 43.2389355], [18.3398444, 43.2388954], [18.3395173, 43.2387418], [18.3390296, 43.2385624], [18.3384007, 43.238425], [18.3380946, 43.2383639], [18.3378528, 43.2383303], [18.3374923, 43.2383415], [18.3370423, 43.238426], [18.336711, 43.2385207], [18.3363714, 43.238649], [18.3360668, 43.2388272], [18.3359172, 43.2389575], [18.3358669, 43.2390114], [18.3356363, 43.2388475], [18.3356377, 43.2388109], [18.3356698, 43.238765], [18.3357354, 43.2387193], [18.3357512, 43.2385839], [18.3357986, 43.2383449], [18.3358935, 43.2377805], [18.3364509, 43.2369453], [18.336522, 43.23681], [18.3365141, 43.2366487], [18.336526, 43.2364558], [18.3366248, 43.2361879], [18.3367552, 43.2360727], [18.3368659, 43.2359431], [18.3370319, 43.2356984], [18.3370833, 43.2354536], [18.3370873, 43.2352808], [18.337111, 43.2352232], [18.3371466, 43.2351742], [18.3371466, 43.2351224], [18.3371268, 43.2350648], [18.337107, 43.2349957], [18.3371189, 43.2349265], [18.3370952, 43.2348257], [18.3370754, 43.2346789], [18.3370991, 43.2345349], [18.3371742, 43.2343419], [18.3373363, 43.2341749], [18.3376146, 43.2339222], [18.336861, 43.2219632], [18.3364578, 43.2151131], [18.3365606, 43.2085043], [18.3452328, 43.2009156], [18.3544837, 43.1985477], [18.3650355, 43.1965244], [18.3709013, 43.1925188], [18.3738026, 43.1891297], [18.3850121, 43.1839823], [18.392697, 43.1826924], [18.4150727, 43.1656868], [18.4186489, 43.1629685], [18.4128445, 43.1505043], [18.4143891, 43.1443268], [18.4133243, 43.1377594], [18.4132741, 43.1374495], [18.4101504, 43.1310982], [18.4055171, 43.1216765], [18.4150792, 43.1045517], [18.4022776, 43.0972124], [18.4017686, 43.0946214], [18.4083342, 43.0883073], [18.4158608, 43.0788721], [18.4104504, 43.0739697], [18.431059, 43.0680189], [18.4410932, 43.0817397], [18.4503826, 43.0813993], [18.4529414, 43.0804902], [18.4537557, 43.0803458], [18.4619295, 43.0778714], [18.4764835, 43.0785761], [18.485806, 43.0843902], [18.4942748, 43.0805603], [18.4935416, 43.0786145], [18.4940577, 43.0782682], [18.4953306, 43.077812], [18.4965402, 43.0775117], [18.497481, 43.0774771], [18.5064225, 43.0744049], [18.5087298, 43.0708824], [18.5086878, 43.0708896], [18.5085725, 43.0708998], [18.5084419, 43.0708983], [18.5083426, 43.0708855], [18.5081952, 43.0708426], [18.5080554, 43.0707676], [18.5079625, 43.0707058], [18.5079122, 43.0706951], [18.5078332, 43.0706981], [18.5077696, 43.0707053], [18.5077186, 43.0706936], [18.5076767, 43.0706655], [18.5076431, 43.0706114], [18.5076271, 43.0705522], [18.5075977, 43.0705302], [18.5075167, 43.0705108], [18.5074803, 43.070473], [18.5074649, 43.070445], [18.5074188, 43.070423], [18.5073336, 43.0703908], [18.5072581, 43.0703617], [18.5072148, 43.0703643], [18.5071246, 43.0704011], [18.5070093, 43.0704332], [18.5068947, 43.0704404], [18.5067741, 43.0704288], [18.5066179, 43.0703985], [18.5064144, 43.0703566], [18.5062642, 43.0703306], [18.5061139, 43.0703292], [18.5059697, 43.070348], [18.5058906, 43.0703725], [18.5058471, 43.0704173], [18.5058313, 43.0704851], [18.5058056, 43.0705645], [18.505774, 43.0706165], [18.5056752, 43.0706728], [18.505519, 43.0707291], [18.5053787, 43.0708071], [18.5052601, 43.0708591], [18.5051, 43.070862], [18.5049459, 43.070888], [18.5047877, 43.0708851], [18.5046415, 43.0708504], [18.5045071, 43.0708389], [18.5043707, 43.0708649], [18.5042383, 43.0709154], [18.5041474, 43.0709241], [18.5040308, 43.0708937], [18.5038054, 43.0708345], [18.5036434, 43.0708129], [18.5034062, 43.0708244], [18.5031789, 43.0708894], [18.5027698, 43.0710612], [18.5025603, 43.0711608], [18.5024535, 43.0711897], [18.5023093, 43.0711897], [18.5021768, 43.0711854], [18.5019733, 43.0712013], [18.5017954, 43.071194], [18.5016827, 43.0711623], [18.501495, 43.0711175], [18.5013191, 43.0710944], [18.5011194, 43.0710771], [18.5009356, 43.0710338], [18.5008032, 43.0709905], [18.500734, 43.0709356], [18.500651, 43.0708302], [18.5006154, 43.070797], [18.5005542, 43.0707667], [18.5004791, 43.0707349], [18.5004553, 43.070706], [18.5004455, 43.0706555], [18.5004455, 43.0706079], [18.5004039, 43.0705559], [18.5002478, 43.0704375], [18.5000363, 43.070335], [18.4998822, 43.0702657], [18.4997517, 43.0702166], [18.4996153, 43.070205], [18.4994809, 43.0702079], [18.4993525, 43.0701935], [18.4991963, 43.0701964], [18.499052, 43.070192], [18.498969, 43.070179], [18.498884, 43.0701502], [18.4988168, 43.0701242], [18.4987457, 43.0701155], [18.4986706, 43.0700967], [18.4986271, 43.0700621], [18.4986054, 43.0699913], [18.4986251, 43.0698715], [18.498637, 43.0697618], [18.4986093, 43.0696694], [18.4985204, 43.0695539], [18.4984295, 43.0694961], [18.4982773, 43.0694499], [18.4980441, 43.0693777], [18.4978998, 43.069307], [18.4977792, 43.0692261], [18.4975124, 43.0691106], [18.4973147, 43.0689879], [18.4970538, 43.0687568], [18.4967752, 43.0684753], [18.4964846, 43.0681706], [18.4963067, 43.0679093], [18.4962395, 43.067827], [18.4961585, 43.0677476], [18.496032, 43.0676869], [18.495779, 43.0676075], [18.4957019, 43.0675743], [18.4956347, 43.0675209], [18.4955418, 43.0673332], [18.4954312, 43.0672003], [18.495277, 43.0670848], [18.4951466, 43.0669852], [18.4948842, 43.0667188], [18.4947775, 43.0666101], [18.4946505, 43.0665101], [18.4945526, 43.0664441], [18.4944948, 43.0664184], [18.4944696, 43.0664065], [18.494435, 43.0663979], [18.4944054, 43.0664109], [18.4943698, 43.0664094], [18.4943159, 43.066395], [18.4942754, 43.0663488], [18.4942013, 43.066217], [18.4941484, 43.0661564], [18.494104, 43.0661257], [18.4940595, 43.0661123], [18.4939276, 43.0660943], [18.493762, 43.0660777], [18.4936766, 43.0660585], [18.4936336, 43.0660293], [18.4936029, 43.065982], [18.4935916, 43.0659221], [18.4935698, 43.0658827], [18.4935446, 43.0658679], [18.4934774, 43.0658502], [18.4934299, 43.0658389], [18.4959811, 43.0620929], [18.4974038, 43.060455], [18.5019436, 43.0571158], [18.5073703, 43.0553452], [18.5076135, 43.0551854], [18.5078217, 43.055214], [18.5080887, 43.0552655], [18.5081781, 43.0552686], [18.508227, 43.0552512], [18.5083109, 43.0551946], [18.5083877, 43.0551358], [18.5084087, 43.0550929], [18.5084073, 43.0550363], [18.5083842, 43.0549587], [18.508394, 43.054901], [18.5084283, 43.0548336], [18.5084828, 43.0547738], [18.5085568, 43.0547125], [18.5085981, 43.0546554], [18.5086197, 43.0545614], [18.5086477, 43.0544899], [18.5086652, 43.0544246], [18.508647, 43.0543122], [18.5086176, 43.0542387], [18.5085988, 43.0541499], [18.5087312, 43.0540895], [18.5142385, 43.0526387], [18.515326, 43.0454194], [18.5265905, 43.0410151], [18.530133, 43.0387936], [18.5338284, 43.0351609], [18.5358423, 43.0336015], [18.5361507, 43.0333624], [18.5437499, 43.0323162], [18.5451366, 43.032331], [18.5921072, 43.0328315], [18.5922607, 43.0328049], [18.6136833, 43.0290894], [18.6144741, 43.0291206], [18.6230307, 43.0294587], [18.6428109, 43.0351909], [18.642862, 43.0352655], [18.6439848, 43.0354955], [18.644189, 43.0354023], [18.6445165, 43.0352655], [18.6448015, 43.0351131], [18.6452736, 43.0354551], [18.6454777, 43.0355888], [18.6487996, 43.0365152], [18.6492079, 43.0367608], [18.6494588, 43.0368945], [18.6496885, 43.0370064], [18.6497225, 43.0370531], [18.6507816, 43.0374012], [18.6508199, 43.0374199], [18.6510155, 43.0374603], [18.6511516, 43.0375007], [18.6513133, 43.0375287], [18.6514749, 43.0375691], [18.6521554, 43.0376872], [18.6526318, 43.0377494], [18.6527424, 43.0377525], [18.6527892, 43.0378271], [18.6528147, 43.0378738], [18.6531252, 43.037852], [18.6532826, 43.0378738], [18.6534654, 43.0377432], [18.6535883, 43.0377693], [18.6536274, 43.0377693], [18.6536529, 43.0377495], [18.6537201, 43.0377546], [18.6537722, 43.0377352], [18.654373, 43.0377453], [18.6545718, 43.0377298], [18.6547281, 43.0378938], [18.6548472, 43.0379956], [18.6550716, 43.0378611], [18.6551279, 43.0378223], [18.655179, 43.0377717], [18.65523, 43.0375798], [18.6552768, 43.0375331], [18.6553885, 43.0375906], [18.6555065, 43.0376381], [18.6556734, 43.0376824], [18.6558425, 43.0377204], [18.6559106, 43.0376482], [18.6559648, 43.0375976], [18.656018, 43.0375837], [18.6561668, 43.0375852], [18.6562721, 43.0375837], [18.6563306, 43.0375774], [18.6563933, 43.0375697], [18.6565571, 43.0376062], [18.6566113, 43.0375984], [18.6566528, 43.0375557], [18.6567304, 43.037502], [18.6567995, 43.0374624], [18.6569111, 43.0374803], [18.6570047, 43.0375044], [18.6571057, 43.0375316], [18.6572025, 43.0375526], [18.6572727, 43.037558], [18.6573875, 43.0375308], [18.6575545, 43.0375432], [18.6575545, 43.0376917], [18.6575353, 43.0378184], [18.6575353, 43.037844], [18.6575396, 43.0378697], [18.6575109, 43.0379419], [18.6575991, 43.0380002], [18.6578065, 43.0379925], [18.6579075, 43.0379738], [18.6580468, 43.0379054], [18.6581924, 43.0378518], [18.6582477, 43.0378215], [18.6606944, 43.0373332], [18.6598212, 43.0430101], [18.6599402, 43.0431077], [18.6600517, 43.0431339], [18.6601277, 43.043146], [18.6602213, 43.0432415], [18.660283, 43.0432952], [18.660399, 43.0433922], [18.6604354, 43.0434453], [18.6604396, 43.0434869], [18.6604301, 43.0435409], [18.6604715, 43.0435821], [18.6605151, 43.0436116], [18.6597217, 43.0440597], [18.6596994, 43.0441809], [18.6597196, 43.0443379], [18.6597175, 43.0445026], [18.6597355, 43.0446627], [18.6598174, 43.0448142], [18.6598502, 43.044845], [18.6598727, 43.0448972], [18.6598584, 43.0449895], [18.6600628, 43.0450864], [18.660054, 43.0454061], [18.6600556, 43.0454663], [18.6597531, 43.0454834], [18.6597286, 43.0455627], [18.6598392, 43.0457298], [18.6600095, 43.0461076], [18.6599817, 43.0463901], [18.6598249, 43.0468671], [18.6597858, 43.0469287], [18.6596715, 43.0469748], [18.6596001, 43.0470254], [18.6595354, 43.0471259], [18.6595016, 43.0471386], [18.6596903, 43.0472196], [18.659823, 43.0473402], [18.6598836, 43.0474322], [18.6598468, 43.0474599], [18.6594795, 43.0475484], [18.6594693, 43.0476061], [18.6595073, 43.0476563], [18.6593682, 43.047761], [18.6593047, 43.0477723], [18.6593013, 43.0478363], [18.659234, 43.047944], [18.6593002, 43.0480256], [18.6593814, 43.0480706], [18.6594415, 43.0480976], [18.6594536, 43.0481992], [18.6594776, 43.0482984], [18.6593957, 43.0483558], [18.6593121, 43.0484486], [18.6591887, 43.0485278], [18.6590771, 43.0485422], [18.6589793, 43.048618], [18.6590223, 43.0486879], [18.6590574, 43.0487318], [18.6591, 43.0487668], [18.659168, 43.0487738], [18.6592307, 43.0487668], [18.6593589, 43.0487722], [18.6593259, 43.0488759], [18.6594126, 43.0489136], [18.659461, 43.0489653], [18.6594992, 43.0490294], [18.6595274, 43.0490982], [18.6595992, 43.0492112], [18.6596428, 43.049294], [18.6597556, 43.0504242], [18.6587506, 43.0599726], [18.6586965, 43.0605198], [18.6586536, 43.0610272], [18.6585394, 43.0610207], [18.6584823, 43.0610998], [18.6585492, 43.0611493], [18.6586266, 43.0611597], [18.6586003, 43.0612778], [18.6586394, 43.0613355], [18.6586259, 43.0616376], [18.6586056, 43.0619458], [18.6585823, 43.0623309], [18.6585773, 43.0624533], [18.6586097, 43.0625467], [18.6585427, 43.0629268], [18.6587269, 43.0630284], [18.6586946, 43.06309], [18.6587352, 43.0632075], [18.6587721, 43.0632427], [18.6587097, 43.0632844], [18.6587609, 43.063375], [18.6588651, 43.0633843], [18.6588906, 43.0634204], [18.6588125, 43.0634527], [18.6589113, 43.0636007], [18.6588172, 43.0636294], [18.6587407, 43.0637455], [18.6587811, 43.0638625], [18.6589363, 43.0640081], [18.659032, 43.0641258], [18.6590092, 43.0642439], [18.6589066, 43.0643488], [18.6587763, 43.0643515], [18.6585445, 43.0642645], [18.6584424, 43.0642711], [18.6585591, 43.0653732], [18.6589547, 43.0658689], [18.6591323, 43.0661804], [18.6593088, 43.0665556], [18.6595151, 43.0668671], [18.6595321, 43.067278], [18.6588898, 43.0682234], [18.6586357, 43.0684223], [18.6582954, 43.068458], [18.6581264, 43.0685209], [18.6580902, 43.0685512], [18.6579105, 43.0688169], [18.6577468, 43.0691253], [18.6576436, 43.0693156], [18.6572789, 43.0698702], [18.6572162, 43.0699836], [18.6571874, 43.0700955], [18.657415, 43.0701662], [18.6575607, 43.0702252], [18.6577638, 43.0702065], [18.6580041, 43.0701638], [18.6580679, 43.0701739], [18.6581955, 43.070278], [18.658456, 43.0704442], [18.6586251, 43.0705825], [18.6589196, 43.0707153], [18.6592035, 43.0707604], [18.6594353, 43.0708334], [18.659884, 43.0708924], [18.6599978, 43.070939], [18.6600074, 43.0710206], [18.6599744, 43.0711363], [18.6598702, 43.0711861], [18.659733, 43.0711977], [18.65953, 43.0711433], [18.6593598, 43.0711464], [18.6592514, 43.071322], [18.6589717, 43.0716055], [18.6587357, 43.0718735], [18.6585506, 43.0720863], [18.6583805, 43.0725058], [18.6583784, 43.0725966], [18.6584369, 43.0727978], [18.658524, 43.0729749], [18.6586059, 43.0731178], [18.6586942, 43.0732476], [18.6587803, 43.0733509], [18.6576064, 43.0736895], [18.6577106, 43.0738324], [18.6568823, 43.0741431], [18.6569025, 43.0743637], [18.6571109, 43.0744872], [18.6574735, 43.0746138], [18.6578116, 43.074655], [18.6578595, 43.0751327], [18.6577436, 43.0751987], [18.6577276, 43.0754014], [18.6578021, 43.0759723], [18.6573278, 43.0762791], [18.6573767, 43.0770962], [18.6573767, 43.0771373], [18.6567905, 43.0827844], [18.6568605, 43.0894933], [18.6562505, 43.092286], [18.6567799, 43.0929613], [18.6555042, 43.0952307], [18.6555319, 43.0956531], [18.6556497, 43.0962737], [18.6556538, 43.0962838], [18.6560896, 43.0985613], [18.6561212, 43.0998877], [18.6560941, 43.1008155], [18.6560781, 43.1015004], [18.6561474, 43.1020049], [18.6539626, 43.1039131], [18.6549372, 43.1059016], [18.6548396, 43.1060065], [18.6537364, 43.1065784], [18.6520959, 43.1171254], [18.6522097, 43.1201724], [18.6531368, 43.1207026], [18.6523371, 43.1263523], [18.6514171, 43.1313657], [18.6512484, 43.1323952], [18.6498224, 43.1368598], [18.6496691, 43.1417605], [18.6483964, 43.1471307], [18.649542, 43.1496143], [18.6497106, 43.1497933], [18.6498601, 43.1501038], [18.6500288, 43.1504058], [18.6501246, 43.1507694], [18.650278, 43.1510434], [18.6504083, 43.1515189], [18.6505041, 43.1516643], [18.6505425, 43.1517566], [18.6506, 43.151874], [18.6506268, 43.1519579], [18.6506268, 43.1520307], [18.6507725, 43.1522879], [18.6508338, 43.1523551], [18.6515047, 43.1539687], [18.6515047, 43.1540162], [18.6516043, 43.1541616], [18.652164, 43.155957], [18.6522215, 43.1560632], [18.6525703, 43.1569916], [18.6526125, 43.1570615], [18.6526191, 43.157098], [18.652762, 43.1578949], [18.6530725, 43.1596761], [18.6531377, 43.1597935], [18.6537127, 43.1601654], [18.6537242, 43.1602773], [18.6536552, 43.1604367], [18.6535747, 43.1607974], [18.6536513, 43.1609708], [18.6538928, 43.1611553], [18.654234, 43.161502], [18.6539963, 43.1615887], [18.6541305, 43.1619131], [18.6542149, 43.1620305], [18.6542264, 43.1621871], [18.6541612, 43.1624164], [18.6551234, 43.1652712], [18.6552115, 43.1654445], [18.6552192, 43.1656878], [18.6552767, 43.1659338], [18.6555144, 43.1666691], [18.6559245, 43.1673933], [18.6561584, 43.1683746], [18.6562925, 43.1686878], [18.656488, 43.169711], [18.6566222, 43.1701779], [18.6568177, 43.1704547], [18.6569404, 43.170821], [18.6573007, 43.1716457], [18.6577186, 43.1732141], [18.6580559, 43.17431], [18.6580406, 43.174774], [18.6587152, 43.1778994], [18.6595969, 43.1789169], [18.6599112, 43.1792076], [18.6599419, 43.1805606], [18.6601566, 43.1807618], [18.6603253, 43.1809799], [18.6606779, 43.181701], [18.6612223, 43.1839931], [18.6614906, 43.1844012], [18.6615289, 43.1845801], [18.6616133, 43.1848428], [18.6616209, 43.1850217], [18.6617206, 43.1851894], [18.6617743, 43.1855528], [18.6618969, 43.1856478], [18.6619659, 43.1858546], [18.6620349, 43.186341], [18.6621423, 43.1864863], [18.6623109, 43.1866149], [18.6625026, 43.1867714], [18.6627709, 43.1870956], [18.66353, 43.1910979], [18.664772, 43.1949547], [18.6649176, 43.1956086], [18.6652933, 43.1964302], [18.6655003, 43.1971065], [18.6655693, 43.1972798], [18.6658376, 43.1981237], [18.666152, 43.1987105], [18.6663513, 43.1995377], [18.666612, 43.2000519], [18.6669723, 43.2015776], [18.6677313, 43.2039136], [18.6758121, 43.2078422], [18.6824438, 43.2106194], [18.6917382, 43.2202143], [18.692387, 43.2206806], [18.7038034, 43.2267717], [18.7171411, 43.2317787], [18.712996, 43.2325989], [18.7098874, 43.2338688], [18.706955, 43.2359328], [18.705437, 43.2361115], [18.7003309, 43.2420207], [18.694083, 43.2504968], [18.6881249, 43.2547137], [18.6882295, 43.2573542], [18.6876102, 43.2591993], [18.6864027, 43.2608603], [18.6857319, 43.2614628], [18.6856648, 43.2616419], [18.685363, 43.2618699], [18.6852735, 43.2619513], [18.6848375, 43.2622119], [18.6846809, 43.2627085], [18.6844685, 43.2629528], [18.6841778, 43.2630342], [18.684066, 43.2632622], [18.6838312, 43.2634087], [18.6837082, 43.2635472], [18.6836747, 43.2636937], [18.6834623, 43.2637995], [18.6833169, 43.263995], [18.6832275, 43.2642799], [18.6828585, 43.2646544], [18.6823218, 43.2650941], [18.6819417, 43.2653139], [18.6815951, 43.2653546], [18.6811367, 43.2656314], [18.6805889, 43.2657535], [18.6803205, 43.2658675], [18.6801193, 43.2660548], [18.6800186, 43.2662583], [18.679795, 43.2662827], [18.6795602, 43.2663967], [18.6792025, 43.2663234], [18.6788782, 43.2666898], [18.6786993, 43.2667387], [18.6782857, 43.2667387], [18.6778161, 43.2666084], [18.6776036, 43.2665107], [18.6773912, 43.2666165], [18.6771117, 43.2666491], [18.676821, 43.2669096], [18.6764409, 43.266934], [18.6762508, 43.2670724], [18.6761054, 43.2670969], [18.6759713, 43.2672353], [18.6755911, 43.267276], [18.6754905, 43.2674225], [18.6751775, 43.2674144], [18.6750433, 43.2676016], [18.6746967, 43.2681389], [18.6743277, 43.268603], [18.6743277, 43.2688472], [18.674406, 43.2690996], [18.6743725, 43.2694741], [18.6741153, 43.2698486], [18.6738246, 43.2701254], [18.6732656, 43.2704266], [18.6729861, 43.2707115], [18.6726954, 43.2708662], [18.6724382, 43.2709883], [18.6722034, 43.270915], [18.6717674, 43.2707766], [18.6714879, 43.2707196], [18.6711972, 43.2707929], [18.6708059, 43.2708011], [18.6705599, 43.2708825], [18.6698108, 43.2711104], [18.6693524, 43.2711837], [18.6689275, 43.2713302], [18.668771, 43.2715826], [18.6685362, 43.2717779], [18.6683126, 43.2717779], [18.6681113, 43.2717128], [18.6679436, 43.2717128], [18.6676865, 43.2718349], [18.6675747, 43.2720222], [18.6674629, 43.272185], [18.6673518, 43.2722702], [18.667161, 43.2723315], [18.6669861, 43.2724458], [18.6668927, 43.2725432], [18.6664231, 43.272706], [18.6660094, 43.2731049], [18.6658193, 43.2734142], [18.6655957, 43.273634], [18.6653833, 43.273691], [18.6653833, 43.2741061], [18.6651485, 43.2745783], [18.6648019, 43.2749039], [18.664377, 43.2751644], [18.6644106, 43.2754493], [18.6640416, 43.2757993], [18.6640416, 43.2759865], [18.6638292, 43.2761005], [18.6639075, 43.2762552], [18.6636615, 43.2765319], [18.6638292, 43.2767843], [18.6638068, 43.277175], [18.6639857, 43.2774436], [18.66431, 43.2777773], [18.6645224, 43.2779808], [18.6646006, 43.2783146], [18.6646342, 43.2785181], [18.6646342, 43.2787053], [18.6649361, 43.2796739], [18.6649361, 43.2799344], [18.6653609, 43.2807239], [18.6654504, 43.2813751], [18.6654392, 43.2819529], [18.6653386, 43.2826041], [18.6650031, 43.2830192], [18.6648578, 43.2835238], [18.6648466, 43.2839552], [18.664746, 43.2844435], [18.664869, 43.284704], [18.6650143, 43.2848505], [18.6650702, 43.2850702], [18.6649696, 43.2853307], [18.6647572, 43.2856237], [18.6646566, 43.2860632], [18.6644218, 43.286348], [18.6643211, 43.286698], [18.6639745, 43.2868119], [18.6637845, 43.2871456], [18.6637733, 43.2873084], [18.663572, 43.2876583], [18.6633149, 43.2878781], [18.6631136, 43.2879269], [18.6629236, 43.2882036], [18.6630018, 43.2882769], [18.6628341, 43.2885047], [18.6625658, 43.2885454], [18.662454, 43.2887082], [18.6622192, 43.2888873], [18.6621186, 43.28905], [18.6618391, 43.2891314], [18.6616937, 43.2892535], [18.6613583, 43.2892047], [18.6612912, 43.2893267], [18.6612129, 43.2894732], [18.6610788, 43.2895872], [18.66109, 43.2898557], [18.6606427, 43.289872], [18.6604079, 43.2900185], [18.6598825, 43.2903033], [18.65967, 43.2904661], [18.6595694, 43.2906614], [18.65967, 43.290873], [18.6597595, 43.2910276], [18.6597706, 43.2911741], [18.6597036, 43.2914752], [18.6595247, 43.2918333], [18.6591893, 43.2923867], [18.6583954, 43.2933469], [18.6580488, 43.2938352], [18.6577917, 43.2939084], [18.6576687, 43.2940305], [18.6567631, 43.2943397], [18.6565618, 43.2946734], [18.656327, 43.2951128], [18.6557568, 43.2952186], [18.6551978, 43.2953244], [18.6545605, 43.2953976], [18.6543704, 43.2955115], [18.6543034, 43.2957801], [18.654158, 43.2961137], [18.6539679, 43.2962032], [18.6534984, 43.2963009], [18.6470807, 43.2993849], [18.6465548, 43.2998051], [18.6353188, 43.3087824], [18.6342454, 43.3091322], [18.632177, 43.310857], [18.6317274, 43.3108708], [18.6311582, 43.3109111], [18.6303281, 43.3108421], [18.6297351, 43.310727], [18.6295217, 43.3106177], [18.6292845, 43.3105372], [18.6290869, 43.3105832], [18.6290157, 43.3106868], [18.6289366, 43.3109226], [18.628739, 43.3111815], [18.6283753, 43.3114634], [18.6281223, 43.3116705], [18.6279642, 43.3118085], [18.6277033, 43.3118488], [18.6272685, 43.3118315], [18.6268495, 43.3118545], [18.6262961, 43.3119178], [18.6256952, 43.3120041], [18.6251339, 43.3120214], [18.6246912, 43.3121364], [18.624201, 43.312263], [18.6236318, 43.312332], [18.6231496, 43.3123895], [18.6228333, 43.3123838], [18.6223432, 43.3123377], [18.621853, 43.3123665], [18.6214103, 43.3124528], [18.6210703, 43.3125678], [18.6202639, 43.3125678], [18.6191176, 43.312447], [18.6183033, 43.3123723], [18.6177736, 43.3123377], [18.6176076, 43.3122917], [18.6175838, 43.3122169], [18.6176629, 43.3119983], [18.6176155, 43.3117625], [18.6174732, 43.3114231], [18.6173862, 43.3113311], [18.6172123, 43.311285], [18.6168802, 43.311216], [18.6167063, 43.311124], [18.6163901, 43.311124], [18.615979, 43.3112045], [18.6156785, 43.3113598], [18.6154018, 43.3114288], [18.6146903, 43.3114749], [18.6143741, 43.3114864], [18.6140183, 43.3116474], [18.6138365, 43.311866], [18.6137495, 43.3121076], [18.6137574, 43.312263], [18.6136942, 43.3123608], [18.6135281, 43.3123723], [18.6133463, 43.3122515], [18.6130538, 43.3121939], [18.6129431, 43.3121824], [18.6127692, 43.3122227], [18.6127376, 43.312332], [18.6125873, 43.3125793], [18.612445, 43.3127634], [18.6123185, 43.3129993], [18.6119786, 43.3130683], [18.6115596, 43.3131546], [18.6113619, 43.3133962], [18.6109746, 43.313517], [18.610437, 43.313517], [18.6101919, 43.3135112], [18.6098519, 43.3136551], [18.6096068, 43.3136781], [18.6091878, 43.3138449], [18.6090297, 43.3140059], [18.6084842, 43.3141037], [18.6083814, 43.3145179], [18.6078249, 43.3149968], [18.6076857, 43.3150586], [18.6077173, 43.3152427], [18.6074169, 43.3153922], [18.6072746, 43.315513], [18.6064524, 43.3156683], [18.6059385, 43.3163298], [18.6053377, 43.3168418], [18.6052823, 43.3170374], [18.6050531, 43.3171466], [18.6048791, 43.3173997], [18.6048633, 43.3175435], [18.6041676, 43.3180785], [18.6038039, 43.3182453], [18.6035431, 43.3185616], [18.6032031, 43.3191311], [18.6030134, 43.3197062], [18.6029659, 43.3203562], [18.6027129, 43.3205115], [18.6026102, 43.3207358], [18.6019619, 43.3216618], [18.6018512, 43.322122], [18.6005625, 43.3238014], [18.6004361, 43.3236921], [18.6001831, 43.3232608], [18.6000329, 43.3231457], [18.5996534, 43.3229904], [18.5992265, 43.3229962], [18.59876, 43.3230249], [18.5983489, 43.323094], [18.5979852, 43.3233183], [18.5976058, 43.3236058], [18.5972658, 43.3238416], [18.5968784, 43.3240717], [18.5963883, 43.3241925], [18.5954237, 43.3243938], [18.5948624, 43.324411], [18.59423, 43.3244168], [18.5935817, 43.3243363], [18.593218, 43.3249459], [18.5928227, 43.3253542], [18.5925697, 43.325498], [18.5922456, 43.3255728], [18.591961, 43.3255613], [18.5918424, 43.3255728], [18.5917871, 43.3256476], [18.5918345, 43.3257511], [18.5918345, 43.3259466], [18.5915815, 43.3260847], [18.5910044, 43.3262802], [18.5903561, 43.3264585], [18.5900557, 43.3264815], [18.5898106, 43.326608], [18.5894706, 43.3267058], [18.5893362, 43.3267115], [18.5890674, 43.3267345], [18.5887591, 43.3268266], [18.5884587, 43.3269013], [18.5882215, 43.3269301], [18.5880002, 43.3269358], [18.5877551, 43.3269761], [18.5876128, 43.3270163], [18.5875021, 43.3271429], [18.5874705, 43.3273902], [18.5874072, 43.32781], [18.5872965, 43.3284368], [18.5871147, 43.3287647], [18.586585, 43.3290004], [18.586079, 43.3290349], [18.5858181, 43.3290234], [18.5855652, 43.3290407], [18.5852884, 43.3290004], [18.5851145, 43.3288912], [18.5848378, 43.3287416], [18.5844979, 43.3286726], [18.5843002, 43.3284368], [18.58415, 43.3282873], [18.5836598, 43.3280918], [18.5830432, 43.327994], [18.581715, 43.3279423], [18.5810276, 43.3279605], [18.5802561, 43.3281232], [18.5795294, 43.3283834], [18.5790039, 43.3287006], [18.5775952, 43.3298392], [18.57752, 43.329902], [18.5774015, 43.3299938], [18.5769355, 43.330254], [18.5767607, 43.330416], [18.5763429, 43.3307257], [18.5754705, 43.3313335], [18.5755005, 43.331398], [18.5754943, 43.3314568], [18.5754456, 43.3315734], [18.5753702, 43.3316691], [18.5753143, 43.3317789], [18.5752657, 43.3318284], [18.5751969, 43.3318846], [18.5751243, 43.3319334], [18.5750404, 43.3319619], [18.5749454, 43.3319782], [18.5748447, 43.3319782], [18.5747385, 43.33197], [18.5746379, 43.33197], [18.5745373, 43.3319904], [18.5744534, 43.3320269], [18.5743863, 43.3320839], [18.5742913, 43.3321001], [18.5741963, 43.3321123], [18.5741068, 43.3321449], [18.574023, 43.3321937], [18.5739671, 43.3322547], [18.5739447, 43.3323279], [18.5739335, 43.332401], [18.5739168, 43.3324702], [18.5738609, 43.3325271], [18.573777, 43.33258], [18.5737379, 43.332645], [18.5737491, 43.3327182], [18.5737882, 43.3327792], [18.573805, 43.3328524], [18.5737994, 43.3329215], [18.5737323, 43.333137], [18.5737155, 43.3332224], [18.5737043, 43.3332956], [18.5737099, 43.333381], [18.5737155, 43.3334501], [18.5737155, 43.3335233], [18.5736932, 43.3336047], [18.5736708, 43.3336778], [18.573654, 43.333747], [18.5736652, 43.3338893], [18.5736596, 43.3339665], [18.5736372, 43.3340397], [18.5736037, 43.3341089], [18.5735758, 43.3341739], [18.5735422, 43.3342593], [18.5735143, 43.3343366], [18.573531, 43.3344098], [18.573531, 43.3344951], [18.5735254, 43.3345683], [18.5735254, 43.3347229], [18.5735366, 43.3348652], [18.5735366, 43.3350237], [18.573531, 43.3350969], [18.5734863, 43.3351701], [18.5734528, 43.3352474], [18.5734304, 43.3353206], [18.5733942, 43.3355225], [18.5733669, 43.3356026], [18.573341, 43.3356743], [18.5733248, 43.3357501], [18.5732938, 43.3358065], [18.5732945, 43.3358817], [18.5733032, 43.33593], [18.5733245, 43.3359789], [18.5733728, 43.3360409], [18.5734228, 43.3361209], [18.5734101, 43.3361988], [18.5733913, 43.3362517], [18.5732907, 43.3363626], [18.5731754, 43.3364324], [18.5731233, 43.3364981], [18.5730554, 43.3365727], [18.5729995, 43.3366297], [18.5729413, 43.3367505], [18.5728882, 43.3368331], [18.572849, 43.3369023], [18.5728211, 43.3369714], [18.5728267, 43.3370486], [18.5728434, 43.3371178], [18.5728546, 43.3371869], [18.5728546, 43.337256], [18.5728155, 43.3373211], [18.5727372, 43.3373698], [18.5722285, 43.3375853], [18.5718036, 43.3377276], [18.5717254, 43.3377642], [18.5714403, 43.3379025], [18.5710154, 43.3380489], [18.57068, 43.3381668], [18.5702775, 43.3383335], [18.5699309, 43.3384392], [18.5695396, 43.3385652], [18.5691203, 43.3386709], [18.5689861, 43.338675], [18.5688855, 43.338675], [18.5687849, 43.3386547], [18.5686954, 43.3386343], [18.5685948, 43.3386343], [18.5685054, 43.3386709], [18.5684271, 43.3387157], [18.5683265, 43.3387238], [18.568019, 43.3387238], [18.5679128, 43.3387279], [18.5678122, 43.3387279], [18.5677171, 43.3387116], [18.5676221, 43.3386831], [18.5675438, 43.3386465], [18.5674656, 43.3385977], [18.5673873, 43.338553], [18.5672979, 43.3385164], [18.5671972, 43.3385042], [18.5670575, 43.3385205], [18.5669625, 43.3385286], [18.5668618, 43.3385286], [18.5667612, 43.3385164], [18.5666718, 43.338492], [18.5665823, 43.3384595], [18.5664985, 43.3384229], [18.566409, 43.3383904], [18.566314, 43.3383701], [18.5662022, 43.3383619], [18.5661071, 43.3383619], [18.5660065, 43.3383741], [18.5659003, 43.3383985], [18.5658109, 43.3384229], [18.5657046, 43.3384392], [18.5656096, 43.3384432], [18.5653972, 43.3384432], [18.5652966, 43.3384595], [18.5652071, 43.338488], [18.5651177, 43.338549], [18.5650562, 43.3386059], [18.5649891, 43.3386587], [18.5648941, 43.3386872], [18.564827, 43.3387441], [18.5647767, 43.338801], [18.5646984, 43.3388458], [18.5646145, 43.3388742], [18.5645475, 43.3389312], [18.5645139, 43.3390084], [18.564486, 43.3390775], [18.5644524, 43.3391507], [18.5644189, 43.3392158], [18.5643909, 43.339293], [18.5643518, 43.3393621], [18.5642959, 43.3394231], [18.56424, 43.3394841], [18.5642064, 43.3395532], [18.5641673, 43.3396142], [18.5641226, 43.3396793], [18.5640723, 43.3397443], [18.5640499, 43.3398134], [18.5640387, 43.3398907], [18.5639996, 43.3399517], [18.5639549, 43.3400127], [18.5639102, 43.3400736], [18.5638878, 43.3401428], [18.563899, 43.34022], [18.5638822, 43.3403989], [18.563871, 43.3404762], [18.5638431, 43.3405493], [18.5638207, 43.3407282], [18.5638263, 43.3408299], [18.5638487, 43.3409274], [18.5638543, 43.3410291], [18.5638598, 43.3411104], [18.5638598, 43.3411795], [18.5638543, 43.3412527], [18.5638263, 43.3413259], [18.563776, 43.3413909], [18.5637201, 43.3414479], [18.563653, 43.3415007], [18.5635859, 43.3415658], [18.56353, 43.3416267], [18.5634685, 43.3416837], [18.5634126, 43.3417406], [18.5633455, 43.3418016], [18.5632785, 43.3418544], [18.5631946, 43.3419154], [18.5631219, 43.3419683], [18.5630493, 43.3420292], [18.5629766, 43.3420862], [18.5628927, 43.3421309], [18.5627977, 43.3421797], [18.5627138, 43.3422244], [18.5626244, 43.3422651], [18.5625461, 43.3423057], [18.5624567, 43.3423586], [18.5623728, 43.3424155], [18.5622946, 43.3424643], [18.5622163, 43.3425171], [18.562138, 43.3425659], [18.5620598, 43.3426106], [18.5619759, 43.3426513], [18.5618865, 43.3427082], [18.561797, 43.342757], [18.5617244, 43.3428098], [18.5616461, 43.3428586], [18.5614896, 43.3429887], [18.5614337, 43.3430456], [18.5613834, 43.3431107], [18.5613498, 43.3431757], [18.5613219, 43.3432449], [18.5613051, 43.343314], [18.5612715, 43.3433872], [18.5612436, 43.3434603], [18.5612045, 43.3435213], [18.5611486, 43.3435823], [18.5610591, 43.3436108], [18.5609585, 43.3436148], [18.5608579, 43.3436026], [18.5607628, 43.3435986], [18.560651, 43.3436189], [18.5605616, 43.3436433], [18.5604777, 43.3436758], [18.5603939, 43.3437165], [18.5603212, 43.3437612], [18.5602373, 43.3437978], [18.5601423, 43.3438425], [18.5600585, 43.3438872], [18.5599802, 43.3439401], [18.5599019, 43.3439767], [18.5597957, 43.3439929], [18.5597007, 43.3440011], [18.5596001, 43.3439929], [18.5584876, 43.3439441], [18.5577105, 43.3438506], [18.5572298, 43.3438466], [18.5567881, 43.3438222], [18.5565925, 43.3438222], [18.5564863, 43.3438303], [18.5563968, 43.3438506], [18.5563074, 43.343875], [18.5562235, 43.3439035], [18.5561453, 43.3439401], [18.556067, 43.3439848], [18.5559943, 43.3440336], [18.5559161, 43.3440905], [18.5558434, 43.3441393], [18.5557763, 43.3441921], [18.5557148, 43.344249], [18.5555918, 43.3443547], [18.5555191, 43.3444076], [18.5554297, 43.3444361], [18.5553179, 43.3444523], [18.5551166, 43.3444523], [18.5550216, 43.3444686], [18.5549154, 43.344493], [18.5548315, 43.3445214], [18.5547421, 43.3445499], [18.5546582, 43.3445784], [18.5545688, 43.3446068], [18.5544682, 43.344619], [18.554021, 43.3446759], [18.553898, 43.3446881], [18.5537414, 43.3447003], [18.5536352, 43.3447166], [18.5535346, 43.3447288], [18.5534396, 43.3447491], [18.5533445, 43.3447735], [18.5532495, 43.3447979], [18.5531433, 43.3448385], [18.5530538, 43.344867], [18.55297, 43.3449036], [18.5528973, 43.3449524], [18.552819, 43.344989], [18.552724, 43.3450215], [18.5526569, 43.3450459], [18.5525395, 43.3449727], [18.5524557, 43.3449239], [18.5523718, 43.3448833], [18.5522824, 43.3448548], [18.5521818, 43.3448426], [18.5520755, 43.3448304], [18.5519805, 43.3448385], [18.5517848, 43.3448385], [18.551673, 43.3448345], [18.5515724, 43.3448182], [18.5514662, 43.344806], [18.5513768, 43.3447857], [18.5512929, 43.344745], [18.5511923, 43.344745], [18.5510916, 43.3447694], [18.5510246, 43.3448223], [18.5509519, 43.3448751], [18.5508569, 43.3449036], [18.5507562, 43.3449239], [18.55065, 43.3449402], [18.550555, 43.3449442], [18.5504599, 43.3449524], [18.5503705, 43.3449727], [18.5502643, 43.3449808], [18.5501693, 43.3449808], [18.5500742, 43.3449768], [18.5499624, 43.344989], [18.5498618, 43.3450093], [18.5497612, 43.3450256], [18.5496605, 43.3450174], [18.5495599, 43.3450052], [18.5494313, 43.3449869], [18.5493838, 43.3449869], [18.5493335, 43.3449808], [18.549286, 43.3449727], [18.5492357, 43.3449585], [18.5491854, 43.3449503], [18.549135, 43.3449422], [18.5490875, 43.3449402], [18.5489925, 43.3449402], [18.5489366, 43.3449442], [18.5488891, 43.3449524], [18.5488444, 43.3449646], [18.5488024, 43.3449808], [18.5487605, 43.3449971], [18.548713, 43.3450134], [18.5486179, 43.3450601], [18.548576, 43.3450845], [18.5485341, 43.3451069], [18.5484894, 43.3451313], [18.5484446, 43.3451516], [18.5483971, 43.3451739], [18.5483524, 43.3451902], [18.5483049, 43.3452044], [18.5482602, 43.3452187], [18.5482043, 43.3452329], [18.5481595, 43.3452431], [18.548112, 43.3452552], [18.548017, 43.3452837], [18.5479723, 43.3452959], [18.5479192, 43.3453061], [18.5478688, 43.3453081], [18.5478213, 43.3452979], [18.5477878, 43.3452715], [18.5477738, 43.345237], [18.5477682, 43.3452044], [18.5477654, 43.3451699], [18.5477654, 43.3451008], [18.5477626, 43.3450662], [18.5477598, 43.3450337], [18.5477598, 43.3449991], [18.547757, 43.3449625], [18.5477542, 43.3449239], [18.5477487, 43.3448894], [18.5477319, 43.3448568], [18.5477039, 43.3448304], [18.5476676, 43.344808], [18.5476285, 43.3447877], [18.5475435, 43.3447888], [18.5475118, 43.3447831], [18.5474782, 43.3447874], [18.5474545, 43.3448075], [18.5474348, 43.3448291], [18.5474249, 43.3448535], [18.5474249, 43.3449268], [18.5474189, 43.3449527], [18.5474012, 43.3449757], [18.5473794, 43.3449972], [18.5473616, 43.3450202], [18.5473419, 43.3450461], [18.547328, 43.3450691], [18.5473043, 43.3451165], [18.5472944, 43.3451424], [18.5472826, 43.3451683], [18.5472687, 43.3451927], [18.5472529, 43.3452143], [18.5472272, 43.3452315], [18.5471956, 43.3452416], [18.5471501, 43.3452502], [18.5471165, 43.3452574], [18.547081, 43.3452646], [18.5470395, 43.3452703], [18.546998, 43.3452775], [18.5469584, 43.3452818], [18.5469209, 43.3452861], [18.5468853, 43.345289], [18.5468477, 43.3452904], [18.5468102, 43.3452904], [18.5467746, 43.3452876], [18.546741, 43.3452804], [18.5467133, 43.3452646], [18.5467074, 43.3452387], [18.5467173, 43.3452157], [18.546741, 43.3451985], [18.5467707, 43.3451841], [18.5467983, 43.3451697], [18.5468319, 43.3451582], [18.5468616, 43.3451467], [18.5468873, 43.3451352], [18.5469149, 43.3451223], [18.5469466, 43.3451137], [18.5470078, 43.3450921], [18.5470395, 43.3450806], [18.5470632, 43.3450662], [18.5470731, 43.3450432], [18.547075, 43.3450173], [18.5470671, 43.3449929], [18.5470553, 43.3449714], [18.5470414, 43.3449498], [18.5470256, 43.3449254], [18.5470078, 43.3449009], [18.546994, 43.3448794], [18.5469802, 43.3448564], [18.5469624, 43.3448319], [18.5469446, 43.3448089], [18.5469209, 43.3447902], [18.5468912, 43.3447759], [18.5468576, 43.3447644], [18.5468161, 43.3447601], [18.5467825, 43.3447572], [18.546743, 43.3447658], [18.5467153, 43.3447802], [18.5466936, 43.3448003], [18.5466896, 43.3448262], [18.5467114, 43.3448463], [18.5467371, 43.3448592], [18.5467647, 43.3448765], [18.5467924, 43.3448937], [18.5468082, 43.3449153], [18.546824, 43.3449354], [18.5468319, 43.3449599], [18.5467983, 43.3449627], [18.5467766, 43.344944], [18.5467568, 43.3449239], [18.5467292, 43.3449081], [18.5467015, 43.3448952], [18.5466659, 43.3448866], [18.5466303, 43.3448866], [18.5465987, 43.3448952], [18.546573, 43.344911], [18.5465572, 43.3449325], [18.5465612, 43.344957], [18.5465829, 43.3449771], [18.5466046, 43.3449972], [18.5466224, 43.3450202], [18.5466343, 43.3450418], [18.5466343, 43.3450677], [18.5466264, 43.345095], [18.5466145, 43.3451194], [18.5465967, 43.3451438], [18.546573, 43.3451625], [18.5465434, 43.3451769], [18.5465078, 43.3451855], [18.5464722, 43.3451855], [18.5464327, 43.3451783], [18.546409, 43.3451625], [18.5463932, 43.345141], [18.5463852, 43.3451137], [18.5463833, 43.3450907], [18.5463833, 43.3450418], [18.5463872, 43.3450159], [18.5463932, 43.3449929], [18.5463951, 43.344967], [18.5463971, 43.3449426], [18.5463951, 43.3449153], [18.5463833, 43.3448894], [18.5463655, 43.3448679], [18.5463339, 43.3448506], [18.5463022, 43.3448406], [18.5462706, 43.3448334], [18.5462271, 43.3448262], [18.5461916, 43.3448204], [18.546154, 43.3448161], [18.5460828, 43.3448075], [18.5460433, 43.3448032], [18.5460077, 43.3447989], [18.545984, 43.3447802], [18.5459722, 43.3447572], [18.5459682, 43.3447313], [18.5459682, 43.3447083], [18.5459801, 43.3446839], [18.545988, 43.3446623], [18.5459821, 43.3446379], [18.5459544, 43.3446221], [18.5459228, 43.344612], [18.5458872, 43.3446178], [18.5458556, 43.344635], [18.5458299, 43.3446537], [18.5458042, 43.3446709], [18.5457686, 43.3446709], [18.545737, 43.3446609], [18.5457251, 43.3446393], [18.5457172, 43.3446149], [18.5457053, 43.3445919], [18.5456876, 43.3445718], [18.5456658, 43.3445516], [18.5456421, 43.3445358], [18.5456065, 43.3445272], [18.5455709, 43.3445258], [18.5455373, 43.3445258], [18.5454978, 43.3445315], [18.5454642, 43.344543], [18.5454286, 43.3445588], [18.5453931, 43.3445718], [18.5453634, 43.3445818], [18.5453259, 43.3445933], [18.5452903, 43.3446005], [18.5452508, 43.3446048], [18.5451757, 43.3446048], [18.5451421, 43.3446106], [18.5451124, 43.3446235], [18.5450828, 43.3446408], [18.5450571, 43.344658], [18.5450294, 43.3446781], [18.5450057, 43.3446983], [18.544982, 43.3447213], [18.5449503, 43.3447342], [18.5449108, 43.3447428], [18.5448733, 43.3447457], [18.5448357, 43.3447457], [18.5448001, 43.3447471], [18.5447645, 43.3447558], [18.5447309, 43.3447687], [18.5447033, 43.3447859], [18.5446776, 43.3448061], [18.5446578, 43.3448276], [18.54464, 43.3448492], [18.5446104, 43.3448952], [18.5445965, 43.3449182], [18.5445807, 43.3449397], [18.544561, 43.3449599], [18.5445088, 43.3450135], [18.5444589, 43.3450576], [18.5443842, 43.3450854], [18.544278, 43.3451059], [18.5442498, 43.3450969], [18.5441992, 43.3450682], [18.5441581, 43.3450807], [18.5440974, 43.3450475], [18.5485731, 43.333436], [18.539153, 43.329848], [18.5116594, 43.3389156], [18.5113638, 43.3390131], [18.4750325, 43.3479979], [18.4583455, 43.3538435], [18.457632, 43.3532311], [18.4381255, 43.3364881], [18.4380584, 43.3364353], [18.4380025, 43.3363824], [18.4378013, 43.3362401], [18.4373261, 43.3361588], [18.4372255, 43.3361507], [18.4371304, 43.3361425], [18.4369403, 43.3361303], [18.4368453, 43.3361263], [18.4363031, 43.3361263], [18.4361857, 43.3361303], [18.4354086, 43.3361344], [18.4351067, 43.3360897], [18.4350173, 43.3360653], [18.4349278, 43.3360449], [18.4348328, 43.3360165], [18.4346539, 43.3359636], [18.4345645, 43.3359352], [18.4344527, 43.3358945], [18.4342738, 43.3358335], [18.4341955, 43.3357928], [18.4341117, 43.3357481], [18.4340278, 43.3357075], [18.4339607, 43.3356546], [18.4339048, 43.3356017], [18.433821, 43.3354716], [18.4337651, 43.3354106], [18.4337036, 43.3353578], [18.4336197, 43.3352968], [18.4335638, 43.3352317], [18.4335079, 43.3351219], [18.4335079, 43.3349796], [18.4335303, 43.3349105], [18.4335694, 43.3348454], [18.4336085, 43.3347763], [18.433698, 43.3346381], [18.4337651, 43.3345771], [18.4338098, 43.3345161], [18.4337874, 43.3344429], [18.4337371, 43.3343819], [18.4335974, 43.3342884], [18.4335191, 43.3342437], [18.4329321, 43.3337272], [18.4328762, 43.3336663], [18.432675, 43.3335158], [18.4324458, 43.3333938], [18.4323675, 43.3333613], [18.4322781, 43.3333328], [18.4321886, 43.3332962], [18.4318867, 43.3331986], [18.4316687, 43.3330279], [18.4314395, 43.3327879], [18.4312494, 43.3323854], [18.4309923, 43.3319544], [18.4307799, 43.3317104], [18.4305507, 43.3315803], [18.4304389, 43.3315437], [18.4300084, 43.3313851], [18.429304, 43.3312143], [18.429209, 43.3311858], [18.4291195, 43.3311614], [18.4290245, 43.331133], [18.4289462, 43.3311045], [18.4288624, 43.3310679], [18.4286667, 43.3309093], [18.4285605, 43.3307914], [18.4284934, 43.3307345], [18.4284208, 43.3306897], [18.4282698, 43.3306165], [18.4280183, 43.3305433], [18.4278785, 43.3304457], [18.4278002, 43.3304051], [18.4277443, 43.3303441], [18.4277164, 43.3302709], [18.4276996, 43.3301977], [18.427599, 43.3300757], [18.4275263, 43.330035], [18.4274481, 43.3300025], [18.427353, 43.3299903], [18.4271629, 43.3299822], [18.4270791, 43.3299537], [18.4270176, 43.3299008], [18.4269617, 43.3298439], [18.426889, 43.3297951], [18.4268108, 43.3297585], [18.4267269, 43.3297219], [18.4266542, 43.3296772], [18.4265648, 43.3296487], [18.4264753, 43.3296203], [18.4261679, 43.3295715], [18.4260784, 43.3295593], [18.4259722, 43.329543], [18.4258828, 43.3295308], [18.4257989, 43.3295023], [18.4257374, 43.3294413], [18.4256983, 43.3293803], [18.4256759, 43.3293112], [18.4256256, 43.3291689], [18.4255697, 43.3291119], [18.425497, 43.3290672], [18.4254244, 43.3290265], [18.4253573, 43.3289777], [18.4250107, 43.3288192], [18.4251113, 43.3287297], [18.4252567, 43.3285467], [18.4253126, 43.3284857], [18.42543, 43.3283678], [18.4256368, 43.3282092], [18.4257039, 43.3281563], [18.4257654, 43.3280994], [18.4258269, 43.3280424], [18.4259107, 43.3279652], [18.4259666, 43.3279042], [18.4261791, 43.3276805], [18.4263468, 43.327587], [18.4265368, 43.3275219], [18.4266319, 43.3275056], [18.4267325, 43.3274894], [18.4268331, 43.3274812], [18.4269393, 43.327469], [18.4274425, 43.3274609], [18.4275487, 43.3274568], [18.4276493, 43.3274324], [18.4277387, 43.3273958], [18.427817, 43.3273389], [18.4278673, 43.327282], [18.4279065, 43.3272169], [18.4279176, 43.3271437], [18.427912, 43.3270014], [18.4279065, 43.3269241], [18.4279065, 43.3264117], [18.4279568, 43.3263548], [18.4279959, 43.3262897], [18.4280294, 43.3262206], [18.4280462, 43.3261515], [18.4280406, 43.3260783], [18.4280071, 43.3260091], [18.4279568, 43.3259481], [18.4278953, 43.3258871], [18.427817, 43.3258505], [18.427722, 43.3258464], [18.4276381, 43.3258708], [18.4274481, 43.3259034], [18.4273586, 43.3258871], [18.4272748, 43.3258586], [18.4271909, 43.325818], [18.4271294, 43.3257692], [18.4270735, 43.3257082], [18.4270232, 43.3256512], [18.4269841, 43.3255902], [18.4269505, 43.3255252], [18.4269002, 43.3253747], [18.4268778, 43.3253096], [18.4268164, 43.3252446], [18.4267437, 43.3252039], [18.4266486, 43.3251958], [18.4265592, 43.3251876], [18.4264642, 43.3251673], [18.4264083, 43.3251104], [18.4263635, 43.3250453], [18.426302, 43.324907], [18.4262517, 43.3247566], [18.426235, 43.3246834], [18.4262182, 43.3246102], [18.4262238, 43.3244719], [18.4262406, 43.3244027], [18.426302, 43.3243214], [18.4263971, 43.3242035], [18.4263971, 43.3241343], [18.4263747, 43.3240611], [18.4263188, 43.3240042], [18.4261679, 43.3239107], [18.4260952, 43.3238659], [18.4260281, 43.3238131], [18.4259722, 43.323752], [18.4259219, 43.323687], [18.4258828, 43.3236178], [18.4258604, 43.3235528], [18.4258492, 43.3234836], [18.4258436, 43.3232803], [18.4258381, 43.3232071], [18.4257933, 43.3230688], [18.4257207, 43.3230281], [18.4256312, 43.3229997], [18.4255474, 43.3229753], [18.4254691, 43.3229346], [18.425402, 43.3228899], [18.4253517, 43.3228289], [18.4253293, 43.3227638], [18.4253126, 43.3226947], [18.4252511, 43.3224791], [18.4252008, 43.32241], [18.4251504, 43.322349], [18.4251001, 43.322288], [18.4250666, 43.3222229], [18.4250386, 43.3221537], [18.4249436, 43.3219057], [18.4247983, 43.3213892], [18.4246865, 43.3209702], [18.4246641, 43.3209052], [18.4245802, 43.3207832], [18.4245299, 43.3207262], [18.4244684, 43.3206693], [18.4244069, 43.3206123], [18.4243622, 43.3205513], [18.4243287, 43.3204822], [18.4243343, 43.3203439], [18.4242895, 43.3202056], [18.4242448, 43.3201487], [18.4241777, 43.3200999], [18.4240827, 43.3200226], [18.4239821, 43.3199494], [18.4238703, 43.3197949], [18.4238479, 43.3197054], [18.4238256, 43.3195956], [18.423792, 43.3195264], [18.4237473, 43.3194695], [18.4236746, 43.3194166], [18.4236019, 43.3193719], [18.423451, 43.3193149], [18.423356, 43.3192946], [18.4232665, 43.3192743], [18.4231771, 43.319258], [18.4230653, 43.3192336], [18.4229758, 43.3192092], [18.4228808, 43.3191604], [18.4227802, 43.3191197], [18.4227019, 43.319079], [18.4226292, 43.3190424], [18.4225566, 43.3190058], [18.4224783, 43.3189692], [18.4223944, 43.3189286], [18.4222155, 43.3188675], [18.4221149, 43.3188391], [18.4220311, 43.3188106], [18.421936, 43.3187903], [18.421841, 43.318774], [18.4217571, 43.3187537], [18.4216621, 43.3187415], [18.4214776, 43.3186845], [18.4214217, 43.3186317], [18.4213658, 43.3185747], [18.4212317, 43.3183754], [18.4211813, 43.3183185], [18.4210863, 43.3181965], [18.421036, 43.3181395], [18.4209018, 43.3179565], [18.4208851, 43.3178873], [18.4208739, 43.3178141], [18.4208571, 43.317745], [18.4207788, 43.3175457], [18.4207397, 43.3174766], [18.4207006, 43.3174033], [18.4200912, 43.3164353], [18.4200186, 43.3161506], [18.4199794, 43.3160774], [18.4199515, 43.3160082], [18.4199124, 43.315931], [18.4198453, 43.3157154], [18.4198341, 43.3154185], [18.4198229, 43.3153412], [18.4198061, 43.315272], [18.4197502, 43.3151338], [18.4196664, 43.3150077], [18.4196105, 43.3149507], [18.4195378, 43.3148938], [18.4194484, 43.314849], [18.4193589, 43.3148287], [18.4190738, 43.3148206], [18.4189732, 43.3148084], [18.4189117, 43.3147514], [18.4187943, 43.3146741], [18.4182744, 43.3142592], [18.4179781, 43.3138769], [18.417257, 43.3131691], [18.4164911, 43.3124695], [18.4164017, 43.3124085], [18.4163346, 43.3123638], [18.4158594, 43.3119651], [18.4157755, 43.3119204], [18.4156973, 43.3118756], [18.4156246, 43.3118187], [18.4155687, 43.3117658], [18.4154345, 43.3115787], [18.415373, 43.3115096], [18.4153171, 43.3114445], [18.4151606, 43.3113021], [18.4150264, 43.3111963], [18.4149314, 43.3111394], [18.4148531, 43.3110865], [18.4146128, 43.310993], [18.4144451, 43.3109645], [18.4142494, 43.3109726], [18.4141432, 43.3109808], [18.4140481, 43.3109808], [18.4139587, 43.3109767], [18.413763, 43.3109645], [18.4136512, 43.3109604], [18.4135506, 43.3109482], [18.4134612, 43.310936], [18.4133438, 43.3109279], [18.4129413, 43.3109197], [18.4128518, 43.3109319], [18.4125388, 43.3109319], [18.4123487, 43.3109075], [18.412181, 43.3108343], [18.4121027, 43.3107936], [18.411935, 43.3107245], [18.4111468, 43.3104845], [18.4109567, 43.3104438], [18.4108393, 43.3104357], [18.4106493, 43.3104357], [18.4105486, 43.3104438], [18.4103697, 43.3104845], [18.4102803, 43.3105089], [18.4100958, 43.3105496], [18.4099952, 43.310574], [18.4099058, 43.3105984], [18.4097995, 43.3106147], [18.4094753, 43.3106065], [18.4093914, 43.310578], [18.4093076, 43.3105455], [18.4091231, 43.310517], [18.408933, 43.3105089], [18.4088436, 43.3104926], [18.4087542, 43.3104641], [18.4086759, 43.3104194], [18.4084131, 43.3103258], [18.4083181, 43.3103096], [18.4077255, 43.3103055], [18.4075411, 43.3103421], [18.407446, 43.3103665], [18.4073566, 43.3103909], [18.4069205, 43.3105496], [18.4068423, 43.3105902], [18.406764, 43.3106269], [18.4066857, 43.3106553], [18.406423, 43.3107163], [18.4060149, 43.3107204], [18.4054391, 43.3108343], [18.4052714, 43.3106594], [18.4052099, 43.3105943], [18.405154, 43.3105414], [18.4050925, 43.3104804], [18.4050087, 43.3104072], [18.404936, 43.3103462], [18.4048801, 43.3102933], [18.4046621, 43.3101225], [18.4045838, 43.3100655], [18.4045055, 43.3100167], [18.4044329, 43.3099679], [18.4043546, 43.3099231], [18.4042763, 43.3098703], [18.4041981, 43.3098255], [18.4041086, 43.3097767], [18.4040248, 43.3097279], [18.4039242, 43.3096831], [18.4038291, 43.3096384], [18.4037229, 43.3096058], [18.403639, 43.3095855], [18.4035328, 43.3095611], [18.403326, 43.3095204], [18.4030241, 43.3094797], [18.4025657, 43.3094797], [18.4024763, 43.3094838], [18.4023868, 43.3094919], [18.4021073, 43.3095408], [18.4020067, 43.309557], [18.4018166, 43.3095814], [18.4017104, 43.3095814], [18.4015259, 43.309557], [18.4014588, 43.3095082], [18.4012744, 43.3093292], [18.4011458, 43.3090974], [18.401006, 43.3089102], [18.4009333, 43.3088533], [18.4008551, 43.3088126], [18.4007768, 43.3087801], [18.400693, 43.3087597], [18.4006035, 43.3087435], [18.4005085, 43.3087313], [18.4003296, 43.3087313], [18.3998321, 43.3086702], [18.3994575, 43.3082716], [18.3992674, 43.3079218], [18.3987476, 43.30734], [18.3987084, 43.3074051], [18.3986357, 43.3076045], [18.3985631, 43.3077265], [18.3985128, 43.3077794], [18.3984401, 43.3078323], [18.3983618, 43.3078607], [18.398278, 43.307877], [18.3981885, 43.3078567], [18.3981158, 43.307816], [18.3979817, 43.3077102], [18.3978028, 43.3075394], [18.3975848, 43.3073929], [18.3975009, 43.3073522], [18.3973612, 43.3072994], [18.397104, 43.3072139], [18.3968636, 43.3071732], [18.396763, 43.3071692], [18.396668, 43.3071692], [18.3964891, 43.3071732], [18.3963325, 43.3071855], [18.3961537, 43.3072058], [18.3960642, 43.3072139], [18.3959748, 43.3072383], [18.3957623, 43.3072994], [18.395589, 43.3073929], [18.3955108, 43.3074255], [18.3954269, 43.3074539], [18.3953375, 43.3074743], [18.3951474, 43.3074783], [18.3950524, 43.3074905], [18.3949517, 43.3074987], [18.3948511, 43.3075109], [18.3947561, 43.3075231], [18.3946555, 43.3075475], [18.3945716, 43.307576], [18.3944766, 43.3076126], [18.3943927, 43.3076411], [18.3942977, 43.3076655], [18.3941188, 43.3077061], [18.3936436, 43.3077061], [18.3935486, 43.3077143], [18.3934424, 43.3077224], [18.3933362, 43.3077387], [18.3932244, 43.3077468], [18.3929616, 43.3078038], [18.3928666, 43.3078282], [18.3927771, 43.3078526], [18.3926038, 43.3079095], [18.39252, 43.3079584], [18.3923802, 43.308056], [18.3922964, 43.3081048], [18.3922181, 43.3081414], [18.3920448, 43.3081984], [18.3919554, 43.3082187], [18.3917709, 43.3082268], [18.3916814, 43.3082309], [18.3915864, 43.308239], [18.3913572, 43.3082919], [18.3896354, 43.3089875], [18.3895571, 43.3090241], [18.3894733, 43.3090648], [18.3894006, 43.3091096], [18.3893279, 43.3091584], [18.389272, 43.3092113], [18.3892161, 43.3092682], [18.3891546, 43.3093252], [18.3891043, 43.3093821], [18.3890596, 43.3094391], [18.3889869, 43.3096303], [18.3889366, 43.3096872], [18.3888751, 43.3097442], [18.3887298, 43.3098133], [18.3886347, 43.3098255], [18.3885509, 43.3098418], [18.3884614, 43.3098784], [18.3883776, 43.3099231], [18.3882434, 43.3100208], [18.3880757, 43.3100858], [18.3876117, 43.3101753], [18.3875167, 43.3101753], [18.3874216, 43.3101631], [18.3872428, 43.3101875], [18.3871813, 43.3102404], [18.3871701, 43.3103096], [18.387103, 43.3103543], [18.3870247, 43.3103909], [18.3869465, 43.3104397], [18.3868794, 43.3104926], [18.3867508, 43.3106025], [18.3865663, 43.3107814], [18.3864713, 43.3109035], [18.3864322, 43.3109604], [18.3863986, 43.3110255], [18.3862812, 43.3112533], [18.3856607, 43.311717], [18.3851352, 43.3122865], [18.3849284, 43.312376], [18.3848613, 43.3125061], [18.3841346, 43.3129902], [18.3839948, 43.3131651], [18.3838159, 43.3133278], [18.383391, 43.3137386], [18.3831059, 43.3138891], [18.3825357, 43.3142104], [18.3811046, 43.3149385], [18.3810264, 43.314967], [18.3808531, 43.3150646], [18.3807692, 43.3151093], [18.3805624, 43.3152639], [18.3805009, 43.3153168], [18.3803332, 43.3154144], [18.3802549, 43.3154429], [18.380171, 43.3154876], [18.3800033, 43.3155527], [18.3798524, 43.3156259], [18.3797797, 43.3156666], [18.3795952, 43.3157357], [18.3795114, 43.3157601], [18.3794164, 43.3157805], [18.3792375, 43.3158211], [18.379148, 43.3158455], [18.3790698, 43.3158862], [18.3790027, 43.315935], [18.3789244, 43.3159798], [18.3787791, 43.3160489], [18.3786784, 43.3160693], [18.3785834, 43.3160571], [18.3784828, 43.316053], [18.3782871, 43.3160733], [18.3782144, 43.3161099], [18.3781306, 43.3161343], [18.3779517, 43.3161587], [18.3778511, 43.3161506], [18.3776275, 43.3161872], [18.377538, 43.3162075], [18.3772585, 43.3162035], [18.3771635, 43.3161913], [18.3769734, 43.3161994], [18.376884, 43.3162157], [18.3765206, 43.3163336], [18.3758721, 43.3166143], [18.3757883, 43.3166428], [18.3751789, 43.316777], [18.3739267, 43.3169722], [18.3725459, 43.3172569], [18.3717241, 43.3175213], [18.3716347, 43.3175498], [18.3712769, 43.3176799], [18.3711931, 43.3177247], [18.3711204, 43.3177694], [18.3710421, 43.317806], [18.3709639, 43.3178426], [18.3708856, 43.3178751], [18.3708017, 43.3178955], [18.3706117, 43.3179036], [18.3704328, 43.3178711], [18.3703377, 43.317867], [18.370198, 43.3178426], [18.3697396, 43.3178141], [18.3696334, 43.317806], [18.3689961, 43.3178548], [18.3675985, 43.3180378], [18.3674867, 43.3180541], [18.3664749, 43.3181639], [18.3662848, 43.3181883], [18.3661898, 43.3182005], [18.3660947, 43.3182127], [18.3658152, 43.3182168], [18.3656363, 43.3182493], [18.3654351, 43.3183958], [18.3653512, 43.3184364], [18.3652729, 43.318469], [18.3651891, 43.3184974], [18.3650941, 43.3185218], [18.3648872, 43.3185584], [18.3647866, 43.3185706], [18.364686, 43.3185788], [18.3644065, 43.3185788], [18.364317, 43.3185666], [18.3642276, 43.3185869], [18.3641325, 43.3186113], [18.3640375, 43.3186357], [18.3639592, 43.3186723], [18.3638977, 43.3187211], [18.3638362, 43.318774], [18.3637748, 43.3188269], [18.3636462, 43.3189204], [18.363417, 43.3190424], [18.3633387, 43.319075], [18.3632604, 43.3191075], [18.3631766, 43.3191278], [18.3630816, 43.3191482], [18.3629865, 43.3191604], [18.3626287, 43.3192824], [18.3625169, 43.3193109], [18.3624275, 43.3193271], [18.3620585, 43.3193393], [18.3618796, 43.3193597], [18.3618014, 43.3193963], [18.3617343, 43.319441], [18.361684, 43.3194939], [18.3616449, 43.3195549], [18.361589, 43.3196037], [18.3614212, 43.3196688], [18.3611473, 43.3197217], [18.3610355, 43.3197501], [18.3609349, 43.3197745], [18.3608399, 43.3198071], [18.3606498, 43.319864], [18.3605659, 43.3198884], [18.3604653, 43.3199128], [18.3603591, 43.3199453], [18.3601802, 43.319986], [18.3600852, 43.3200145], [18.3599734, 43.3200389], [18.3598727, 43.3200633], [18.3597777, 43.3200796], [18.3596603, 43.320104], [18.3595597, 43.3201284], [18.3594758, 43.3201487], [18.3591516, 43.3202666], [18.359051, 43.3203073], [18.3589727, 43.3203358], [18.3588497, 43.3203765], [18.3587491, 43.3204212], [18.3586205, 43.3204781], [18.358464, 43.320531], [18.3583242, 43.3205757], [18.3579609, 43.3206937], [18.357877, 43.3207222], [18.3577932, 43.3207547], [18.3576925, 43.3207954], [18.3573403, 43.3210028], [18.3572733, 43.3210475], [18.3572006, 43.3210923], [18.3571167, 43.3211289], [18.3570329, 43.3211695], [18.3568428, 43.3212305], [18.3567422, 43.3212468], [18.3566471, 43.3212753], [18.3564683, 43.3213281], [18.356295, 43.3213729], [18.3561999, 43.3213973], [18.3559875, 43.3214258], [18.3557918, 43.3214339], [18.3556968, 43.321442], [18.3555067, 43.3214502], [18.3554117, 43.3214624], [18.3553167, 43.3214705], [18.3552104, 43.3214786], [18.3551154, 43.3214868], [18.3550092, 43.3214908], [18.3547185, 43.321499], [18.3546179, 43.3215112], [18.3545284, 43.3215437], [18.3543272, 43.321686], [18.3542657, 43.3217308], [18.3541259, 43.3218162], [18.3540309, 43.3218162], [18.353947, 43.3217837], [18.353852, 43.3217837], [18.3536675, 43.3218162], [18.3535781, 43.3218162], [18.353483, 43.3217837], [18.3534048, 43.321743], [18.353293, 43.3217104], [18.3532147, 43.3216657], [18.3531309, 43.3216291], [18.3530358, 43.3216332], [18.3529464, 43.3216454], [18.3528569, 43.3216738], [18.3527787, 43.3217104], [18.3527004, 43.3217511], [18.3526277, 43.3217877], [18.3524824, 43.3218813], [18.3524097, 43.3219341], [18.3523314, 43.3219789], [18.3522588, 43.3220155], [18.352147, 43.3220358], [18.3518339, 43.3220277], [18.3517501, 43.3219951], [18.3516103, 43.3218975], [18.3515376, 43.3218528], [18.3513923, 43.3217511], [18.351314, 43.3217104], [18.3512302, 43.3216779], [18.3511519, 43.3216454], [18.3510736, 43.3216128], [18.3509115, 43.3215478], [18.3508277, 43.3215112], [18.3506655, 43.321442], [18.3505817, 43.3214136], [18.3504978, 43.3213932], [18.3504084, 43.3213729], [18.3503189, 43.3213566], [18.3499668, 43.3212509], [18.3496872, 43.321259], [18.3495922, 43.3212671], [18.3494077, 43.3212956], [18.3492121, 43.3212997], [18.3491282, 43.32132], [18.34905, 43.3213566], [18.3488487, 43.3214949], [18.3487984, 43.3215518], [18.3487481, 43.3216047], [18.3486866, 43.3216494], [18.3485916, 43.3216535], [18.3484294, 43.3215925], [18.3483456, 43.32156], [18.3482561, 43.3215396], [18.3481611, 43.3215518], [18.3480828, 43.3215762], [18.3480046, 43.321621], [18.3479375, 43.3216698], [18.3478592, 43.3216982], [18.3477698, 43.3217023], [18.3476747, 43.3216942], [18.3473226, 43.321564], [18.3471045, 43.3215518], [18.3465176, 43.3216332], [18.3460312, 43.3218284], [18.3455057, 43.3221212], [18.3450417, 43.3224181], [18.3446504, 43.3226743], [18.3442982, 43.3228085], [18.3439907, 43.3228533], [18.3437056, 43.3228817], [18.3434876, 43.3229468], [18.3432305, 43.3229956], [18.3428615, 43.3229834], [18.3425429, 43.3229915], [18.3423416, 43.3229834], [18.3422019, 43.3229183], [18.3420956, 43.3227638], [18.3420901, 43.3225767], [18.3421236, 43.3222961], [18.3422242, 43.3219667], [18.3422242, 43.3215559], [18.3421739, 43.3210923], [18.3420062, 43.3204944], [18.3419223, 43.3203765], [18.3418385, 43.320348], [18.3417435, 43.3203561], [18.3415702, 43.3204537], [18.3411844, 43.3207913], [18.3407484, 43.3212224], [18.3406198, 43.3213729], [18.3405807, 43.3215152], [18.3404968, 43.3216657], [18.3403123, 43.3218162], [18.3400999, 43.3219423], [18.3398763, 43.3220195], [18.339798, 43.3221375], [18.3398036, 43.3223083], [18.3397645, 43.3225442], [18.3397142, 43.3227882], [18.3396247, 43.3229671], [18.3393564, 43.3232071], [18.3389092, 43.3234755], [18.3384676, 43.323687], [18.3379868, 43.3238944], [18.3374725, 43.3241791], [18.337165, 43.3243865], [18.3368704, 43.3247363], [18.3366865, 43.3249213], [18.3363999, 43.3251787], [18.336313, 43.3252346], [18.3362982, 43.3252153], [18.3362851, 43.3251905], [18.3362683, 43.3251551], [18.3335035, 43.3188201], [18.3299812, 43.3062573], [18.3269849, 43.3045026]]]}}]}