{"type": "FeatureCollection", "features": [{"type": "Feature", "properties": {"name": "Općina Glamoč, Hercegbosanska županija, Federacija Bosne i Hercegovine, 80230, Bosna i Hercegovina / Босна и Херцеговина", "source": "OpenStreetMap relation 2528199", "licence": "ODbL 1.0"}, "geometry": {"type": "Polygon", "coordinates": [[[16.5924126, 44.2421858], [16.5954472, 44.2377574], [16.5972317, 44.2367807], [16.5985999, 44.2358227], [16.6028612, 44.2335869], [16.6053383, 44.2320031], [16.6067072, 44.2307267], [16.6079091, 44.2297921], [16.6086942, 44.2292029], [16.6090429, 44.229053], [16.6098851, 44.2287647], [16.6100943, 44.2287454], [16.6102338, 44.2287762], [16.6110728, 44.2286075], [16.6113067, 44.2284725], [16.6125435, 44.2277028], [16.612552, 44.2264312], [16.611247, 44.2222777], [16.6095609, 44.2172641], [16.6079548, 44.2163944], [16.6083245, 44.2163218], [16.6087592, 44.2160346], [16.6098828, 44.2148646], [16.6116393, 44.2134485], [16.6137743, 44.2121181], [16.6160166, 44.2110876], [16.6174221, 44.210557], [16.618216, 44.2101802], [16.6189563, 44.2095419], [16.6196966, 44.2086421], [16.6229904, 44.2067656], [16.6244495, 44.2056966], [16.6258871, 44.2046045], [16.6266918, 44.203943], [16.6269278, 44.20342], [16.6271746, 44.2020125], [16.6269064, 44.2000358], [16.626091, 44.1971437], [16.625973, 44.1936899], [16.6260695, 44.193436], [16.6220998, 44.1909129], [16.6186237, 44.187651], [16.6176474, 44.1846352], [16.6175508, 44.1775259], [16.6190958, 44.1730398], [16.6194069, 44.1724857], [16.6200721, 44.1719932], [16.620638, 44.171552], [16.6189349, 44.1713391], [16.617862, 44.1710621], [16.6170037, 44.1707235], [16.6168857, 44.1699462], [16.616478, 44.1685379], [16.616199, 44.1676991], [16.6151047, 44.1669411], [16.6145199, 44.1667756], [16.6130823, 44.1663985], [16.6121757, 44.1662215], [16.6114569, 44.1660791], [16.6104108, 44.166083], [16.6097403, 44.1660983], [16.6088819, 44.1662061], [16.608324, 44.1663946], [16.6074121, 44.1667448], [16.6068113, 44.1669064], [16.6048801, 44.162812], [16.6045421, 44.1623695], [16.6040164, 44.1620385], [16.6034049, 44.1614651], [16.6029489, 44.1610649], [16.6021603, 44.1609225], [16.6016453, 44.1606493], [16.601243, 44.1603645], [16.6007549, 44.1603876], [16.5999341, 44.1603722], [16.5989792, 44.1603414], [16.5975952, 44.1602414], [16.5960851, 44.1602317], [16.5952871, 44.1602798], [16.6089678, 44.1560041], [16.6159385, 44.151133], [16.6221125, 44.1434808], [16.6249189, 44.1406614], [16.6288478, 44.137439], [16.6310929, 44.1330079], [16.6338993, 44.1301879], [16.6383895, 44.1273678], [16.6484924, 44.1225331], [16.6541052, 44.1197126], [16.655789, 44.1140713], [16.655789, 44.1120564], [16.659718, 44.1088324], [16.6625243, 44.1064143], [16.6664533, 44.102787], [16.6692596, 44.0999656], [16.6726273, 44.0959348], [16.6748724, 44.0931131], [16.6799239, 44.0886787], [16.682169, 44.0862597], [16.6860979, 44.0826312], [16.6889043, 44.0798088], [16.6962009, 44.0741637], [16.7001298, 44.0725507], [16.70462, 44.0693246], [16.7079877, 44.0673082], [16.7096715, 44.0640818], [16.7063038, 44.0628718], [16.70462, 44.0588385], [16.7034975, 44.0580318], [16.7029362, 44.0552082], [16.6995685, 44.0535947], [16.7051391, 44.0488349], [16.7054415, 44.0490642], [16.7061281, 44.0495038], [16.7060959, 44.0497197], [16.7061174, 44.0499125], [16.7063963, 44.0500359], [16.7066324, 44.0499819], [16.7069757, 44.0499202], [16.7072332, 44.0499742], [16.7076087, 44.049897], [16.7078018, 44.0498508], [16.7082417, 44.0498431], [16.7084885, 44.050059], [16.7086172, 44.0502363], [16.7090249, 44.0501978], [16.7093575, 44.0500898], [16.7104733, 44.0497428], [16.7111707, 44.0495732], [16.7116427, 44.0495423], [16.7121041, 44.0495346], [16.7132635, 44.0498546], [16.7116749, 44.0465811], [16.7109883, 44.0460259], [16.7108059, 44.045756], [16.7107093, 44.0454707], [16.710484, 44.0452702], [16.709851, 44.0451159], [16.7093897, 44.0450542], [16.7090356, 44.0449463], [16.7089283, 44.0448229], [16.7082202, 44.0447072], [16.7077482, 44.0445298], [16.7075443, 44.0443756], [16.7074585, 44.0443216], [16.7066431, 44.0439977], [16.7063749, 44.0437509], [16.7062247, 44.0434579], [16.7061496, 44.0432651], [16.7057633, 44.0428255], [16.705302, 44.0425633], [16.705066, 44.0424476], [16.7052913, 44.0415144], [16.7055917, 44.0411442], [16.705817, 44.0409437], [16.7063963, 44.0405735], [16.7069435, 44.040319], [16.709041, 44.0399372], [16.7110312, 44.0395092], [16.7115247, 44.0393009], [16.7119539, 44.0390773], [16.7122114, 44.0388767], [16.7122435, 44.0386762], [16.7112887, 44.0379358], [16.7107737, 44.0375887], [16.7105377, 44.037365], [16.7104518, 44.0371028], [16.7105055, 44.0369563], [16.7112028, 44.036586], [16.711514, 44.0363315], [16.7116535, 44.0360847], [16.7117393, 44.0359073], [16.712029, 44.0357299], [16.7123937, 44.0354368], [16.712501, 44.0351591], [16.7124581, 44.0348815], [16.7123079, 44.0346655], [16.7122865, 44.034465], [16.712265, 44.0342644], [16.7125332, 44.0340484], [16.7131126, 44.0335394], [16.7140245, 44.0331151], [16.7146468, 44.0328683], [16.7150867, 44.032714], [16.7161381, 44.0325212], [16.7168462, 44.0323824], [16.7183053, 44.0319813], [16.7184663, 44.031989], [16.7190564, 44.0323824], [16.719507, 44.0328452], [16.7202473, 44.0336319], [16.7205584, 44.0339019], [16.7207301, 44.0342336], [16.7222321, 44.0340639], [16.7228114, 44.033925], [16.7234766, 44.0337939], [16.7240667, 44.0335394], [16.7243779, 44.0333157], [16.7248499, 44.03266], [16.7254293, 44.0322358], [16.7264593, 44.0317499], [16.7269099, 44.0316187], [16.7272854, 44.031449], [16.7282832, 44.0290038], [16.7285299, 44.0284638], [16.7288196, 44.0282015], [16.7290234, 44.0280241], [16.729517, 44.0272527], [16.7296886, 44.0268593], [16.7296135, 44.0265661], [16.7295384, 44.0263116], [16.7296672, 44.0257484], [16.7294955, 44.0249307], [16.7293668, 44.024545], [16.7294311, 44.0242981], [16.7295492, 44.0242287], [16.7300534, 44.0239509], [16.7304397, 44.0238815], [16.7309224, 44.0236964], [16.7315018, 44.0234418], [16.7318559, 44.0233106], [16.733315, 44.0227552], [16.7347312, 44.0226472], [16.7357826, 44.0223077], [16.736877, 44.0221611], [16.7373812, 44.0220608], [16.738615, 44.0218448], [16.7391622, 44.0216597], [16.7395699, 44.0216597], [16.7398488, 44.0217137], [16.7407179, 44.0214899], [16.7418159, 44.0211162], [16.7539128, 44.0169986], [16.7543862, 44.0168375], [16.7571477, 44.0157466], [16.7573154, 44.0156804], [16.7645439, 44.0115316], [16.7650225, 44.0112569], [16.7681301, 44.0083346], [16.7728888, 44.0050772], [16.7734864, 44.004668], [16.7763483, 44.0027089], [16.7787194, 44.001698], [16.7812192, 44.0010188], [16.7814644, 44.0009645], [16.783483, 44.0005172], [16.7850065, 44.0000696], [16.7858648, 43.9995216], [16.7867553, 43.9989351], [16.7872381, 43.9985337], [16.7878067, 43.9983022], [16.7884505, 43.9981633], [16.7897808, 43.9980321], [16.7906928, 43.9978082], [16.791594, 43.9975921], [16.7925167, 43.9971522], [16.7928748, 43.9966886], [16.7933535, 43.9961257], [16.7940447, 43.9963682], [16.7977095, 43.9976539], [16.7982566, 43.9984488], [16.7986107, 43.998773], [16.7992651, 43.9989196], [16.8075678, 43.9996691], [16.8128586, 44.0001467], [16.8138993, 43.9998843], [16.8150043, 43.9994753], [16.8162703, 43.9984797], [16.8168497, 43.9978391], [16.8171823, 43.9974378], [16.8172681, 43.9969978], [16.8177509, 43.9965734], [16.8184698, 43.996172], [16.8192744, 43.9958787], [16.8199611, 43.9955546], [16.8203795, 43.9953307], [16.8212807, 43.9947364], [16.8217635, 43.9942116], [16.8222034, 43.9939337], [16.822536, 43.993787], [16.8229115, 43.9937407], [16.8230402, 43.9934011], [16.8233621, 43.9931387], [16.8238342, 43.9930229], [16.8241668, 43.9930306], [16.8245637, 43.9930924], [16.8249232, 43.9932274], [16.8252718, 43.9934127], [16.8255132, 43.9934667], [16.826393, 43.9932853], [16.8271011, 43.9929882], [16.8276536, 43.9925984], [16.8278199, 43.9923359], [16.8290698, 43.9913595], [16.8292147, 43.9910353], [16.8294088, 43.9909319], [16.8295044, 43.990881], [16.8298101, 43.9905722], [16.8300784, 43.9902789], [16.8304592, 43.9901322], [16.8308991, 43.9900164], [16.8315268, 43.9898042], [16.832031, 43.9896228], [16.832664, 43.989341], [16.8333024, 43.9890554], [16.8334365, 43.9889975], [16.8306899, 43.9840301], [16.8320632, 43.9823163], [16.8329429, 43.9811737], [16.8331146, 43.9800466], [16.8340695, 43.9791433], [16.8346488, 43.9786492], [16.8373847, 43.976194], [16.8376422, 43.9754296], [16.8376529, 43.9750668], [16.8376851, 43.9747193], [16.8379426, 43.9729049], [16.8435477, 43.9696322], [16.8437428, 43.9695183], [16.8485749, 43.9666967], [16.8498301, 43.9661716], [16.8503941, 43.965908], [16.8506033, 43.9658103], [16.8506563, 43.9657855], [16.850721, 43.965755], [16.8512785, 43.965492], [16.8514043, 43.9654037], [16.8521583, 43.9648125], [16.8528986, 43.9638549], [16.8530984, 43.9635399], [16.8533492, 43.9631445], [16.8538749, 43.9621714], [16.8539126, 43.9620813], [16.8546045, 43.9604261], [16.8547761, 43.9596538], [16.854801, 43.9592761], [16.8548416, 43.9586603], [16.8551195, 43.9582946], [16.8554628, 43.9580629], [16.8558812, 43.9577848], [16.8561065, 43.9577926], [16.8561846, 43.9578083], [16.8593498, 43.9584277], [16.8596826, 43.958493], [16.8612349, 43.9587966], [16.8614728, 43.9588443], [16.8718362, 43.9609208], [16.8722963, 43.961013], [16.8727255, 43.9609512], [16.8735301, 43.9606578], [16.874088, 43.9605265], [16.8770277, 43.9609821], [16.8780792, 43.961152], [16.8794846, 43.9611211], [16.8818879, 43.9615459], [16.8828213, 43.9617853], [16.8856537, 43.9631059], [16.8868603, 43.9636703], [16.8885183, 43.9630286], [16.8904602, 43.9620788], [16.890619, 43.9619128], [16.8910289, 43.9614841], [16.8913078, 43.9609204], [16.8915975, 43.9604415], [16.8918764, 43.9601712], [16.893239, 43.9596693], [16.8938076, 43.9595534], [16.9096341, 43.9533046], [16.9111833, 43.9526999], [16.9121664, 43.9523047], [16.9130749, 43.951946], [16.9160485, 43.9507718], [16.9224751, 43.9481842], [16.9287566, 43.9490998], [16.9292759, 43.9486001], [16.9312973, 43.9466553], [16.9334021, 43.9428667], [16.9344724, 43.9409401], [16.9368536, 43.9346527], [16.9376474, 43.9312229], [16.9376474, 43.9310721], [16.9376474, 43.9279608], [16.9376474, 43.9272212], [16.9377763, 43.9268035], [16.937831, 43.9266262], [16.9382554, 43.9252505], [16.938969, 43.9229377], [16.9392349, 43.9220758], [16.9408027, 43.917935], [16.9410872, 43.9171837], [16.9416162, 43.9157864], [16.9422032, 43.9128263], [16.94241, 43.9117837], [16.9427146, 43.9115094], [16.9453911, 43.9090992], [16.9487601, 43.9060651], [16.9504489, 43.9028643], [16.9513412, 43.901173], [16.9513804, 43.9011167], [16.9555789, 43.8950125], [16.9566977, 43.8934822], [16.9574915, 43.8923381], [16.9606666, 43.8883339], [16.9640332, 43.887532], [16.9710293, 43.8856204], [16.9740593, 43.8845937], [16.9787532, 43.8831438], [16.9831185, 43.8831026], [16.9858289, 43.8830007], [16.9888759, 43.8824169], [16.9929206, 43.8811603], [16.9940046, 43.8757472], [16.9944602, 43.8757941], [16.995776, 43.8759296], [16.999561, 43.8763194], [17.0040137, 43.8773892], [17.0043236, 43.8774637], [17.0070473, 43.8785856], [17.0085841, 43.8792186], [17.0089969, 43.8793886], [17.0098799, 43.8797524], [17.0109433, 43.8793692], [17.0118072, 43.8790578], [17.0125664, 43.8787842], [17.0146425, 43.8780359], [17.0156029, 43.8762462], [17.0182026, 43.8714013], [17.0257552, 43.8717418], [17.0360741, 43.8774637], [17.0400429, 43.8791802], [17.0471868, 43.882613], [17.0472852, 43.8826434], [17.0527431, 43.8843293], [17.0582427, 43.8856354], [17.059887, 43.8860456], [17.0630621, 43.8877618], [17.0641222, 43.8885258], [17.0662371, 43.89005], [17.0709997, 43.8934822], [17.073381, 43.8946262], [17.0728913, 43.895332], [17.0717935, 43.8969141], [17.0694122, 43.899774], [17.0702059, 43.9026336], [17.0712871, 43.9038021], [17.076556, 43.9094963], [17.0797311, 43.9117837], [17.0844937, 43.9163582], [17.0932906, 43.9205458], [17.0952212, 43.9235604], [17.0977529, 43.9275134], [17.0965612, 43.9295809], [17.0957351, 43.9305737], [17.0954829, 43.9312575], [17.0953917, 43.9318718], [17.0954561, 43.9327565], [17.0956224, 43.9335291], [17.0957565, 43.9344099], [17.0956922, 43.9346649], [17.0952523, 43.9351671], [17.0952147, 43.9354723], [17.0952415, 43.9360285], [17.0930904, 43.9371527], [17.0899522, 43.9397253], [17.08911, 43.9400189], [17.0880961, 43.9403395], [17.0872807, 43.9404824], [17.086637, 43.9405828], [17.0860255, 43.9407644], [17.0853388, 43.9411198], [17.0847487, 43.9413476], [17.0844161, 43.9414558], [17.0834935, 43.9417532], [17.0831233, 43.9419464], [17.0828766, 43.9420352], [17.0823723, 43.9420545], [17.08175, 43.9420661], [17.0810795, 43.9419695], [17.080704, 43.9419618], [17.0802664, 43.9420296], [17.0857073, 43.9503399], [17.0878457, 43.9523541], [17.0884511, 43.9534803], [17.0905123, 43.9567863], [17.0901159, 43.9574401], [17.0875384, 43.9617192], [17.0853669, 43.9689843], [17.0861651, 43.9699479], [17.0856673, 43.9703556], [17.086663, 43.9745189], [17.0942412, 43.9846602], [17.0955276, 43.9854646], [17.0959461, 43.9860882], [17.0960579, 43.988255], [17.090529, 43.9951071], [17.0889459, 43.9960516], [17.0880467, 43.996845], [17.0865061, 43.9994722], [17.0854804, 43.9997732], [17.0850384, 44.0002285], [17.0854311, 44.0005311], [17.085047, 44.0018075], [17.0861435, 44.0044376], [17.0852487, 44.0061832], [17.0853407, 44.0101623], [17.0854121, 44.0132536], [17.0856904, 44.0137502], [17.0878043, 44.0146495], [17.0879373, 44.0154458], [17.0889072, 44.0161363], [17.0891647, 44.0184378], [17.0884727, 44.0215385], [17.0885016, 44.02309], [17.087137, 44.025304], [17.0847723, 44.0253365], [17.0836973, 44.0265584], [17.0841887, 44.0272172], [17.0827017, 44.0279223], [17.0796697, 44.0285302], [17.0801439, 44.0292691], [17.0790968, 44.0299741], [17.0790324, 44.0309199], [17.0784938, 44.0310479], [17.0780969, 44.0311559], [17.0776784, 44.0321741], [17.0780325, 44.0324286], [17.0787106, 44.0327403], [17.0786869, 44.0340824], [17.0792427, 44.0342722], [17.079792, 44.0347118], [17.0802147, 44.0352239], [17.079189, 44.0360492], [17.0798135, 44.0363392], [17.0800452, 44.0365028], [17.0800688, 44.0366817], [17.0791097, 44.037291], [17.0778866, 44.0381363], [17.0800752, 44.0399118], [17.0801568, 44.0420157], [17.0806847, 44.0426342], [17.082442, 44.0414141], [17.0828926, 44.0412985], [17.0832038, 44.0413524], [17.0838368, 44.0416532], [17.0839548, 44.0418152], [17.0841372, 44.0420388], [17.0844376, 44.0421391], [17.0850706, 44.0425247], [17.0864954, 44.0438466], [17.0840342, 44.0458763], [17.0824313, 44.0469744], [17.0832038, 44.0476531], [17.0844161, 44.0489457], [17.084766, 44.0493867], [17.0852188, 44.0496303], [17.0873258, 44.0523815], [17.0858764, 44.0535531], [17.0824141, 44.0570849], [17.0848153, 44.0576725], [17.0847702, 44.0579316], [17.0849097, 44.0582245], [17.0852101, 44.058425], [17.0854075, 44.0585237], [17.0854987, 44.0587727], [17.0854354, 44.0595892], [17.0856114, 44.0603402], [17.085298, 44.0604388], [17.0845663, 44.0609338], [17.0850384, 44.0615552], [17.0851242, 44.061694], [17.0848474, 44.0638789], [17.085005, 44.0641476], [17.0846457, 44.0653822], [17.0845985, 44.0659573], [17.0844376, 44.0660806], [17.0837295, 44.0666434], [17.0826888, 44.067052], [17.0814013, 44.0677689], [17.0808113, 44.0679539], [17.0813155, 44.0691873], [17.0814443, 44.0694802], [17.0811954, 44.0698487], [17.0809615, 44.0700198], [17.0801031, 44.070413], [17.0796525, 44.0708061], [17.0798113, 44.071136], [17.0794809, 44.0715846], [17.0805108, 44.0723169], [17.0809099, 44.0753323], [17.0815194, 44.0750841], [17.0822811, 44.0763868], [17.0831287, 44.0758549], [17.0842037, 44.0769139], [17.0842874, 44.0781364], [17.084856, 44.0786142], [17.0840299, 44.0792463], [17.0811653, 44.0810343], [17.0806074, 44.081805], [17.0795774, 44.0824062], [17.0782363, 44.0840323], [17.0782395, 44.0844309], [17.0782245, 44.0849765], [17.0777844, 44.0856343], [17.0769299, 44.0864678], [17.0762622, 44.087454], [17.0758009, 44.0882632], [17.0738268, 44.0900741], [17.0723247, 44.0910142], [17.0726986, 44.0914456], [17.0654721, 44.0955662], [17.0634698, 44.0968898], [17.0610119, 44.0981761], [17.0563666, 44.1015458], [17.0520512, 44.1047403], [17.0479975, 44.1078978], [17.0431514, 44.1116485], [17.0431165, 44.1201099], [17.0390713, 44.121688], [17.0375568, 44.1222806], [17.0353246, 44.1231168], [17.032771, 44.124154], [17.0302887, 44.1250679], [17.0254161, 44.1268674], [17.0235994, 44.1275389], [17.0214347, 44.128457], [17.0188402, 44.1304231], [17.0171729, 44.1317479], [17.0136221, 44.1344352], [17.0082809, 44.1381708], [17.0049634, 44.1403569], [17.001042, 44.1425573], [16.9923171, 44.1464102], [16.9826177, 44.1505886], [16.9794582, 44.152097], [16.9760025, 44.1539349], [16.9544493, 44.1666527], [16.9458492, 44.1728923], [16.9399194, 44.1771942], [16.9322249, 44.1827759], [16.9207572, 44.1911088], [16.916121, 44.1950372], [16.9097856, 44.1990589], [16.9091899, 44.1994355], [16.9058903, 44.2015216], [16.9019255, 44.2039827], [16.8979491, 44.2089491], [16.8964961, 44.2107812], [16.8938833, 44.2140756], [16.8932736, 44.2148444], [16.8900936, 44.2187418], [16.8885017, 44.2207249], [16.8869993, 44.2226862], [16.8867133, 44.2230636], [16.8865069, 44.2233362], [16.8864553, 44.2233659], [16.884388, 44.224573], [16.8822479, 44.2254971], [16.8776341, 44.2275167], [16.8740987, 44.2290622], [16.8729036, 44.2296039], [16.8685121, 44.2320256], [16.8651435, 44.2337582], [16.8621696, 44.2352995], [16.8602851, 44.2363908], [16.8542316, 44.2399831], [16.8515301, 44.2415362], [16.8512525, 44.2417009], [16.8451247, 44.2442672], [16.844118, 44.2446888], [16.8344874, 44.2487257], [16.8311055, 44.2496868], [16.8271118, 44.2506791], [16.8198254, 44.2527299], [16.8171888, 44.2534656], [16.8092451, 44.2556823], [16.811935, 44.2608162], [16.8128051, 44.2624203], [16.813058, 44.2628782], [16.8091204, 44.264615], [16.8014559, 44.2677401], [16.7975761, 44.2693276], [16.7953398, 44.2702894], [16.7877603, 44.2735491], [16.7820739, 44.2759965], [16.7773731, 44.2780677], [16.7713718, 44.2807181], [16.7681462, 44.2821578], [16.7634129, 44.2866682], [16.758665, 44.2912367], [16.7549312, 44.2947594], [16.7534345, 44.2962435], [16.745721, 44.3039651], [16.7380412, 44.3117536], [16.7361452, 44.3136544], [16.7334664, 44.3164314], [16.7324804, 44.317433], [16.7284409, 44.3186732], [16.7245922, 44.3198879], [16.722427, 44.3205717], [16.7213134, 44.3210864], [16.7121208, 44.3253486], [16.7053789, 44.3285176], [16.7037829, 44.3284738], [16.7013281, 44.328965], [16.6950882, 44.3295729], [16.687031, 44.3184606], [16.6831101, 44.3061016], [16.6719459, 44.294733], [16.6496332, 44.281784], [16.6316986, 44.2793996], [16.6274049, 44.2777198], [16.6238456, 44.2776984], [16.6225877, 44.2766059], [16.6206135, 44.2761759], [16.6178668, 44.2721919], [16.616093, 44.2692898], [16.6155384, 44.2689439], [16.615462, 44.2686226], [16.6157747, 44.2683411], [16.6162258, 44.2680437], [16.615701, 44.2676057], [16.6148706, 44.2672524], [16.6146086, 44.2671414], [16.6142282, 44.2671292], [16.6133996, 44.2669031], [16.6124858, 44.2664658], [16.6122787, 44.2661785], [16.6111695, 44.2666524], [16.610758, 44.2668814], [16.6085855, 44.2648771], [16.6080492, 44.2646442], [16.6074609, 44.2639642], [16.6083398, 44.2638524], [16.6083022, 44.2633868], [16.6070807, 44.2634801], [16.6063016, 44.2627163], [16.6051295, 44.2623447], [16.6039017, 44.2607287], [16.6033853, 44.2610667], [16.603146, 44.2608784], [16.6032983, 44.2607152], [16.6022606, 44.2600639], [16.6017464, 44.2587242], [16.6007744, 44.257775], [16.6003131, 44.2565776], [16.5998872, 44.2562398], [16.5995135, 44.2552125], [16.5979092, 44.2542834], [16.5962396, 44.251009], [16.5957578, 44.2508211], [16.5951374, 44.2505927], [16.5950202, 44.2504364], [16.5949941, 44.2501124], [16.5949938, 44.248812], [16.5940437, 44.245615], [16.5924126, 44.2421858]]]}}]}