{"type": "FeatureCollection", "features": [{"type": "Feature", "properties": {"name": "Grad Goražde, Bosansko-podrinjski kanton Goražde, Federacija Bosne i Hercegovine, Bosna i Hercegovina / Босна и Херцеговина", "source": "OpenStreetMap relation 2528200", "licence": "ODbL 1.0"}, "geometry": {"type": "Polygon", "coordinates": [[[18.7047955, 43.6650328], [18.7074604, 43.6638456], [18.7088636, 43.6630336], [18.7097055, 43.6622215], [18.7108281, 43.6608003], [18.7125119, 43.6593792], [18.7146436, 43.6578083], [18.7171663, 43.656482], [18.7189974, 43.6557509], [18.7218959, 43.6539882], [18.7243651, 43.6524443], [18.7249468, 43.6512407], [18.7252003, 43.6508014], [18.7262757, 43.6505649], [18.7272311, 43.6502679], [18.7286916, 43.6498213], [18.7306378, 43.6489669], [18.734343, 43.6483715], [18.7344017, 43.6484146], [18.7377693, 43.6488207], [18.7400144, 43.6488207], [18.7414176, 43.649633], [18.7433821, 43.6500391], [18.7459078, 43.6500391], [18.7489948, 43.6512574], [18.7509593, 43.6516635], [18.7523625, 43.6514605], [18.754327, 43.6508513], [18.7562914, 43.649836], [18.7576946, 43.649836], [18.7599397, 43.6480084], [18.7613429, 43.6469931], [18.7616235, 43.6461808], [18.7619042, 43.64415], [18.7627461, 43.6429315], [18.7630267, 43.6427284], [18.7638686, 43.6400883], [18.7638686, 43.6380573], [18.763588, 43.6366356], [18.7627461, 43.6354169], [18.7621848, 43.633792], [18.7624655, 43.6333858], [18.763588, 43.6317608], [18.7647106, 43.6293233], [18.7664105, 43.6271558], [18.767589, 43.6258153], [18.7683015, 43.6248675], [18.7692008, 43.6238385], [18.7701323, 43.6226584], [18.7703233, 43.6224164], [18.7708846, 43.6216038], [18.7728491, 43.6201817], [18.7745329, 43.6193691], [18.7768853, 43.6192803], [18.7790727, 43.6193903], [18.7810389, 43.6198289], [18.7824404, 43.6202222], [18.7839916, 43.6211787], [18.7860226, 43.6211435], [18.7892186, 43.6215213], [18.7904022, 43.6214113], [18.7923256, 43.6214658], [18.7946672, 43.6214362], [18.7960698, 43.6220885], [18.7963657, 43.6229574], [18.8000833, 43.6271828], [18.8017666, 43.6285546], [18.8046983, 43.6281544], [18.8091982, 43.627643], [18.8113419, 43.627436], [18.8125461, 43.6277972], [18.8131711, 43.6284438], [18.8137944, 43.6296494], [18.8144424, 43.6297668], [18.8169092, 43.6262762], [18.8174413, 43.6251544], [18.8174105, 43.6241375], [18.8191543, 43.6226196], [18.8206628, 43.6225831], [18.821322, 43.621778], [18.8217429, 43.6210567], [18.8225178, 43.6204584], [18.8234205, 43.6191424], [18.8242008, 43.6185878], [18.8251572, 43.6181302], [18.8266657, 43.6182773], [18.8279636, 43.6176216], [18.8283912, 43.6173157], [18.8303116, 43.6172979], [18.8319771, 43.6168292], [18.8330613, 43.6165855], [18.8341497, 43.6173449], [18.8362007, 43.6167718], [18.8388073, 43.6176111], [18.8401888, 43.6171993], [18.8411698, 43.6171137], [18.843071, 43.6177009], [18.8441794, 43.6177111], [18.8453602, 43.6171112], [18.8464852, 43.6169401], [18.8481272, 43.6167113], [18.8506161, 43.6159761], [18.8516191, 43.6149314], [18.8522031, 43.6152073], [18.8527548, 43.6150186], [18.8536118, 43.614061], [18.8546526, 43.6138309], [18.8561494, 43.61369], [18.8564611, 43.6129238], [18.8573582, 43.6125814], [18.8578214, 43.6116022], [18.8586787, 43.6112635], [18.8592428, 43.6114148], [18.8604027, 43.6118818], [18.8612082, 43.6119494], [18.8614757, 43.611812], [18.8621943, 43.6109016], [18.8623221, 43.6105944], [18.8655111, 43.6094124], [18.8643789, 43.6085412], [18.8639409, 43.6081761], [18.8633159, 43.607587], [18.8624795, 43.6067319], [18.8619655, 43.6058196], [18.8606235, 43.6048402], [18.8605333, 43.6047617], [18.8584519, 43.6029488], [18.8557865, 43.6006417], [18.8535366, 43.5986942], [18.8547385, 43.5980141], [18.8579348, 43.5967482], [18.8589434, 43.5964154], [18.8598588, 43.5964429], [18.8612839, 43.5962564], [18.862619, 43.5959656], [18.8638817, 43.5963152], [18.8643067, 43.5968096], [18.8650912, 43.5972684], [18.8661532, 43.5979032], [18.8673496, 43.5976693], [18.8695824, 43.5974264], [18.8716183, 43.5975072], [18.8747052, 43.5973437], [18.8759217, 43.597161], [18.8781076, 43.5968328], [18.8806268, 43.5963627], [18.8845004, 43.5942793], [18.8847461, 43.5913005], [18.8972237, 43.5950888], [18.9001479, 43.5959766], [18.9015161, 43.5967836], [18.90345, 43.5979242], [18.9055805, 43.5993029], [18.908218, 43.6010096], [18.9111826, 43.6029279], [18.9170412, 43.6038876], [18.9223834, 43.6047626], [18.9249978, 43.6051223], [18.9280203, 43.6060636], [18.9388703, 43.6094423], [18.9431878, 43.6107867], [18.9455715, 43.6109275], [18.9627827, 43.6119444], [18.9702462, 43.6123009], [18.9709895, 43.6123364], [18.9719731, 43.612482], [18.9766767, 43.6144945], [18.9794783, 43.616299], [18.9798351, 43.6164686], [18.9837053, 43.6178894], [18.9883966, 43.6196721], [18.9900394, 43.6203296], [18.9907089, 43.6205975], [18.9930953, 43.6215527], [18.9951565, 43.6225758], [18.9979942, 43.6248346], [19.0001101, 43.6264995], [19.0026745, 43.6284765], [19.0069021, 43.6317358], [19.0071469, 43.6319245], [19.0110793, 43.6349463], [19.0131781, 43.63657], [19.0143216, 43.6374546], [19.0148204, 43.6378405], [19.0157464, 43.6420848], [19.01607, 43.6435945], [19.0169902, 43.6495713], [19.0171645, 43.6553991], [19.0172293, 43.6575645], [19.017219, 43.6576595], [19.0166753, 43.6626763], [19.0156839, 43.6637697], [19.0148114, 43.664732], [19.0085352, 43.6716534], [19.0057135, 43.6746476], [19.004969, 43.6754662], [19.0002999, 43.6806], [19.000264, 43.6809365], [19.0000252, 43.6831754], [18.9993387, 43.6850702], [18.9965078, 43.686411], [18.9922295, 43.6881681], [18.991256, 43.6885679], [18.9876756, 43.6900384], [18.9863393, 43.69059], [18.9846437, 43.69129], [18.9842213, 43.6915038], [18.9785668, 43.6941754], [18.9749776, 43.6961938], [18.9700027, 43.7010737], [18.9678, 43.7032343], [18.9667681, 43.7044222], [18.9664024, 43.7048432], [18.9659688, 43.7053424], [18.9651768, 43.7062505], [18.9617648, 43.7101624], [18.9584271, 43.7139529], [18.9498928, 43.7235586], [18.9390118, 43.7231066], [18.9387942, 43.7224669], [18.9380754, 43.7219865], [18.9376883, 43.7219585], [18.9373183, 43.7220167], [18.9365953, 43.7225649], [18.935979, 43.7226136], [18.9360036, 43.722268], [18.9363144, 43.722126], [18.9366083, 43.7213305], [18.9310181, 43.721278], [18.9290337, 43.721278], [18.9259829, 43.7214349], [18.9223, 43.7221807], [18.9150237, 43.7211386], [18.9118197, 43.7205239], [18.9107939, 43.7210228], [18.9106182, 43.721438], [18.9107433, 43.722017], [18.9108203, 43.7221077], [18.9108477, 43.7221767], [18.9107898, 43.7222282], [18.910667, 43.7222305], [18.9106027, 43.7221906], [18.9104341, 43.7221028], [18.9101803, 43.7220335], [18.9099385, 43.7220928], [18.9097837, 43.7222715], [18.9095716, 43.7226257], [18.9095429, 43.7229533], [18.9097067, 43.7234996], [18.9096217, 43.7236296], [18.9094324, 43.7236244], [18.9092449, 43.723556], [18.9091542, 43.7234341], [18.9081278, 43.7227928], [18.9063995, 43.7226169], [18.9061265, 43.7226112], [18.9059787, 43.7227248], [18.9058671, 43.7229064], [18.9055354, 43.7231389], [18.9052091, 43.7234484], [18.9047743, 43.7237005], [18.9045771, 43.7237138], [18.9043798, 43.7237009], [18.9039637, 43.7237326], [18.903153, 43.7238221], [18.9028451, 43.7237882], [18.9022263, 43.7236184], [18.9018533, 43.7237203], [18.9016177, 43.7238849], [18.9012944, 43.7240593], [18.9009567, 43.7242023], [18.9005466, 43.7242617], [18.9001221, 43.724248], [18.8996749, 43.7242338], [18.89905, 43.7244356], [18.8983672, 43.7245173], [18.8976956, 43.7246144], [18.8971103, 43.7244148], [18.8966902, 43.7242807], [18.8962428, 43.7241029], [18.895199, 43.7233295], [18.8940133, 43.7226176], [18.893472, 43.7222212], [18.8921384, 43.7222084], [18.8913898, 43.7220544], [18.8905573, 43.7216739], [18.889968, 43.7216428], [18.8896062, 43.7211257], [18.8885367, 43.7200701], [18.8852195, 43.7177238], [18.8839726, 43.7155111], [18.8798634, 43.7191143], [18.8769748, 43.7192783], [18.8773444, 43.721033], [18.8763386, 43.72103], [18.8756462, 43.7209337], [18.8751531, 43.7209964], [18.8746666, 43.7210614], [18.8720623, 43.7239933], [18.8707829, 43.7251075], [18.8699805, 43.7256855], [18.8692932, 43.7261481], [18.8688409, 43.7267231], [18.8686923, 43.7271496], [18.8684187, 43.7274718], [18.8677172, 43.7272542], [18.8673053, 43.7263429], [18.8662605, 43.7254948], [18.8649445, 43.7245362], [18.8640742, 43.7241939], [18.8630211, 43.7239506], [18.8626089, 43.724173], [18.8622961, 43.7241741], [18.8621092, 43.7239544], [18.8617852, 43.7239219], [18.8615844, 43.7236501], [18.8612715, 43.7237434], [18.8609418, 43.7234039], [18.8605359, 43.7231084], [18.8597215, 43.7226491], [18.8594684, 43.722367], [18.8591596, 43.7221585], [18.8589241, 43.722277], [18.8588184, 43.7224424], [18.8584586, 43.7226995], [18.8582117, 43.7227117], [18.8579462, 43.72263], [18.8574245, 43.7223194], [18.8571456, 43.7223682], [18.8568667, 43.7224371], [18.8563275, 43.7226217], [18.8556801, 43.7228738], [18.8553804, 43.7228615], [18.8552475, 43.7225611], [18.8545552, 43.7226838], [18.8543219, 43.7230276], [18.854335, 43.723233], [18.8542276, 43.7234719], [18.8539522, 43.7235258], [18.8536489, 43.7235829], [18.8536775, 43.7238715], [18.8532935, 43.72381], [18.8532614, 43.7241829], [18.8531181, 43.7242811], [18.8528633, 43.7243474], [18.8525899, 43.7244806], [18.8521267, 43.7248007], [18.8515059, 43.7247138], [18.8509963, 43.724848], [18.8505053, 43.7251233], [18.850793, 43.7255326], [18.8506427, 43.7256465], [18.8504351, 43.725725], [18.8497497, 43.7257399], [18.8495257, 43.7256942], [18.8493181, 43.7258022], [18.8488701, 43.7259769], [18.8486189, 43.7259796], [18.8483185, 43.7259231], [18.848055, 43.725843], [18.8478455, 43.725865], [18.8476769, 43.7259877], [18.8468963, 43.726609], [18.8467392, 43.7266603], [18.846549, 43.7266336], [18.8463807, 43.7265561], [18.8461628, 43.7264694], [18.8459144, 43.7265551], [18.845722, 43.7265439], [18.8455209, 43.7264881], [18.8453735, 43.7264451], [18.8452525, 43.7264848], [18.8451272, 43.7264832], [18.845048, 43.7263975], [18.8448765, 43.7265994], [18.8447475, 43.7266455], [18.8446301, 43.726624], [18.8445609, 43.7266644], [18.8444916, 43.7267492], [18.8444278, 43.7267727], [18.8443093, 43.726756], [18.8441273, 43.7265949], [18.8438396, 43.7265308], [18.8435871, 43.7266352], [18.843497, 43.7265866], [18.8433806, 43.7265539], [18.8432663, 43.7266055], [18.84324, 43.7266856], [18.8431544, 43.7267633], [18.8429501, 43.7268028], [18.8428268, 43.726783], [18.8427299, 43.7267473], [18.8425977, 43.7266219], [18.8424416, 43.7265046], [18.8420807, 43.7264552], [18.8419057, 43.7264511], [18.8417307, 43.7264693], [18.8415416, 43.7264216], [18.8413866, 43.7262993], [18.8410777, 43.7261102], [18.8409716, 43.7260414], [18.8407775, 43.7259918], [18.8406802, 43.7260597], [18.8406646, 43.7261223], [18.8405654, 43.7261785], [18.8404609, 43.7262405], [18.840279, 43.7262206], [18.8401792, 43.7262234], [18.8400354, 43.7262675], [18.8378331, 43.726622], [18.8350127, 43.7261677], [18.8334731, 43.7259292], [18.8333129, 43.7259044], [18.831621, 43.7256422], [18.8310885, 43.7255658], [18.8291759, 43.7252913], [18.8262554, 43.7242039], [18.8243012, 43.7238902], [18.8241053, 43.7236002], [18.8234825, 43.7235135], [18.8231375, 43.7234459], [18.8228598, 43.7234755], [18.822347, 43.7235764], [18.8212181, 43.7233547], [18.8202229, 43.722811], [18.818999, 43.7226661], [18.8169588, 43.7224833], [18.8161977, 43.721531], [18.813972, 43.7210108], [18.8125124, 43.721343], [18.8104021, 43.7213306], [18.8098965, 43.7210905], [18.8098728, 43.7208349], [18.8099481, 43.7206815], [18.8101531, 43.7203871], [18.8098275, 43.7200174], [18.8083991, 43.719823], [18.8082441, 43.7193319], [18.8068999, 43.7189534], [18.8048472, 43.7191968], [18.803445, 43.7190589], [18.8017432, 43.7193282], [18.8000471, 43.7186965], [18.796872, 43.7186965], [18.7944907, 43.719557], [18.7913157, 43.7198438], [18.7905219, 43.719557], [18.7889344, 43.7186965], [18.7861562, 43.7172622], [18.7849656, 43.7143937], [18.7829812, 43.7129593], [18.780203, 43.7129593], [18.7770279, 43.7132462], [18.7729093, 43.7136778], [18.7711401, 43.7145667], [18.769706, 43.7152878], [18.7681221, 43.7157841], [18.7667199, 43.7161617], [18.764932, 43.7164773], [18.7627772, 43.7168128], [18.7616464, 43.7168061], [18.7551994, 43.7169754], [18.7524213, 43.7169754], [18.7512306, 43.7172622], [18.7460712, 43.7172622], [18.743293, 43.7155411], [18.7409117, 43.7135331], [18.7405148, 43.7112381], [18.7393242, 43.7098037], [18.7373398, 43.7075085], [18.7353554, 43.7043526], [18.7345616, 43.7037788], [18.7325772, 43.6977533], [18.7305928, 43.6963185], [18.7270208, 43.6951707], [18.7250364, 43.692875], [18.7234489, 43.6894313], [18.7210676, 43.6868484], [18.7190832, 43.6865614], [18.7174957, 43.6848394], [18.7178926, 43.6828303], [18.7178926, 43.6768027], [18.7174957, 43.6750805], [18.716305, 43.6736452], [18.7139237, 43.6710616], [18.7119393, 43.6696262], [18.7091612, 43.6667554], [18.7071767, 43.6661812], [18.7047955, 43.6650328]]]}}]}