{"type": "FeatureCollection", "features": [{"type": "Feature", "properties": {"name": "Općina Gornji Vakuf-Uskoplje, Srednjobosanski kanton / Županija Središnja Bosna, Federacija Bosne i Hercegovine, Bosna i Hercegovina / Босна и Херцеговина", "source": "OpenStreetMap relation 2528201", "licence": "ODbL 1.0"}, "geometry": {"type": "Polygon", "coordinates": [[[17.4422121, 43.90536], [17.4425125, 43.9044711], [17.4428666, 43.903385], [17.4431294, 43.9026313], [17.4432903, 43.9021945], [17.4435103, 43.9017925], [17.4437517, 43.9014331], [17.4442184, 43.9009228], [17.4449265, 43.9003547], [17.4464929, 43.8988472], [17.4471635, 43.8988819], [17.4475497, 43.8988046], [17.447893, 43.8987196], [17.4484885, 43.8985727], [17.4489391, 43.8984568], [17.4542767, 43.8968758], [17.4548936, 43.8912511], [17.4554837, 43.890853], [17.4559504, 43.8905205], [17.4561167, 43.8903774], [17.4562776, 43.8897898], [17.4562561, 43.8895849], [17.4563312, 43.8893684], [17.45646, 43.8892138], [17.4565887, 43.8890553], [17.4569213, 43.8878336], [17.4570662, 43.8872227], [17.4565458, 43.8870835], [17.4562937, 43.8870062], [17.4561757, 43.8869212], [17.456122, 43.8868168], [17.4557304, 43.886318], [17.4553442, 43.8860049], [17.4551296, 43.8858154], [17.4548614, 43.8857342], [17.4543089, 43.8856414], [17.4540889, 43.8856221], [17.4535257, 43.8857265], [17.4531662, 43.8857806], [17.4528712, 43.8857033], [17.4525386, 43.8855293], [17.4523508, 43.8853128], [17.4520504, 43.8850151], [17.4519002, 43.8847561], [17.4516357, 43.8844704], [17.4493779, 43.8815851], [17.4599844, 43.8791032], [17.4656707, 43.8802787], [17.4713033, 43.8781907], [17.4745542, 43.8770422], [17.4772632, 43.8761374], [17.4857712, 43.8759731], [17.4858597, 43.875857], [17.4859402, 43.8757971], [17.4860501, 43.8757623], [17.486254, 43.8757294], [17.4869943, 43.8756598], [17.4872598, 43.875598], [17.4874663, 43.8755245], [17.4876755, 43.8754317], [17.4877989, 43.8753833], [17.4879304, 43.8753814], [17.4881047, 43.8754162], [17.4888986, 43.8757739], [17.4890891, 43.875828], [17.4893546, 43.8759112], [17.4895477, 43.8759518], [17.4896255, 43.8760369], [17.4896443, 43.8761413], [17.4898964, 43.8767348], [17.4900144, 43.8768257], [17.4901593, 43.8769069], [17.4903926, 43.8769514], [17.4907064, 43.8769146], [17.4910605, 43.8769011], [17.4913233, 43.877021], [17.4915513, 43.8771505], [17.4917337, 43.8772549], [17.4919376, 43.8773245], [17.492246, 43.8773265], [17.4927744, 43.8772627], [17.4931499, 43.8771814], [17.4932787, 43.8771408], [17.4934691, 43.8771041], [17.4936354, 43.8771022], [17.494137, 43.8771273], [17.4946761, 43.8771389], [17.4950972, 43.8771041], [17.4953386, 43.8770364], [17.4954006, 43.8770074], [17.4956283, 43.8769011], [17.4957973, 43.8768566], [17.4959931, 43.8768334], [17.4960532, 43.8768145], [17.4962452, 43.8767542], [17.4964732, 43.876615], [17.4966127, 43.8765067], [17.4967478, 43.8763792], [17.496838, 43.876294], [17.4970177, 43.8762399], [17.4972135, 43.8762031], [17.4973771, 43.8762089], [17.4977622, 43.8761659], [17.4979135, 43.876149], [17.4981174, 43.8761335], [17.4982515, 43.8762128], [17.4984258, 43.8763056], [17.4987853, 43.8764912], [17.4989837, 43.8765492], [17.4990116, 43.8765527], [17.4993083, 43.8765898], [17.4995711, 43.876615], [17.4997294, 43.8765724], [17.499842, 43.8765048], [17.4998694, 43.8764832], [17.4999547, 43.8764158], [17.4999869, 43.8762727], [17.5000915, 43.8759634], [17.5001934, 43.875859], [17.5002846, 43.8757855], [17.5003785, 43.8757352], [17.5004724, 43.8757004], [17.5008398, 43.8756888], [17.5013146, 43.8756792], [17.5015157, 43.8756618], [17.5016874, 43.8756618], [17.5019744, 43.8756811], [17.5022125, 43.8757054], [17.5022963, 43.875714], [17.5027764, 43.8757623], [17.5030768, 43.8757758], [17.5032431, 43.8757623], [17.503463, 43.8756424], [17.5035971, 43.8755574], [17.5037098, 43.8755245], [17.5038385, 43.875511], [17.5040558, 43.8754994], [17.5042248, 43.875482], [17.5045091, 43.8754124], [17.5046056, 43.8753756], [17.5046915, 43.8753176], [17.5048353, 43.8752122], [17.5050053, 43.8750875], [17.5050831, 43.8750373], [17.5054505, 43.8748555], [17.5186926, 43.8735678], [17.5208673, 43.8732135], [17.5328493, 43.8712611], [17.5385651, 43.8720693], [17.5393698, 43.8723632], [17.5394288, 43.8731734], [17.5395736, 43.8732043], [17.5395602, 43.8737495], [17.539697, 43.8740144], [17.5397238, 43.8742039], [17.5397024, 43.8743238], [17.5396138, 43.874463], [17.53952, 43.8745694], [17.5394636, 43.8746699], [17.5394717, 43.8747956], [17.5395763, 43.8749773], [17.5398472, 43.875685], [17.5399411, 43.8760891], [17.5399357, 43.8762824], [17.5400135, 43.8764738], [17.5401798, 43.8766034], [17.5403193, 43.8766826], [17.5405258, 43.8766923], [17.5406572, 43.8767329], [17.5408369, 43.8768238], [17.5410032, 43.8769494], [17.5411883, 43.8770809], [17.5413573, 43.8771486], [17.5415826, 43.8772027], [17.5420305, 43.8772878], [17.542288, 43.8772665], [17.5424919, 43.8772704], [17.5442326, 43.8752557], [17.5545537, 43.8709517], [17.5796592, 43.8669451], [17.5798631, 43.8665197], [17.5805604, 43.8666976], [17.5814992, 43.866949], [17.5824219, 43.8669412], [17.5830871, 43.8669296], [17.5835752, 43.8669064], [17.5839239, 43.8670418], [17.5841385, 43.8671849], [17.5844067, 43.8677186], [17.5845569, 43.8678888], [17.5847661, 43.8680009], [17.5863486, 43.8684689], [17.5874752, 43.8688285], [17.5878507, 43.8687976], [17.5882423, 43.8686738], [17.5884998, 43.8686584], [17.5887304, 43.8687125], [17.5889182, 43.8688556], [17.5896907, 43.8694434], [17.5899422, 43.869661], [17.5899857, 43.8696987], [17.5902486, 43.8699385], [17.5903988, 43.8702594], [17.5905168, 43.8705495], [17.5906992, 43.8707545], [17.5909084, 43.870913], [17.5911874, 43.8710522], [17.5914234, 43.8711605], [17.5916487, 43.8713384], [17.5918901, 43.8716671], [17.592625, 43.8722008], [17.5927913, 43.8723013], [17.5929683, 43.8723825], [17.5931561, 43.8724521], [17.5933009, 43.8724985], [17.5933438, 43.8726958], [17.5958115, 43.8718953], [17.5962728, 43.871555], [17.5967073, 43.8712727], [17.5979197, 43.8703368], [17.5983864, 43.8700042], [17.5991803, 43.8695517], [17.6007575, 43.8688827], [17.6012295, 43.868554], [17.6052689, 43.8694667], [17.6079281, 43.8662071], [17.6079709, 43.8661546], [17.6119397, 43.8661546], [17.6151148, 43.8644377], [17.6167023, 43.8638654], [17.6198774, 43.8627209], [17.6235284, 43.8616679], [17.6238462, 43.8615762], [17.6270212, 43.8604316], [17.6294025, 43.8587146], [17.6333713, 43.8587146], [17.6373402, 43.8615762], [17.6397214, 43.8627209], [17.641309, 43.8615762], [17.6436903, 43.8587146], [17.644484, 43.8575699], [17.6500404, 43.854708], [17.6524217, 43.8535633], [17.654803, 43.8529909], [17.6587718, 43.8518461], [17.6627406, 43.8507012], [17.6643281, 43.8489839], [17.6706782, 43.8478391], [17.6730595, 43.8472666], [17.6786159, 43.8449767], [17.6817909, 43.8449767], [17.6833784, 43.8438318], [17.6873473, 43.8421143], [17.6905223, 43.8386792], [17.6913161, 43.8375341], [17.6936974, 43.8358164], [17.7000352, 43.832386], [17.7000475, 43.832381], [17.7024288, 43.832381], [17.7056038, 43.8318084], [17.7079851, 43.8318084], [17.7111602, 43.832381], [17.7127477, 43.8340987], [17.715129, 43.836389], [17.7159228, 43.8369615], [17.7167165, 43.8403968], [17.7206853, 43.8421143], [17.7222729, 43.8421143], [17.7254479, 43.8409693], [17.7278292, 43.8392517], [17.731798, 43.8392517], [17.7349731, 43.8409693], [17.7381481, 43.8421143], [17.7405294, 43.8421143], [17.7437045, 43.8426868], [17.7444982, 43.8432593], [17.7444982, 43.8489839], [17.7468795, 43.8507012], [17.7484671, 43.8518461], [17.7492608, 43.8535633], [17.7508484, 43.8581422], [17.7524359, 43.8587146], [17.7532297, 43.8587146], [17.7571985, 43.8558528], [17.7611673, 43.8552804], [17.7667236, 43.8592869], [17.7691049, 43.8610039], [17.7730737, 43.8615762], [17.7794239, 43.8621485], [17.7818051, 43.8644377], [17.7849802, 43.8655823], [17.785774, 43.8661546], [17.7883051, 43.8665026], [17.7883359, 43.8660432], [17.8074817, 43.8618554], [17.8108493, 43.8622601], [17.8125332, 43.8626648], [17.8170234, 43.8638788], [17.8187072, 43.8650929], [17.8209523, 43.8663068], [17.8226361, 43.8663068], [17.8248812, 43.8671161], [17.8248812, 43.8691394], [17.8231974, 43.869544], [17.8209523, 43.8715671], [17.8198297, 43.8752086], [17.8220748, 43.8780407], [17.8231974, 43.8792544], [17.8237587, 43.8808727], [17.8282489, 43.8833], [17.8344229, 43.8853227], [17.836668, 43.8857272], [17.8383518, 43.8865362], [17.8422808, 43.8885588], [17.8450871, 43.8893678], [17.8471876, 43.8881063], [17.8501331, 43.890604], [17.8517207, 43.8923201], [17.8533082, 43.8934642], [17.8537051, 43.8946082], [17.8548957, 43.8957522], [17.8560864, 43.8966101], [17.8576739, 43.8980401], [17.8588645, 43.898326], [17.860849, 43.898612], [17.8596583, 43.8997559], [17.8584677, 43.9008998], [17.857277, 43.9017577], [17.857277, 43.9031875], [17.8564833, 43.9046173], [17.8537051, 43.9066189], [17.8525144, 43.9074768], [17.8501331, 43.9091924], [17.8501331, 43.9094783], [17.8497363, 43.9123375], [17.847355, 43.9137671], [17.8449737, 43.9117657], [17.8441799, 43.9111938], [17.8425924, 43.910622], [17.8412569, 43.9096559], [17.8408849, 43.9099824], [17.8401768, 43.9106007], [17.8399622, 43.9109485], [17.8392327, 43.9120615], [17.8389645, 43.9123707], [17.8386426, 43.9125176], [17.837913, 43.9125871], [17.8374088, 43.9125871], [17.836808, 43.9125098], [17.8357136, 43.9123011], [17.8347266, 43.9121929], [17.8338039, 43.912247], [17.8330314, 43.9123552], [17.8324735, 43.9127108], [17.8320873, 43.9132827], [17.8315294, 43.9147203], [17.8310573, 43.9153927], [17.830238, 43.9157201], [17.8294909, 43.9159569], [17.8280103, 43.9160651], [17.8272378, 43.9160264], [17.8264332, 43.9159492], [17.8248238, 43.9159414], [17.8222382, 43.9166138], [17.8215945, 43.9164979], [17.8210068, 43.9165654], [17.8204143, 43.9165752], [17.8193951, 43.9173712], [17.818526, 43.9175953], [17.8178072, 43.9177267], [17.8169167, 43.9177113], [17.8157687, 43.9176185], [17.8145885, 43.9177422], [17.8132796, 43.9178967], [17.8124857, 43.9181209], [17.8116381, 43.9185923], [17.8111768, 43.9189401], [17.8109836, 43.9191951], [17.81093, 43.9195274], [17.8109085, 43.9206016], [17.8109836, 43.9216449], [17.8108549, 43.9224717], [17.8106403, 43.9236386], [17.8102434, 43.9241795], [17.8101039, 43.9244577], [17.8097498, 43.9247127], [17.8092027, 43.9251223], [17.808398, 43.9259878], [17.8074217, 43.9269691], [17.8064132, 43.9279891], [17.8055656, 43.9284836], [17.8045571, 43.9289163], [17.8033482, 43.9294153], [17.8027224, 43.9296736], [17.8017523, 43.9300894], [17.8017136, 43.9277749], [17.8005229, 43.9272032], [17.7985385, 43.9260598], [17.7941728, 43.9252023], [17.7917915, 43.9263457], [17.7898071, 43.9272032], [17.7886165, 43.9286324], [17.7854414, 43.9297757], [17.7802819, 43.9320623], [17.7790913, 43.9332056], [17.7751225, 43.9343488], [17.7731381, 43.9343488], [17.7711537, 43.9334914], [17.7691693, 43.932634], [17.763216, 43.9323481], [17.7596441, 43.9332056], [17.7580566, 43.9343488], [17.756469, 43.9357779], [17.7552784, 43.9366353], [17.7544846, 43.9374926], [17.753294, 43.9403505], [17.7525002, 43.9409221], [17.7517065, 43.9420652], [17.7437621, 43.9386225], [17.7433189, 43.9436926], [17.7431934, 43.9451278], [17.7432042, 43.9454419], [17.7432418, 43.9460039], [17.743333, 43.9465581], [17.7434429, 43.9475778], [17.7435905, 43.947993], [17.7437326, 43.9481629], [17.7440491, 43.9485414], [17.7430513, 43.948804], [17.742641, 43.9490068], [17.7424344, 43.9491825], [17.7421957, 43.9496112], [17.7415466, 43.9502813], [17.7411818, 43.9507544], [17.7409244, 43.9512642], [17.7407017, 43.9514611], [17.7403906, 43.9515847], [17.7401438, 43.9517102], [17.7399185, 43.9518087], [17.7397978, 43.9519323], [17.7396744, 43.952166], [17.7394143, 43.9526217], [17.7392399, 43.9528534], [17.7389878, 43.953116], [17.7388322, 43.9532589], [17.7387035, 43.9534481], [17.7386767, 43.9535022], [17.7385613, 43.9539907], [17.7384835, 43.95429], [17.7383414, 43.9544329], [17.7381161, 43.9546105], [17.7379471, 43.9547051], [17.736901, 43.9550411], [17.7367938, 43.9551183], [17.7364987, 43.9554852], [17.7362707, 43.9562672], [17.736209, 43.9563927], [17.7359408, 43.9561417], [17.7357343, 43.955966], [17.7350342, 43.9555373], [17.734876, 43.9553153], [17.734656, 43.9550759], [17.7342913, 43.9548364], [17.734133, 43.954736], [17.7337521, 43.9546974], [17.7335322, 43.9546356], [17.7331164, 43.9546491], [17.7326819, 43.9546086], [17.732242, 43.9545931], [17.7310377, 43.954402], [17.7304798, 43.9541819], [17.7301204, 43.9540563], [17.729592, 43.9538768], [17.7291387, 43.9537088], [17.7287874, 43.953647], [17.7280739, 43.9535659], [17.7280513, 43.9535673], [17.7275053, 43.9536006], [17.7270466, 43.9536933], [17.7245441, 43.9545487], [17.7239996, 43.9547882], [17.7237099, 43.9548538], [17.7233613, 43.9548615], [17.723026, 43.9549021], [17.7218753, 43.9549851], [17.721194, 43.9550681], [17.7205798, 43.9552825], [17.7199495, 43.9554601], [17.7194104, 43.9555702], [17.7186942, 43.9558154], [17.7180988, 43.9561764], [17.7178547, 43.9563695], [17.7175194, 43.9564506], [17.717286, 43.9565433], [17.7170098, 43.9566128], [17.7165323, 43.9568831], [17.7161702, 43.9571399], [17.7159771, 43.9571979], [17.7155212, 43.9576979], [17.714797, 43.9585552], [17.7146226, 43.9588429], [17.7145663, 43.9589684], [17.7145931, 43.9595611], [17.7146199, 43.9602234], [17.7148586, 43.961096], [17.7150491, 43.9617061], [17.7151537, 43.9621791], [17.7152476, 43.9629263], [17.7151778, 43.9637758], [17.7148506, 43.9651774], [17.7147648, 43.9654727], [17.7142499, 43.9664579], [17.7130772, 43.9677518], [17.7125036, 43.9690602], [17.7203197, 43.975785], [17.7199228, 43.9763562], [17.7179384, 43.9783554], [17.7151602, 43.9806402], [17.7131758, 43.9814969], [17.7100008, 43.9817825], [17.7088101, 43.9832103], [17.7068257, 43.9843527], [17.7044444, 43.986066], [17.699285, 43.9883505], [17.699285, 43.9852093], [17.6933317, 43.9852093], [17.6905536, 43.986066], [17.688966, 43.986066], [17.6865847, 43.9880649], [17.685791, 43.9889216], [17.682219, 43.9909204], [17.6786471, 43.992348], [17.6778533, 43.9937756], [17.6778533, 43.9943467], [17.6798378, 43.9943467], [17.6830128, 43.9949178], [17.6838066, 43.9960598], [17.6826159, 43.9966308], [17.6818222, 43.9983438], [17.6806315, 43.9994859], [17.679044, 44.0006278], [17.6774565, 44.0020552], [17.6766627, 44.0051955], [17.6758689, 44.0069082], [17.6750752, 44.00805], [17.6742814, 44.00805], [17.6711064, 44.0114754], [17.6719001, 44.0126171], [17.6762658, 44.0126171], [17.6766627, 44.0140444], [17.6742814, 44.016613], [17.6730908, 44.0177547], [17.6699157, 44.0197526], [17.6675344, 44.0211795], [17.6671375, 44.0217503], [17.6627718, 44.0234626], [17.6595968, 44.0248894], [17.6548342, 44.0271724], [17.6504685, 44.0288845], [17.6464997, 44.030026], [17.6441184, 44.0311673], [17.6429277, 44.0328793], [17.6433246, 44.0337354], [17.6464997, 44.0348766], [17.6476903, 44.0357327], [17.6476903, 44.0385858], [17.6468966, 44.039727], [17.6449122, 44.0405829], [17.642134, 44.0422947], [17.6397527, 44.0428653], [17.6349901, 44.0428653], [17.6310213, 44.0454327], [17.62864, 44.0454327], [17.6262587, 44.0460033], [17.6247029, 44.0474012], [17.624267, 44.0472501], [17.624082, 44.0472116], [17.6238137, 44.0472675], [17.623567, 44.0473311], [17.6232532, 44.0474603], [17.6229957, 44.0476588], [17.6228482, 44.0478246], [17.6226926, 44.0479711], [17.6225799, 44.0481736], [17.6225182, 44.0483336], [17.6223654, 44.0485726], [17.6216197, 44.0488155], [17.621507, 44.0488849], [17.6212871, 44.0489274], [17.6209894, 44.0490662], [17.6207855, 44.0491972], [17.6205951, 44.0492744], [17.6196241, 44.0492107], [17.6195705, 44.0491857], [17.6194176, 44.0490064], [17.6190528, 44.0480271], [17.6190528, 44.0478227], [17.6189858, 44.0475663], [17.6182106, 44.0468453], [17.6181167, 44.0467469], [17.6181275, 44.0466448], [17.6178887, 44.0464269], [17.6177385, 44.0463112], [17.6174998, 44.0461801], [17.6173496, 44.046103], [17.6170465, 44.0459469], [17.6165208, 44.0457598], [17.6160327, 44.0455671], [17.6157805, 44.0454032], [17.6155955, 44.0452914], [17.6153702, 44.0451429], [17.6152441, 44.0449385], [17.6150295, 44.0445915], [17.6147023, 44.0443062], [17.6143187, 44.0439842], [17.61397, 44.043774], [17.6136911, 44.0436159], [17.6135275, 44.0434521], [17.613093, 44.0428679], [17.6129401, 44.0427098], [17.6127148, 44.0423782], [17.612519, 44.0420851], [17.6122749, 44.0417728], [17.6120818, 44.0413447], [17.6121059, 44.041123], [17.6120952, 44.0407162], [17.6118028, 44.0401165], [17.6116124, 44.0395786], [17.6110169, 44.0388902], [17.6105341, 44.0383754], [17.6104027, 44.0381344], [17.6102257, 44.0378452], [17.6100916, 44.037554], [17.6098475, 44.0375077], [17.6097295, 44.0375752], [17.6095927, 44.0376601], [17.6092145, 44.037741], [17.6088765, 44.0377854], [17.6086512, 44.037822], [17.6080692, 44.0379377], [17.6073986, 44.0381305], [17.6070741, 44.0382636], [17.6067281, 44.0383986], [17.6062801, 44.0385605], [17.6060039, 44.0386241], [17.6050088, 44.0387745], [17.6041746, 44.038844], [17.6034665, 44.0389751], [17.6022541, 44.0392566], [17.6018411, 44.0393298], [17.601487, 44.0394243], [17.601023, 44.0395844], [17.6005885, 44.0397463], [17.6001647, 44.0398755], [17.5996712, 44.0400066], [17.5994056, 44.0400587], [17.5986063, 44.0401551], [17.5985366, 44.0401802], [17.5982362, 44.0402823], [17.5980055, 44.0404173], [17.5977024, 44.0406545], [17.5974557, 44.0407779], [17.5971338, 44.0408743], [17.5960341, 44.040184], [17.5961012, 44.0400664], [17.5962567, 44.0396769], [17.5961038, 44.0392913], [17.5958008, 44.0389288], [17.595503, 44.0385528], [17.5951436, 44.0382385], [17.5940707, 44.0379454], [17.5931346, 44.0377333], [17.5919867, 44.0375714], [17.5915709, 44.0374962], [17.5913188, 44.0375193], [17.5909969, 44.0376157], [17.5905302, 44.0376427], [17.5897792, 44.0374769], [17.58935, 44.0373477], [17.5889799, 44.0372436], [17.5887787, 44.0371317], [17.5886258, 44.0369717], [17.5884086, 44.036748], [17.5877917, 44.0361869], [17.5875476, 44.0357839], [17.5874135, 44.0353751], [17.5872633, 44.0348005], [17.5871533, 44.0342316], [17.587207, 44.033657], [17.587105, 44.033092], [17.5870889, 44.0329801], [17.5870487, 44.0328702], [17.5868824, 44.0326928], [17.5862038, 44.0321374], [17.5858846, 44.0317865], [17.5855708, 44.0314953], [17.585367, 44.0310672], [17.5852463, 44.0306642], [17.5852704, 44.0305851], [17.5853267, 44.0303845], [17.5857934, 44.0300085], [17.5860912, 44.0296459], [17.5862145, 44.0294627], [17.5861904, 44.0292043], [17.5861502, 44.0291156], [17.5860321, 44.0289748], [17.5858256, 44.0288128], [17.5851604, 44.0285795], [17.584168, 44.028296], [17.5833312, 44.0279585], [17.5830871, 44.0278351], [17.5828779, 44.0276789], [17.582556, 44.0275246], [17.5822824, 44.0274494], [17.5821215, 44.0274166], [17.5819901, 44.0273414], [17.581805, 44.0271929], [17.5817782, 44.027027], [17.581746, 44.0267358], [17.5816977, 44.0261148], [17.5817004, 44.0259258], [17.5816011, 44.0258082], [17.5813785, 44.0256346], [17.5810996, 44.0254495], [17.5808501, 44.0253125], [17.5805417, 44.0252335], [17.5801983, 44.0252373], [17.5793132, 44.0253222], [17.578927, 44.025326], [17.5785756, 44.0251968], [17.5783744, 44.0250888], [17.5782537, 44.0250155], [17.5781518, 44.0249403], [17.5780284, 44.0247995], [17.5778273, 44.0246452], [17.5776315, 44.0245025], [17.5772613, 44.0242865], [17.5768885, 44.0241226], [17.5762957, 44.0240358], [17.5756627, 44.02403], [17.575255, 44.0240107], [17.5749359, 44.0240956], [17.5744987, 44.0241804], [17.5734875, 44.0242499], [17.57231, 44.0243289], [17.5717574, 44.0243463], [17.570588, 44.0243502], [17.5695017, 44.0243791], [17.5687802, 44.0243444], [17.5683376, 44.0241901], [17.5679299, 44.0239201], [17.5676671, 44.0236867], [17.5674927, 44.0234379], [17.5674847, 44.0233087], [17.56749, 44.0232123], [17.5673908, 44.0230965], [17.5670904, 44.0227475], [17.5669321, 44.0226337], [17.5667202, 44.0224909], [17.5661087, 44.022003], [17.5659853, 44.0219046], [17.5656125, 44.0217484], [17.5650653, 44.0216095], [17.5643814, 44.021461], [17.5637269, 44.0212662], [17.5633863, 44.021083], [17.5629249, 44.0207454], [17.5624394, 44.0204233], [17.5619593, 44.0200665], [17.561565, 44.0197734], [17.5608569, 44.0193008], [17.5606799, 44.0191909], [17.5605431, 44.0190636], [17.5603822, 44.0188996], [17.5601891, 44.0185736], [17.5600174, 44.0184541], [17.5596607, 44.0179583], [17.5593737, 44.0176285], [17.5589418, 44.0172717], [17.5586629, 44.0169708], [17.5585127, 44.0168165], [17.5584188, 44.016803], [17.5583437, 44.0167721], [17.5580969, 44.0166544], [17.5572896, 44.0162822], [17.5568283, 44.0160083], [17.5562999, 44.0158347], [17.5559887, 44.0157671], [17.5554174, 44.0157382], [17.5549373, 44.0157401], [17.5541192, 44.0157112], [17.5535533, 44.0156668], [17.5530356, 44.0155492], [17.5524589, 44.0153563], [17.5520217, 44.0150515], [17.5516731, 44.0146464], [17.5512841, 44.0141623], [17.5506833, 44.0136241], [17.5505412, 44.0135084], [17.5502729, 44.0133656], [17.5493664, 44.0132151], [17.5487977, 44.0131476], [17.548272, 44.013138], [17.5479609, 44.013165], [17.5474218, 44.0130782], [17.5470328, 44.0129817], [17.5465929, 44.0129219], [17.5462443, 44.0128756], [17.5459251, 44.0127792], [17.5455549, 44.0126384], [17.5452867, 44.0125284], [17.544474, 44.0123162], [17.5441521, 44.0122333], [17.5439054, 44.0121098], [17.5436667, 44.0119516], [17.5434172, 44.0118108], [17.5430015, 44.0116469], [17.5421673, 44.0113922], [17.5414619, 44.0111299], [17.5410059, 44.0108], [17.540845, 44.0105704], [17.5408182, 44.0101827], [17.5409898, 44.0096889], [17.5413761, 44.0088343], [17.5416121, 44.008379], [17.541655, 44.0080607], [17.5415799, 44.0078446], [17.5413761, 44.0076594], [17.5409657, 44.0074993], [17.5405553, 44.0074838], [17.5402039, 44.0074781], [17.5396782, 44.0075668], [17.5386938, 44.00786], [17.5380582, 44.0080047], [17.5376424, 44.0080722], [17.5373501, 44.0081012], [17.5365776, 44.0084793], [17.536194, 44.0086182], [17.53562, 44.0087552], [17.5353035, 44.0088285], [17.5349978, 44.0088381], [17.5337103, 44.007779], [17.5311327, 44.0044916], [17.5308323, 44.004237], [17.5265086, 44.005298], [17.5217986, 44.005873], [17.5206292, 44.0034344], [17.5202322, 44.0032916], [17.5193927, 44.0030003], [17.5192586, 44.0027456], [17.5192371, 44.0024485], [17.5191057, 44.0024002], [17.5189581, 44.0024369], [17.5186497, 44.0030138], [17.5184673, 44.0029559], [17.5182608, 44.0028768], [17.51825, 44.0027996], [17.5185022, 44.0025121], [17.5190467, 44.0018948], [17.5195616, 44.0012812], [17.5200391, 44.0006908], [17.5203826, 44.0001912], [17.5205272, 43.9999808], [17.5213319, 43.9989852], [17.5157553, 43.995921], [17.5152345, 43.9956348], [17.5149228, 43.9954636], [17.5132343, 43.9945357], [17.5131109, 43.9944392], [17.5129124, 43.9943447], [17.5125477, 43.9941556], [17.512199, 43.9936462], [17.5121051, 43.9934281], [17.5121126, 43.9929998], [17.5121146, 43.992886], [17.5121156, 43.9928291], [17.5121185, 43.9926621], [17.511912, 43.9926678], [17.5114453, 43.9927335], [17.5108444, 43.9927451], [17.5103616, 43.9927799], [17.5098681, 43.9928571], [17.5096611, 43.9929494], [17.5095999, 43.9929767], [17.5093907, 43.9931272], [17.5091976, 43.9935324], [17.5091639, 43.9936966], [17.5090766, 43.9936702], [17.5088546, 43.9936032], [17.5087411, 43.9935612], [17.5082494, 43.9934204], [17.5081046, 43.993349], [17.5080519, 43.9933057], [17.5079812, 43.9932477], [17.5077908, 43.9928927], [17.5076003, 43.9925434], [17.5075494, 43.9923823], [17.5074904, 43.9919674], [17.5074247, 43.9918448], [17.5073469, 43.991759], [17.5072074, 43.9916837], [17.5070679, 43.9916374], [17.5068077, 43.9916085], [17.5067934, 43.9916071], [17.5066897, 43.9915969], [17.5066361, 43.991566], [17.5065958, 43.991483], [17.506603, 43.9914443], [17.50662, 43.9913537], [17.5065809, 43.9913376], [17.5063273, 43.991233], [17.5060586, 43.9911222], [17.5057402, 43.990991], [17.5053728, 43.9908289], [17.5051609, 43.9906069], [17.5050731, 43.990378], [17.5050107, 43.9902152], [17.5049482, 43.9899487], [17.5049034, 43.9897579], [17.5049119, 43.9897104], [17.5049409, 43.9895494], [17.5049651, 43.9893294], [17.5049843, 43.9892612], [17.505008, 43.989177], [17.5050423, 43.9890186], [17.5050536, 43.9889666], [17.5050443, 43.988745], [17.5050402, 43.9886482], [17.5050402, 43.9884591], [17.5050589, 43.9880481], [17.5049543, 43.9875907], [17.5048497, 43.9870774], [17.5047129, 43.9865293], [17.5045681, 43.9861317], [17.5045198, 43.9858326], [17.5042516, 43.9848136], [17.5038332, 43.9844508], [17.5033128, 43.9841729], [17.5030231, 43.9838873], [17.5026745, 43.9835592], [17.5023472, 43.9833006], [17.5019342, 43.9829261], [17.5010812, 43.9823935], [17.5004107, 43.9820538], [17.5001424, 43.9818762], [17.5000746, 43.9818447], [17.4998099, 43.9817218], [17.4993968, 43.981579], [17.4988067, 43.9813628], [17.4984205, 43.9811621], [17.4974281, 43.9807143], [17.4963605, 43.9803245], [17.4956202, 43.9801662], [17.4937963, 43.9796219], [17.493056, 43.979537], [17.4920046, 43.9792514], [17.4911034, 43.9788731], [17.490406, 43.9784407], [17.4898159, 43.9779698], [17.4893224, 43.9774525], [17.4891829, 43.9770742], [17.4884856, 43.9762712], [17.4879169, 43.9751208], [17.4877345, 43.9745263], [17.4876058, 43.974148], [17.4872088, 43.9735534], [17.4865329, 43.9729126], [17.4859428, 43.9724261], [17.4854171, 43.9717081], [17.4848378, 43.9709205], [17.4837971, 43.9693376], [17.481823, 43.966604], [17.4812221, 43.9652218], [17.4808359, 43.9643878], [17.4809754, 43.9631676], [17.4813724, 43.9618278], [17.4815869, 43.9614725], [17.4818659, 43.9609937], [17.4822736, 43.9605342], [17.4827135, 43.9598507], [17.4828958, 43.9591673], [17.4828261, 43.9581073], [17.4826705, 43.957723], [17.4829629, 43.9576555], [17.4826303, 43.9574392], [17.482515, 43.9572094], [17.4824774, 43.9569777], [17.4825606, 43.9566109], [17.4826089, 43.9553423], [17.482118, 43.9539077], [17.4819437, 43.953535], [17.4817076, 43.9528978], [17.4812302, 43.9522142], [17.4805462, 43.9517431], [17.4795645, 43.9508722], [17.4788591, 43.9499762], [17.4784863, 43.9494741], [17.4781054, 43.9489547], [17.4779847, 43.9488079], [17.4779901, 43.9485955], [17.4780974, 43.9483888], [17.4782583, 43.9481127], [17.478556, 43.9474793], [17.4788859, 43.9469965], [17.4791703, 43.9464596], [17.4794814, 43.9459479], [17.4799132, 43.9453685], [17.4800903, 43.9450499], [17.4805596, 43.944457], [17.4810961, 43.9435879], [17.4811631, 43.9434972], [17.4812704, 43.9433079], [17.4812838, 43.9428347], [17.4813133, 43.9422476], [17.4814609, 43.9416818], [17.4815118, 43.9405867], [17.4814689, 43.9400459], [17.4812812, 43.9392154], [17.4808949, 43.9375969], [17.4807662, 43.936129], [17.4808037, 43.9353255], [17.4807393, 43.9346378], [17.4806803, 43.9344872], [17.4805838, 43.9343327], [17.4805677, 43.9340738], [17.4806589, 43.9336605], [17.4808896, 43.9322659], [17.4810988, 43.9313078], [17.4814206, 43.9305641], [17.4817452, 43.9299054], [17.4823379, 43.9290844], [17.4829036, 43.9286234], [17.4831463, 43.9284256], [17.4836013, 43.9280548], [17.4837407, 43.9279408], [17.4838883, 43.9277979], [17.483899, 43.9276337], [17.4834323, 43.927058], [17.4832231, 43.9268184], [17.4831855, 43.9262891], [17.4833518, 43.9259008], [17.483612, 43.9254778], [17.4836844, 43.9254024], [17.4847841, 43.9248055], [17.4850926, 43.9243225], [17.4850577, 43.9240269], [17.4849665, 43.9238048], [17.4850014, 43.9235729], [17.485106, 43.9234396], [17.4851972, 43.9232793], [17.4851972, 43.9231073], [17.4850389, 43.9227229], [17.4849772, 43.9225026], [17.4850738, 43.9221897], [17.4851891, 43.9218999], [17.4851704, 43.921784], [17.4848914, 43.9215173], [17.4846607, 43.9215985], [17.4836817, 43.9201263], [17.4834725, 43.9198326], [17.483333, 43.9197071], [17.4831399, 43.9195969], [17.482971, 43.9194636], [17.4828985, 43.9193806], [17.4829146, 43.9192743], [17.4828824, 43.9191661], [17.4827537, 43.9190424], [17.4826276, 43.9189072], [17.4823084, 43.9186386], [17.4817318, 43.9182812], [17.481308, 43.9181035], [17.480852, 43.917918], [17.4805918, 43.9178079], [17.4802405, 43.9176417], [17.4797496, 43.9174234], [17.4794948, 43.9172224], [17.479189, 43.9168804], [17.4787492, 43.9163781], [17.4785668, 43.9159144], [17.4783629, 43.9155859], [17.4781537, 43.9153772], [17.477864, 43.9151686], [17.4777353, 43.9149985], [17.4774456, 43.9150256], [17.477054, 43.9152613], [17.4769521, 43.9154275], [17.4770325, 43.9156439], [17.4768662, 43.9157559], [17.4766678, 43.915868], [17.4768394, 43.9168495], [17.4762386, 43.9169191], [17.4760723, 43.9169461], [17.4759704, 43.9168457], [17.4756485, 43.9168534], [17.4752676, 43.9170737], [17.4749726, 43.9172862], [17.4747366, 43.9174794], [17.4744683, 43.9177228], [17.4742323, 43.9179508], [17.4740177, 43.9182175], [17.4737173, 43.9183179], [17.4734679, 43.9183411], [17.4733043, 43.9184261], [17.4731997, 43.918573], [17.4730924, 43.9186927], [17.4729019, 43.9188145], [17.4726257, 43.9189246], [17.4722904, 43.918969], [17.4712497, 43.9191101], [17.4709627, 43.9191468], [17.4704021, 43.919226], [17.4699166, 43.9193361], [17.4695089, 43.9194887], [17.4688384, 43.9197051], [17.4683851, 43.9198616], [17.4680096, 43.9200007], [17.4676985, 43.9200143], [17.4672747, 43.9199814], [17.4664941, 43.9198732], [17.4655983, 43.9197592], [17.4650189, 43.9197129], [17.4646112, 43.9196877], [17.4640131, 43.9196588], [17.4639434, 43.9196588], [17.4637985, 43.9196472], [17.4635357, 43.9195428], [17.4633533, 43.9194772], [17.4629885, 43.9193786], [17.4626023, 43.9193207], [17.4624011, 43.9192685], [17.4622026, 43.9192588], [17.462039, 43.9193013], [17.4618781, 43.919396], [17.4616179, 43.9195564], [17.4610412, 43.9200355], [17.4606818, 43.9204084], [17.460435, 43.9206151], [17.4602285, 43.9207523], [17.4600193, 43.9208141], [17.459853, 43.9207948], [17.459794, 43.9206653], [17.4599147, 43.9204393], [17.4600193, 43.9200973], [17.4602151, 43.9194095], [17.4601775, 43.9192801], [17.4600515, 43.9191429], [17.4598315, 43.9189632], [17.4596357, 43.9188473], [17.4594238, 43.9187275], [17.4593058, 43.9185517], [17.4591368, 43.9183546], [17.4590269, 43.9181827], [17.4590242, 43.9178987], [17.4590315, 43.9177569], [17.4589625, 43.9175567], [17.4588981, 43.9174601], [17.4587023, 43.91729], [17.4584797, 43.917149], [17.4578601, 43.9168901], [17.4572244, 43.9167162], [17.4570689, 43.9166737], [17.4568972, 43.9165771], [17.4566665, 43.9163916], [17.4565271, 43.916268], [17.4563768, 43.9160921], [17.4563742, 43.9157849], [17.45646, 43.9153135], [17.4565264, 43.9148767], [17.4564707, 43.9147435], [17.4563822, 43.9146449], [17.4561167, 43.9143841], [17.4559316, 43.9139706], [17.4558833, 43.9135416], [17.4558914, 43.9131861], [17.4556097, 43.9131243], [17.455194, 43.9124441], [17.4547756, 43.9119379], [17.4545181, 43.9117446], [17.453692, 43.9115707], [17.4526942, 43.9113466], [17.4519861, 43.9113234], [17.4510366, 43.9115205], [17.4506128, 43.9115244], [17.449969, 43.9113389], [17.4487621, 43.9108519], [17.4479037, 43.9103031], [17.4471366, 43.909449], [17.4468255, 43.9083824], [17.4465197, 43.907679], [17.4461442, 43.9070606], [17.4456668, 43.9066509], [17.4452376, 43.9062335], [17.4446154, 43.9052209], [17.4429309, 43.9056036], [17.4422121, 43.90536]]]}}]}