{"type": "FeatureCollection", "features": [{"type": "Feature", "properties": {"name": "Grad Gračanica, Tuzlanski kanton, Federacija Bosne i Hercegovine, 10500, Bosna i Hercegovina / Босна и Херцеговина", "source": "OpenStreetMap relation 2528202", "licence": "ODbL 1.0"}, "geometry": {"type": "Polygon", "coordinates": [[[18.1685113, 44.7715603], [18.1699044, 44.771496], [18.1700176, 44.7714076], [18.1699836, 44.7712387], [18.1698024, 44.7710779], [18.1694513, 44.7708689], [18.1695533, 44.7705714], [18.1701309, 44.7705955], [18.1705046, 44.7707322], [18.1707651, 44.7709091], [18.1710482, 44.7712387], [18.171388, 44.7712387], [18.1712181, 44.7704749], [18.1707424, 44.7700246], [18.1712861, 44.7697915], [18.1710822, 44.7691804], [18.171841, 44.7689392], [18.1724866, 44.7689874], [18.1729509, 44.7690759], [18.1722714, 44.768312], [18.1721241, 44.7680306], [18.1721355, 44.7678939], [18.1730415, 44.7673873], [18.1724526, 44.766728], [18.17226, 44.7662777], [18.171807, 44.7660606], [18.1714333, 44.765948], [18.17132, 44.765739], [18.1719316, 44.7654254], [18.1722374, 44.7651037], [18.1723053, 44.7648464], [18.1721581, 44.7645006], [18.1720222, 44.7641468], [18.1720335, 44.7637448], [18.1722827, 44.7635437], [18.172747, 44.7633668], [18.1724299, 44.7631819], [18.1720335, 44.762627], [18.1718637, 44.7623054], [18.171841, 44.7616138], [18.1717731, 44.7607212], [18.1717391, 44.7598205], [18.1722261, 44.7590485], [18.1725205, 44.7587912], [18.1731887, 44.7584775], [18.1739475, 44.7581237], [18.174242, 44.7576733], [18.1744345, 44.7573275], [18.1745245, 44.7567832], [18.1749355, 44.7564596], [18.1753539, 44.7560139], [18.1754511, 44.7555151], [18.1753838, 44.7550004], [18.1752942, 44.7545813], [18.1754137, 44.7543637], [18.1761236, 44.7543159], [18.1763851, 44.7542098], [18.1766541, 44.7537588], [18.1773788, 44.7528037], [18.1774835, 44.7524376], [18.1774237, 44.7519441], [18.1774312, 44.7515461], [18.1777823, 44.7507607], [18.177999, 44.7503044], [18.1782008, 44.7494713], [18.1782184, 44.7483806], [18.1782762, 44.7482739], [18.1784156, 44.7482353], [18.1791572, 44.7481712], [18.1805395, 44.7477997], [18.1812419, 44.7476723], [18.1822879, 44.7476511], [18.1826242, 44.7479483], [18.1826989, 44.7481287], [18.1831323, 44.7479589], [18.1832294, 44.7478634], [18.183334, 44.7476139], [18.1836404, 44.7475556], [18.1842456, 44.7476299], [18.184664, 44.7475874], [18.184948, 44.7477042], [18.1851348, 44.7478103], [18.1865395, 44.7482667], [18.1878023, 44.7485161], [18.1884673, 44.7487443], [18.1889829, 44.7492166], [18.1895507, 44.7497048], [18.1903876, 44.7504901], [18.1911871, 44.7509624], [18.192951, 44.7516652], [18.1934807, 44.7518563], [18.194002, 44.751884], [18.1952158, 44.7515138], [18.1967252, 44.7512706], [18.1980635, 44.7513701], [18.1989039, 44.7518619], [18.1998453, 44.7522045], [18.2006468, 44.7523813], [18.2016038, 44.7520884], [18.2030666, 44.7518895], [18.2032378, 44.7517072], [18.2032922, 44.7515801], [18.2031055, 44.7513922], [18.2028487, 44.7512817], [18.2032922, 44.7508507], [18.2042181, 44.7505136], [18.2040158, 44.750066], [18.2039536, 44.7498505], [18.2043193, 44.7491653], [18.2045138, 44.7488282], [18.2053775, 44.7492427], [18.2059844, 44.7497013], [18.2071048, 44.7500494], [18.2073771, 44.7500329], [18.2083186, 44.7504639], [18.2092134, 44.7509059], [18.2096336, 44.7510164], [18.2101315, 44.7509446], [18.2108785, 44.7507236], [18.2119911, 44.7503644], [18.2122712, 44.7501434], [18.212415, 44.7499679], [18.2125591, 44.7499058], [18.212777, 44.7498892], [18.2128937, 44.7499997], [18.2130182, 44.750392], [18.2130649, 44.7511877], [18.2131271, 44.7514585], [18.213345, 44.7515469], [18.2140297, 44.7514585], [18.2147767, 44.7515911], [18.2159204, 44.7520332], [18.2166285, 44.7521879], [18.2171654, 44.7522873], [18.2174377, 44.7524476], [18.2174844, 44.7527294], [18.2178578, 44.7530554], [18.2182858, 44.7532212], [18.2189549, 44.7533096], [18.2194685, 44.7533261], [18.2195541, 44.7538897], [18.2195307, 44.7540666], [18.2201921, 44.7545252], [18.2209313, 44.7547572], [18.2212658, 44.7548401], [18.2220673, 44.7550003], [18.2224719, 44.7550169], [18.2230554, 44.7552545], [18.2233044, 44.7556302], [18.2239658, 44.756017], [18.2245571, 44.7561275], [18.2257242, 44.756448], [18.2268991, 44.7567574], [18.2272959, 44.7569176], [18.2281051, 44.7573596], [18.2288055, 44.7575229], [18.2290065, 44.7574057], [18.2293352, 44.7572705], [18.2296734, 44.7571073], [18.229459, 44.756796], [18.2292956, 44.7564369], [18.2291944, 44.7559562], [18.2293034, 44.7554645], [18.22914, 44.7551329], [18.22928, 44.7545196], [18.2295212, 44.7538842], [18.2300192, 44.7534256], [18.2304083, 44.7529394], [18.2304549, 44.7527404], [18.2301359, 44.7518563], [18.2300892, 44.7514419], [18.2301748, 44.750602], [18.230206, 44.7503092], [18.2304005, 44.7501765], [18.2309685, 44.7502815], [18.2315209, 44.7503202], [18.231871, 44.7503865], [18.2329214, 44.7500494], [18.2338474, 44.7497455], [18.234252, 44.7494913], [18.2344154, 44.7491156], [18.2344387, 44.7487509], [18.2350689, 44.7486956], [18.2356681, 44.7486072], [18.2369208, 44.7483751], [18.2376911, 44.7482149], [18.2392317, 44.7480546], [18.2399631, 44.748038], [18.2403054, 44.7479164], [18.2408423, 44.7474854], [18.2417215, 44.7472533], [18.2422039, 44.7472754], [18.2426319, 44.747281], [18.2422739, 44.7468112], [18.2422739, 44.7466841], [18.2423907, 44.7465239], [18.2418927, 44.7458663], [18.2420561, 44.7455292], [18.2417915, 44.7454794], [18.2416437, 44.7453744], [18.2415581, 44.7452418], [18.2415892, 44.7450705], [18.2420872, 44.7448329], [18.2420327, 44.7443355], [18.2419238, 44.7437994], [18.2420172, 44.7433131], [18.2417137, 44.7429373], [18.2408034, 44.7431473], [18.2405544, 44.7424178], [18.2401342, 44.7411191], [18.2411302, 44.7407046], [18.2416359, 44.7404559], [18.2416593, 44.7398313], [18.2417371, 44.7386762], [18.2422273, 44.7388697], [18.2426007, 44.7384331], [18.2428964, 44.7386707], [18.2430909, 44.7383723], [18.243371, 44.7380517], [18.2432932, 44.7376924], [18.2434488, 44.7373332], [18.2437601, 44.7368137], [18.2442114, 44.7362941], [18.244367, 44.7359901], [18.2445304, 44.7356198], [18.244437, 44.7354319], [18.2445226, 44.7351002], [18.2447638, 44.734636], [18.2446471, 44.7344701], [18.2445226, 44.734249], [18.2442425, 44.7341109], [18.2441958, 44.7338013], [18.2439779, 44.7334531], [18.2436978, 44.7332596], [18.2432932, 44.7331491], [18.2428186, 44.7331049], [18.2426863, 44.7329722], [18.2426085, 44.732718], [18.2424451, 44.7324803], [18.2422662, 44.7323808], [18.242095, 44.7322094], [18.2421339, 44.7316954], [18.2421339, 44.7314466], [18.242344, 44.7311481], [18.242593, 44.7307833], [18.2431687, 44.7302416], [18.2431843, 44.73012], [18.2426552, 44.7304517], [18.2421183, 44.7306009], [18.2406244, 44.7303411], [18.2404377, 44.7303743], [18.2396985, 44.7293295], [18.2391539, 44.7286386], [18.2388971, 44.7281189], [18.2389204, 44.7274832], [18.2389438, 44.7264827], [18.2384225, 44.7237462], [18.2383213, 44.7234753], [18.2378389, 44.7227124], [18.2370608, 44.7214464], [18.2367652, 44.7207387], [18.2363139, 44.7192681], [18.2360338, 44.7190083], [18.2357459, 44.7186876], [18.2358761, 44.7182684], [18.2358896, 44.7178063], [18.2358693, 44.7171132], [18.2359371, 44.7159099], [18.2365196, 44.7156644], [18.2364248, 44.7155008], [18.2360116, 44.7155345], [18.2356864, 44.715005], [18.2351581, 44.7140327], [18.2347585, 44.7134166], [18.2344943, 44.7128919], [18.2343588, 44.7124009], [18.2342572, 44.7121698], [18.2340743, 44.7120399], [18.2337492, 44.7117944], [18.2335731, 44.7115778], [18.2335121, 44.711183], [18.2333902, 44.7108509], [18.2329025, 44.7102636], [18.2325232, 44.70984], [18.2321913, 44.7096667], [18.2319, 44.7095752], [18.2315342, 44.7095608], [18.2309043, 44.7094886], [18.2305656, 44.7093923], [18.2304573, 44.7091949], [18.2302337, 44.7091227], [18.2307079, 44.7089061], [18.2282558, 44.707693], [18.227504, 44.7071634], [18.2271179, 44.706682], [18.2267386, 44.7060466], [18.2264254, 44.705287], [18.2261836, 44.7044362], [18.2260244, 44.7040045], [18.2257885, 44.703577], [18.2259418, 44.7034932], [18.2248097, 44.7025586], [18.2248686, 44.7024287], [18.2248627, 44.7021395], [18.2246446, 44.7019006], [18.2241905, 44.7016952], [18.2238603, 44.7015904], [18.2236421, 44.701494], [18.2228326, 44.7006139], [18.2227297, 44.7001414], [18.2227807, 44.7000198], [18.2231023, 44.7002354], [18.2231998, 44.7003], [18.2234016, 44.7005014], [18.2235466, 44.700601], [18.2236655, 44.700678], [18.2238395, 44.7007444], [18.2239531, 44.700776], [18.2240519, 44.7007932], [18.2242365, 44.7007962], [18.2244725, 44.700781], [18.2246293, 44.7007621], [18.2247317, 44.7007478], [18.2253316, 44.7006221], [18.2258322, 44.7005657], [18.2263055, 44.7005708], [18.2265398, 44.7005695], [18.226754, 44.7005678], [18.226919, 44.70058], [18.2270344, 44.7006023], [18.2272433, 44.7006641], [18.2274225, 44.700739], [18.2276018, 44.7008201], [18.2277438, 44.7008958], [18.2278686, 44.7009858], [18.2280006, 44.701096], [18.2280219, 44.7011364], [18.2280739, 44.7012579], [18.2281035, 44.7013601], [18.228126, 44.701554], [18.2281094, 44.7017037], [18.22811, 44.7018454], [18.2281313, 44.7019611], [18.2281609, 44.7020586], [18.2282124, 44.7021596], [18.2282633, 44.7022037], [18.2283437, 44.7022533], [18.228423, 44.7022946], [18.2285544, 44.7023421], [18.2287839, 44.7023799], [18.2289597, 44.7023963], [18.2291289, 44.7024094], [18.2292809, 44.7024056], [18.22943, 44.7023883], [18.2295377, 44.7023686], [18.2296744, 44.7023299], [18.2297963, 44.702284], [18.2299353, 44.7022092], [18.2301193, 44.7020851], [18.2303323, 44.7019173], [18.2305335, 44.7017428], [18.2306358, 44.7016444], [18.2308553, 44.7015031], [18.2310281, 44.7014177], [18.2311245, 44.7013614], [18.2312068, 44.701297], [18.2312713, 44.7012445], [18.2313074, 44.7011911], [18.2313926, 44.701046], [18.2313707, 44.7010128], [18.2312594, 44.7009169], [18.2311322, 44.700834], [18.2310843, 44.700818], [18.2310665, 44.7007907], [18.2310228, 44.7007545], [18.230876, 44.700559], [18.2308056, 44.7003891], [18.2307358, 44.7001914], [18.2307092, 44.7000817], [18.2306796, 44.6999172], [18.2307216, 44.6997906], [18.2307654, 44.6996788], [18.230837, 44.6995686], [18.2309541, 44.6994264], [18.2310908, 44.6993226], [18.2312571, 44.6992263], [18.231347, 44.6991897], [18.2315357, 44.6991245], [18.2317251, 44.6990639], [18.2317706, 44.6990656], [18.2318481, 44.6990761], [18.2320108, 44.6991081], [18.2324256, 44.6992376], [18.2326439, 44.6992973], [18.2328362, 44.6993411], [18.232948, 44.6993507], [18.2331143, 44.6993482], [18.2332196, 44.6993352], [18.2333563, 44.6992982], [18.2336805, 44.6992973], [18.2337562, 44.6993112], [18.2339124, 44.6993625], [18.2340816, 44.6994622], [18.2341911, 44.6995724], [18.2343088, 44.6997175], [18.2343354, 44.6997705], [18.2343662, 44.6998626], [18.2344064, 44.7000884], [18.2344295, 44.7001708], [18.234436, 44.7003121], [18.2344366, 44.700429], [18.2344218, 44.7005245], [18.2344005, 44.7006166], [18.2344135, 44.7006877], [18.2344348, 44.7007533], [18.2344733, 44.7008231], [18.2346609, 44.7009303], [18.2347679, 44.7009686], [18.2349141, 44.7010006], [18.2350011, 44.7010144], [18.2351117, 44.7010212], [18.235201, 44.7010216], [18.2352732, 44.7010031], [18.2354572, 44.7009396], [18.2355306, 44.7009055], [18.2356554, 44.7008382], [18.2356939, 44.7008075], [18.2358513, 44.7006978], [18.2360211, 44.7006002], [18.2362057, 44.7004904], [18.2363489, 44.700416], [18.2365642, 44.7003281], [18.2367672, 44.7002583], [18.2369192, 44.7002154], [18.237073, 44.7001477], [18.2371831, 44.7000909], [18.2372369, 44.7000501], [18.2373493, 44.6999694], [18.2375215, 44.6998706], [18.2377653, 44.6998054], [18.2378789, 44.6997848], [18.2380209, 44.6997843], [18.2380676, 44.6997864], [18.2381717, 44.6997961], [18.2382759, 44.6998222], [18.2383824, 44.6998567], [18.2384901, 44.699897], [18.2385368, 44.6999198], [18.2386386, 44.6999971], [18.2387066, 44.7000505], [18.2387569, 44.7000943], [18.2387942, 44.7001523], [18.238835, 44.7002356], [18.2388811, 44.7003449], [18.2389214, 44.7004774], [18.2389397, 44.7005981], [18.2389433, 44.7007478], [18.2389368, 44.7008504], [18.2389125, 44.7009829], [18.238877, 44.7011116], [18.2388113, 44.7012949], [18.23858, 44.7017201], [18.2385303, 44.7018198], [18.2384989, 44.7019009], [18.238454, 44.7020515], [18.2384386, 44.7021495], [18.238438, 44.702279], [18.2384836, 44.702443], [18.2385575, 44.7026322], [18.238625, 44.7027803], [18.238803, 44.7030288], [18.2389918, 44.7031806], [18.2391361, 44.7032786], [18.2392639, 44.7033947], [18.2393131, 44.7034628], [18.2393172, 44.7035797], [18.2393119, 44.7036495], [18.2392651, 44.7038026], [18.2392533, 44.7038896], [18.2392551, 44.7039354], [18.2393391, 44.7040881], [18.2394338, 44.704181], [18.2395758, 44.7042836], [18.2397568, 44.7043635], [18.2399793, 44.7044451], [18.2401751, 44.7044994], [18.2403928, 44.7045414], [18.2406543, 44.7045578], [18.2408135, 44.7045507], [18.2409744, 44.7045263], [18.2411383, 44.704483], [18.2412519, 44.704438], [18.2413537, 44.7043808], [18.2414519, 44.7043127], [18.2415667, 44.7042323], [18.2416353, 44.7041772], [18.2416974, 44.7041205], [18.2417507, 44.7040675], [18.2417779, 44.7040254], [18.2417951, 44.703991], [18.2417998, 44.7039056], [18.2418158, 44.703729], [18.2418418, 44.7035868], [18.2418909, 44.7033993], [18.2419353, 44.7032853], [18.2419909, 44.7031655], [18.2420879, 44.7030313], [18.2421773, 44.7029274], [18.242224, 44.7028871], [18.2423488, 44.7028084], [18.2425039, 44.7027197], [18.2426163, 44.7026613], [18.2427707, 44.7025797], [18.2429724, 44.7024901], [18.2431316, 44.7024115], [18.2432766, 44.7023265], [18.2433984, 44.7022487], [18.2435103, 44.7021612], [18.2437345, 44.7019527], [18.2438789, 44.7018206], [18.2440155, 44.701678], [18.2440635, 44.701604], [18.2441102, 44.7015157], [18.2441581, 44.7014425], [18.244212, 44.701342], [18.2442865, 44.7012466], [18.2444818, 44.7011095], [18.2446238, 44.7009783], [18.2447871, 44.7008193], [18.2449515, 44.7007024], [18.24519, 44.7005905], [18.2453148, 44.7005182], [18.245458, 44.7004463], [18.245532, 44.7004156], [18.2457603, 44.7003723], [18.2458899, 44.7003273], [18.2461567, 44.700416], [18.2465461, 44.7003962], [18.24682, 44.7003882], [18.2472235, 44.7003769], [18.2474785, 44.7003634], [18.2477016, 44.7003613], [18.2478915, 44.7003744], [18.2481116, 44.7003946], [18.2483423, 44.7004265], [18.2487269, 44.7004513], [18.2491328, 44.7004446], [18.24926, 44.7004316], [18.2494901, 44.7003983], [18.2497096, 44.7003559], [18.2503279, 44.700228], [18.2505244, 44.7001809], [18.2510178, 44.700114], [18.2511574, 44.7001195], [18.2513828, 44.7001326], [18.2516497, 44.7001662], [18.2518195, 44.7001948], [18.2520331, 44.7001986], [18.2521141, 44.7001952], [18.25231, 44.7001738], [18.2525176, 44.7001418], [18.252688, 44.7001048], [18.2529868, 44.7000388], [18.2532785, 44.699995], [18.2534389, 44.699982], [18.2536341, 44.6999694], [18.2537341, 44.6999526], [18.2539086, 44.6999055], [18.2540796, 44.6998474], [18.254192, 44.6997961], [18.2544417, 44.6996611], [18.2546086, 44.699564], [18.2547914, 44.6994475], [18.2549073, 44.6993676], [18.255118, 44.6992162], [18.2552487, 44.699082], [18.2553736, 44.6989748], [18.2554883, 44.6988953], [18.2556812, 44.6988028], [18.2560161, 44.6986753], [18.2565539, 44.6984566], [18.256793, 44.6983544], [18.2569314, 44.6982968], [18.2570373, 44.6982405], [18.2571367, 44.698185], [18.2572219, 44.6981248], [18.2572811, 44.6980765], [18.2573249, 44.698026], [18.2573456, 44.6979961], [18.2573604, 44.6979633], [18.2573598, 44.6979255], [18.257355, 44.6978721], [18.2573361, 44.697817], [18.2573071, 44.6977602], [18.2572266, 44.6976601], [18.2571521, 44.6975798], [18.2570917, 44.6975318], [18.2569935, 44.69742], [18.2569196, 44.6973354], [18.2567935, 44.6971689], [18.2567143, 44.6970435], [18.2565557, 44.696747], [18.2564865, 44.6965834], [18.2564486, 44.6964522], [18.256435, 44.6963753], [18.2564297, 44.6963265], [18.2564563, 44.6961784], [18.2565131, 44.6960354], [18.256593, 44.6958781], [18.2566817, 44.6957507], [18.2568628, 44.6955417], [18.2569592, 44.6954512], [18.257084, 44.695357], [18.2571976, 44.6953049], [18.2573189, 44.6952784], [18.257458, 44.695262], [18.2575875, 44.6952624], [18.2577088, 44.6952775], [18.2579177, 44.695323], [18.2584662, 44.6954878], [18.2587182, 44.6955816], [18.2588188, 44.6956283], [18.2588791, 44.6956632], [18.2589058, 44.6956922], [18.2589472, 44.6957587], [18.2589673, 44.6958184], [18.2589862, 44.6958849], [18.2589969, 44.6960068], [18.259062, 44.6961952], [18.2591069, 44.6962752], [18.2591945, 44.6963753], [18.2592844, 44.6964661], [18.2594513, 44.696604], [18.2596382, 44.696747], [18.2598015, 44.6968766], [18.2598879, 44.6969506], [18.2600133, 44.6970902], [18.260108, 44.6972105], [18.2602792, 44.6973298], [18.2605526, 44.6974475], [18.2618437, 44.6977051], [18.2631064, 44.6978984], [18.2645731, 44.6980916], [18.266119, 44.6979869], [18.2673478, 44.6980634], [18.2692958, 44.6980513], [18.2705982, 44.6977977], [18.2717138, 44.697206], [18.272767, 44.6963607], [18.2734829, 44.6959377], [18.273741, 44.6957851], [18.2741261, 44.6950847], [18.2739958, 44.6939414], [18.2741827, 44.6925647], [18.2750661, 44.6919287], [18.2763119, 44.6916751], [18.2768499, 44.6910873], [18.2770141, 44.6902258], [18.2777842, 44.6898313], [18.2773482, 44.6893885], [18.2775237, 44.6889295], [18.278039, 44.6885994], [18.2805476, 44.688845], [18.2830052, 44.6885591], [18.2840019, 44.6883699], [18.284268, 44.6879029], [18.2832261, 44.6871702], [18.2819859, 44.686518], [18.2821502, 44.6859825], [18.2831241, 44.6854229], [18.2845681, 44.6852578], [18.2854119, 44.6848794], [18.2855081, 44.6841587], [18.284234, 44.6831481], [18.2840868, 44.6825321], [18.2842284, 44.6815457], [18.2849362, 44.6808572], [18.2856157, 44.6808491], [18.2881866, 44.6812759], [18.2894664, 44.6813444], [18.2905359, 44.6811249], [18.2913967, 44.6808589], [18.2928798, 44.6805814], [18.2940117, 44.6805814], [18.2948052, 44.680364], [18.2971404, 44.6792678], [18.2975502, 44.6787036], [18.297264, 44.6781994], [18.296568, 44.6775981], [18.2966591, 44.6767794], [18.2973876, 44.6757202], [18.299235, 44.6741244], [18.2996253, 44.6742169], [18.2997033, 44.6743649], [18.2997814, 44.674957], [18.3000416, 44.6755537], [18.3014141, 44.6759006], [18.3019019, 44.6757896], [18.3024353, 44.675896], [18.3029817, 44.6764973], [18.3033265, 44.6779774], [18.3035997, 44.6782503], [18.3042892, 44.6785186], [18.3050437, 44.6783844], [18.3066179, 44.6774547], [18.3076391, 44.6773622], [18.3096751, 44.678167], [18.3102605, 44.6788654], [18.3104492, 44.679587], [18.310267, 44.6807063], [18.3108004, 44.6818348], [18.3109881, 44.682878], [18.3110021, 44.6835738], [18.3115289, 44.6837495], [18.3126738, 44.6835969], [18.3132527, 44.6832038], [18.3133958, 44.6825655], [18.3128039, 44.6821724], [18.3124461, 44.6814972], [18.313025, 44.6805675], [18.312947, 44.6799847], [18.3130836, 44.6795777], [18.3137406, 44.6792678], [18.3161408, 44.679587], [18.3169019, 44.6793372], [18.3169734, 44.6787036], [18.3159001, 44.6769459], [18.3157763, 44.6759661], [18.3170376, 44.6743633], [18.3187972, 44.6732708], [18.3196126, 44.6733013], [18.3211747, 44.6742412], [18.322239, 44.6745891], [18.3235779, 44.6744732], [18.3252001, 44.6740459], [18.3255086, 44.6742375], [18.3258095, 44.6744243], [18.326376, 44.6751934], [18.3273202, 44.6754314], [18.3275262, 44.6747906], [18.3272257, 44.6723918], [18.3294573, 44.6719157], [18.3301268, 44.67111], [18.3301011, 44.6701883], [18.3312255, 44.6689553], [18.333706, 44.667942], [18.3352338, 44.6673926], [18.3359461, 44.6666723], [18.3358002, 44.6660985], [18.3349591, 44.6660436], [18.3321267, 44.6663366], [18.3305474, 44.6662206], [18.3293029, 44.6660009], [18.3288994, 44.6654881], [18.3293887, 44.6649753], [18.3303414, 44.6644991], [18.3315859, 44.6637055], [18.3328648, 44.6618436], [18.3333111, 44.6610011], [18.3334742, 44.6593711], [18.3335, 44.6586629], [18.3328219, 44.6581622], [18.3311997, 44.6573319], [18.330968, 44.6566909], [18.3313113, 44.6558849], [18.3320323, 44.65525], [18.3328562, 44.6548775], [18.333397, 44.6545906], [18.3339635, 44.6539006], [18.3346844, 44.6529359], [18.3364869, 44.6517453], [18.336813, 44.6508782], [18.3364611, 44.6492968], [18.3375941, 44.6485823], [18.3389437, 44.6479834], [18.3401948, 44.6474282], [18.3410359, 44.6475198], [18.3418255, 44.6481976], [18.3429328, 44.6484846], [18.3432933, 44.6492174], [18.343113, 44.6498646], [18.3440743, 44.6499623], [18.3454648, 44.6496753], [18.3462201, 44.6492296], [18.3467093, 44.6484113], [18.3468552, 44.6475748], [18.3469067, 44.6463962], [18.3467026, 44.6451413], [18.3468572, 44.6444374], [18.3479118, 44.6441684], [18.3483996, 44.6447145], [18.3487964, 44.6454827], [18.349616, 44.6460011], [18.3503706, 44.6461307], [18.3512812, 44.6460797], [18.3517886, 44.6452282], [18.3525301, 44.643738], [18.3536034, 44.6427707], [18.3546052, 44.6425301], [18.3551125, 44.6420117], [18.3547873, 44.6412897], [18.3531806, 44.6394337], [18.3529595, 44.638633], [18.3533758, 44.6382442], [18.3547613, 44.6387811], [18.3551906, 44.6393273], [18.3562704, 44.6395494], [18.357129, 44.6393921], [18.3590284, 44.6382905], [18.3598285, 44.6384571], [18.3602578, 44.6391792], [18.360544, 44.639966], [18.361188, 44.6404011], [18.3628597, 44.6404705], [18.363959, 44.6401095], [18.3657088, 44.638957], [18.3663267, 44.6388182], [18.3671333, 44.6389431], [18.3682001, 44.6386978], [18.3683692, 44.6375962], [18.3685709, 44.6365687], [18.3699108, 44.6361012], [18.3727664, 44.636365], [18.3738137, 44.6366381], [18.3757391, 44.6378138], [18.3774108, 44.639082], [18.3802079, 44.6401789], [18.3818405, 44.6405168], [18.3837464, 44.6410259], [18.3860751, 44.6411092], [18.3877208, 44.6408269], [18.3887031, 44.6404797], [18.3892755, 44.6400123], [18.3895487, 44.6391144], [18.3896267, 44.6378878], [18.3900365, 44.6367261], [18.3907455, 44.6360595], [18.3916626, 44.6357128], [18.3927165, 44.6353143], [18.3927035, 44.6345274], [18.3932239, 44.633472], [18.3936464, 44.6331296], [18.3939719, 44.6328657], [18.3956827, 44.6309909], [18.396771, 44.6294834], [18.3981244, 44.6282664], [18.3990757, 44.6263964], [18.3994721, 44.6241113], [18.3991663, 44.6231198], [18.3988096, 44.6222855], [18.3966464, 44.6210441], [18.3962022, 44.620511], [18.39564, 44.6193258], [18.3947988, 44.6183819], [18.3942152, 44.6173768], [18.3937517, 44.6159228], [18.3938075, 44.613265], [18.3939077, 44.6117881], [18.3940569, 44.6109665], [18.3944989, 44.6104319], [18.3967133, 44.6110215], [18.3980222, 44.6116417], [18.398623, 44.6123199], [18.3983784, 44.6133098], [18.3995243, 44.614046], [18.4009061, 44.6140918], [18.4029232, 44.6143271], [18.4060388, 44.6147425], [18.4070817, 44.6145531], [18.4075108, 44.614211], [18.4076052, 44.6127782], [18.4080473, 44.6122436], [18.409236, 44.6114584], [18.4103089, 44.6108596], [18.4106222, 44.6104349], [18.4112745, 44.6102822], [18.4126907, 44.610661], [18.4130984, 44.6117792], [18.4137151, 44.6139381], [18.4143135, 44.6146829], [18.4142464, 44.6150315], [18.4141488, 44.6153463], [18.4146497, 44.6154899], [18.4149684, 44.6156056], [18.4153002, 44.615902], [18.4155083, 44.6162168], [18.4156839, 44.6164159], [18.4163539, 44.6167215], [18.4166206, 44.6168975], [18.4169133, 44.6169901], [18.4171215, 44.6171799], [18.4169068, 44.6173188], [18.4166532, 44.617504], [18.4166597, 44.617592], [18.417128, 44.6179531], [18.4174434, 44.6184421], [18.4179589, 44.6189048], [18.4186239, 44.619527], [18.4192318, 44.6199957], [18.4196867, 44.6200629], [18.4202189, 44.6202462], [18.4209828, 44.6204233], [18.4213862, 44.6205089], [18.4219242, 44.6206355], [18.4224649, 44.6209166], [18.4230743, 44.6213259], [18.4236494, 44.6219857], [18.4242244, 44.6224316], [18.4246107, 44.6225538], [18.4250741, 44.6227248], [18.4254003, 44.6229631], [18.4254432, 44.6232624], [18.4254432, 44.6236717], [18.425572, 44.6238733], [18.4255119, 44.6241299], [18.4249368, 44.6247774], [18.4243875, 44.6253516], [18.4238382, 44.6259198], [18.4233404, 44.6261824], [18.4229455, 44.6266467], [18.4228855, 44.6268605], [18.4229713, 44.6270621], [18.4231344, 44.627282], [18.423821, 44.6277523], [18.4242845, 44.6282715], [18.4245506, 44.6288702], [18.425263, 44.6296215], [18.4255977, 44.6302079], [18.4259496, 44.6307515], [18.4266792, 44.6312218], [18.4270568, 44.6313379], [18.4278207, 44.631515], [18.4285331, 44.6316127], [18.4292455, 44.6319181], [18.4297004, 44.6322113], [18.4300952, 44.6326694], [18.430533, 44.633097], [18.4307218, 44.6334818], [18.4309192, 44.6336772], [18.431314, 44.6339032], [18.4317346, 44.6341903], [18.4320951, 44.6345567], [18.4324041, 44.6350087], [18.4327302, 44.635308], [18.4332109, 44.6355523], [18.433949, 44.6357905], [18.4341894, 44.6358943], [18.4342752, 44.6360165], [18.4343095, 44.6362302], [18.4341808, 44.6364379], [18.4339748, 44.6366761], [18.4339147, 44.6369021], [18.4339662, 44.6369937], [18.4341379, 44.637128], [18.434464, 44.637354], [18.4345584, 44.6375983], [18.4349962, 44.6379647], [18.4353481, 44.6381663], [18.4357601, 44.638264], [18.4359918, 44.6383923], [18.4362407, 44.638661], [18.4363609, 44.6390091], [18.4363781, 44.6393145], [18.436524, 44.6394366], [18.4369617, 44.639571], [18.4374252, 44.6398824], [18.4383264, 44.6406397], [18.4385839, 44.6409329], [18.4390474, 44.641], [18.4396139, 44.6411893], [18.4402404, 44.6413298], [18.4405237, 44.6414764], [18.4406953, 44.6418245], [18.44097, 44.6420565], [18.4412103, 44.6420565], [18.4414249, 44.6420016], [18.4415536, 44.6418611], [18.4420515, 44.641], [18.4422231, 44.6409145], [18.4425664, 44.6408657], [18.4428497, 44.6409512], [18.4439784, 44.6420504], [18.4445248, 44.6424715], [18.4446159, 44.6425919], [18.4445378, 44.6428788], [18.4445703, 44.6430176], [18.444824, 44.6431843], [18.4449997, 44.6432444], [18.446164, 44.6434573], [18.4463917, 44.643536], [18.446886, 44.6439016], [18.4473804, 44.6442811], [18.4476796, 44.6444477], [18.448239, 44.6446652], [18.4492017, 44.6451003], [18.4493679, 44.6452624], [18.4494516, 44.6454997], [18.4494068, 44.6457493], [18.4492477, 44.646373], [18.4490544, 44.6470407], [18.4488053, 44.6477043], [18.4486136, 44.6481978], [18.4485416, 44.6485555], [18.4484989, 44.6490426], [18.4482674, 44.649261], [18.4479932, 44.6495025], [18.4480285, 44.6497166], [18.4482347, 44.6499314], [18.4487601, 44.6502703], [18.448815, 44.6504306], [18.4487328, 44.6506591], [18.4482172, 44.651515], [18.4475821, 44.6519721], [18.4473356, 44.6521794], [18.4466705, 44.6525196], [18.4464763, 44.652796], [18.4461027, 44.653673], [18.4446905, 44.6546457], [18.4437714, 44.6553261], [18.4428524, 44.6557672], [18.4420603, 44.6559586], [18.4417913, 44.6560755], [18.4416045, 44.6566814], [18.4414999, 44.6571545], [18.4411861, 44.6573139], [18.4408274, 44.657686], [18.4405435, 44.6579942], [18.4399981, 44.6582493], [18.4398934, 44.6584301], [18.4399831, 44.6587543], [18.4398187, 44.6591954], [18.4397739, 44.6594824], [18.4395572, 44.6599979], [18.4390566, 44.6605879], [18.4386755, 44.6609599], [18.4385261, 44.6612256], [18.438145, 44.6615286], [18.4376294, 44.661789], [18.4372932, 44.6622513], [18.4368822, 44.6627403], [18.4366581, 44.6630166], [18.4364563, 44.6632026], [18.4362546, 44.6632558], [18.4359781, 44.6631867], [18.4356718, 44.6629635], [18.4354626, 44.6626871], [18.4354028, 44.6624852], [18.4353056, 44.6624374], [18.435201, 44.6626287], [18.4350217, 44.6628944], [18.4347826, 44.6630166], [18.4346855, 44.6632239], [18.4347751, 44.6635002], [18.4348498, 44.6637607], [18.4346855, 44.6641273], [18.4346107, 44.664324], [18.4342371, 44.6647066], [18.4339756, 44.6649139], [18.4334451, 44.664983], [18.4326381, 44.6652062], [18.4322048, 44.6652859], [18.431749, 44.6652912], [18.431338, 44.6651902], [18.4305983, 44.6653018], [18.4301948, 44.6655728], [18.4296867, 44.665913], [18.4295746, 44.6658226], [18.4292982, 44.6656844], [18.4287751, 44.6655888], [18.4281848, 44.6655888], [18.4274152, 44.6652274], [18.4268922, 44.6650361], [18.4264513, 44.6649776], [18.4257415, 44.6649298], [18.4251437, 44.6649723], [18.4247627, 44.6650892], [18.4241724, 44.66544], [18.4229918, 44.6661415], [18.4228376, 44.6665477], [18.4226405, 44.6668773], [18.4223841, 44.6671297], [18.4218024, 44.6673751], [18.4212799, 44.6677397], [18.4208658, 44.6680413], [18.4205207, 44.66849], [18.4183662, 44.6689049], [18.4173825, 44.6733319], [18.4178871, 44.678067], [18.416118, 44.6804857], [18.4138785, 44.6836704], [18.4131671, 44.6848394], [18.4118037, 44.6866494], [18.4089661, 44.6895153], [18.4056793, 44.6928909], [18.4049475, 44.6966388], [18.4022035, 44.6968937], [18.3987351, 44.6964949], [18.3964759, 44.6976977], [18.3931563, 44.6980089], [18.3907219, 44.6982004], [18.3876342, 44.6977324], [18.382718, 44.6989327], [18.3790733, 44.7022869], [18.3802922, 44.706107], [18.3802864, 44.7110509], [18.3793906, 44.7126424], [18.3793906, 44.7161435], [18.3798385, 44.7183714], [18.3802864, 44.7199627], [18.3825259, 44.7218722], [18.3851225, 44.7229378], [18.3878724, 44.7225404], [18.3889496, 44.7261582], [18.388734, 44.7285348], [18.3884618, 44.7305487], [18.386109, 44.7358732], [18.386109, 44.7368277], [18.3865061, 44.7393379], [18.3901401, 44.7403274], [18.3946762, 44.7412669], [18.4009809, 44.7432774], [18.4042876, 44.7449266], [18.4064885, 44.7472756], [18.4093007, 44.7464764], [18.4123976, 44.7471512], [18.4157907, 44.7488], [18.4215696, 44.7495445], [18.4271709, 44.7496352], [18.4269901, 44.7517754], [18.4281515, 44.7520066], [18.4292336, 44.7524018], [18.4302081, 44.7528222], [18.4303307, 44.7528659], [18.4302259, 44.7530304], [18.4301537, 44.7532987], [18.4301462, 44.7540362], [18.4301612, 44.7547154], [18.4302434, 44.7553681], [18.4301612, 44.7556546], [18.4299669, 44.7560048], [18.4297577, 44.7563444], [18.4296755, 44.7571668], [18.4294065, 44.7577186], [18.4292944, 44.7581006], [18.4291749, 44.7584189], [18.4289582, 44.7587054], [18.4288461, 44.7590715], [18.428465, 44.7595862], [18.428211, 44.7599151], [18.4280018, 44.760069], [18.4278598, 44.7602759], [18.4278673, 44.7604669], [18.428069, 44.761093], [18.4284053, 44.761475], [18.4289283, 44.7619153], [18.4294962, 44.7622708], [18.4301985, 44.7625042], [18.4306693, 44.7627748], [18.4325529, 44.7632474], [18.4335948, 44.7636695], [18.4342007, 44.7640314], [18.4343196, 44.7640917], [18.4344385, 44.764144], [18.4346481, 44.7641239], [18.4347273, 44.7642164], [18.434716, 44.7643531], [18.4346084, 44.7644415], [18.434297, 44.7644938], [18.4337703, 44.7645943], [18.4334249, 44.764727], [18.4331588, 44.7648476], [18.4328247, 44.76492], [18.432417, 44.7649762], [18.4323147, 44.7650788], [18.4321914, 44.7653483], [18.4320288, 44.7653833], [18.4318957, 44.7654323], [18.4317774, 44.7656178], [18.4316886, 44.7656633], [18.4316245, 44.7656633], [18.4315357, 44.7656798], [18.4314905, 44.7658043], [18.4314178, 44.7659345], [18.4311901, 44.7660453], [18.4311706, 44.7661516], [18.4312747, 44.7661377], [18.4314829, 44.7661608], [18.4314698, 44.7662993], [18.4310015, 44.7666319], [18.4308454, 44.7668074], [18.4306372, 44.7669736], [18.4304876, 44.7671029], [18.4300973, 44.7672322], [18.4298111, 44.7673939], [18.4295314, 44.7675093], [18.4292062, 44.767574], [18.428894, 44.7675186], [18.4283801, 44.7675786], [18.4278207, 44.767731], [18.4272873, 44.7678326], [18.4267159, 44.7679022], [18.4262624, 44.7680002], [18.4258286, 44.7682242], [18.4249708, 44.7685602], [18.4237187, 44.7688822], [18.4223877, 44.7692322], [18.4216088, 44.7697712], [18.4208398, 44.7701351], [18.4202482, 44.7703311], [18.4198834, 44.7704991], [18.4189961, 44.7709261], [18.4184144, 44.7710171], [18.417882, 44.7710031], [18.4186707, 44.771381], [18.4191242, 44.771731], [18.4196862, 44.772165], [18.4203172, 44.7723329], [18.420682, 44.7724939], [18.4208693, 44.7728789], [18.4210271, 44.7733058], [18.421451, 44.7738518], [18.4222102, 44.7745727], [18.4224567, 44.7750836], [18.4228314, 44.7754405], [18.4233046, 44.7757835], [18.4242412, 44.7764694], [18.4254561, 44.7775286], [18.4257684, 44.777741], [18.4253781, 44.7780181], [18.4261261, 44.7785168], [18.4258985, 44.7787615], [18.4256253, 44.7788723], [18.4254496, 44.7789785], [18.4254952, 44.7791724], [18.4254756, 44.7794494], [18.425248, 44.7796203], [18.4246886, 44.7797819], [18.4246495, 44.7801005], [18.4243113, 44.7802621], [18.4237649, 44.7803775], [18.4236413, 44.7805714], [18.4237194, 44.7809177], [18.4236023, 44.7812825], [18.4232966, 44.7819842], [18.4229518, 44.7824829], [18.422529, 44.7829861], [18.4223078, 44.7830138], [18.4220542, 44.7830277], [18.4218915, 44.782963], [18.4217354, 44.7831016], [18.4215078, 44.7836417], [18.4213581, 44.7836833], [18.4208768, 44.7836971], [18.4203239, 44.7836648], [18.4199726, 44.7837156], [18.4197385, 44.7837525], [18.4192246, 44.7838218], [18.41847, 44.7839926], [18.4180863, 44.7841173], [18.4179171, 44.7841588], [18.4175138, 44.7841542], [18.4174423, 44.7843666], [18.4174813, 44.784602], [18.4175919, 44.7847867], [18.4179301, 44.7848837], [18.4185741, 44.7850776], [18.4187627, 44.7851884], [18.4187237, 44.7864026], [18.4187497, 44.7870258], [18.4181903, 44.7871366], [18.4176765, 44.7872289], [18.4168243, 44.7874644], [18.416369, 44.787746], [18.4160308, 44.7881892], [18.4157836, 44.7884616], [18.4154974, 44.7885539], [18.4161348, 44.7896341], [18.4166877, 44.7897357], [18.4169674, 44.7900404], [18.4174878, 44.7911298], [18.417735, 44.7917253], [18.4178976, 44.7920762], [18.4182749, 44.7924132], [18.4186977, 44.7927778], [18.4191075, 44.7932533], [18.4188798, 44.7934056], [18.4188083, 44.7936503], [18.4186717, 44.7938857], [18.4187693, 44.7943704], [18.4194327, 44.7954459], [18.4197385, 44.7957413], [18.4200832, 44.796009], [18.4203889, 44.7962491], [18.4206686, 44.7965168], [18.4206947, 44.7968399], [18.4206816, 44.7970245], [18.4209614, 44.7974215], [18.4210784, 44.7977354], [18.4213516, 44.7979615], [18.4216574, 44.7981], [18.4219566, 44.7981646], [18.4222038, 44.7980631], [18.4227111, 44.79816], [18.4233486, 44.7981969], [18.4237844, 44.7983216], [18.4242788, 44.7982754], [18.424591, 44.7982523], [18.4249227, 44.7980723], [18.4253846, 44.7980492], [18.4259505, 44.7981185], [18.4262822, 44.7982062], [18.4268416, 44.7983354], [18.4271018, 44.7983862], [18.4272905, 44.7986954], [18.4274596, 44.7993093], [18.4274921, 44.7995032], [18.4277133, 44.7995355], [18.4278239, 44.7997617], [18.4279019, 44.8001586], [18.428045, 44.8009571], [18.4281361, 44.8013079], [18.4283898, 44.8014971], [18.4275832, 44.8020279], [18.4273425, 44.8023233], [18.4272047, 44.8030694], [18.4266058, 44.8035433], [18.426385, 44.8036035], [18.4260792, 44.8037361], [18.4257224, 44.8038687], [18.4252694, 44.804162], [18.4251165, 44.8042223], [18.4248843, 44.8042102], [18.4246352, 44.8041057], [18.4242784, 44.8038245], [18.4237575, 44.803262], [18.4235989, 44.8029406], [18.4233044, 44.8025589], [18.4232082, 44.8021731], [18.4231855, 44.8017874], [18.4232648, 44.8014539], [18.4232365, 44.8013334], [18.4231176, 44.801253], [18.4229987, 44.8011445], [18.423027, 44.8007548], [18.4228854, 44.8005338], [18.4226193, 44.8002164], [18.4221889, 44.7998829], [18.4217585, 44.7995534], [18.420575, 44.7989868], [18.4203315, 44.7987698], [18.4201956, 44.7984966], [18.4200031, 44.7983399], [18.419635, 44.7982354], [18.4194142, 44.7981993], [18.4188592, 44.7978376], [18.4173643, 44.7971304], [18.4164695, 44.7967366], [18.4159882, 44.7965879], [18.4155012, 44.7965719], [18.4152068, 44.796612], [18.41485, 44.796612], [18.4140346, 44.796375], [18.4135985, 44.7962504], [18.4131229, 44.7961178], [18.412953, 44.7960133], [18.4128907, 44.7959691], [18.4128171, 44.7960414], [18.4121659, 44.7960133], [18.4116789, 44.7960013], [18.4112598, 44.7959611], [18.4102745, 44.7958044], [18.4098668, 44.7958084], [18.4093685, 44.7958566], [18.4088815, 44.7959691], [18.4083379, 44.7960977], [18.4079358, 44.7962383], [18.4075847, 44.7962625], [18.4071261, 44.7961781], [18.4061861, 44.7958365], [18.4055915, 44.7956034], [18.4050252, 44.7955713], [18.4043683, 44.7956034], [18.4039323, 44.7955311], [18.4027431, 44.7953302], [18.402426, 44.7953061], [18.4019164, 44.7951775], [18.4013388, 44.7951293], [18.3994965, 44.7950546], [18.3987609, 44.7946205], [18.3968763, 44.7944053], [18.3956433, 44.794264], [18.3953476, 44.7942698], [18.3950817, 44.7943604], [18.3947144, 44.7945205], [18.3940994, 44.7946498], [18.393766, 44.7948129], [18.3929945, 44.7949375], [18.3922586, 44.7948793], [18.3911427, 44.7944412], [18.3899969, 44.7938759], [18.3893937, 44.7934639], [18.3889203, 44.7930148], [18.3886223, 44.7929216], [18.3882083, 44.7929], [18.3873966, 44.7929334], [18.3868149, 44.7928898], [18.386376, 44.7927717], [18.38551, 44.7922634], [18.3849599, 44.7919728], [18.3841097, 44.7917031], [18.3835725, 44.791579], [18.3829826, 44.7915891], [18.3824873, 44.7916385], [18.3820624, 44.7915848], [18.3816311, 44.7914337], [18.3812052, 44.7912376], [18.3807868, 44.7909406], [18.380458, 44.7904952], [18.3801666, 44.79023], [18.3790906, 44.7898376], [18.3781492, 44.7895248], [18.3771927, 44.7890316], [18.3768266, 44.7887558], [18.3759898, 44.7883104], [18.3747195, 44.7878437], [18.3744431, 44.7874248], [18.3743086, 44.7868998], [18.3741218, 44.7864225], [18.3733895, 44.7859664], [18.3727544, 44.7858391], [18.3723957, 44.786327], [18.3721492, 44.7865763], [18.3714916, 44.7868414], [18.3712114, 44.7872763], [18.3711554, 44.7876581], [18.3707444, 44.7880665], [18.3713048, 44.7883846], [18.3714692, 44.7887611], [18.371566, 44.7891697], [18.371461, 44.7895762], [18.371245, 44.7899861], [18.3711479, 44.7904262], [18.3709387, 44.7905747], [18.3704455, 44.7905747], [18.3698328, 44.7906967], [18.3691753, 44.7907444], [18.368854, 44.7907444], [18.3686298, 44.7908027], [18.3681965, 44.7906967], [18.3679051, 44.790824], [18.3673609, 44.7908959], [18.3668902, 44.7908216], [18.3666511, 44.7907792], [18.3664269, 44.7909118], [18.3659188, 44.7909277], [18.3653285, 44.7909277], [18.365067, 44.7907845], [18.3646785, 44.7904186], [18.3643273, 44.7901588], [18.3639537, 44.7901111], [18.3637071, 44.7900951], [18.3630645, 44.7894959], [18.3625564, 44.7890399], [18.3623771, 44.7888437], [18.3620857, 44.7880482], [18.3618092, 44.7878891], [18.3615851, 44.7877672], [18.3613235, 44.7873906], [18.3610097, 44.787327], [18.3604941, 44.7870194], [18.3602252, 44.7871308], [18.3601953, 44.7873111], [18.3602027, 44.7874437], [18.3600757, 44.7877937], [18.3595601, 44.7880641], [18.3593136, 44.7884194], [18.3588204, 44.78843], [18.3584692, 44.7881543], [18.3579312, 44.787921], [18.3574157, 44.7878255], [18.3571093, 44.7878626], [18.3569001, 44.7879528], [18.3565564, 44.7881861], [18.3563322, 44.7882444], [18.3561305, 44.788149], [18.3556672, 44.7878043], [18.3554207, 44.7879422], [18.3552264, 44.7881914], [18.3549982, 44.7884714], [18.3544478, 44.7899134], [18.3542076, 44.7902143], [18.3537742, 44.7900658], [18.353042, 44.7900181], [18.3521976, 44.7900287], [18.3513159, 44.7899173], [18.3505314, 44.7900234], [18.3501951, 44.7900234], [18.3498963, 44.7898378], [18.3491864, 44.7889734], [18.3485438, 44.7888408], [18.3478041, 44.7888885], [18.3467207, 44.7887666], [18.3459212, 44.7887719], [18.3453533, 44.7889204], [18.3445762, 44.7890741], [18.3441652, 44.7890954], [18.3437244, 44.7890052], [18.343433, 44.7888143], [18.3434703, 44.7885492], [18.3437244, 44.788109], [18.3440158, 44.7876636], [18.3442848, 44.7871332], [18.3445538, 44.7868204], [18.3447032, 44.7866825], [18.3445986, 44.7857014], [18.3446509, 44.7852665], [18.3446808, 44.7849536], [18.3448377, 44.7848317], [18.3452786, 44.7848264], [18.345966, 44.7849695], [18.3466908, 44.7851605], [18.3471241, 44.7851976], [18.3476397, 44.785118], [18.3484691, 44.7850862], [18.3487456, 44.7849748], [18.3486858, 44.7846301], [18.348768, 44.7840945], [18.3488726, 44.7838399], [18.3488053, 44.7835907], [18.3486043, 44.7831168], [18.3484231, 44.7824737], [18.3483334, 44.7818638], [18.3479673, 44.7821236], [18.3478104, 44.7823941], [18.3475489, 44.7825267], [18.3469661, 44.7825585], [18.3465476, 44.7824153], [18.3457108, 44.7820918], [18.3451877, 44.7820282], [18.3446273, 44.7820547], [18.3442463, 44.7821395], [18.3440146, 44.7822986], [18.3437157, 44.7824153], [18.3433272, 44.7824843], [18.3430134, 44.7824577], [18.3424754, 44.7822032], [18.3415862, 44.781885], [18.3413322, 44.7818213], [18.3408839, 44.7818107], [18.3399274, 44.7819592], [18.3394791, 44.7829351], [18.3382164, 44.7824206], [18.3375887, 44.781885], [18.3372674, 44.7816622], [18.3367817, 44.7815031], [18.3362363, 44.7815243], [18.3357132, 44.7814925], [18.3351528, 44.7815031], [18.3344355, 44.781694], [18.3335688, 44.7817948], [18.3331205, 44.7817471], [18.332829, 44.7817418], [18.3326497, 44.7817948], [18.3325601, 44.7818744], [18.3325601, 44.7820123], [18.3325526, 44.7823039], [18.332702, 44.7826116], [18.3326273, 44.782776], [18.3325451, 44.7831419], [18.332448, 44.7833328], [18.3320146, 44.7836245], [18.331245, 44.7841442], [18.3309536, 44.7842132], [18.3299598, 44.7843033], [18.3294143, 44.784314], [18.3278901, 44.7840753], [18.3271802, 44.7841018], [18.3264779, 44.7842291], [18.3257979, 44.7843458], [18.3253122, 44.7844837], [18.3249311, 44.7846799], [18.3246397, 44.7849238], [18.3242288, 44.7850617], [18.3238627, 44.7850988], [18.3232649, 44.7847276], [18.3226896, 44.7845685], [18.322316, 44.7846268], [18.3218826, 44.7845844], [18.3216734, 44.7844996], [18.3211802, 44.7843193], [18.320844, 44.7843458], [18.320306, 44.7844624], [18.3197306, 44.784717], [18.3192823, 44.7848178], [18.3188938, 44.7849928], [18.3187294, 44.7851837], [18.3185276, 44.7855867], [18.3186251, 44.7856575], [18.31843, 44.7865101], [18.3183105, 44.7866916], [18.3176629, 44.7862193], [18.3147173, 44.7857172], [18.3102811, 44.78526], [18.3076222, 44.785009], [18.3036601, 44.7842493], [18.3014879, 44.784062], [18.2975156, 44.7835991], [18.2961151, 44.7833279], [18.2939837, 44.7831688], [18.2931682, 44.7829795], [18.2907448, 44.7830128], [18.2857489, 44.7828758], [18.2808138, 44.7833963], [18.2751765, 44.7838613], [18.2739068, 44.7838135], [18.2724832, 44.7839887], [18.2708421, 44.7843143], [18.2693919, 44.7847579], [18.2625369, 44.7865153], [18.2614522, 44.7868312], [18.2605031, 44.7871689], [18.2589095, 44.7874602], [18.2540907, 44.7886822], [18.2507797, 44.7896329], [18.2465167, 44.7907842], [18.2411515, 44.7923432], [18.2400316, 44.7923901], [18.2357575, 44.792331], [18.2305997, 44.7922247], [18.2267333, 44.7921927], [18.2237141, 44.7915565], [18.2223372, 44.7911293], [18.2176516, 44.7903374], [18.2100579, 44.7886513], [18.2090429, 44.7884662], [18.2079241, 44.7881705], [18.2072004, 44.7880422], [18.2067628, 44.7879647], [18.2027003, 44.7869367], [18.2013324, 44.7865246], [18.1965766, 44.7855445], [18.192015, 44.7844477], [18.1893272, 44.7837137], [18.1844269, 44.7826805], [18.1834683, 44.7823067], [18.1787121, 44.7808284], [18.1756844, 44.7798873], [18.1735858, 44.7790464], [18.1727276, 44.7789487], [18.1722827, 44.7784825], [18.171841, 44.7782976], [18.1714559, 44.7782091], [18.170833, 44.7778554], [18.1705952, 44.7776062], [18.1704706, 44.7772284], [18.1701988, 44.7769229], [18.1707764, 44.776336], [18.1708557, 44.7758536], [18.1711049, 44.775331], [18.1714786, 44.7745914], [18.1709916, 44.7745029], [18.1702101, 44.7742135], [18.1692588, 44.7739], [18.1689077, 44.7736507], [18.1687265, 44.7731523], [18.1693721, 44.7724367], [18.1687265, 44.7720669], [18.1685113, 44.7715603]]]}}]}