{"type": "FeatureCollection", "features": [{"type": "Feature", "properties": {"name": "Grad Gradačac, Tuzlanski kanton, Federacija Bosne i Hercegovine, 76250, Bosna i Hercegovina / Босна и Херцеговина", "source": "OpenStreetMap relation 2528203", "licence": "ODbL 1.0"}, "geometry": {"type": "MultiPolygon", "coordinates": [[[[18.3183105, 44.7866916], [18.31843, 44.7865101], [18.3186251, 44.7856575], [18.3185276, 44.7855867], [18.3187294, 44.7851837], [18.3188938, 44.7849928], [18.3192823, 44.7848178], [18.3197306, 44.784717], [18.320306, 44.7844624], [18.320844, 44.7843458], [18.3211802, 44.7843193], [18.3216734, 44.7844996], [18.3218826, 44.7845844], [18.322316, 44.7846268], [18.3226896, 44.7845685], [18.3232649, 44.7847276], [18.3238627, 44.7850988], [18.3242288, 44.7850617], [18.3246397, 44.7849238], [18.3249311, 44.7846799], [18.3253122, 44.7844837], [18.3257979, 44.7843458], [18.3264779, 44.7842291], [18.3271802, 44.7841018], [18.3278901, 44.7840753], [18.3294143, 44.784314], [18.3299598, 44.7843033], [18.3309536, 44.7842132], [18.331245, 44.7841442], [18.3320146, 44.7836245], [18.332448, 44.7833328], [18.3325451, 44.7831419], [18.3326273, 44.782776], [18.332702, 44.7826116], [18.3325526, 44.7823039], [18.3325601, 44.7820123], [18.3325601, 44.7818744], [18.3326497, 44.7817948], [18.332829, 44.7817418], [18.3331205, 44.7817471], [18.3335688, 44.7817948], [18.3344355, 44.781694], [18.3351528, 44.7815031], [18.3357132, 44.7814925], [18.3362363, 44.7815243], [18.3367817, 44.7815031], [18.3372674, 44.7816622], [18.3375887, 44.781885], [18.3382164, 44.7824206], [18.3394791, 44.7829351], [18.3399274, 44.7819592], [18.3408839, 44.7818107], [18.3413322, 44.7818213], [18.3415862, 44.781885], [18.3424754, 44.7822032], [18.3430134, 44.7824577], [18.3433272, 44.7824843], [18.3437157, 44.7824153], [18.3440146, 44.7822986], [18.3442463, 44.7821395], [18.3446273, 44.7820547], [18.3451877, 44.7820282], [18.3457108, 44.7820918], [18.3465476, 44.7824153], [18.3469661, 44.7825585], [18.3475489, 44.7825267], [18.3478104, 44.7823941], [18.3479673, 44.7821236], [18.3483334, 44.7818638], [18.3484231, 44.7824737], [18.3486043, 44.7831168], [18.3488053, 44.7835907], [18.3488726, 44.7838399], [18.348768, 44.7840945], [18.3486858, 44.7846301], [18.3487456, 44.7849748], [18.3484691, 44.7850862], [18.3476397, 44.785118], [18.3471241, 44.7851976], [18.3466908, 44.7851605], [18.345966, 44.7849695], [18.3452786, 44.7848264], [18.3448377, 44.7848317], [18.3446808, 44.7849536], [18.3446509, 44.7852665], [18.3445986, 44.7857014], [18.3447032, 44.7866825], [18.3445538, 44.7868204], [18.3442848, 44.7871332], [18.3440158, 44.7876636], [18.3437244, 44.788109], [18.3434703, 44.7885492], [18.343433, 44.7888143], [18.3437244, 44.7890052], [18.3441652, 44.7890954], [18.3445762, 44.7890741], [18.3453533, 44.7889204], [18.3459212, 44.7887719], [18.3467207, 44.7887666], [18.3478041, 44.7888885], [18.3485438, 44.7888408], [18.3491864, 44.7889734], [18.3498963, 44.7898378], [18.3501951, 44.7900234], [18.3505314, 44.7900234], [18.3513159, 44.7899173], [18.3521976, 44.7900287], [18.353042, 44.7900181], [18.3537742, 44.7900658], [18.3542076, 44.7902143], [18.3544478, 44.7899134], [18.3549982, 44.7884714], [18.3552264, 44.7881914], [18.3554207, 44.7879422], [18.3556672, 44.7878043], [18.3561305, 44.788149], [18.3563322, 44.7882444], [18.3565564, 44.7881861], [18.3569001, 44.7879528], [18.3571093, 44.7878626], [18.3574157, 44.7878255], [18.3579312, 44.787921], [18.3584692, 44.7881543], [18.3588204, 44.78843], [18.3593136, 44.7884194], [18.3595601, 44.7880641], [18.3600757, 44.7877937], [18.3602027, 44.7874437], [18.3601953, 44.7873111], [18.3602252, 44.7871308], [18.3604941, 44.7870194], [18.3610097, 44.787327], [18.3613235, 44.7873906], [18.3615851, 44.7877672], [18.3618092, 44.7878891], [18.3620857, 44.7880482], [18.3623771, 44.7888437], [18.3625564, 44.7890399], [18.3630645, 44.7894959], [18.3637071, 44.7900951], [18.3639537, 44.7901111], [18.3643273, 44.7901588], [18.3646785, 44.7904186], [18.365067, 44.7907845], [18.3653285, 44.7909277], [18.3659188, 44.7909277], [18.3664269, 44.7909118], [18.3666511, 44.7907792], [18.3668902, 44.7908216], [18.3673609, 44.7908959], [18.3679051, 44.790824], [18.3681965, 44.7906967], [18.3686298, 44.7908027], [18.368854, 44.7907444], [18.3691753, 44.7907444], [18.3698328, 44.7906967], [18.3704455, 44.7905747], [18.3709387, 44.7905747], [18.3711479, 44.7904262], [18.371245, 44.7899861], [18.371461, 44.7895762], [18.371566, 44.7891697], [18.3714692, 44.7887611], [18.3713048, 44.7883846], [18.3707444, 44.7880665], [18.3711554, 44.7876581], [18.3712114, 44.7872763], [18.3714916, 44.7868414], [18.3721492, 44.7865763], [18.3723957, 44.786327], [18.3727544, 44.7858391], [18.3733895, 44.7859664], [18.3741218, 44.7864225], [18.3743086, 44.7868998], [18.3744431, 44.7874248], [18.3747195, 44.7878437], [18.3759898, 44.7883104], [18.3768266, 44.7887558], [18.3771927, 44.7890316], [18.3781492, 44.7895248], [18.3790906, 44.7898376], [18.3801666, 44.79023], [18.380458, 44.7904952], [18.3807868, 44.7909406], [18.3812052, 44.7912376], [18.3816311, 44.7914337], [18.3820624, 44.7915848], [18.3824873, 44.7916385], [18.3829826, 44.7915891], [18.3835725, 44.791579], [18.3841097, 44.7917031], [18.3849599, 44.7919728], [18.38551, 44.7922634], [18.386376, 44.7927717], [18.3868149, 44.7928898], [18.3873966, 44.7929334], [18.3882083, 44.7929], [18.3886223, 44.7929216], [18.3889203, 44.7930148], [18.3893937, 44.7934639], [18.3899969, 44.7938759], [18.3911427, 44.7944412], [18.3922586, 44.7948793], [18.3929945, 44.7949375], [18.393766, 44.7948129], [18.3940994, 44.7946498], [18.3947144, 44.7945205], [18.3950817, 44.7943604], [18.3953476, 44.7942698], [18.3956433, 44.794264], [18.3968763, 44.7944053], [18.3987609, 44.7946205], [18.3994965, 44.7950546], [18.4013388, 44.7951293], [18.4019164, 44.7951775], [18.402426, 44.7953061], [18.4027431, 44.7953302], [18.4039323, 44.7955311], [18.4043683, 44.7956034], [18.4050252, 44.7955713], [18.4055915, 44.7956034], [18.4061861, 44.7958365], [18.4071261, 44.7961781], [18.4075847, 44.7962625], [18.4079358, 44.7962383], [18.4083379, 44.7960977], [18.4088815, 44.7959691], [18.4093685, 44.7958566], [18.4098668, 44.7958084], [18.4102745, 44.7958044], [18.4112598, 44.7959611], [18.4116789, 44.7960013], [18.4121659, 44.7960133], [18.4128171, 44.7960414], [18.4128907, 44.7959691], [18.412953, 44.7960133], [18.4131229, 44.7961178], [18.4135985, 44.7962504], [18.4140346, 44.796375], [18.41485, 44.796612], [18.4152068, 44.796612], [18.4155012, 44.7965719], [18.4159882, 44.7965879], [18.4164695, 44.7967366], [18.4173643, 44.7971304], [18.4188592, 44.7978376], [18.4194142, 44.7981993], [18.419635, 44.7982354], [18.4200031, 44.7983399], [18.4201956, 44.7984966], [18.4203315, 44.7987698], [18.420575, 44.7989868], [18.4217585, 44.7995534], [18.4221889, 44.7998829], [18.4226193, 44.8002164], [18.4228854, 44.8005338], [18.423027, 44.8007548], [18.4229987, 44.8011445], [18.4231176, 44.801253], [18.4232365, 44.8013334], [18.4232648, 44.8014539], [18.4231855, 44.8017874], [18.4232082, 44.8021731], [18.4233044, 44.8025589], [18.4235989, 44.8029406], [18.4237575, 44.803262], [18.4242784, 44.8038245], [18.4246352, 44.8041057], [18.4248843, 44.8042102], [18.4251165, 44.8042223], [18.4252694, 44.804162], [18.4257224, 44.8038687], [18.4260792, 44.8037361], [18.426385, 44.8036035], [18.4266058, 44.8035433], [18.4272047, 44.8030694], [18.4273425, 44.8023233], [18.4275832, 44.8020279], [18.4283898, 44.8014971], [18.4281361, 44.8013079], [18.428045, 44.8009571], [18.4279019, 44.8001586], [18.4278239, 44.7997617], [18.4277133, 44.7995355], [18.4274921, 44.7995032], [18.4274596, 44.7993093], [18.4272905, 44.7986954], [18.4271018, 44.7983862], [18.4268416, 44.7983354], [18.4262822, 44.7982062], [18.4259505, 44.7981185], [18.4253846, 44.7980492], [18.4249227, 44.7980723], [18.424591, 44.7982523], [18.4242788, 44.7982754], [18.4237844, 44.7983216], [18.4233486, 44.7981969], [18.4227111, 44.79816], [18.4222038, 44.7980631], [18.4219566, 44.7981646], [18.4216574, 44.7981], [18.4213516, 44.7979615], [18.4210784, 44.7977354], [18.4209614, 44.7974215], [18.4206816, 44.7970245], [18.4206947, 44.7968399], [18.4206686, 44.7965168], [18.4203889, 44.7962491], [18.4200832, 44.796009], [18.4197385, 44.7957413], [18.4194327, 44.7954459], [18.4187693, 44.7943704], [18.4186717, 44.7938857], [18.4188083, 44.7936503], [18.4188798, 44.7934056], [18.4191075, 44.7932533], [18.4186977, 44.7927778], [18.4182749, 44.7924132], [18.4178976, 44.7920762], [18.417735, 44.7917253], [18.4174878, 44.7911298], [18.4169674, 44.7900404], [18.4166877, 44.7897357], [18.4161348, 44.7896341], [18.4154974, 44.7885539], [18.4157836, 44.7884616], [18.4160308, 44.7881892], [18.416369, 44.787746], [18.4168243, 44.7874644], [18.4176765, 44.7872289], [18.4181903, 44.7871366], [18.4187497, 44.7870258], [18.4187237, 44.7864026], [18.4187627, 44.7851884], [18.4185741, 44.7850776], [18.4179301, 44.7848837], [18.4175919, 44.7847867], [18.4174813, 44.784602], [18.4174423, 44.7843666], [18.4175138, 44.7841542], [18.4179171, 44.7841588], [18.4180863, 44.7841173], [18.41847, 44.7839926], [18.4192246, 44.7838218], [18.4197385, 44.7837525], [18.4199726, 44.7837156], [18.4203239, 44.7836648], [18.4208768, 44.7836971], [18.4213581, 44.7836833], [18.4215078, 44.7836417], [18.4217354, 44.7831016], [18.4218915, 44.782963], [18.4220542, 44.7830277], [18.4223078, 44.7830138], [18.422529, 44.7829861], [18.4229518, 44.7824829], [18.4232966, 44.7819842], [18.4236023, 44.7812825], [18.4237194, 44.7809177], [18.4236413, 44.7805714], [18.4237649, 44.7803775], [18.4243113, 44.7802621], [18.4246495, 44.7801005], [18.4246886, 44.7797819], [18.425248, 44.7796203], [18.4254756, 44.7794494], [18.4254952, 44.7791724], [18.4254496, 44.7789785], [18.4256253, 44.7788723], [18.4258985, 44.7787615], [18.4261261, 44.7785168], [18.4253781, 44.7780181], [18.4257684, 44.777741], [18.4254561, 44.7775286], [18.4242412, 44.7764694], [18.4233046, 44.7757835], [18.4228314, 44.7754405], [18.4224567, 44.7750836], [18.4222102, 44.7745727], [18.421451, 44.7738518], [18.4210271, 44.7733058], [18.4208693, 44.7728789], [18.420682, 44.7724939], [18.4203172, 44.7723329], [18.4196862, 44.772165], [18.4191242, 44.771731], [18.4186707, 44.771381], [18.417882, 44.7710031], [18.4184144, 44.7710171], [18.4189961, 44.7709261], [18.4198834, 44.7704991], [18.4202482, 44.7703311], [18.4208398, 44.7701351], [18.4216088, 44.7697712], [18.4223877, 44.7692322], [18.4237187, 44.7688822], [18.4249708, 44.7685602], [18.4258286, 44.7682242], [18.4262624, 44.7680002], [18.4267159, 44.7679022], [18.4272873, 44.7678326], [18.4278207, 44.767731], [18.4283801, 44.7675786], [18.428894, 44.7675186], [18.4292062, 44.767574], [18.4295314, 44.7675093], [18.4298111, 44.7673939], [18.4300973, 44.7672322], [18.4304876, 44.7671029], [18.4306372, 44.7669736], [18.4308454, 44.7668074], [18.4310015, 44.7666319], [18.4314698, 44.7662993], [18.4314829, 44.7661608], [18.4312747, 44.7661377], [18.4311706, 44.7661516], [18.4311901, 44.7660453], [18.4314178, 44.7659345], [18.4315694, 44.7660545], [18.431736, 44.7661321], [18.4323576, 44.7661433], [18.4330017, 44.7661469], [18.4335095, 44.765998], [18.4342156, 44.7659157], [18.435034, 44.7657663], [18.4372655, 44.765319], [18.4379875, 44.7652821], [18.4388722, 44.7652729], [18.439926, 44.7650096], [18.4404789, 44.7648942], [18.4405894, 44.7646909], [18.4408952, 44.7645524], [18.4419685, 44.7638873], [18.442053, 44.763952], [18.4425018, 44.7638596], [18.4431133, 44.7638827], [18.4435686, 44.7639243], [18.4444142, 44.763795], [18.4447915, 44.7639012], [18.4458843, 44.7640582], [18.446756, 44.7640259], [18.4474455, 44.7639566], [18.4479854, 44.7640213], [18.4492538, 44.7640351], [18.4496961, 44.7640952], [18.4505287, 44.7642153], [18.4511597, 44.764303], [18.4512954, 44.7642966], [18.4516475, 44.7642799], [18.4521354, 44.7641414], [18.4524086, 44.763892], [18.4526428, 44.7637303], [18.4530591, 44.7636149], [18.4535418, 44.7635502], [18.454347, 44.7635594], [18.4548218, 44.7635687], [18.4555699, 44.7634486], [18.4565326, 44.7632177], [18.4570855, 44.7632038], [18.4579246, 44.7631899], [18.4590434, 44.7630237], [18.4598565, 44.7628389], [18.460468, 44.7625249], [18.4609233, 44.7622247], [18.4613071, 44.7620861], [18.4613071, 44.7621646], [18.4611054, 44.7623586], [18.4609233, 44.7627419], [18.460507, 44.7630375], [18.4603249, 44.7633008], [18.4602078, 44.7636195], [18.4603053, 44.7643122], [18.4606826, 44.7647418], [18.4613071, 44.7650419], [18.4620616, 44.7652682], [18.4629528, 44.765707], [18.4636228, 44.7662104], [18.463961, 44.7667369], [18.4640911, 44.7669401], [18.4646961, 44.7672495], [18.4654376, 44.7674111], [18.466706, 44.7676097], [18.4677403, 44.7678268], [18.4689632, 44.7682008], [18.4702381, 44.7684779], [18.4717927, 44.7687181], [18.4721895, 44.7688658], [18.4725018, 44.7690044], [18.4725774, 44.7693618], [18.4726437, 44.7702088], [18.4728679, 44.7706809], [18.4731219, 44.7709143], [18.4733685, 44.7709302], [18.4737197, 44.7707711], [18.4740484, 44.770543], [18.4746686, 44.7703945], [18.4751991, 44.7703679], [18.4755578, 44.7704263], [18.4763797, 44.7703308], [18.4768803, 44.7703202], [18.4773137, 44.7704634], [18.4777994, 44.7707764], [18.4779712, 44.7711689], [18.4780983, 44.7714925], [18.478315, 44.771901], [18.478442, 44.7720336], [18.4785914, 44.7720866], [18.4789052, 44.7720601], [18.4790547, 44.7725057], [18.4789575, 44.7727974], [18.4790547, 44.7729618], [18.4793752, 44.7731032], [18.4798056, 44.7731957], [18.4800887, 44.7733364], [18.480168, 44.773461], [18.480185, 44.7737625], [18.4800434, 44.7742087], [18.4800434, 44.7745464], [18.4801397, 44.7749684], [18.4801057, 44.7751694], [18.4799132, 44.7754026], [18.4794658, 44.7757603], [18.4792337, 44.7759654], [18.4789675, 44.7762789], [18.4788939, 44.7765723], [18.4789449, 44.7768618], [18.4790808, 44.7768859], [18.4798226, 44.7769703], [18.4799245, 44.776914], [18.4801454, 44.7767974], [18.4809551, 44.7767492], [18.4810457, 44.7762347], [18.4813119, 44.7772838], [18.4819518, 44.7772959], [18.4826539, 44.7773602], [18.4828974, 44.7771351], [18.4830333, 44.7769904], [18.4831692, 44.7769341], [18.4832882, 44.7772436], [18.4833561, 44.7773682], [18.4835486, 44.7774928], [18.4843301, 44.7776938], [18.4845962, 44.7777179], [18.4851625, 44.7775773], [18.4854287, 44.777525], [18.4857345, 44.7774768], [18.4861025, 44.7761503], [18.4863743, 44.776512], [18.4865159, 44.7769582], [18.4870709, 44.7769703], [18.4872521, 44.7770788], [18.487824, 44.7775893], [18.4883676, 44.7780395], [18.4889339, 44.7781561], [18.4893246, 44.77814], [18.4900268, 44.7778184], [18.4903949, 44.7778345], [18.4904288, 44.7781239], [18.4906497, 44.7788073], [18.4908026, 44.7790283], [18.4909725, 44.7791047], [18.4917879, 44.778956], [18.4919974, 44.7788555], [18.4922466, 44.7787068], [18.4924561, 44.7786103], [18.4929544, 44.7785339], [18.4933791, 44.7784817], [18.4938604, 44.7781722], [18.4942852, 44.7779149], [18.4945286, 44.7776416], [18.4948458, 44.7774486], [18.4952761, 44.7771994], [18.4960293, 44.7765402], [18.4964313, 44.7762307], [18.4968334, 44.7759171], [18.4971052, 44.7756639], [18.4974676, 44.7752539], [18.4976828, 44.7751453], [18.4979489, 44.775081], [18.4983057, 44.7750931], [18.4989456, 44.7752257], [18.4995571, 44.7753463], [18.500197, 44.7754146], [18.5008522, 44.7753136], [18.5012751, 44.7753136], [18.501841, 44.7751566], [18.502563, 44.7749857], [18.5029338, 44.7750227], [18.5044559, 44.7754521], [18.5050478, 44.7755444], [18.5063032, 44.7756691], [18.5065959, 44.7758815], [18.506687, 44.7760154], [18.5066415, 44.7762048], [18.5064268, 44.7764587], [18.5062772, 44.776745], [18.5063227, 44.7770174], [18.5065374, 44.7774053], [18.5067976, 44.7775623], [18.5072724, 44.7776777], [18.5076562, 44.7778901], [18.507942, 44.7781495], [18.5085031, 44.7785993], [18.5090781, 44.7788552], [18.5098764, 44.779239], [18.5101768, 44.7793792], [18.5104171, 44.7794279], [18.5108977, 44.7794827], [18.5112153, 44.7794767], [18.511962, 44.7794827], [18.5121509, 44.7800615], [18.5123826, 44.7804575], [18.5129585, 44.7808572], [18.5130482, 44.7806469], [18.5131667, 44.7805265], [18.5133983, 44.7805318], [18.5137196, 44.7800492], [18.5137756, 44.7799829], [18.5148815, 44.7802825], [18.5154568, 44.7803356], [18.515696, 44.7803727], [18.5159388, 44.7804708], [18.5160546, 44.7806644], [18.516148, 44.7808129], [18.5169333, 44.7808903], [18.5176925, 44.7809637], [18.5190038, 44.7812472], [18.5203447, 44.7817755], [18.5216609, 44.7821779], [18.5230411, 44.7824081], [18.5239358, 44.7826653], [18.5252269, 44.7828743], [18.5263707, 44.7827618], [18.5280243, 44.7826251], [18.5295872, 44.782384], [18.5306971, 44.7824161], [18.5307877, 44.7820705], [18.5316484, 44.7822955], [18.5320788, 44.7824161], [18.5327356, 44.7824], [18.5337325, 44.7822217], [18.5337716, 44.7824332], [18.5337966, 44.7825395], [18.5337943, 44.7825865], [18.5337664, 44.7826602], [18.5337136, 44.7827171], [18.5336126, 44.7828098], [18.5335365, 44.7828391], [18.5334651, 44.7828881], [18.533414, 44.7829297], [18.5333293, 44.7829808], [18.5332631, 44.7830484], [18.5332294, 44.7831032], [18.5332056, 44.7831724], [18.5331795, 44.7832758], [18.5331575, 44.7833285], [18.533154, 44.7833767], [18.5331813, 44.7834118], [18.5332805, 44.7834958], [18.5333183, 44.7835411], [18.5333322, 44.7835865], [18.5333629, 44.7836738], [18.5333937, 44.7837092], [18.533551, 44.7839766], [18.5335946, 44.7840207], [18.5336793, 44.7840685], [18.5338332, 44.7841324], [18.5340961, 44.7843009], [18.5340503, 44.78434], [18.5339934, 44.7843821], [18.5339295, 44.7844711], [18.5339046, 44.7845395], [18.5338912, 44.7846392], [18.5338645, 44.7847212], [18.5338256, 44.7847912], [18.5337536, 44.7848617], [18.5337141, 44.7849379], [18.5337118, 44.7849708], [18.5336567, 44.7850804], [18.5336735, 44.7851703], [18.5337519, 44.7853202], [18.5337681, 44.785375], [18.533814, 44.7854302], [18.5340526, 44.7856445], [18.5341623, 44.7857182], [18.5342529, 44.7857644], [18.5343283, 44.7858093], [18.5345234, 44.7859572], [18.5345832, 44.7860639], [18.5345791, 44.7860898], [18.5344885, 44.786164], [18.5344525, 44.7861875], [18.5344078, 44.786225], [18.5342714, 44.7863049], [18.5341913, 44.7863873], [18.5342657, 44.7864367], [18.53431, 44.7864612], [18.5344011, 44.7865014], [18.5344504, 44.7865402], [18.5345098, 44.7865919], [18.5345656, 44.7866348], [18.5346259, 44.7866743], [18.5346817, 44.7867139], [18.5347467, 44.7867469], [18.5348767, 44.786826], [18.5349417, 44.7868622], [18.5350021, 44.7868952], [18.5350671, 44.7869281], [18.5351321, 44.7869578], [18.5352111, 44.7869908], [18.5352761, 44.787027], [18.5353411, 44.78706], [18.5354061, 44.7870995], [18.5354711, 44.7871325], [18.5355408, 44.7871556], [18.5356151, 44.7871753], [18.5356848, 44.7871918], [18.5357591, 44.787205], [18.535838, 44.7872215], [18.535903, 44.7872511], [18.5360238, 44.7873171], [18.5360888, 44.7873533], [18.5361492, 44.7873896], [18.5362142, 44.7874258], [18.5362792, 44.7874555], [18.5363535, 44.7874786], [18.5364278, 44.7874983], [18.5365021, 44.7875214], [18.536581, 44.7875412], [18.5366693, 44.787561], [18.5367436, 44.7875807], [18.5368179, 44.7876038], [18.5368968, 44.7876269], [18.5369804, 44.7876434], [18.5370501, 44.7876598], [18.5371337, 44.7876664], [18.5372126, 44.787673], [18.5374495, 44.787673], [18.5375238, 44.7876763], [18.5376027, 44.7876862], [18.5376631, 44.7877324], [18.537691, 44.7877851], [18.5376956, 44.7878411], [18.5376631, 44.7878939], [18.5375702, 44.7879861], [18.5375284, 44.7880323], [18.5374913, 44.788085], [18.5374541, 44.7881476], [18.537417, 44.7882037], [18.5373798, 44.7882531], [18.5373334, 44.7883058], [18.5372776, 44.7883553], [18.5372219, 44.7883948], [18.5371615, 44.7884344], [18.5370826, 44.7884542], [18.5370036, 44.788464], [18.5369201, 44.788464], [18.5368272, 44.7884673], [18.5367436, 44.7884706], [18.53666, 44.7884904], [18.536581, 44.7885069], [18.5365021, 44.7885366], [18.5364371, 44.7885662], [18.5363721, 44.7885992], [18.5363024, 44.7886387], [18.5362235, 44.7886585], [18.5361306, 44.788675], [18.536047, 44.7886816], [18.5359588, 44.7886849], [18.5358752, 44.7886816], [18.5357916, 44.7886684], [18.535708, 44.7886585], [18.5356244, 44.7886519], [18.5355454, 44.7886486], [18.5354618, 44.7886486], [18.5353922, 44.7886849], [18.5353365, 44.788731], [18.5353179, 44.7887903], [18.5353272, 44.7889156], [18.5353272, 44.7889749], [18.5353411, 44.7890342], [18.5353736, 44.789087], [18.5354108, 44.789143], [18.5354479, 44.7891924], [18.5354758, 44.7892419], [18.5355083, 44.7892946], [18.5355408, 44.7893506], [18.5355733, 44.78941], [18.5356058, 44.7894627], [18.5356523, 44.7895682], [18.5356708, 44.7896275], [18.5356755, 44.7896835], [18.5356848, 44.7897461], [18.535694, 44.7898582], [18.535694, 44.7899175], [18.5356987, 44.7899735], [18.5356987, 44.7900296], [18.535694, 44.7900922], [18.5356848, 44.7901482], [18.5356105, 44.7903229], [18.5355965, 44.7903822], [18.5355965, 44.7906162], [18.5355826, 44.7906755], [18.5355547, 44.7907283], [18.5355083, 44.7907777], [18.5354061, 44.79087], [18.5353736, 44.7909227], [18.5353736, 44.790982], [18.5353968, 44.7910348], [18.5354479, 44.7910743], [18.5355129, 44.791104], [18.5355919, 44.7911205], [18.5356755, 44.7911205], [18.5357405, 44.7910974], [18.5358055, 44.7910677], [18.5358659, 44.7910414], [18.5359309, 44.7910216], [18.5360098, 44.7910183], [18.5360981, 44.7910183], [18.5361817, 44.7910084], [18.536242, 44.7909722], [18.5362838, 44.7909227], [18.5363117, 44.7908766], [18.5363581, 44.7908304], [18.5364232, 44.7907975], [18.5364882, 44.7907777], [18.5365625, 44.7907744], [18.5366414, 44.7907744], [18.5367204, 44.7907909], [18.5367947, 44.7908206], [18.536855, 44.7908634], [18.5368922, 44.7909161], [18.5369201, 44.790982], [18.5369293, 44.7910381], [18.536934, 44.7910974], [18.536869, 44.791305], [18.5368411, 44.7913611], [18.5368132, 44.7914204], [18.536804, 44.791483], [18.536804, 44.7915983], [18.5368318, 44.791661], [18.536869, 44.7917137], [18.5369293, 44.7917499], [18.5369944, 44.791773], [18.537078, 44.7917763], [18.5371523, 44.791773], [18.5372219, 44.7917565], [18.5372823, 44.7917302], [18.5373334, 44.7916906], [18.5373798, 44.7916412], [18.5374216, 44.7915918], [18.5374588, 44.7915423], [18.5374913, 44.7914962], [18.5375377, 44.7914467], [18.5375841, 44.7914039], [18.5376445, 44.7913644], [18.5377142, 44.7913446], [18.5377931, 44.7913413], [18.5378767, 44.7913446], [18.537951, 44.7913644], [18.538016, 44.7913973], [18.5380671, 44.7914467], [18.5380857, 44.7915061], [18.5380903, 44.7915654], [18.5380718, 44.7916214], [18.5380114, 44.7916676], [18.5379464, 44.7917005], [18.5378674, 44.7917203], [18.5377792, 44.7917401], [18.5376956, 44.7917631], [18.5376213, 44.7917862], [18.5375516, 44.7918126], [18.5374727, 44.7918488], [18.537403, 44.7918884], [18.5373473, 44.7919312], [18.5372962, 44.7919839], [18.5372498, 44.7920367], [18.5372219, 44.7920894], [18.5372033, 44.7921454], [18.5371848, 44.7922048], [18.5371708, 44.7922641], [18.5371569, 44.7923366], [18.5371383, 44.7923959], [18.5371105, 44.7924519], [18.5370454, 44.7924915], [18.5369619, 44.7925178], [18.5368829, 44.7925409], [18.5367993, 44.7925739], [18.5367389, 44.7926167], [18.5366786, 44.7926563], [18.5366182, 44.7927024], [18.5365671, 44.7927485], [18.53653, 44.7928079], [18.5364975, 44.7928639], [18.5364835, 44.7929298], [18.5364789, 44.7929858], [18.5365067, 44.7930418], [18.5365346, 44.7930913], [18.536581, 44.7931506], [18.5368132, 44.793411], [18.5369015, 44.7934868], [18.5369619, 44.7935362], [18.5370176, 44.7935823], [18.5370733, 44.7936252], [18.5371383, 44.7936614], [18.5372173, 44.7936812], [18.5373009, 44.7936845], [18.5374216, 44.7936878], [18.5375238, 44.7936944], [18.5375981, 44.7937174], [18.5376584, 44.7937471], [18.5377281, 44.7937998], [18.5377606, 44.7938493], [18.5377699, 44.7939086], [18.5377142, 44.7939481], [18.5375749, 44.7940141], [18.5375006, 44.7940503], [18.5374402, 44.7940931], [18.5374216, 44.7941558], [18.5374216, 44.7942151], [18.5374495, 44.7942711], [18.5376213, 44.7945578], [18.5376445, 44.7946171], [18.5376631, 44.794683], [18.5376677, 44.7947424], [18.5376445, 44.794805], [18.5375934, 44.7948544], [18.5375191, 44.7949038], [18.5373937, 44.7949862], [18.5373427, 44.7950357], [18.5372869, 44.7950884], [18.5372405, 44.7951378], [18.537208, 44.7951971], [18.5371987, 44.7952532], [18.5371987, 44.7953125], [18.5372033, 44.7953718], [18.5372405, 44.7954179], [18.5372869, 44.7954641], [18.5374959, 44.7955629], [18.5375609, 44.7955926], [18.5376259, 44.7956289], [18.5376538, 44.7956816], [18.5376538, 44.7957442], [18.537612, 44.7958035], [18.5375609, 44.7958497], [18.5374959, 44.7958859], [18.5374123, 44.795909], [18.5373334, 44.7959254], [18.5372498, 44.7959287], [18.5371848, 44.7958892], [18.537129, 44.7958431], [18.5370826, 44.7957969], [18.5370176, 44.7957508], [18.5369293, 44.7957475], [18.5368643, 44.7957837], [18.5367854, 44.7958002], [18.5367018, 44.795787], [18.5366275, 44.7957541], [18.5365532, 44.795731], [18.5364649, 44.7957211], [18.536386, 44.7957244], [18.5363117, 44.7957541], [18.5362709, 44.7958113], [18.5362611, 44.7959056], [18.5363202, 44.7959954], [18.5364072, 44.7960198], [18.5365254, 44.7960222], [18.5365254, 44.7960525], [18.5365632, 44.7961317], [18.536688, 44.7961154], [18.5367619, 44.796134], [18.5368177, 44.7961818], [18.536844, 44.7962191], [18.5368669, 44.7962587], [18.5368801, 44.7963006], [18.5368866, 44.7963402], [18.5368866, 44.7963822], [18.5368735, 44.7964241], [18.5368505, 44.7964614], [18.5368177, 44.7964987], [18.5367783, 44.7965313], [18.5367389, 44.7965616], [18.5366929, 44.7965896], [18.5365977, 44.7966432], [18.5365451, 44.7966735], [18.5364926, 44.7966944], [18.53644, 44.7967201], [18.5363809, 44.7967457], [18.536335, 44.796769], [18.5362923, 44.796797], [18.5362529, 44.7968273], [18.5362135, 44.7968622], [18.5361806, 44.7968995], [18.5361478, 44.7969391], [18.5361281, 44.7969787], [18.536115, 44.7970183], [18.536115, 44.7970579], [18.5361412, 44.7970976], [18.5361675, 44.7971325], [18.5362003, 44.7971651], [18.5360263, 44.797235], [18.535872, 44.7971779], [18.534911, 44.7979428], [18.5341355, 44.7984981], [18.5335643, 44.7986348], [18.5332833, 44.7988606], [18.5332323, 44.7988375], [18.5329048, 44.7990022], [18.5326262, 44.7990978], [18.5323824, 44.7992329], [18.5322083, 44.7994142], [18.5320457, 44.7993779], [18.531918, 44.7995888], [18.5321874, 44.7996811], [18.5322872, 44.7997173], [18.5323894, 44.7998145], [18.5313027, 44.8005181], [18.530555, 44.8009843], [18.5303855, 44.8011606], [18.5301161, 44.8013155], [18.5297818, 44.8013896], [18.529668, 44.8014308], [18.5295844, 44.8014852], [18.5295147, 44.8015429], [18.5293499, 44.8016516], [18.529185, 44.8017389], [18.52899, 44.80179], [18.5288553, 44.8018131], [18.5287044, 44.8019515], [18.5287067, 44.8020124], [18.5285952, 44.8021228], [18.5281401, 44.8025709], [18.5281517, 44.8026994], [18.5281959, 44.8027818], [18.5282377, 44.8028411], [18.5280821, 44.8029153], [18.5279172, 44.8028032], [18.5276897, 44.8025495], [18.5271045, 44.8028527], [18.5267237, 44.8029729], [18.5264892, 44.8031739], [18.5261734, 44.8033123], [18.5259324, 44.8033814], [18.5258404, 44.8034431], [18.5257928, 44.8034408], [18.5257091, 44.8034874], [18.5254907, 44.8036423], [18.525453, 44.8036808], [18.5250129, 44.8038672], [18.5247322, 44.8039592], [18.5246205, 44.804014], [18.5245122, 44.8040571], [18.5228079, 44.8046011], [18.5211693, 44.8042039], [18.52112, 44.8041747], [18.5210937, 44.8041654], [18.5210658, 44.8041596], [18.5210346, 44.8041561], [18.5209739, 44.8041549], [18.5209164, 44.8041619], [18.5208885, 44.8041712], [18.5208425, 44.8041992], [18.5203204, 44.8045778], [18.5201102, 44.8047828], [18.519639, 44.8052581], [18.5192844, 44.8055505], [18.5192647, 44.8055657], [18.51924, 44.8055808], [18.5192154, 44.805596], [18.5191941, 44.8056099], [18.5191694, 44.8056239], [18.5191464, 44.8056367], [18.5189724, 44.8057101], [18.518511, 44.8059186], [18.5184076, 44.805992], [18.5178723, 44.8062716], [18.5178953, 44.8062937], [18.5174143, 44.8065512], [18.5174077, 44.8065966], [18.5162682, 44.807645], [18.5160695, 44.8078349], [18.5159168, 44.8080201], [18.5158512, 44.8082158], [18.5157756, 44.8083975], [18.5156147, 44.8085723], [18.5153783, 44.808881], [18.5151599, 44.809171], [18.5149547, 44.8095321], [18.5145377, 44.8105117], [18.5142684, 44.8110289], [18.5138743, 44.8123148], [18.5136248, 44.8123474], [18.512239, 44.8132606], [18.5117202, 44.8135774], [18.5112736, 44.8141505], [18.5110765, 44.8147562], [18.5110043, 44.8151196], [18.5108532, 44.8152733], [18.5108007, 44.8154783], [18.5108007, 44.8155575], [18.5107744, 44.8156367], [18.5107285, 44.8157112], [18.5107088, 44.8157951], [18.5107088, 44.8158743], [18.5106956, 44.8159582], [18.5106562, 44.8160374], [18.5106102, 44.8161119], [18.5105774, 44.8161911], [18.5106037, 44.8162656], [18.5106562, 44.8163309], [18.5106956, 44.8164054], [18.5107088, 44.8164939], [18.5107088, 44.8166616], [18.5106759, 44.8167455], [18.5105971, 44.8168154], [18.5105052, 44.816862], [18.5104592, 44.8169319], [18.5102753, 44.817845], [18.5102687, 44.8179381], [18.510249, 44.8180173], [18.510249, 44.8181059], [18.5102556, 44.8181897], [18.5102293, 44.8182736], [18.5101834, 44.8183435], [18.5101111, 44.818404], [18.5100323, 44.8184739], [18.5098812, 44.8186137], [18.5098221, 44.8186835], [18.5097893, 44.8187674], [18.5097893, 44.8188559], [18.509809, 44.8189491], [18.5117005, 44.8193031], [18.5113589, 44.8203653], [18.5111948, 44.8205144], [18.5111357, 44.8205796], [18.5111485, 44.8206703], [18.5111948, 44.820724], [18.5112801, 44.8208614], [18.5114013, 44.8212627], [18.5114855, 44.8211905], [18.5148138, 44.8214334], [18.5149253, 44.821631], [18.5160212, 44.8216837], [18.5173401, 44.8218946], [18.5175817, 44.8221103], [18.5182647, 44.8224923], [18.5186851, 44.8226693], [18.518974, 44.8229581], [18.5200642, 44.8227904], [18.5205108, 44.8230047], [18.5212201, 44.8227438], [18.5220214, 44.8226041], [18.5225599, 44.8232469], [18.5234662, 44.8238711], [18.5240048, 44.8243369], [18.5247272, 44.824663], [18.5254759, 44.8248028], [18.5259357, 44.82484], [18.5261918, 44.8247282], [18.5264282, 44.8246071], [18.5265464, 44.8246025], [18.5268551, 44.824677], [18.5272754, 44.824472], [18.5276104, 44.8243742], [18.5278797, 44.8242391], [18.5281798, 44.8242482], [18.5286669, 44.8243925], [18.5291538, 44.8244581], [18.5296857, 44.8244953], [18.5301914, 44.8245279], [18.5307021, 44.8244856], [18.5313151, 44.8245547], [18.5327269, 44.8245613], [18.5335024, 44.8243769], [18.5341201, 44.8242616], [18.5346681, 44.824255], [18.5347471, 44.824158], [18.5349015, 44.8240159], [18.5349901, 44.8239321], [18.5351871, 44.8238156], [18.5353152, 44.8237295], [18.5354531, 44.8235711], [18.5359588, 44.8229282], [18.5362577, 44.8225975], [18.5366156, 44.8223343], [18.5372888, 44.8220385], [18.5376763, 44.8217683], [18.5380769, 44.8214981], [18.5385399, 44.8211581], [18.5389471, 44.8207947], [18.5396071, 44.8202729], [18.5402704, 44.8196371], [18.540763, 44.8194321], [18.5408976, 44.8192294], [18.541029, 44.8190873], [18.5412654, 44.8189429], [18.541561, 44.8187985], [18.5419353, 44.8186401], [18.5422637, 44.818484], [18.5427825, 44.818123], [18.5428942, 44.8181906], [18.543436, 44.8182418], [18.5430649, 44.8188544], [18.5430846, 44.8189033], [18.542707, 44.8197093], [18.5426282, 44.8198094], [18.5419517, 44.8202683], [18.5417876, 44.8203545], [18.5414854, 44.8205664], [18.5418171, 44.8206573], [18.5420765, 44.820832], [18.5423458, 44.8209251], [18.5425625, 44.8210719], [18.5428778, 44.8212768], [18.5430288, 44.8213444], [18.5437184, 44.8215354], [18.5438662, 44.8215983], [18.5439844, 44.8216379], [18.5441158, 44.8216449], [18.5443752, 44.8214539], [18.5445722, 44.8212629], [18.5447134, 44.8211557], [18.5448513, 44.8211045], [18.5451009, 44.8210439], [18.5452881, 44.8209857], [18.5454424, 44.8209298], [18.5456197, 44.8208646], [18.5457971, 44.8209228], [18.5459908, 44.8210067], [18.546086, 44.8209042], [18.546132, 44.8208762], [18.5463257, 44.8208436], [18.5463849, 44.8208157], [18.5464505, 44.8206829], [18.5467494, 44.8205688], [18.5468216, 44.8205781], [18.54693, 44.8206806], [18.5470121, 44.8208203], [18.5470482, 44.8209368], [18.5470515, 44.8209904], [18.5474028, 44.821009], [18.547636, 44.8210602], [18.5480629, 44.8211441], [18.5481515, 44.821193], [18.5485587, 44.8214143], [18.5487525, 44.821596], [18.5489462, 44.8217473], [18.5491564, 44.8218638], [18.5493206, 44.821943], [18.5493862, 44.8220455], [18.5495701, 44.822127], [18.5498788, 44.8224973], [18.5503352, 44.8223646], [18.5504042, 44.8224694], [18.5505257, 44.8225975], [18.5506078, 44.8227373], [18.5506899, 44.8228141], [18.551038, 44.8229795], [18.551281, 44.8232054], [18.5514255, 44.823266], [18.551744, 44.8233615], [18.5519739, 44.8234896], [18.5521775, 44.823443], [18.5524434, 44.8235198], [18.5526438, 44.8235408], [18.5527915, 44.8235734], [18.5528868, 44.8236153], [18.5530739, 44.8235688], [18.5531724, 44.8235548], [18.5533826, 44.8235315], [18.5536355, 44.823422], [18.5538128, 44.8233684], [18.5538653, 44.8234267], [18.5539901, 44.8234802], [18.5542627, 44.823606], [18.5547158, 44.8237108], [18.5548242, 44.8236945], [18.5552215, 44.8236503], [18.555678, 44.8235618], [18.5561902, 44.8235734], [18.5563676, 44.8235804], [18.5565022, 44.8236177], [18.5566237, 44.8237155], [18.5569685, 44.8237784], [18.5573363, 44.8238319], [18.557599, 44.8238319], [18.5578945, 44.8237434], [18.5583116, 44.8236316], [18.5587614, 44.8235245], [18.5590241, 44.8235012], [18.5592606, 44.8234686], [18.5594576, 44.8233964], [18.5595528, 44.8233452], [18.5596678, 44.8232683], [18.5598385, 44.8233149], [18.5599699, 44.8233917], [18.5600421, 44.8234756], [18.5599797, 44.8237411], [18.5599469, 44.8240136], [18.5599108, 44.8241953], [18.5598123, 44.8243607], [18.5596973, 44.8245796], [18.5596218, 44.8248591], [18.5595857, 44.8250943], [18.5596645, 44.8260865], [18.5604756, 44.8264894], [18.5611455, 44.8267479], [18.561753, 44.8268574], [18.5618416, 44.8270344], [18.5620222, 44.8271625], [18.5621273, 44.8272929], [18.5622751, 44.8274559], [18.5625515, 44.8275204], [18.5628602, 44.8276555], [18.5633921, 44.8278232], [18.563622, 44.8279536], [18.5642656, 44.8281958], [18.5649684, 44.8286243], [18.565323, 44.828778], [18.5657499, 44.8290109], [18.5661374, 44.8291879], [18.566341, 44.8293137], [18.5666759, 44.82984], [18.5666956, 44.8300124], [18.5667679, 44.8301521], [18.5668927, 44.8302452], [18.5670174, 44.8302918], [18.5673458, 44.8306505], [18.567556, 44.8307949], [18.5683704, 44.8314143], [18.5687119, 44.8315634], [18.5692307, 44.8318149], [18.5698204, 44.8322408], [18.5699916, 44.8323246], [18.5701699, 44.8323412], [18.5704392, 44.8323924], [18.5706099, 44.8324716], [18.5707675, 44.8326067], [18.5713586, 44.8328162], [18.5718052, 44.8327231], [18.5719037, 44.8327278], [18.5720884, 44.8327017], [18.5722371, 44.8326845], [18.5723687, 44.8327173], [18.5725276, 44.8328023], [18.5727777, 44.8329785], [18.5731652, 44.8332327], [18.5740091, 44.8336337], [18.5743994, 44.8336499], [18.5746424, 44.8335894], [18.5747081, 44.8335568], [18.5754305, 44.8335614], [18.5757523, 44.8334497], [18.5758443, 44.8336034], [18.5762317, 44.8337198], [18.5764025, 44.8338362], [18.5762974, 44.8338735], [18.5763171, 44.8339713], [18.5766718, 44.8343765], [18.5773745, 44.8345674], [18.5776832, 44.8345721], [18.5781626, 44.8354663], [18.5783334, 44.8359367], [18.578491, 44.835932], [18.578491, 44.8360112], [18.5783793, 44.8362068], [18.5783662, 44.8363652], [18.5783137, 44.8364769], [18.5783202, 44.8368821], [18.5783728, 44.8371243], [18.5784514, 44.8374807], [18.5710277, 44.8338862], [18.5698136, 44.8332983], [18.5636371, 44.8303211], [18.5610272, 44.8292276], [18.5574607, 44.8297546], [18.5557145, 44.82986], [18.5486761, 44.8287606], [18.5469997, 44.8285764], [18.5466599, 44.8285624], [18.546171, 44.8294536], [18.5455215, 44.8307728], [18.5452042, 44.8311083], [18.5427472, 44.8310433], [18.5401178, 44.8308033], [18.5391097, 44.8313286], [18.5380281, 44.8345946], [18.5376234, 44.8378101], [18.538021, 44.8407234], [18.5375595, 44.8429837], [18.5359573, 44.847073], [18.5347977, 44.8481653], [18.5334913, 44.8490109], [18.5320784, 44.8507542], [18.5303338, 44.8527975], [18.529696, 44.8535835], [18.5288953, 44.85491], [18.5283794, 44.8559099], [18.5276258, 44.8583733], [18.5273083, 44.8594113], [18.5266503, 44.8613606], [18.525963, 44.8636149], [18.5257794, 44.8655073], [18.525486, 44.8686036], [18.5255144, 44.8730516], [18.5228732, 44.8757619], [18.5198676, 44.8788442], [18.5164171, 44.8823189], [18.5125074, 44.8862024], [18.5122324, 44.8866496], [18.5098, 44.8901092], [18.5086072, 44.8918428], [18.5071636, 44.8935496], [18.5047543, 44.8951624], [18.5023309, 44.8961214], [18.5014891, 44.8963214], [18.4987797, 44.8970322], [18.4973256, 44.8977298], [18.494299, 44.8995654], [18.4927886, 44.9005979], [18.4910414, 44.9015331], [18.4903528, 44.9021106], [18.4824418, 44.9067661], [18.4803639, 44.9088914], [18.4773015, 44.9114994], [18.4768802, 44.9118581], [18.475977, 44.9129207], [18.4751526, 44.9140671], [18.4738273, 44.9156391], [18.4719766, 44.9181194], [18.4696964, 44.920123], [18.4692455, 44.9205192], [18.4690135, 44.9208778], [18.4688479, 44.9213436], [18.4684228, 44.922141], [18.4667301, 44.9236544], [18.4655547, 44.9240269], [18.4649561, 44.9241306], [18.4634792, 44.9243868], [18.4620746, 44.9251106], [18.4608818, 44.9256066], [18.4576404, 44.9279812], [18.4552303, 44.9290413], [18.4544914, 44.9293105], [18.4528485, 44.9303074], [18.4520861, 44.9305331], [18.4513022, 44.9307653], [18.4501164, 44.9309128], [18.4487098, 44.9309982], [18.447919, 44.9309773], [18.4477595, 44.930939], [18.4473664, 44.930779], [18.4450271, 44.9295084], [18.4441174, 44.9292545], [18.4417499, 44.9284154], [18.4388407, 44.9271318], [18.4362061, 44.9256324], [18.4351832, 44.925336], [18.4327083, 44.925394], [18.4310831, 44.9252672], [18.4293577, 44.9254895], [18.4282739, 44.9254979], [18.4266576, 44.9255864], [18.4251837, 44.9255192], [18.4224075, 44.9257818], [18.4204776, 44.9258692], [18.4188049, 44.9256716], [18.4178931, 44.9257211], [18.4167192, 44.9262474], [18.4139975, 44.9289725], [18.4131307, 44.9292778], [18.4117396, 44.9293571], [18.4086263, 44.9290346], [18.4063852, 44.9285419], [18.4038914, 44.9284082], [18.4000137, 44.9269595], [18.3983947, 44.9257473], [18.3977842, 44.9247454], [18.3976687, 44.9237185], [18.3980048, 44.9227697], [18.4024822, 44.9189217], [18.4047765, 44.9168912], [18.4048846, 44.916189], [18.4043196, 44.9156347], [18.402997, 44.9148227], [18.4008009, 44.9139964], [18.3990124, 44.9131349], [18.3981086, 44.9120402], [18.397594, 44.9097973], [18.3959427, 44.9067747], [18.3956156, 44.9060019], [18.3942565, 44.9045901], [18.3929314, 44.9031342], [18.3906853, 44.9013219], [18.3895675, 44.9001632], [18.3891226, 44.8994189], [18.3888765, 44.8986645], [18.3879772, 44.8966259], [18.3877358, 44.8958548], [18.3863016, 44.8951473], [18.383296, 44.8939268], [18.3818192, 44.8931388], [18.3790408, 44.892495], [18.3739809, 44.8922703], [18.3715575, 44.8919014], [18.3706393, 44.8912509], [18.3700884, 44.8902403], [18.3685992, 44.8875085], [18.3671653, 44.8867855], [18.3655226, 44.8856037], [18.3642541, 44.8839269], [18.3611018, 44.8802746], [18.3604864, 44.8790572], [18.3602119, 44.8782388], [18.3602119, 44.8780422], [18.3602119, 44.8766389], [18.3604296, 44.876119], [18.3612769, 44.8751128], [18.35998, 44.8746029], [18.3590996, 44.8743983], [18.3584937, 44.8733048], [18.3579494, 44.8726407], [18.3571684, 44.8713023], [18.3551473, 44.8691386], [18.3533156, 44.867723], [18.352833, 44.8674938], [18.3515027, 44.8668742], [18.3486533, 44.8666629], [18.34392, 44.866371], [18.340105, 44.8662134], [18.3377479, 44.8647138], [18.3361196, 44.8633819], [18.3341175, 44.8618923], [18.3332134, 44.8614931], [18.3321579, 44.8606107], [18.3321248, 44.8600102], [18.3322195, 44.8592955], [18.3327164, 44.8580508], [18.3327922, 44.8572925], [18.3326738, 44.8566281], [18.332333, 44.8560477], [18.332139, 44.855182], [18.3314195, 44.8530479], [18.3311071, 44.8518735], [18.3305076, 44.8498776], [18.3297446, 44.8469417], [18.3296166, 44.8460594], [18.3290454, 44.8443469], [18.3287001, 44.8418017], [18.3284482, 44.8401433], [18.3291103, 44.8386767], [18.3331225, 44.8353053], [18.3368289, 44.8326726], [18.3371749, 44.8316622], [18.3372583, 44.8310702], [18.3374349, 44.8284696], [18.3374162, 44.8272369], [18.3374071, 44.8266409], [18.3388507, 44.8247341], [18.3428873, 44.8202566], [18.3420315, 44.8194598], [18.3391111, 44.8171868], [18.3368344, 44.8155315], [18.3342074, 44.8137183], [18.3332513, 44.8130199], [18.3310977, 44.8112838], [18.3288681, 44.8093102], [18.3262084, 44.8084964], [18.3255814, 44.8080712], [18.324394, 44.8057706], [18.3238604, 44.8048747], [18.3235779, 44.8038266], [18.3227497, 44.8026711], [18.322437, 44.8019483], [18.3211436, 44.800608], [18.3196621, 44.7987406], [18.3189807, 44.7979835], [18.3200646, 44.7960244], [18.3218915, 44.7935849], [18.3224813, 44.7929334], [18.3233775, 44.7915829], [18.3231496, 44.7911012], [18.3222436, 44.7901668], [18.3198893, 44.7884459], [18.319233, 44.787438], [18.3183105, 44.7866916]]], [[[18.5827397, 44.8392018], [18.5827659, 44.8391599], [18.5828316, 44.8391203], [18.5830286, 44.8390761], [18.5831666, 44.8390167], [18.5832651, 44.8389701], [18.5833455, 44.8389632], [18.5834621, 44.8389713], [18.5835245, 44.838969], [18.583582, 44.8389562], [18.5836312, 44.8389573], [18.5836772, 44.8389608], [18.5837494, 44.8389503], [18.5838397, 44.8389236], [18.583889, 44.8389131], [18.5839465, 44.8389131], [18.5840285, 44.8389364], [18.5841615, 44.8389783], [18.5842289, 44.8390249], [18.5843044, 44.8390633], [18.5843421, 44.8390784], [18.5843701, 44.8391017], [18.5843766, 44.8391215], [18.5843717, 44.8391436], [18.5843307, 44.8391727], [18.5842765, 44.8391925], [18.5842174, 44.8392076], [18.5841599, 44.8392379], [18.5841468, 44.839267], [18.584132, 44.8393113], [18.5841741, 44.8393801], [18.5842201, 44.8394092], [18.5842874, 44.8394244], [18.584381, 44.8394162], [18.5844762, 44.8393813], [18.5845713, 44.8393292], [18.5846063, 44.8393126], [18.584649, 44.8392869], [18.5846786, 44.8392544], [18.584695, 44.8392171], [18.5847016, 44.8391775], [18.5847016, 44.8391403], [18.5847048, 44.8391007], [18.5847278, 44.8390355], [18.5847295, 44.8390145], [18.5847295, 44.8389959], [18.5847262, 44.8389563], [18.5847262, 44.8389179], [18.5847278, 44.8388981], [18.5847377, 44.8388806], [18.5847508, 44.838862], [18.584782, 44.8388573], [18.5848099, 44.8388585], [18.5848313, 44.8388725], [18.584846, 44.8388888], [18.5848559, 44.8389062], [18.584869, 44.8389237], [18.5848904, 44.8389377], [18.5849167, 44.8389482], [18.5849429, 44.8389575], [18.5849692, 44.8389656], [18.5849955, 44.8389691], [18.585025, 44.8389668], [18.585048, 44.8389575], [18.5850661, 44.8389423], [18.5850956, 44.8389097], [18.585117, 44.8388969], [18.5851416, 44.8388876], [18.5851728, 44.8388806], [18.5851925, 44.8388667], [18.5852056, 44.8388492], [18.5852155, 44.8388317], [18.5852237, 44.8388131], [18.5852352, 44.8387945], [18.5852467, 44.8387782], [18.5852631, 44.8387595], [18.5852795, 44.8387432], [18.5852992, 44.8387293], [18.5853206, 44.8387176], [18.5853501, 44.8387165], [18.5853764, 44.8387246], [18.5853961, 44.8387386], [18.5854109, 44.8387549], [18.5854224, 44.838777], [18.5854289, 44.8387968], [18.5854289, 44.8388608], [18.5854355, 44.8388818], [18.5854519, 44.8389016], [18.585493, 44.838933], [18.5855176, 44.8389458], [18.5855406, 44.8389551], [18.5855964, 44.8389668], [18.5856259, 44.8389703], [18.5856522, 44.8389726], [18.5856801, 44.8389749], [18.585708, 44.8389761], [18.585731, 44.8389679], [18.5857507, 44.838954], [18.5857639, 44.838933], [18.5857721, 44.8389144], [18.585777, 44.8388946], [18.585777, 44.838855], [18.5857852, 44.8388375], [18.5858082, 44.8388259], [18.5858361, 44.8388189], [18.5858624, 44.8388131], [18.5858936, 44.8388131], [18.5859198, 44.8388189], [18.5859478, 44.8388247], [18.5859757, 44.8388294], [18.5860052, 44.8388294], [18.5860299, 44.8388224], [18.5860528, 44.8388108], [18.5860775, 44.8388003], [18.5861037, 44.8387956], [18.5861317, 44.8387968], [18.5861497, 44.8388131], [18.5861546, 44.8388341], [18.586153, 44.838855], [18.5861431, 44.838876], [18.5861382, 44.8388958], [18.5861382, 44.8389179], [18.5861431, 44.8389388], [18.5861579, 44.8389563], [18.5861776, 44.8389726], [18.5862023, 44.8389877], [18.5862236, 44.8390005], [18.5862515, 44.8390017], [18.5862761, 44.8389936], [18.5862958, 44.8389808], [18.5863123, 44.8389656], [18.5863205, 44.8389458], [18.5863205, 44.8389272], [18.5863238, 44.8389074], [18.5863238, 44.8388457], [18.5863188, 44.8388259], [18.5863123, 44.8388061], [18.5863106, 44.8387863], [18.5863221, 44.8387689], [18.5863402, 44.8387526], [18.5863714, 44.8387165], [18.5863927, 44.8387013], [18.5864141, 44.8386874], [18.5864354, 44.8386746], [18.5864535, 44.8386594], [18.586465, 44.8386408], [18.5864715, 44.8386222], [18.5864732, 44.8386012], [18.5864699, 44.8385802], [18.5864584, 44.8385616], [18.5864453, 44.8385442], [18.5864272, 44.8385279], [18.5864009, 44.8385162], [18.586373, 44.8385057], [18.5863435, 44.8384976], [18.5863155, 44.8384918], [18.5862827, 44.8384859], [18.5862548, 44.8384848], [18.5862269, 44.8384848], [18.586199, 44.8384859], [18.5861678, 44.8384894], [18.5861366, 44.8384941], [18.586107, 44.8384918], [18.586084, 44.8384801], [18.5860693, 44.8384627], [18.5860693, 44.8384429], [18.5860742, 44.8384219], [18.5860939, 44.8384056], [18.5861152, 44.8383928], [18.5861399, 44.8383835], [18.5861694, 44.8383753], [18.5861957, 44.8383695], [18.5862614, 44.8383649], [18.5862909, 44.8383637], [18.5863205, 44.8383637], [18.5863467, 44.8383649], [18.5863747, 44.8383672], [18.5864009, 44.838373], [18.5864256, 44.8383823], [18.5864535, 44.8383951], [18.5864781, 44.8384091], [18.5864962, 44.8384231], [18.5865372, 44.8384522], [18.5865585, 44.8384662], [18.5865815, 44.8384801], [18.5866078, 44.8384929], [18.5866341, 44.8385011], [18.5866636, 44.8385034], [18.5866915, 44.8385046], [18.5867211, 44.8385081], [18.586749, 44.8385139], [18.5867736, 44.8385255], [18.5867966, 44.838536], [18.5868212, 44.8385453], [18.5868475, 44.83855], [18.5868738, 44.8385523], [18.5869017, 44.8385511], [18.5869247, 44.8385407], [18.586946, 44.8385255], [18.5869756, 44.8384906], [18.5869887, 44.838472], [18.587015, 44.8384289], [18.5870248, 44.8384114], [18.5870363, 44.8383951], [18.5870478, 44.8383777], [18.5870675, 44.838359], [18.5870839, 44.8383439], [18.587102, 44.8383288], [18.5871184, 44.8383136], [18.5871381, 44.8382973], [18.5871529, 44.8382822], [18.587166, 44.8382624], [18.5871759, 44.8382461], [18.5871956, 44.8382321], [18.5872235, 44.8382263], [18.5872514, 44.8382251], [18.5872793, 44.8382275], [18.5873056, 44.8382333], [18.5873401, 44.8382403], [18.5873631, 44.8382508], [18.5873828, 44.8382671], [18.5873992, 44.8382845], [18.5874189, 44.838302], [18.5874304, 44.8383218], [18.5874402, 44.8383404], [18.5874452, 44.8383637], [18.5874517, 44.8383823], [18.5874731, 44.838451], [18.5874747, 44.8384708], [18.5874846, 44.8384941], [18.5874961, 44.8385127], [18.5875125, 44.838529], [18.5875273, 44.8385465], [18.5875453, 44.8385616], [18.5875699, 44.8385721], [18.5875979, 44.8385779], [18.5876274, 44.8385814], [18.587657, 44.8385826], [18.5876832, 44.8385826], [18.5877095, 44.8385768], [18.5877309, 44.8385639], [18.5877423, 44.8385465], [18.5877423, 44.8385069], [18.5877391, 44.8384662], [18.5877391, 44.8384452], [18.5877423, 44.8384254], [18.5877538, 44.8384068], [18.5877637, 44.8383893], [18.5877637, 44.8383707], [18.5877604, 44.8383497], [18.5877538, 44.8383299], [18.5877588, 44.838309], [18.5877785, 44.8382892], [18.5878015, 44.838274], [18.5878195, 44.8382589], [18.5878441, 44.8382426], [18.5878622, 44.8382286], [18.5878803, 44.8382088], [18.5878918, 44.8381925], [18.5879, 44.8381739], [18.5879033, 44.8381343], [18.5879033, 44.8381122], [18.5879065, 44.8380924], [18.5879115, 44.8380738], [18.587918, 44.838054], [18.5879328, 44.8380365], [18.5879525, 44.8380237], [18.5879788, 44.8380179], [18.5880116, 44.8380167], [18.5880412, 44.8380179], [18.5880773, 44.8380179], [18.5881151, 44.8380191], [18.5881479, 44.8380121], [18.588166, 44.8379993], [18.5881889, 44.8379772], [18.5882119, 44.837962], [18.5882382, 44.8379515], [18.5882678, 44.8379434], [18.5882924, 44.8379376], [18.588317, 44.8379306], [18.5883433, 44.8379224], [18.5883712, 44.8379143], [18.5883958, 44.8379061], [18.5884188, 44.8378945], [18.5884418, 44.8378805], [18.5884631, 44.8378619], [18.5884796, 44.8378468], [18.5885009, 44.8378351], [18.5885305, 44.8378223], [18.5885567, 44.837813], [18.5885896, 44.8378048], [18.5886191, 44.837799], [18.588647, 44.8377955], [18.5887012, 44.8377955], [18.5887324, 44.8377979], [18.5887587, 44.8378048], [18.5887817, 44.8378177], [18.5887932, 44.8378351], [18.5888014, 44.8378537], [18.588803, 44.8378747], [18.588803, 44.8378957], [18.5888014, 44.8379155], [18.5887932, 44.8379364], [18.5887817, 44.8379562], [18.5887669, 44.837976], [18.5887554, 44.8379946], [18.588739, 44.8380144], [18.5887291, 44.838033], [18.5887176, 44.8380528], [18.5887094, 44.8380726], [18.5887061, 44.8380936], [18.5887061, 44.8381145], [18.5887193, 44.8381332], [18.5887357, 44.8381495], [18.588757, 44.8381634], [18.5887784, 44.8381751], [18.5888014, 44.8381844], [18.5888276, 44.8381902], [18.5888572, 44.8381902], [18.5888835, 44.8381821], [18.5889015, 44.8381681], [18.5889229, 44.8381308], [18.5889344, 44.8381122], [18.5889459, 44.8380947], [18.588959, 44.8380784], [18.5889738, 44.8380622], [18.5889902, 44.8380424], [18.5890066, 44.8380261], [18.5890197, 44.8380086], [18.5890493, 44.837976], [18.5890641, 44.8379609], [18.5890838, 44.8379434], [18.5891035, 44.8379271], [18.5891215, 44.8379131], [18.5891462, 44.8379038], [18.5891741, 44.8379061], [18.5891987, 44.8379143], [18.5892217, 44.8379283], [18.5892398, 44.8379469], [18.5892562, 44.8379644], [18.5892742, 44.8379783], [18.5892972, 44.8379876], [18.5893268, 44.8379946], [18.5893547, 44.8379993], [18.5893793, 44.8380086], [18.5894023, 44.8380167], [18.5894204, 44.838033], [18.5894269, 44.8380528], [18.5894286, 44.8380738], [18.5894204, 44.8380936], [18.5893908, 44.8381308], [18.5893744, 44.8381495], [18.5893514, 44.8381599], [18.5893235, 44.8381681], [18.5892972, 44.8381774], [18.5892759, 44.8381914], [18.5892824, 44.8382112], [18.5893087, 44.8382193], [18.589335, 44.8382135], [18.5893629, 44.8382112], [18.5893908, 44.83821], [18.5894433, 44.83821], [18.5894778, 44.8382123], [18.5895107, 44.8382182], [18.5895386, 44.8382228], [18.5895648, 44.8382286], [18.5895895, 44.8382356], [18.5896141, 44.8382438], [18.5896338, 44.8382589], [18.589642, 44.8382787], [18.5896469, 44.8383008], [18.5896486, 44.8383218], [18.5896322, 44.8383381], [18.5896043, 44.8383439], [18.5895763, 44.8383451], [18.5895484, 44.8383416], [18.5895222, 44.8383346], [18.5894926, 44.8383334], [18.5894647, 44.8383369], [18.5894319, 44.8383439], [18.5894023, 44.8383509], [18.5893695, 44.8383544], [18.5893399, 44.8383579], [18.589312, 44.8383625], [18.5892857, 44.8383718], [18.5892611, 44.8383835], [18.5892036, 44.8384289], [18.5891938, 44.8384487], [18.5891905, 44.8384708], [18.5891971, 44.8384918], [18.5892102, 44.8385116], [18.589225, 44.838529], [18.589243, 44.8385453], [18.5892644, 44.8385581], [18.589289, 44.8385663], [18.5893169, 44.8385733], [18.5893416, 44.8385791], [18.5893695, 44.8385872], [18.5893957, 44.8385954], [18.5894204, 44.8386047], [18.5894417, 44.8386175], [18.5894548, 44.8386361], [18.5894631, 44.8386548], [18.589468, 44.8386769], [18.5894696, 44.8386978], [18.589468, 44.8387176], [18.5894614, 44.8387398], [18.5894598, 44.8387607], [18.5894647, 44.8387817], [18.5894778, 44.8387991], [18.5894975, 44.8388154], [18.5895205, 44.8388282], [18.5895435, 44.8388399], [18.5895944, 44.8388783], [18.5896141, 44.8388934], [18.5896322, 44.8389097], [18.5896781, 44.8389447], [18.5896962, 44.8389598], [18.5897126, 44.8389773], [18.5897274, 44.8389959], [18.5897537, 44.8390331], [18.5897684, 44.8390553], [18.589775, 44.8390762], [18.5897816, 44.839096], [18.5897816, 44.8391158], [18.5897767, 44.8391368], [18.5897684, 44.83916], [18.5897602, 44.8391787], [18.5897553, 44.839202], [18.5897504, 44.8392229], [18.5897504, 44.8392439], [18.5897619, 44.8392625], [18.5897832, 44.8392788], [18.5898111, 44.8392858], [18.5898374, 44.8392881], [18.5898998, 44.8392881], [18.5899293, 44.8392835], [18.5899638, 44.83928], [18.5899901, 44.8392765], [18.5900213, 44.839273], [18.5900771, 44.8392637], [18.5901132, 44.8392613], [18.5901412, 44.8392578], [18.5901691, 44.8392567], [18.590197, 44.8392567], [18.5902232, 44.839259], [18.5902512, 44.8392637], [18.5902791, 44.8392741], [18.5903053, 44.8392881], [18.5903185, 44.8393067], [18.5903267, 44.8393265], [18.5903283, 44.8393475], [18.5903267, 44.8393708], [18.5903152, 44.8393906], [18.5903004, 44.8394069], [18.5902774, 44.8394197], [18.5902512, 44.8394278], [18.5902183, 44.839436], [18.5901543, 44.8394488], [18.590128, 44.8394569], [18.5901067, 44.8394709], [18.5900985, 44.839493], [18.5900985, 44.839514], [18.5901083, 44.8395338], [18.5901247, 44.8395512], [18.5901444, 44.8395664], [18.5901674, 44.8395792], [18.5901921, 44.8395885], [18.5902183, 44.8395966], [18.5902807, 44.8396106], [18.5903103, 44.8396153], [18.5903382, 44.8396164], [18.5903759, 44.8396153], [18.5904055, 44.8396153], [18.5904318, 44.8396141], [18.5904613, 44.8396083], [18.5904876, 44.8396025], [18.5905139, 44.8395955], [18.5905894, 44.8395687], [18.5906173, 44.8395536], [18.5906386, 44.8395408], [18.5906567, 44.8395245], [18.5906715, 44.8395082], [18.5906879, 44.8394884], [18.5906961, 44.8394697], [18.590701, 44.8394511], [18.5907043, 44.8394302], [18.5907043, 44.8394092], [18.590706, 44.8393871], [18.590706, 44.8392567], [18.5907043, 44.8392357], [18.5907043, 44.8391729], [18.5907076, 44.8391519], [18.5907158, 44.8391274], [18.590724, 44.8391088], [18.5907322, 44.8390914], [18.5907437, 44.8390751], [18.5907716, 44.8390425], [18.5907864, 44.8390262], [18.5908045, 44.839011], [18.5908258, 44.8389959], [18.5908472, 44.8389831], [18.5908718, 44.8389749], [18.5909014, 44.8389703], [18.5909293, 44.8389691], [18.5909539, 44.8389761], [18.5909867, 44.8389842], [18.591013, 44.8389901], [18.591036, 44.8389994], [18.5910639, 44.8390099], [18.5910885, 44.8390227], [18.5911345, 44.8390483], [18.5911575, 44.8390588], [18.5911821, 44.8390681], [18.5912117, 44.8390716], [18.5912396, 44.8390716], [18.5912757, 44.8390692], [18.591302, 44.8390681], [18.5913299, 44.8390646], [18.5913841, 44.8390494], [18.591412, 44.8390436], [18.5914382, 44.8390366], [18.5914678, 44.8390203], [18.5914875, 44.8390064], [18.5915023, 44.8389901], [18.5915138, 44.8389714], [18.5915187, 44.8389505], [18.5915203, 44.8389295], [18.5915253, 44.8389097], [18.5915335, 44.8388899], [18.591545, 44.8388725], [18.591563, 44.8388515], [18.5915795, 44.8388341], [18.5915992, 44.8388143], [18.5916189, 44.8387956], [18.5916402, 44.8387735], [18.591655, 44.8387526], [18.5916632, 44.8387339], [18.591673, 44.8386932], [18.5916763, 44.8386687], [18.5916829, 44.8386291], [18.5916878, 44.8386094], [18.591696, 44.8385872], [18.5917124, 44.8385209], [18.5917174, 44.8384953], [18.5917223, 44.8384743], [18.5917239, 44.8384533], [18.5917289, 44.8384301], [18.5917371, 44.8384114], [18.5917453, 44.8383847], [18.5917535, 44.8383637], [18.5917683, 44.8383055], [18.591783, 44.838288], [18.5917962, 44.8382694], [18.5918093, 44.8382531], [18.5918257, 44.8382333], [18.5918438, 44.838217], [18.5918651, 44.8382042], [18.5918898, 44.8381925], [18.591916, 44.8381856], [18.5919768, 44.8381786], [18.5920063, 44.8381762], [18.5920343, 44.8381751], [18.5920638, 44.8381751], [18.5920966, 44.8381786], [18.5921229, 44.8381879], [18.5921475, 44.8382007], [18.5921689, 44.8382135], [18.592187, 44.8382286], [18.5922132, 44.8382659], [18.5922247, 44.8382869], [18.5922313, 44.8383055], [18.5922411, 44.8383276], [18.5922461, 44.8383532], [18.592251, 44.8383742], [18.5922526, 44.8383963], [18.5922526, 44.8384184], [18.592251, 44.8384394], [18.5922461, 44.8384638], [18.5922379, 44.8384848], [18.592228, 44.8385046], [18.5922116, 44.8385232], [18.5921952, 44.8385395], [18.5921771, 44.8385593], [18.5921607, 44.8385791], [18.5921475, 44.8385977], [18.5921377, 44.8386198], [18.5921311, 44.8386396], [18.5921295, 44.8386606], [18.5921295, 44.8386815], [18.5921344, 44.8387037], [18.5921443, 44.8387235], [18.5921541, 44.8387421], [18.5921689, 44.8387607], [18.5921886, 44.8387758], [18.5922116, 44.8387852], [18.5922379, 44.8387887], [18.5922674, 44.8387898], [18.5922986, 44.8387875], [18.5923265, 44.838784], [18.5923528, 44.8387747], [18.5923791, 44.838763], [18.5924004, 44.8387502], [18.5924185, 44.8387351], [18.5924349, 44.83872], [18.592448, 44.8387025], [18.5924628, 44.838685], [18.5924956, 44.8386489], [18.5925334, 44.8386152], [18.5925531, 44.8386], [18.5925777, 44.8385849], [18.5926089, 44.8385709], [18.5926319, 44.8385639], [18.5926615, 44.8385605], [18.5926894, 44.8385593], [18.5927173, 44.8385651], [18.5927304, 44.8385826], [18.5927353, 44.8386035], [18.592737, 44.8386245], [18.5927156, 44.8386373], [18.5926894, 44.8386454], [18.5926647, 44.8386548], [18.5926352, 44.8386641], [18.5926138, 44.8386792], [18.5925909, 44.8386943], [18.5925695, 44.8387118], [18.5925416, 44.8387584], [18.5925465, 44.8387793], [18.5925482, 44.8388026], [18.592558, 44.8388247], [18.5925728, 44.8388434], [18.5925859, 44.8388608], [18.5926615, 44.8388969], [18.5926877, 44.8389039], [18.5927156, 44.8389086], [18.5927452, 44.8389121], [18.5927731, 44.8389132], [18.5927994, 44.8389132], [18.5928306, 44.8389097], [18.5928568, 44.8389039], [18.5928831, 44.8388958], [18.5929077, 44.8388818], [18.5929274, 44.8388667], [18.5929422, 44.8388492], [18.5929537, 44.8388329], [18.5929701, 44.8388166], [18.5929915, 44.8388003], [18.5930128, 44.8387887], [18.5930391, 44.838777], [18.5930621, 44.8387677], [18.5930867, 44.8387584], [18.5931146, 44.8387502], [18.5931393, 44.8387444], [18.5931672, 44.8387386], [18.5931934, 44.8387316], [18.5932148, 44.8387223], [18.5932345, 44.8387072], [18.5932443, 44.8386885], [18.5932509, 44.8386687], [18.5932673, 44.8386548], [18.5932919, 44.8386478], [18.5933199, 44.8386454], [18.5933543, 44.8386466], [18.5933823, 44.8386513], [18.5934348, 44.8386711], [18.5934611, 44.8386792], [18.5934923, 44.838685], [18.5935202, 44.8386862], [18.5935514, 44.8386885], [18.5936121, 44.8386885], [18.59364, 44.8386874], [18.5936614, 44.8386734], [18.5936761, 44.8386559], [18.593686, 44.8386361], [18.5936876, 44.8386163], [18.5936532, 44.8385605], [18.5936466, 44.8385383], [18.5936417, 44.8385174], [18.5936433, 44.8384964], [18.5936515, 44.8384766], [18.5936614, 44.838458], [18.5936794, 44.8384382], [18.5936975, 44.8384231], [18.5937517, 44.838401], [18.5937812, 44.8383986], [18.593842, 44.8383905], [18.5938683, 44.8383881], [18.5938994, 44.8383881], [18.5939257, 44.8383847], [18.593952, 44.8383847], [18.5939815, 44.8383835], [18.5941096, 44.8383835], [18.5941424, 44.8383847], [18.5941704, 44.8383881], [18.5942048, 44.8383916], [18.5942328, 44.838394], [18.5942656, 44.8383998], [18.5942951, 44.8384068], [18.5943214, 44.8384149], [18.5943477, 44.8384207], [18.594374, 44.8384312], [18.5943986, 44.8384417], [18.5944199, 44.8384603], [18.5944331, 44.8384801], [18.5944413, 44.8384999], [18.5944511, 44.8385209], [18.5944544, 44.8385674], [18.5944511, 44.8385907], [18.5944446, 44.8386117], [18.5944314, 44.8386338], [18.5944166, 44.8386513], [18.5943969, 44.8386664], [18.5943723, 44.8386804], [18.5943526, 44.8386943], [18.5943362, 44.8387118], [18.5943329, 44.8387316], [18.5943345, 44.8387526], [18.5943444, 44.8387712], [18.5943641, 44.8387852], [18.5943887, 44.8387945], [18.594415, 44.8388003], [18.5944429, 44.8388049], [18.5944741, 44.8388084], [18.594502, 44.8388143], [18.594525, 44.8388224], [18.5945447, 44.8388399], [18.5945562, 44.8388573], [18.5945693, 44.8388748], [18.5945858, 44.8388911], [18.5946055, 44.8389074], [18.594635, 44.8389179], [18.5946662, 44.8389237], [18.5946925, 44.838926], [18.5947188, 44.8389295], [18.5947483, 44.8389342], [18.5947746, 44.8389412], [18.5947926, 44.8389563], [18.5947976, 44.8389761], [18.5947844, 44.8389936], [18.5947598, 44.8390029], [18.5947319, 44.839004], [18.5947007, 44.839004], [18.5946711, 44.8390064], [18.5946449, 44.8390157], [18.5945661, 44.8390704], [18.5945578, 44.8390914], [18.5945562, 44.8391123], [18.5945693, 44.8393428], [18.5945841, 44.839365], [18.5945989, 44.8393813], [18.5946186, 44.8393941], [18.5946416, 44.8394057], [18.5946728, 44.839415], [18.594699, 44.8394162], [18.5947204, 44.8394057], [18.5947335, 44.8393894], [18.594745, 44.8393719], [18.5947647, 44.839358], [18.5947926, 44.8393556], [18.5948173, 44.8393638], [18.594837, 44.8393766], [18.5948517, 44.8393941], [18.5948698, 44.8394092], [18.5948912, 44.8394208], [18.5949174, 44.8394243], [18.5949453, 44.8394208], [18.59497, 44.8394115], [18.5949929, 44.8394022], [18.5950192, 44.8393964], [18.5950455, 44.8393952], [18.5950734, 44.839401], [18.5950931, 44.839415], [18.5950947, 44.8394371], [18.5950833, 44.8394581], [18.5950701, 44.8394767], [18.5950422, 44.8395186], [18.5950373, 44.8395512], [18.5950406, 44.8395722], [18.5950553, 44.8395931], [18.5950718, 44.8396094], [18.5950915, 44.8396246], [18.5951177, 44.8396362], [18.595144, 44.8396444], [18.5951719, 44.8396467], [18.5951998, 44.8396479], [18.5952294, 44.8396479], [18.5952573, 44.8396432], [18.5952852, 44.8396374], [18.5953115, 44.8396269], [18.5953377, 44.8396141], [18.5953624, 44.8396001], [18.5953804, 44.8395862], [18.5954001, 44.8395722], [18.5954215, 44.8395582], [18.5954428, 44.8395466], [18.5956464, 44.8394651], [18.5956727, 44.8394569], [18.595699, 44.8394499], [18.5957285, 44.8394465], [18.5957564, 44.8394453], [18.5957827, 44.8394534], [18.59585, 44.8394942], [18.5958697, 44.8395082], [18.5958878, 44.8395279], [18.5958993, 44.8395466], [18.5959042, 44.8395664], [18.5959026, 44.8395885], [18.5958746, 44.8395908], [18.5958517, 44.839578], [18.5958237, 44.8395734], [18.5957991, 44.8395838], [18.5957794, 44.839599], [18.5957663, 44.8396188], [18.5957597, 44.8396386], [18.5957564, 44.8396607], [18.5957564, 44.8396805], [18.5957548, 44.8397003], [18.5957564, 44.8397224], [18.5957646, 44.8397422], [18.5957745, 44.839762], [18.5957827, 44.8397818], [18.5957958, 44.8397992], [18.5958073, 44.8398202], [18.5958139, 44.8398388], [18.5958073, 44.8398598], [18.5957876, 44.8398772], [18.5957646, 44.8398924], [18.5957417, 44.8399028], [18.5957187, 44.8399156], [18.5956858, 44.8399331], [18.5956793, 44.8399529], [18.5956858, 44.8399727], [18.595699, 44.8399913], [18.595717, 44.8400076], [18.5957384, 44.8400227], [18.595763, 44.8400321], [18.5957975, 44.8400414], [18.5958287, 44.8400472], [18.5958582, 44.8400507], [18.5958845, 44.8400519], [18.5959748, 44.8400519], [18.5960011, 44.8400495], [18.596029, 44.8400449], [18.5960553, 44.8400367], [18.5960782, 44.8400251], [18.596093, 44.8400099], [18.5961078, 44.8399901], [18.5961144, 44.8399704], [18.5961226, 44.8399529], [18.5961308, 44.8399319], [18.5961341, 44.8399121], [18.5961423, 44.8398947], [18.5961538, 44.8398772], [18.5961685, 44.8398609], [18.5961915, 44.8398516], [18.5962178, 44.8398435], [18.5962474, 44.8398388], [18.5962736, 44.8398388], [18.5963015, 44.8398411], [18.5963262, 44.8398504], [18.5963524, 44.8398632], [18.5963721, 44.8398772], [18.5963902, 44.8398935], [18.5964083, 44.839911], [18.596423, 44.8399296], [18.5964395, 44.8399471], [18.5964575, 44.8399634], [18.5964805, 44.8399762], [18.5965035, 44.8399867], [18.5965314, 44.8399925], [18.5965593, 44.8399948], [18.5965889, 44.839996], [18.5966151, 44.8399913], [18.5966414, 44.8399832], [18.596666, 44.8399692], [18.5966775, 44.8399482], [18.5966857, 44.8399296], [18.5966923, 44.8399098], [18.5966923, 44.8398714], [18.5966939, 44.8398504], [18.5967005, 44.839833], [18.5967383, 44.8397992], [18.5967531, 44.8397818], [18.596758, 44.8397608], [18.5967695, 44.8397422], [18.5967826, 44.8397259], [18.5968204, 44.8396991], [18.5968384, 44.839684], [18.5968516, 44.8396688], [18.5968647, 44.839649], [18.5968795, 44.8396327], [18.5969025, 44.8396234], [18.5969599, 44.8396234], [18.5969862, 44.8396281], [18.5970092, 44.8396409], [18.5970289, 44.8396548], [18.597047, 44.8396735], [18.5970502, 44.8396944], [18.5970486, 44.8397154], [18.5970387, 44.8397363], [18.5970322, 44.8397561], [18.5970338, 44.8397783], [18.5970404, 44.8397992], [18.5970519, 44.8398178], [18.5970732, 44.8398306], [18.5971488, 44.8398854], [18.5971914, 44.8399145], [18.5972276, 44.8399319], [18.5972703, 44.8399447], [18.5973014, 44.8399494], [18.5973277, 44.8399517], [18.5973458, 44.839968], [18.5973655, 44.8399843], [18.5973885, 44.8399971], [18.5974147, 44.8399983], [18.5974755, 44.839996], [18.5975034, 44.8399971], [18.5975297, 44.8400064], [18.597551, 44.8400227], [18.5975707, 44.8400425], [18.5975888, 44.84006], [18.5976052, 44.8400775], [18.5976183, 44.8400949], [18.5977415, 44.8402346], [18.5977546, 44.8402533], [18.5977677, 44.8402707], [18.5977809, 44.8402894], [18.5977957, 44.8403057], [18.5978154, 44.840322], [18.5978334, 44.8403383], [18.5978778, 44.840372], [18.5979007, 44.840386], [18.5980255, 44.8404628], [18.5980436, 44.840478], [18.5980633, 44.8404908], [18.5980863, 44.8405047], [18.5981125, 44.8405222], [18.5981372, 44.8405362], [18.5981749, 44.8405676], [18.598193, 44.8405839], [18.5982094, 44.8406014], [18.5982275, 44.8406188], [18.5982784, 44.8406735], [18.5982981, 44.8406922], [18.5983145, 44.8407085], [18.5983276, 44.8407259], [18.5984344, 44.8407958], [18.598459, 44.8408063], [18.5984803, 44.8408167], [18.5985033, 44.8408296], [18.5985263, 44.8408412], [18.5985476, 44.8408517], [18.598569, 44.8408656], [18.5986051, 44.8408936], [18.5986396, 44.8409623], [18.5986757, 44.8409949], [18.5986987, 44.8410321], [18.598725, 44.8410717], [18.5987447, 44.841109], [18.5987677, 44.8411439], [18.5988005, 44.8411788], [18.5988301, 44.8412114], [18.5988695, 44.841244], [18.5989023, 44.8412743], [18.5989318, 44.8413069], [18.5989647, 44.8413418], [18.5990041, 44.8413814], [18.5990369, 44.841414], [18.5990731, 44.8414466], [18.5991125, 44.8414745], [18.599165, 44.8414955], [18.5992143, 44.8415095], [18.5992602, 44.8415351], [18.5992963, 44.841563], [18.5993489, 44.841577], [18.5993981, 44.841563], [18.5994474, 44.841542], [18.5994999, 44.841542], [18.5995558, 44.8415514], [18.5996017, 44.8415677], [18.5996444, 44.8415933], [18.5996838, 44.8416212], [18.59972, 44.8416515], [18.5997528, 44.8416864], [18.5997725, 44.8417237], [18.5997725, 44.8417632], [18.5997791, 44.8418075], [18.5998021, 44.8418471], [18.5998415, 44.8418797], [18.5998809, 44.8419053], [18.6000056, 44.8419565], [18.6000286, 44.8419926], [18.6000385, 44.8420112], [18.6000418, 44.842031], [18.6000467, 44.842052], [18.6000549, 44.8420741], [18.6000631, 44.8420939], [18.600073, 44.8421125], [18.6000845, 44.8421335], [18.600096, 44.8421521], [18.6001091, 44.8421707], [18.6001354, 44.8422056], [18.6001518, 44.8422219], [18.6001731, 44.8422371], [18.6003127, 44.8422977], [18.6003701, 44.8423058], [18.6003964, 44.8423081], [18.600426, 44.8423058], [18.6004522, 44.8422976], [18.6004736, 44.8422883], [18.6004802, 44.8422685], [18.6004802, 44.8422301], [18.6004851, 44.8422091], [18.6004966, 44.8421905], [18.6005114, 44.842173], [18.6006099, 44.8421509], [18.6006345, 44.8421579], [18.6006591, 44.8421684], [18.6006837, 44.84218], [18.6007051, 44.842194], [18.6008644, 44.84235], [18.6008808, 44.8423651], [18.6009021, 44.8423803], [18.6009267, 44.8423907], [18.6009563, 44.8423884], [18.6009776, 44.8423756], [18.6010039, 44.8423721], [18.6010318, 44.8423779], [18.6010581, 44.8423849], [18.601086, 44.8423861], [18.6011106, 44.8423791], [18.6011336, 44.842371], [18.6011583, 44.8423605], [18.6011845, 44.8423523], [18.6012108, 44.8423477], [18.601242, 44.8423477], [18.6012699, 44.84235], [18.6012945, 44.8423558], [18.6013175, 44.8423651], [18.6013389, 44.8423768], [18.6013487, 44.8423966], [18.6013553, 44.8424164], [18.6013914, 44.8426224], [18.6017477, 44.8428611], [18.6019874, 44.8429938], [18.602168, 44.8430252], [18.6020531, 44.8432604], [18.6016574, 44.8432848], [18.6015753, 44.843449], [18.6018281, 44.8436038], [18.6017887, 44.8436876], [18.6017559, 44.8438669], [18.6020446, 44.8438685], [18.6022811, 44.8438313], [18.6025077, 44.8439325], [18.6027244, 44.8443132], [18.6030216, 44.8443249], [18.603146, 44.8443322], [18.6031825, 44.8443563], [18.6031414, 44.8444774], [18.6031496, 44.8445775], [18.6033237, 44.8446042], [18.6034616, 44.8443866], [18.6035338, 44.8443109], [18.6035486, 44.8442923], [18.603565, 44.8442771], [18.6035864, 44.8442597], [18.6036028, 44.8442422], [18.6036389, 44.8442096], [18.6036619, 44.8442003], [18.6036882, 44.8441945], [18.6037145, 44.8441921], [18.6037407, 44.844191], [18.6037637, 44.8442049], [18.6037703, 44.8442236], [18.6037703, 44.8442434], [18.603767, 44.8442632], [18.6037292, 44.8443656], [18.6036767, 44.8445868], [18.6036767, 44.8446089], [18.6036816, 44.8446299], [18.6036948, 44.8446473], [18.6037161, 44.8446601], [18.603744, 44.8446671], [18.6037752, 44.8446694], [18.6038048, 44.8446694], [18.6038277, 44.8446613], [18.6039641, 44.8445612], [18.6039903, 44.844553], [18.6040231, 44.8445507], [18.604051, 44.8445507], [18.6040757, 44.8445565], [18.6040937, 44.844574], [18.6041052, 44.8445938], [18.6041101, 44.8446159], [18.6041101, 44.8446368], [18.6041085, 44.8446566], [18.6040888, 44.8446939], [18.604074, 44.8447148], [18.6040576, 44.8447323], [18.6039739, 44.8448091], [18.6039525, 44.8448243], [18.6039312, 44.8448406], [18.6039131, 44.8448569], [18.6038967, 44.8448732], [18.6038819, 44.8448918], [18.6038655, 44.8449093], [18.6038524, 44.8449279], [18.6038442, 44.8449488], [18.6038409, 44.8449872], [18.6038442, 44.8450094], [18.603854, 44.8450292], [18.6038639, 44.8450478], [18.603877, 44.8450652], [18.6038934, 44.8450804], [18.6039213, 44.8450827], [18.6040051, 44.8450827], [18.6040313, 44.8450885], [18.604056, 44.8450978], [18.604207, 44.8451956], [18.6042185, 44.8452154], [18.6042284, 44.8452364], [18.6042349, 44.845255], [18.6042661, 44.8454447], [18.6042727, 44.8454645], [18.6042825, 44.8454913], [18.6043794, 44.8456566], [18.6043942, 44.8456741], [18.604404, 44.845695], [18.604409, 44.8457148], [18.6043893, 44.84573], [18.604363, 44.8457369], [18.6043302, 44.8457369], [18.6042957, 44.8457334], [18.6041727, 44.8457131], [18.6041167, 44.8457067], [18.6040888, 44.8457113], [18.6040513, 44.8457407], [18.6039966, 44.845834], [18.6039903, 44.8458685], [18.6039936, 44.8458894], [18.60401, 44.8459104], [18.6040215, 44.8459279], [18.6040412, 44.845943], [18.6040609, 44.845957], [18.6040822, 44.8459674], [18.6041085, 44.8459733], [18.6041381, 44.8459767], [18.6041676, 44.8459779], [18.6041955, 44.8459802], [18.6042645, 44.8460093], [18.6042875, 44.8460175], [18.6043055, 44.8460338], [18.6043187, 44.8460536], [18.6043252, 44.8460734], [18.6043203, 44.8460943], [18.6042973, 44.8461106], [18.6042694, 44.8461199], [18.60423, 44.8461258], [18.6042021, 44.8461258], [18.6041693, 44.8461269], [18.6041413, 44.8461258], [18.6041118, 44.8461199], [18.604056, 44.8461083], [18.6040182, 44.8461071], [18.6039476, 44.8461071], [18.6039295, 44.8461258], [18.6039197, 44.8461467], [18.6039164, 44.8461688], [18.6039164, 44.8461898], [18.6039246, 44.8462107], [18.6039361, 44.8462282], [18.6039492, 44.8462503], [18.603964, 44.8462689], [18.6039804, 44.8462864], [18.6041824, 44.8464505], [18.6042054, 44.846461], [18.6042316, 44.8464715], [18.6042645, 44.846482], [18.604294, 44.8464901], [18.6043597, 44.8465006], [18.6044172, 44.8465053], [18.6044451, 44.8465053], [18.6044763, 44.8465064], [18.6045075, 44.8465064], [18.6045387, 44.8465087], [18.6045666, 44.8465146], [18.6045912, 44.846525], [18.6046109, 44.8465402], [18.6046191, 44.8465588], [18.6046011, 44.8465774], [18.6045764, 44.8465856], [18.6045485, 44.8465879], [18.604519, 44.8465867], [18.6044911, 44.8465809], [18.6044664, 44.8465739], [18.6044352, 44.8465693], [18.6044057, 44.8465681], [18.6043778, 44.8465821], [18.6043548, 44.8466019], [18.6043236, 44.8466391], [18.6043105, 44.8466566], [18.6042957, 44.8466799], [18.6042793, 44.8466985], [18.6042579, 44.8467125], [18.60423, 44.846716], [18.6041988, 44.8467101], [18.6041709, 44.8466903], [18.6041561, 44.8466706], [18.6041463, 44.8466519], [18.6041397, 44.8466321], [18.6041299, 44.8466112], [18.6041167, 44.8465926], [18.6041003, 44.8465763], [18.604079, 44.8465588], [18.6040494, 44.8465483], [18.6040166, 44.8465472], [18.603987, 44.8465507], [18.6039492, 44.8465646], [18.6039213, 44.8465774], [18.6038983, 44.8465902], [18.6038737, 44.8466112], [18.6038622, 44.846631], [18.603854, 44.8466566], [18.603854, 44.8466799], [18.6038655, 44.8466985], [18.6038819, 44.846716], [18.6039, 44.8467346], [18.6039197, 44.8467532], [18.6039936, 44.8468196], [18.6040215, 44.8468405], [18.6040428, 44.8468626], [18.6040593, 44.8468801], [18.604074, 44.8468999], [18.6040888, 44.8469185], [18.6041085, 44.846936], [18.6041299, 44.8469523], [18.6041594, 44.8469674], [18.6041808, 44.8469802], [18.6042333, 44.8469988], [18.6042858, 44.8470105], [18.604322, 44.8470128], [18.6043794, 44.8470128], [18.6044073, 44.8470081], [18.6044385, 44.8470046], [18.6044681, 44.8470023], [18.6044993, 44.8470012], [18.6046273, 44.8470012], [18.6046651, 44.8469953], [18.6046914, 44.8469895], [18.6047209, 44.8469837], [18.6047488, 44.8469779], [18.6047817, 44.8469616], [18.604808, 44.8469464], [18.6048572, 44.8469115], [18.6048769, 44.8468929], [18.6048966, 44.8468766], [18.6049147, 44.8468568], [18.6049262, 44.8468382], [18.6049475, 44.8468231], [18.6049738, 44.8468149], [18.6050033, 44.8468137], [18.6050444, 44.8468161], [18.605069, 44.8468242], [18.605092, 44.8468347], [18.6051084, 44.846851], [18.6051183, 44.8468719], [18.6051216, 44.8468929], [18.6051232, 44.8469127], [18.6051068, 44.8469336], [18.6050854, 44.8469476], [18.6050526, 44.8469639], [18.6050214, 44.8469802], [18.6048786, 44.847085], [18.6048638, 44.8471048], [18.6048523, 44.8471257], [18.6048424, 44.8471478], [18.6048342, 44.8471676], [18.6048227, 44.8471862], [18.6047915, 44.847206], [18.604739, 44.8472293], [18.6047045, 44.8472421], [18.6046782, 44.8472538], [18.604652, 44.8472631], [18.6046241, 44.8472747], [18.6045994, 44.8472887], [18.6045797, 44.847305], [18.6045781, 44.8473283], [18.6045912, 44.8473469], [18.6046126, 44.8473632], [18.6046421, 44.8473737], [18.6046717, 44.8473783], [18.6046996, 44.8473795], [18.6049748, 44.8473383], [18.6050214, 44.8473271], [18.6050575, 44.8473166], [18.6050904, 44.847305], [18.6051133, 44.8472957], [18.605138, 44.8472817], [18.6051642, 44.8472631], [18.6051807, 44.8472491], [18.6051938, 44.8472305], [18.6052419, 44.8471681], [18.6053037, 44.8471119], [18.6054077, 44.8470438], [18.6055074, 44.8469942], [18.6056502, 44.8469499], [18.6056782, 44.8469441], [18.6057028, 44.8469383], [18.6057307, 44.8469267], [18.6057488, 44.8469127], [18.6057504, 44.8468917], [18.6057405, 44.8468685], [18.6057307, 44.84683], [18.6057356, 44.8468091], [18.6057603, 44.8467974], [18.6057865, 44.8467928], [18.6058177, 44.8467951], [18.6058489, 44.8468056], [18.6058768, 44.8468161], [18.6059015, 44.8468231], [18.605931, 44.8468289], [18.6059573, 44.8468289], [18.6059885, 44.8468254], [18.6060147, 44.8468231], [18.606041, 44.8468079], [18.6060591, 44.8467928], [18.6060771, 44.846773], [18.6060886, 44.8467567], [18.6060886, 44.8467369], [18.6060936, 44.8467125], [18.6061034, 44.8466938], [18.6061149, 44.8466764], [18.6061379, 44.8466659], [18.6061642, 44.8466566], [18.6061921, 44.8466531], [18.6062216, 44.8466566], [18.6062479, 44.8466624], [18.6063513, 44.846702], [18.6063743, 44.8467148], [18.6064022, 44.8467311], [18.6064219, 44.8467439], [18.6064679, 44.8467707], [18.6064876, 44.8467858], [18.6065188, 44.8468207], [18.6065336, 44.8468405], [18.6065451, 44.8468591], [18.6065533, 44.8468778], [18.6065615, 44.8469034], [18.6065631, 44.8469267], [18.6065664, 44.8469464], [18.6065664, 44.8469872], [18.6065648, 44.8470081], [18.6065664, 44.8471967], [18.6065319, 44.8473073], [18.6065402, 44.8473259], [18.6065549, 44.8473446], [18.6065681, 44.847362], [18.6065845, 44.84739], [18.6065861, 44.8474098], [18.6065681, 44.8474307], [18.6065418, 44.8474435], [18.6065122, 44.8474447], [18.606481, 44.8474389], [18.6064252, 44.8474179], [18.6063957, 44.8474132], [18.6062725, 44.8474132], [18.6062315, 44.8474167], [18.6062003, 44.8474214], [18.6061707, 44.847426], [18.6061445, 44.8474365], [18.6061297, 44.8474552], [18.6061362, 44.8474749], [18.6061559, 44.8474889], [18.6061839, 44.8475005], [18.606238, 44.8475157], [18.6062643, 44.8475227], [18.6062692, 44.8475448], [18.6062561, 44.8475634], [18.6062331, 44.8475797], [18.6062068, 44.8475972], [18.6061789, 44.8476076], [18.6061461, 44.8476204], [18.6061182, 44.8476298], [18.6060837, 44.8476367], [18.6060492, 44.8476461], [18.6060246, 44.8476635], [18.606018, 44.8476845], [18.6060279, 44.847844], [18.6060361, 44.8478649], [18.606041, 44.8478905], [18.6060427, 44.8479115], [18.6060427, 44.8479778], [18.6060476, 44.8479976], [18.6060574, 44.8480174], [18.6060722, 44.8480384], [18.6060919, 44.8480546], [18.6061313, 44.8480861], [18.6061642, 44.8481012], [18.6061888, 44.8481129], [18.6063251, 44.8481839], [18.606348, 44.8481978], [18.6063694, 44.848213], [18.6063973, 44.8482281], [18.6064219, 44.8482374], [18.6064482, 44.8482421], [18.606486, 44.8482444], [18.6065746, 44.8482444], [18.6066091, 44.8482467], [18.606637, 44.8482502], [18.6066666, 44.8482607], [18.6066961, 44.8482712], [18.6067208, 44.8482851], [18.6067454, 44.8482968], [18.6067782, 44.8483107], [18.6068045, 44.8483189], [18.6068373, 44.848327], [18.6068636, 44.8483294], [18.6069178, 44.8483317], [18.6069457, 44.8483305], [18.6069736, 44.8483212], [18.6069982, 44.8483073], [18.6070196, 44.8482933], [18.6070393, 44.8482805], [18.6070606, 44.8482677], [18.6070869, 44.8482607], [18.6071165, 44.8482619], [18.6071378, 44.8482735], [18.6071444, 44.8482933], [18.6071362, 44.8483142], [18.6071148, 44.8483294], [18.6070885, 44.848341], [18.6070573, 44.8483503], [18.6070278, 44.8483573], [18.6069638, 44.8483678], [18.6069375, 44.8483748], [18.6069063, 44.8483806], [18.6068784, 44.8483852], [18.6068488, 44.8483911], [18.6068127, 44.848398], [18.6067815, 44.848405], [18.6067536, 44.8484132], [18.6066961, 44.8484411], [18.6066731, 44.8484551], [18.6066452, 44.8484691], [18.606619, 44.8484865], [18.606596, 44.8485063], [18.6065566, 44.8485401], [18.6065188, 44.8486227], [18.6065237, 44.8486472], [18.6065319, 44.8486739], [18.6065336, 44.848696], [18.6065369, 44.8487263], [18.6065434, 44.8487566], [18.6065664, 44.8488055], [18.6065927, 44.8488439], [18.6066042, 44.8488625], [18.6066173, 44.8488788], [18.6066337, 44.8488998], [18.6066502, 44.8489195], [18.6066682, 44.8489347], [18.6066879, 44.848951], [18.6067093, 44.8489661], [18.6067306, 44.8489789], [18.6067536, 44.8489894], [18.6067832, 44.8489964], [18.6068111, 44.8489975], [18.6068751, 44.8489975], [18.606903, 44.8489952], [18.6069293, 44.8489859], [18.6069539, 44.8489731], [18.6069769, 44.8489603], [18.6070097, 44.8489428], [18.6073135, 44.8487927], [18.607343, 44.8487775], [18.6073709, 44.8487624], [18.6074499, 44.8487324], [18.6075187, 44.8487193], [18.607545, 44.8487158], [18.6075795, 44.8487089], [18.607609, 44.8487065], [18.6076451, 44.8487042], [18.6077995, 44.8487042], [18.6080802, 44.8487286], [18.6081049, 44.848738], [18.6081197, 44.8487554], [18.6081279, 44.8487752], [18.6081361, 44.8487962], [18.6081394, 44.8488159], [18.608141, 44.8488357], [18.6081377, 44.8488613], [18.6081262, 44.8488835], [18.6079801, 44.8492303], [18.6079702, 44.8492501], [18.6079587, 44.8492676], [18.607944, 44.8492874], [18.6079358, 44.8493118], [18.6079308, 44.8493572], [18.6079358, 44.849377], [18.6079489, 44.8493956], [18.6079653, 44.8494108], [18.6079949, 44.8494294], [18.6080179, 44.849441], [18.6080425, 44.8494504], [18.6080704, 44.8494573], [18.6080983, 44.849462], [18.6081377, 44.8494655], [18.6081656, 44.8494666], [18.6081935, 44.8494666], [18.6082264, 44.8494643], [18.6082559, 44.8494585], [18.6082822, 44.8494538], [18.6083101, 44.8494445], [18.6083347, 44.8494329], [18.6083577, 44.8494178], [18.6083725, 44.8494015], [18.6084119, 44.8493642], [18.6084283, 44.8493456], [18.6084398, 44.8493211], [18.6084513, 44.8492804], [18.6084579, 44.8492618], [18.608471, 44.8492373], [18.6084809, 44.8492187], [18.6084956, 44.8492012], [18.6085203, 44.8491908], [18.6085515, 44.8491884], [18.6085777, 44.8491943], [18.6086024, 44.8492059], [18.6086237, 44.849221], [18.6086418, 44.8492432], [18.6086566, 44.8492664], [18.6086648, 44.8492862], [18.6086861, 44.8493386], [18.6086894, 44.8493607], [18.6086927, 44.8493852], [18.6086927, 44.849405], [18.6086894, 44.8494306], [18.6086828, 44.8494538], [18.608673, 44.8494736], [18.6086566, 44.8494899], [18.6086319, 44.8495097], [18.6086106, 44.849526], [18.6085876, 44.8495377], [18.6081656, 44.8497123], [18.6081459, 44.8497286], [18.6081213, 44.8497449], [18.6080999, 44.8497588], [18.608077, 44.8497693], [18.6080507, 44.8497786], [18.6080228, 44.8497868], [18.6079949, 44.8497926], [18.6079637, 44.8497949], [18.6076763, 44.8497856], [18.6076435, 44.8497879], [18.6076139, 44.8497891], [18.6075828, 44.8497891], [18.6075483, 44.8497856], [18.6075187, 44.8497798], [18.6074842, 44.8497798], [18.6074481, 44.8497821], [18.6074186, 44.8497879], [18.6073923, 44.8497949], [18.607366, 44.8498065], [18.6073365, 44.8498205], [18.6073135, 44.8498368], [18.6072971, 44.8498531], [18.607279, 44.8498741], [18.6072626, 44.8499125], [18.6072609, 44.8499334], [18.6072642, 44.8499532], [18.6072675, 44.849973], [18.6072757, 44.8499951], [18.6072856, 44.8500126], [18.6072987, 44.8500324], [18.6073135, 44.8500498], [18.6073315, 44.8500685], [18.6073693, 44.8501034], [18.6073939, 44.8501185], [18.6074153, 44.8501313], [18.607435, 44.8501453], [18.607476, 44.8501755], [18.6074974, 44.8501918], [18.6075154, 44.8502081], [18.6075351, 44.8502279], [18.6075516, 44.8502489], [18.6075614, 44.8502687], [18.6075532, 44.8502873], [18.6075286, 44.8502978], [18.6075023, 44.8503059], [18.6074727, 44.8503071], [18.6074432, 44.8503071], [18.6072708, 44.8503339], [18.6072445, 44.8503432], [18.6072084, 44.8503595], [18.6067848, 44.8506074], [18.6067717, 44.850626], [18.6067667, 44.850647], [18.6067684, 44.8506668], [18.6067848, 44.8506842], [18.6068045, 44.8506982], [18.6068258, 44.8507087], [18.6068538, 44.850711], [18.6068833, 44.8507122], [18.6069096, 44.8507156], [18.6069375, 44.8507226], [18.6069654, 44.8507273], [18.6069933, 44.8507319], [18.6070229, 44.8507378], [18.6070508, 44.8507436], [18.6071674, 44.8507855], [18.6071887, 44.8507983], [18.6072117, 44.8508134], [18.607233, 44.8508309], [18.6072445, 44.8508518], [18.6072445, 44.8508716], [18.6072429, 44.8508996], [18.607233, 44.8509194], [18.60721, 44.8509426], [18.6071871, 44.8509613], [18.6070442, 44.851009], [18.6070147, 44.8510136], [18.6069785, 44.8510183], [18.6069473, 44.8510206], [18.6069079, 44.8510229], [18.60688, 44.8510241], [18.6068472, 44.8510241], [18.6068012, 44.8510206], [18.6067405, 44.8510148], [18.6067076, 44.8510113], [18.6066633, 44.8510067], [18.6065434, 44.8509904], [18.6065106, 44.8509904], [18.6064794, 44.8509915], [18.6064515, 44.8509973], [18.6064252, 44.8510067], [18.6063973, 44.8510195], [18.6063727, 44.8510311], [18.606348, 44.8510439], [18.6063283, 44.851059], [18.6063152, 44.8510765], [18.6063037, 44.8510974], [18.6062972, 44.8511172], [18.6062955, 44.851137], [18.6062955, 44.851158], [18.6063119, 44.8511789], [18.6063333, 44.8511999], [18.6063727, 44.8512348], [18.6064695, 44.8513407], [18.6064925, 44.8513593], [18.6065139, 44.8513745], [18.6065336, 44.8513873], [18.6065582, 44.8513978], [18.6065878, 44.8514082], [18.6066157, 44.8514164], [18.6066452, 44.8514257], [18.6066699, 44.851435], [18.6066928, 44.8514501], [18.6067093, 44.8514688], [18.6067208, 44.8514874], [18.606729, 44.8515118], [18.6067372, 44.8515305], [18.6067487, 44.8515502], [18.6067634, 44.8515677], [18.6067864, 44.851584], [18.6068127, 44.8515968], [18.6068373, 44.8516084], [18.606862, 44.8516189], [18.6069194, 44.8516352], [18.6069506, 44.8516422], [18.6069917, 44.851648], [18.6070475, 44.851648], [18.607082, 44.8516422], [18.6071296, 44.8516236], [18.6071526, 44.8516119], [18.6072412, 44.8515619], [18.6072938, 44.8515351], [18.6073168, 44.8515246], [18.6073463, 44.8515142], [18.6073759, 44.851506], [18.6074021, 44.8514967], [18.6074301, 44.8514909], [18.6074596, 44.8514862], [18.6074892, 44.8514839], [18.6075171, 44.8514804], [18.6075598, 44.8514792], [18.6075975, 44.8514781], [18.607632, 44.8514781], [18.6076648, 44.8514816], [18.6076928, 44.8514874], [18.6077174, 44.8514979], [18.6077338, 44.851513], [18.6077437, 44.8515316], [18.6077453, 44.8515514], [18.6077453, 44.8515747], [18.6077354, 44.8515991], [18.6077223, 44.8516224], [18.6077026, 44.8516434], [18.6076862, 44.8516608], [18.6076698, 44.8516794], [18.6076632, 44.8517016], [18.6076648, 44.8517213], [18.6076878, 44.8517644], [18.6077043, 44.8517819], [18.6077289, 44.851797], [18.6077535, 44.8518063], [18.6078143, 44.8518238], [18.6078438, 44.8518308], [18.6078717, 44.8518366], [18.6079029, 44.8518482], [18.6079276, 44.8518599], [18.6079473, 44.851875], [18.607962, 44.8518936], [18.6079735, 44.8519122], [18.6079834, 44.8519402], [18.607985, 44.8519821], [18.6079817, 44.8520054], [18.6079719, 44.8520286], [18.6079538, 44.8520508], [18.6079341, 44.8520694], [18.6079177, 44.8520857], [18.6078438, 44.8521322], [18.6078225, 44.8521485], [18.6078077, 44.852166], [18.6077666, 44.8521974], [18.6077354, 44.8522137], [18.6077075, 44.8522254], [18.6076813, 44.8522358], [18.6076287, 44.8522614], [18.6076041, 44.8522742], [18.6075828, 44.8522882], [18.6075647, 44.8523057], [18.6075548, 44.8523243], [18.6075532, 44.8523487], [18.6075532, 44.8523697], [18.6075598, 44.8523918], [18.6075696, 44.8524139], [18.6075844, 44.8524337], [18.6075992, 44.8524512], [18.6076222, 44.8524686], [18.6076501, 44.8524814], [18.6076747, 44.8524896], [18.6077404, 44.8524954], [18.6077978, 44.8524942], [18.6078274, 44.8524849], [18.607852, 44.8524733], [18.6080146, 44.8524069], [18.6080376, 44.8523976], [18.6080688, 44.8523883], [18.608095, 44.8523813], [18.6081508, 44.8523697], [18.6081837, 44.8523639], [18.6082149, 44.8523627], [18.6082412, 44.8523662], [18.6082691, 44.8523767], [18.6082888, 44.8523918], [18.6083183, 44.8524256], [18.6083265, 44.8524488], [18.6083298, 44.8524686], [18.6083249, 44.8524919], [18.6083134, 44.8525117], [18.60821, 44.8526013], [18.608187, 44.8526188], [18.6081311, 44.852649], [18.6081032, 44.8526665], [18.6080737, 44.8526805], [18.6080491, 44.8526898], [18.6080228, 44.8527026], [18.6079965, 44.8527154], [18.6079161, 44.8527992], [18.6079161, 44.8528201], [18.6079292, 44.8528725], [18.6079423, 44.8528912], [18.6079587, 44.8529086], [18.6079752, 44.8529261], [18.6079883, 44.8529435], [18.6080047, 44.852961], [18.6080211, 44.8529784], [18.6080425, 44.8529971], [18.6080655, 44.8530087], [18.6080901, 44.8530169], [18.608182, 44.8530297], [18.6082083, 44.8530308], [18.6082362, 44.8530355], [18.6082592, 44.8530436], [18.6082855, 44.8530471], [18.608338, 44.8532857], [18.6083413, 44.8533137], [18.6083249, 44.8533323], [18.6083134, 44.8533532], [18.6083035, 44.8533951], [18.6083003, 44.8534161], [18.6083003, 44.8534394], [18.6083052, 44.8534603], [18.608315, 44.853479], [18.6083331, 44.8534952], [18.6083544, 44.8535081], [18.6083856, 44.8535185], [18.6084168, 44.853522], [18.6084497, 44.8535209], [18.6084759, 44.8535162], [18.6085006, 44.8535092], [18.6085268, 44.8534987], [18.6085515, 44.8534871], [18.6085728, 44.8534743], [18.6085925, 44.8534603], [18.6087469, 44.8533323], [18.6087616, 44.8533172], [18.6087813, 44.8532962], [18.6088175, 44.8532625], [18.6088404, 44.8532497], [18.6088651, 44.8532368], [18.6088864, 44.8532252], [18.6089094, 44.8532159], [18.608939, 44.8532101], [18.6089685, 44.8532089], [18.6089964, 44.8532136], [18.6090227, 44.853224], [18.6091278, 44.8534161], [18.6091311, 44.8534382], [18.6091294, 44.8534592], [18.6091163, 44.8534766], [18.6090982, 44.8534929], [18.609049, 44.853529], [18.6090276, 44.8535441], [18.6089997, 44.8535488], [18.608939, 44.8535825], [18.6089291, 44.8536047], [18.608934, 44.8536256], [18.6089472, 44.8536466], [18.608957, 44.8536652], [18.6089505, 44.8536861], [18.6089258, 44.8536978], [18.6088996, 44.8537083], [18.60887, 44.8537164], [18.6088388, 44.8537269], [18.6088125, 44.853735], [18.608783, 44.8537502], [18.6087616, 44.853763], [18.6087551, 44.8537827], [18.6087551, 44.853827], [18.6087649, 44.8538444], [18.608783, 44.8538631], [18.6088027, 44.8538794], [18.6088306, 44.8538968], [18.6088634, 44.8539143], [18.6088881, 44.8539236], [18.6089143, 44.8539306], [18.6089505, 44.8539352], [18.6089866, 44.8539364], [18.6090145, 44.8539387], [18.6090457, 44.853941], [18.6090834, 44.8539445], [18.6091376, 44.8539504], [18.6091688, 44.8539538], [18.6092017, 44.8539608], [18.6092296, 44.8539701], [18.6092526, 44.8539841], [18.6092723, 44.8540027], [18.609287, 44.8540214], [18.6092952, 44.85404], [18.6093002, 44.8540609], [18.6093018, 44.854083], [18.609292, 44.854104], [18.6092739, 44.8541226], [18.6092542, 44.8541389], [18.6092329, 44.8541529], [18.6092115, 44.854168], [18.6091836, 44.8541808], [18.6091606, 44.8541925], [18.6091327, 44.8542006], [18.6090999, 44.8542041], [18.6090391, 44.8542041], [18.6089915, 44.8541983], [18.6089307, 44.8541983], [18.608893, 44.8542018], [18.6088634, 44.8542064], [18.6088355, 44.8542122], [18.6088092, 44.8542262], [18.6087879, 44.854239], [18.6087666, 44.8542541], [18.6087419, 44.8542704], [18.608696, 44.8543088], [18.608673, 44.8543251], [18.6086309, 44.8543898], [18.6086038, 44.8544519], [18.6085989, 44.8545105], [18.608605, 44.8545923], [18.6062264, 44.852847], [18.5969401, 44.8457148], [18.5898343, 44.8408082], [18.5886671, 44.8402791], [18.5872107, 44.8393998], [18.5859392, 44.8393598], [18.5846506, 44.8394546], [18.5828973, 44.8394382], [18.5828694, 44.8393447], [18.5827561, 44.8392309], [18.5827397, 44.8392018]]]]}}]}