{"type": "FeatureCollection", "features": [{"type": "Feature", "properties": {"name": "Općina Grude, Županija Zapadnohercegovačka, Federacija Bosne i Hercegovine, Bosna i Hercegovina / Босна и Херцеговина", "source": "OpenStreetMap relation 2528204", "licence": "ODbL 1.0"}, "geometry": {"type": "Polygon", "coordinates": [[[17.2507166, 43.4030221], [17.2507686, 43.4029463], [17.2507917, 43.4029125], [17.2510754, 43.4023749], [17.2514028, 43.4017381], [17.2516312, 43.4013721], [17.2518264, 43.4010303], [17.2519631, 43.4008743], [17.2521505, 43.4007055], [17.2523834, 43.4005533], [17.2526945, 43.4004251], [17.2532263, 43.4002832], [17.2535021, 43.4001852], [17.2539911, 43.4000039], [17.2544963, 43.3998166], [17.2550353, 43.3996379], [17.2553177, 43.3995437], [17.255467, 43.3994684], [17.2557416, 43.3993146], [17.2559145, 43.399207], [17.2563012, 43.3989226], [17.2565011, 43.3987904], [17.2569887, 43.3984883], [17.2572295, 43.3982913], [17.257839, 43.3977959], [17.2583321, 43.3973532], [17.2588348, 43.397112], [17.2588402, 43.3970574], [17.2588161, 43.3968948], [17.2591138, 43.3961453], [17.259044, 43.3961298], [17.259559, 43.3952176], [17.2602993, 43.3946135], [17.2605568, 43.3942665], [17.2611898, 43.3930893], [17.2613561, 43.392489], [17.2614419, 43.3921265], [17.2620964, 43.3896979], [17.2623217, 43.3888402], [17.2624505, 43.3879553], [17.2625953, 43.3869495], [17.2626932, 43.3861352], [17.2626622, 43.3858625], [17.2627686, 43.3848385], [17.2628842, 43.3840563], [17.2630542, 43.3834645], [17.2635532, 43.3817205], [17.2635872, 43.3816403], [17.2635959, 43.3816194], [17.2636709, 43.3813425], [17.263761, 43.3811278], [17.2638227, 43.3809483], [17.263998, 43.3804207], [17.2641215, 43.3800058], [17.2643825, 43.3790551], [17.2648798, 43.3770427], [17.2648748, 43.3769675], [17.2648765, 43.3768765], [17.2650668, 43.3759728], [17.2651903, 43.3754051], [17.2653154, 43.3748301], [17.2654389, 43.3741738], [17.2655022, 43.3738177], [17.2655243, 43.3736191], [17.2654867, 43.3734046], [17.2654438, 43.3732955], [17.2653765, 43.3730092], [17.2666991, 43.3715758], [17.2672355, 43.3713223], [17.267772, 43.3709207], [17.2681446, 43.3705067], [17.2684157, 43.3699068], [17.2687322, 43.3697898], [17.2691399, 43.3696377], [17.2692257, 43.3695052], [17.2691828, 43.3692985], [17.2692579, 43.3691191], [17.2693545, 43.3689826], [17.2694081, 43.3689085], [17.2696602, 43.368538], [17.2697782, 43.3682924], [17.2698051, 43.3681169], [17.2700304, 43.3678595], [17.2701859, 43.3676801], [17.2703522, 43.3673135], [17.2705802, 43.3669509], [17.2706938, 43.3667141], [17.2710174, 43.3662937], [17.2712293, 43.3661104], [17.2712964, 43.365818], [17.2714144, 43.3656951], [17.2716182, 43.365582], [17.2713684, 43.3652869], [17.2713366, 43.3651374], [17.2714171, 43.3649385], [17.2714466, 43.3646909], [17.2713152, 43.3644315], [17.2712508, 43.3642755], [17.2712454, 43.3641995], [17.2711998, 43.364026], [17.2713661, 43.3639246], [17.2714788, 43.3637803], [17.2715029, 43.363595], [17.2714171, 43.3633961], [17.2716987, 43.3632245], [17.2718087, 43.3631329], [17.271983, 43.3629437], [17.2721305, 43.3627916], [17.2721547, 43.3626941], [17.2720072, 43.362503], [17.2719106, 43.3624445], [17.2720984, 43.3623138], [17.2722715, 43.362238], [17.2723854, 43.362228], [17.2724417, 43.3621988], [17.272616, 43.3620857], [17.2728118, 43.3619141], [17.2729406, 43.3618439], [17.2730452, 43.3617269], [17.2731256, 43.361645], [17.2733027, 43.3613505], [17.2736862, 43.3610385], [17.2736567, 43.3609547], [17.2735038, 43.3609391], [17.2734207, 43.3609235], [17.2733697, 43.3605393], [17.2733912, 43.360356], [17.2734824, 43.3602741], [17.2735521, 43.3602253], [17.2739303, 43.3597319], [17.2740215, 43.3594979], [17.2740698, 43.3592678], [17.2741985, 43.3588661], [17.274, 43.3587452], [17.273941, 43.3586165], [17.2739142, 43.3583902], [17.2738391, 43.3580626], [17.2740805, 43.3580353], [17.2740537, 43.3572903], [17.2749442, 43.3561826], [17.2751534, 43.3561124], [17.275309, 43.3560773], [17.2754323, 43.3560617], [17.2760546, 43.3548174], [17.276237, 43.354755], [17.2763121, 43.354677], [17.2763282, 43.3546107], [17.2762585, 43.3545327], [17.2781624, 43.3504603], [17.2791982, 43.3482446], [17.2793055, 43.3483578], [17.2794557, 43.3483734], [17.2795415, 43.3483071], [17.279579, 43.3481666], [17.2795147, 43.3480769], [17.2794288, 43.3480223], [17.2817999, 43.3441719], [17.2816926, 43.3440666], [17.2816229, 43.3439885], [17.2815961, 43.3439495], [17.2817141, 43.3435087], [17.2817784, 43.3434385], [17.281875, 43.3434385], [17.2821218, 43.3434892], [17.2823177, 43.3433747], [17.2828615, 43.342497], [17.2828996, 43.342272], [17.2829425, 43.3421861], [17.2835594, 43.3416126], [17.2835272, 43.341082], [17.2835541, 43.3409962], [17.2836184, 43.3409494], [17.2837686, 43.3409221], [17.2838643, 43.3409268], [17.2839242, 43.3409377], [17.2975539, 43.3198448], [17.2976759, 43.3194584], [17.2979783, 43.3194445], [17.298215, 43.3191188], [17.2982572, 43.3190198], [17.2982906, 43.3189415], [17.2983813, 43.3189276], [17.298502, 43.3188222], [17.2982986, 43.3186843], [17.2988105, 43.3177704], [17.2997922, 43.3165526], [17.3025924, 43.313637], [17.3035473, 43.3120445], [17.303617, 43.3119742], [17.3036116, 43.3118766], [17.3055106, 43.3085978], [17.3056394, 43.308305], [17.3054945, 43.3079888], [17.3055589, 43.3076453], [17.3055267, 43.3075321], [17.3054516, 43.3074189], [17.3053712, 43.307333], [17.3061758, 43.3071183], [17.306959, 43.3063805], [17.3074472, 43.3060136], [17.3075116, 43.3059277], [17.3074526, 43.3057716], [17.3073721, 43.3055881], [17.3072675, 43.3054495], [17.307187, 43.3053304], [17.3071602, 43.3052465], [17.3072112, 43.3050123], [17.3071951, 43.3048835], [17.3071656, 43.3046648], [17.3071656, 43.304253], [17.3071977, 43.3041476], [17.307415, 43.3040363], [17.3075277, 43.3039309], [17.3075867, 43.3038294], [17.3076215, 43.3037299], [17.3076323, 43.3036577], [17.3077476, 43.3036069], [17.3079085, 43.3035464], [17.3085549, 43.3025177], [17.3089734, 43.3017311], [17.3089761, 43.3016179], [17.3090887, 43.301489], [17.30977, 43.3005931], [17.3104861, 43.299507], [17.3106927, 43.2991935], [17.3107195, 43.2988538], [17.3111755, 43.2981081], [17.3110896, 43.2980222], [17.311103, 43.2979539], [17.3111406, 43.2978367], [17.3112076, 43.297747], [17.3113096, 43.2977274], [17.3113793, 43.297706], [17.3114276, 43.2976708], [17.3114061, 43.2976162], [17.3116019, 43.297298], [17.3114893, 43.2972941], [17.3114222, 43.2972531], [17.3115134, 43.297175], [17.3115885, 43.297093], [17.3116931, 43.2969778], [17.3118031, 43.2969798], [17.3126641, 43.2959725], [17.3127472, 43.2960232], [17.3129886, 43.2958514], [17.3132193, 43.2957167], [17.3134527, 43.2955723], [17.313627, 43.2954979], [17.3139255, 43.2954017], [17.3140188, 43.2953535], [17.3140697, 43.295277], [17.3140951, 43.2951042], [17.3140561, 43.2948857], [17.3140748, 43.2948005], [17.3142003, 43.2947116], [17.3143682, 43.2946844], [17.3145971, 43.2947054], [17.3147481, 43.2947572], [17.3149075, 43.2947659], [17.3150957, 43.2947634], [17.3152043, 43.2947301], [17.3152619, 43.294635], [17.3152772, 43.2945474], [17.3152823, 43.2942301], [17.315362, 43.2941055], [17.3156387, 43.2939363], [17.3159364, 43.2938816], [17.3162502, 43.2937313], [17.3171166, 43.2935947], [17.3173043, 43.293458], [17.3173231, 43.2933858], [17.3173472, 43.2931945], [17.3174036, 43.292927], [17.3174357, 43.2926244], [17.3174974, 43.2925248], [17.3175511, 43.2924877], [17.3177071, 43.2924535], [17.3177616, 43.292429], [17.3179413, 43.2924113], [17.3180341, 43.2924004], [17.3181872, 43.292316], [17.3182695, 43.2922096], [17.3183031, 43.2921328], [17.3182521, 43.2920231], [17.3182347, 43.291964], [17.3182556, 43.2918931], [17.3182604, 43.2918433], [17.318396, 43.2918259], [17.3184845, 43.2917869], [17.3192865, 43.2914413], [17.3194608, 43.291332], [17.3195359, 43.2912539], [17.3195305, 43.2911777], [17.319493, 43.2911016], [17.3192409, 43.2909591], [17.319088, 43.2908537], [17.3189539, 43.2908146], [17.3187903, 43.2907912], [17.3187312, 43.2907912], [17.3185998, 43.2908068], [17.3184711, 43.2905159], [17.3186937, 43.2903949], [17.3187715, 43.2903402], [17.3188385, 43.2902797], [17.3189351, 43.2902074], [17.3190424, 43.2901508], [17.3191631, 43.2901254], [17.3193347, 43.290104], [17.3194233, 43.2900844], [17.3193508, 43.2899575], [17.3192543, 43.2898814], [17.3194233, 43.2898599], [17.3195949, 43.2898326], [17.3198068, 43.2897721], [17.3199731, 43.2897057], [17.3200402, 43.2895807], [17.3202601, 43.2893835], [17.3204559, 43.2892039], [17.320649, 43.2891239], [17.3207375, 43.2890751], [17.3207697, 43.2890184], [17.3208797, 43.288874], [17.3208716, 43.2888252], [17.3208046, 43.2887763], [17.3207456, 43.2887627], [17.3208046, 43.2886943], [17.3209253, 43.2886709], [17.3209602, 43.2886436], [17.3210719, 43.2885222], [17.3209885, 43.2884599], [17.3211265, 43.2884249], [17.3211694, 43.2884015], [17.3214081, 43.2882609], [17.3218372, 43.2880657], [17.3222235, 43.2879388], [17.32243, 43.2878821], [17.3226151, 43.2878099], [17.3234171, 43.2875424], [17.3234734, 43.2874916], [17.3234948, 43.2874155], [17.3235404, 43.2872945], [17.3236209, 43.287232], [17.3237202, 43.2872085], [17.3238033, 43.2871929], [17.3240045, 43.2871539], [17.3241064, 43.2870914], [17.3241493, 43.2870192], [17.3241788, 43.2869372], [17.3244922, 43.2867829], [17.3248477, 43.2867209], [17.3251074, 43.2866667], [17.3253015, 43.2866082], [17.3254193, 43.2865681], [17.3255322, 43.2865246], [17.3256412, 43.2864868], [17.3257412, 43.2864559], [17.3258569, 43.2864366], [17.3260027, 43.2864129], [17.3261466, 43.2863838], [17.326274, 43.2863624], [17.3263326, 43.2863524], [17.3263729, 43.2863514], [17.3264089, 43.2863567], [17.3267323, 43.2861171], [17.3270702, 43.2858555], [17.3277409, 43.2850859], [17.3278452, 43.2847109], [17.3278963, 43.2844087], [17.3279814, 43.2840368], [17.3280602, 43.2839283], [17.3281837, 43.2838988], [17.3283249, 43.2839006], [17.3284221, 43.2837272], [17.3284864, 43.2835984], [17.3284918, 43.2834812], [17.3284489, 43.2833289], [17.3284811, 43.2827314], [17.3285884, 43.2826299], [17.3288727, 43.2825401], [17.3290282, 43.2824541], [17.3292106, 43.282255], [17.3294252, 43.2820441], [17.3294467, 43.2819465], [17.3294145, 43.2818254], [17.3293126, 43.2817317], [17.3292133, 43.2812541], [17.3294219, 43.2804186], [17.3295057, 43.2802633], [17.3295406, 43.2800176], [17.3297688, 43.2794765], [17.3299334, 43.2787217], [17.3300327, 43.2781777], [17.3300636, 43.2779903], [17.3301046, 43.2778755], [17.3301304, 43.2776899], [17.3306376, 43.2778732], [17.3335022, 43.2789316], [17.333985, 43.2795681], [17.3341368, 43.2798823], [17.3351222, 43.2819504], [17.335369, 43.2828408], [17.3354441, 43.2833601], [17.3355621, 43.2839967], [17.3358303, 43.2844965], [17.3362702, 43.2851448], [17.3368066, 43.2857696], [17.3375308, 43.2864764], [17.3388076, 43.2872652], [17.33958, 43.2874604], [17.3402506, 43.2874838], [17.3404598, 43.2874565], [17.3404384, 43.287558], [17.340492, 43.287683], [17.3405939, 43.2877611], [17.3407441, 43.2877767], [17.3408621, 43.2877767], [17.3425627, 43.2888583], [17.3449874, 43.2909513], [17.3514998, 43.2905608], [17.3624754, 43.2876713], [17.36761, 43.2868977], [17.3899868, 43.2878503], [17.3991895, 43.2853439], [17.3993128, 43.2852854], [17.3995918, 43.2851526], [17.4046116, 43.2886949], [17.4058521, 43.2893191], [17.4059808, 43.2894206], [17.4061793, 43.2894675], [17.4064046, 43.2894909], [17.4066353, 43.2895456], [17.4068981, 43.2896081], [17.4071127, 43.2897447], [17.4072415, 43.2898736], [17.4073756, 43.2899517], [17.4076492, 43.2900181], [17.4079174, 43.2900727], [17.408148, 43.2901469], [17.4084163, 43.2902758], [17.4085182, 43.2903656], [17.4085933, 43.290592], [17.4086523, 43.2907717], [17.4086952, 43.2908849], [17.4090493, 43.2910645], [17.4095643, 43.291209], [17.409811, 43.2913671], [17.4099129, 43.2914647], [17.4099505, 43.2915389], [17.4099264, 43.2916814], [17.4098378, 43.2918122], [17.4096984, 43.2919548], [17.4096635, 43.2920641], [17.4096903, 43.29223], [17.4098271, 43.2923921], [17.4100202, 43.2925444], [17.4102294, 43.2927357], [17.4103314, 43.292847], [17.4103984, 43.2929387], [17.4104547, 43.2932179], [17.4105218, 43.2934951], [17.4105272, 43.2937528], [17.410503, 43.294032], [17.4103796, 43.2941608], [17.4103743, 43.2943365], [17.4104011, 43.2944693], [17.4104118, 43.294645], [17.4104065, 43.2947836], [17.4105352, 43.2948949], [17.4106613, 43.2949085], [17.41079, 43.2949944], [17.4108168, 43.2951076], [17.4108785, 43.2952951], [17.4109429, 43.2953692], [17.4111897, 43.2954961], [17.4113318, 43.2955586], [17.4114928, 43.2955391], [17.4116564, 43.2954864], [17.4118549, 43.29542], [17.4119997, 43.2953888], [17.4121499, 43.2953888], [17.4122706, 43.2953985], [17.4124691, 43.295377], [17.4126407, 43.2954278], [17.4128392, 43.2954317], [17.4131155, 43.2954083], [17.4132147, 43.2953751], [17.4132872, 43.2953146], [17.4134937, 43.2951467], [17.4136224, 43.2951311], [17.4136788, 43.2951408], [17.4139443, 43.295217], [17.4142581, 43.295338], [17.4143895, 43.2954161], [17.4143976, 43.2955039], [17.4144217, 43.2955488], [17.4144566, 43.2955762], [17.4146765, 43.2955196], [17.4150655, 43.2953829], [17.4154088, 43.2952697], [17.4156113, 43.2951701], [17.4156824, 43.2951369], [17.4157628, 43.2950559], [17.4158353, 43.2949798], [17.416074, 43.2947436], [17.416132, 43.2946823], [17.4162953, 43.2947738], [17.4163394, 43.2948302], [17.4163932, 43.2948988], [17.4164575, 43.2949905], [17.4165515, 43.2950833], [17.4171905, 43.2956042], [17.4174016, 43.2957762], [17.4177046, 43.2960232], [17.4180159, 43.296277], [17.4195421, 43.2974053], [17.4209154, 43.298803], [17.4206176, 43.2989729], [17.420851, 43.2992754], [17.4212104, 43.2996502], [17.4215054, 43.2999508], [17.4218595, 43.3003217], [17.4221277, 43.3005677], [17.4222618, 43.3006419], [17.4223584, 43.3007239], [17.4226052, 43.3010674], [17.4227983, 43.3014149], [17.4229807, 43.3016413], [17.4230879, 43.3017779], [17.4232274, 43.3018267], [17.4233954, 43.3018716], [17.4236512, 43.3019399], [17.4237505, 43.3019829], [17.4238738, 43.3020473], [17.4240616, 43.3023011], [17.4241796, 43.3024884], [17.424252, 43.3027032], [17.424354, 43.302871], [17.424531, 43.3029881], [17.424649, 43.3030799], [17.4247885, 43.303199], [17.4249762, 43.3033453], [17.4252096, 43.3035581], [17.425253, 43.3036104], [17.4252793, 43.303642], [17.4254993, 43.3041691], [17.4256448, 43.3044768], [17.4258556, 43.3049225], [17.4258694, 43.3049518], [17.4261859, 43.3054514], [17.4262905, 43.3054124], [17.4263898, 43.3053753], [17.4264783, 43.3053597], [17.4265265, 43.3053636], [17.4265641, 43.3053773], [17.4267653, 43.3055666], [17.4269852, 43.3057716], [17.4270979, 43.3059589], [17.4272749, 43.3061912], [17.427417, 43.3063591], [17.4275163, 43.3065211], [17.4275449, 43.3065489], [17.4275807, 43.3065835], [17.4277201, 43.3066694], [17.4278623, 43.3067494], [17.4279777, 43.3067887], [17.4279577, 43.3068908], [17.4279105, 43.3069678], [17.4278397, 43.3070165], [17.427797, 43.3070991], [17.4276544, 43.3072283], [17.427602, 43.3073056], [17.427602, 43.3073797], [17.4276675, 43.3075015], [17.427806, 43.3076531], [17.4281573, 43.3079322], [17.4284658, 43.3081196], [17.4287447, 43.3082191], [17.4289888, 43.3083304], [17.4291041, 43.3084084], [17.4291551, 43.3084846], [17.4292624, 43.3085978], [17.4295601, 43.3087305], [17.4297145, 43.308813], [17.4298122, 43.3088652], [17.4299008, 43.3089315], [17.4300724, 43.309156], [17.4301904, 43.3094116], [17.4302843, 43.3098937], [17.430279, 43.3100557], [17.4303487, 43.3101338], [17.4305499, 43.3104402], [17.4307859, 43.3107213], [17.4310273, 43.3109398], [17.4311453, 43.3111272], [17.430523, 43.312103], [17.4301046, 43.31279], [17.4303192, 43.3136409], [17.430743, 43.3142693], [17.432701, 43.3139219], [17.4350238, 43.3133833], [17.4351847, 43.3133248], [17.4352534, 43.3132482], [17.4369335, 43.3124114], [17.4372446, 43.312185], [17.4375182, 43.311861], [17.4376845, 43.3116424], [17.4378562, 43.3114434], [17.4379367, 43.3112482], [17.4380279, 43.310811], [17.4381351, 43.3105105], [17.4381942, 43.3101709], [17.4383014, 43.3098235], [17.4382746, 43.3095932], [17.4380332, 43.3091911], [17.4378616, 43.3089764], [17.4379749, 43.3088415], [17.43806, 43.3087402], [17.4383658, 43.3085099], [17.4387199, 43.3083148], [17.4391007, 43.3081235], [17.439206, 43.3080541], [17.4396667, 43.3077507], [17.4399322, 43.3076043], [17.4401827, 43.3074393], [17.4404123, 43.3072881], [17.4407476, 43.3070324], [17.4408549, 43.3068724], [17.4410802, 43.3064781], [17.4411339, 43.3062712], [17.4414504, 43.3055881], [17.4415684, 43.3053773], [17.441681, 43.3052563], [17.4426881, 43.3042089], [17.4429685, 43.3039173], [17.4432347, 43.3035746], [17.4433172, 43.3034683], [17.4436176, 43.3031677], [17.4447817, 43.3025275], [17.4456614, 43.3022035], [17.4457687, 43.302305], [17.4470079, 43.3019185], [17.4472868, 43.3018638], [17.4473941, 43.3018482], [17.4474102, 43.3016218], [17.4482256, 43.3014227], [17.4483832, 43.3014011], [17.4489391, 43.3013251], [17.4490532, 43.3013126], [17.4494755, 43.3012665], [17.4503338, 43.3011416], [17.450366, 43.3012275], [17.4504304, 43.3012158], [17.4505109, 43.301083], [17.4506879, 43.3007199], [17.4508756, 43.3004701], [17.4511868, 43.3001578], [17.4514496, 43.2999977], [17.4521416, 43.2996737], [17.4522447, 43.2997007], [17.4522757, 43.2997088], [17.4524824, 43.2996439], [17.4529839, 43.2994863], [17.4531501, 43.2995761], [17.4532682, 43.299658], [17.4536866, 43.2996229], [17.4540353, 43.2995409], [17.4567175, 43.2987015], [17.4602097, 43.2975225], [17.4604243, 43.29746], [17.4605638, 43.2973858], [17.4621302, 43.2968978], [17.4623716, 43.2967963], [17.4626881, 43.2966713], [17.4635732, 43.2965074], [17.4639595, 43.2964995], [17.4643832, 43.296523], [17.4644691, 43.2963902], [17.464453, 43.2962184], [17.464453, 43.2960193], [17.4645, 43.2959485], [17.4646139, 43.2957772], [17.4648499, 43.2955937], [17.4654186, 43.2952814], [17.4657404, 43.2951604], [17.4663734, 43.294969], [17.4700212, 43.2932316], [17.4703029, 43.2929992], [17.4704477, 43.2928899], [17.470901, 43.2926869], [17.4713087, 43.2925268], [17.4717915, 43.2923218], [17.4723172, 43.2921617], [17.4722207, 43.292068], [17.4721751, 43.2920075], [17.4721295, 43.2917908], [17.4720114, 43.2913886], [17.4720058, 43.2912878], [17.4721318, 43.2913428], [17.4723457, 43.2913984], [17.4728132, 43.2914692], [17.4729422, 43.291496], [17.4730253, 43.2915624], [17.4731111, 43.291701], [17.4731755, 43.2919294], [17.4735779, 43.2918786], [17.4736771, 43.2918122], [17.4737066, 43.2917205], [17.4737227, 43.2916229], [17.4738072, 43.2915994], [17.4738783, 43.2915936], [17.4739815, 43.2916131], [17.4741961, 43.2915623], [17.4745059, 43.2915116], [17.4747983, 43.2914628], [17.4763566, 43.2910801], [17.4763566, 43.2907365], [17.4764371, 43.2906858], [17.4758899, 43.2898619], [17.4753427, 43.2889442], [17.4773812, 43.2884366], [17.4779069, 43.288382], [17.4785936, 43.2883585], [17.4791193, 43.2880383], [17.4796557, 43.2878548], [17.480498, 43.2877494], [17.4809915, 43.2875658], [17.4814904, 43.2874409], [17.4829549, 43.2870465], [17.4834537, 43.2869098], [17.4838132, 43.2868669], [17.4839097, 43.286863], [17.4838829, 43.2867888], [17.4839151, 43.2866911], [17.4849578, 43.2864125], [17.4864593, 43.2860113], [17.4874424, 43.2875105], [17.4891262, 43.2875105], [17.4913713, 43.2895533], [17.4941777, 43.2903704], [17.494739, 43.2909832], [17.494739, 43.2930259], [17.4950196, 43.2948643], [17.4964228, 43.2960898], [17.4981066, 43.2967026], [17.4997905, 43.2964983], [17.5011937, 43.2956813], [17.504, 43.2952728], [17.5065258, 43.2958855], [17.5076483, 43.2969068], [17.5090515, 43.298745], [17.5101741, 43.3009917], [17.5112966, 43.3011959], [17.5129804, 43.303034], [17.511016, 43.3038509], [17.5084902, 43.3050763], [17.5062451, 43.3060974], [17.5042807, 43.3079354], [17.5023162, 43.3093648], [17.5000711, 43.3109985], [17.4967034, 43.3134489], [17.494739, 43.3144698], [17.4922132, 43.3152866], [17.4896875, 43.3173285], [17.487723, 43.3191661], [17.4866005, 43.3212078], [17.4863198, 43.3222286], [17.4882843, 43.3234536], [17.4899681, 43.3242703], [17.4919326, 43.3254952], [17.4944583, 43.3267201], [17.4961422, 43.3281492], [17.497826, 43.3281492], [17.5000711, 43.3291699], [17.5014743, 43.3310071], [17.5028775, 43.3320278], [17.5048419, 43.3326402], [17.5065258, 43.3348856], [17.5070117, 43.3357337], [17.499842, 43.3398921], [17.4997616, 43.3399662], [17.4994826, 43.3401223], [17.4993646, 43.3401944], [17.4992895, 43.3402354], [17.499193, 43.340292], [17.4993807, 43.3405475], [17.4998018, 43.3411171], [17.4999869, 43.3410996], [17.500062, 43.3410918], [17.5000647, 43.3411893], [17.5000539, 43.341279], [17.4999976, 43.3415151], [17.499944, 43.3418194], [17.4999118, 43.3419325], [17.4999252, 43.3422037], [17.5000164, 43.3422681], [17.500349, 43.3425626], [17.5001643, 43.3431519], [17.5000557, 43.3432695], [17.4999233, 43.3434684], [17.499898, 43.3434969], [17.4999359, 43.3435574], [17.5000086, 43.3437065], [17.5001203, 43.343686], [17.5001534, 43.3436761], [17.5002471, 43.3438559], [17.5005984, 43.3445035], [17.5008935, 43.3448], [17.501151, 43.3450341], [17.5011992, 43.3455412], [17.5014621, 43.3460445], [17.5017303, 43.3466296], [17.5017112, 43.3468136], [17.5016499, 43.3474059], [17.5015747, 43.3479677], [17.5015318, 43.3485021], [17.5016284, 43.3490131], [17.5015372, 43.349649], [17.5015344, 43.3497151], [17.5015157, 43.3501483], [17.5012529, 43.3507607], [17.5010383, 43.3513614], [17.5009042, 43.3514804], [17.5008479, 43.3514531], [17.500754, 43.351459], [17.5006816, 43.3514902], [17.5006387, 43.3515389], [17.5006038, 43.3516579], [17.5006149, 43.3517501], [17.5006306, 43.3518803], [17.5006199, 43.3520402], [17.5006046, 43.3522561], [17.5005984, 43.3523444], [17.5005448, 43.3525668], [17.5003892, 43.3532728], [17.5002658, 43.3534054], [17.5002087, 43.353518], [17.5001907, 43.3535536], [17.50018, 43.3536629], [17.5000566, 43.3538891], [17.4999225, 43.354127], [17.4997401, 43.3541777], [17.4995953, 43.3542597], [17.4997508, 43.3544625], [17.4999601, 43.3547394], [17.500062, 43.3548603], [17.5002766, 43.3551139], [17.5007111, 43.3554064], [17.5009525, 43.3555663], [17.5011939, 43.3556678], [17.5015372, 43.3557965], [17.5012261, 43.3558628], [17.5008398, 43.3560188], [17.5006413, 43.3560656], [17.5004911, 43.3561397], [17.5002122, 43.356284], [17.5000727, 43.3563815], [17.4998903, 43.356483], [17.4997616, 43.3565493], [17.4996006, 43.3566312], [17.4993914, 43.3567209], [17.4992359, 43.356795], [17.4990642, 43.3568613], [17.4990642, 43.3570017], [17.4991178, 43.3571441], [17.4991474, 43.3573157], [17.4991428, 43.3573512], [17.4991259, 43.3574834], [17.4990937, 43.3577662], [17.4990776, 43.3579164], [17.4990964, 43.3579788], [17.4991554, 43.358086], [17.4991956, 43.3581367], [17.4992251, 43.358164], [17.4992788, 43.3581796], [17.4994129, 43.358164], [17.4994826, 43.3581679], [17.4995202, 43.3582849], [17.4995324, 43.3583338], [17.4995524, 43.3584136], [17.4995563, 43.3584527], [17.4995738, 43.3586282], [17.4995524, 43.3587452], [17.4995524, 43.3588076], [17.4996006, 43.3588895], [17.4996865, 43.358948], [17.4998313, 43.3590377], [17.4999171, 43.3591469], [17.5001103, 43.3595252], [17.4998957, 43.3595642], [17.4994934, 43.3596071], [17.4992144, 43.3596656], [17.4992144, 43.3598528], [17.4992646, 43.3600257], [17.4992949, 43.3601298], [17.4992895, 43.3602585], [17.4993646, 43.3604301], [17.4993485, 43.3605237], [17.4992305, 43.3606485], [17.4990803, 43.3607811], [17.4989462, 43.3608903], [17.4988496, 43.3610034], [17.4986833, 43.3611282], [17.4987315, 43.3611893], [17.4988711, 43.3613661], [17.4989408, 43.3614402], [17.4990696, 43.361526], [17.4989784, 43.3615572], [17.498796, 43.3616391], [17.4986243, 43.3617327], [17.4984564, 43.3617858], [17.4983776, 43.3618107], [17.4982327, 43.3618419], [17.498045, 43.3619238], [17.4979269, 43.3619979], [17.4978626, 43.362072], [17.4978787, 43.362189], [17.4977875, 43.3622709], [17.4976909, 43.3623177], [17.497566, 43.3624025], [17.49753, 43.3624269], [17.4975018, 43.3624474], [17.497471, 43.3624698], [17.4973476, 43.3625478], [17.4972188, 43.3625829], [17.4971491, 43.3626102], [17.4969721, 43.3627429], [17.4969614, 43.3629574], [17.4969828, 43.3630549], [17.4970552, 43.3631602], [17.4971089, 43.3632212], [17.4972081, 43.3633337], [17.4974785, 43.3635739], [17.4975219, 43.3636106], [17.4975082, 43.3636575], [17.4973905, 43.3640611], [17.4972618, 43.3644003], [17.4972335, 43.364454], [17.4970955, 43.3647162], [17.4967468, 43.3651101], [17.4966073, 43.365231], [17.4959153, 43.365738], [17.4954754, 43.3661046], [17.4953628, 43.3662099], [17.4952447, 43.3662879], [17.4951428, 43.3663659], [17.4950945, 43.3665063], [17.495057, 43.3666779], [17.4949819, 43.36706], [17.4948853, 43.3674734], [17.4947298, 43.3676099], [17.4946171, 43.3677581], [17.4945259, 43.3679024], [17.4944562, 43.3681208], [17.4944347, 43.3682846], [17.4943473, 43.3684916], [17.4940807, 43.369123], [17.4936032, 43.3699146], [17.4933672, 43.37048], [17.4932867, 43.370753], [17.4932975, 43.3708934], [17.4931258, 43.3710182], [17.4928039, 43.3711898], [17.4919295, 43.3715446], [17.4917364, 43.3716148], [17.4914503, 43.371733], [17.4888337, 43.3712575], [17.488565, 43.3712087], [17.4880674, 43.3709917], [17.4871618, 43.3705967], [17.4849167, 43.3697807], [17.4842358, 43.3695057], [17.4823909, 43.3687606], [17.4806025, 43.3685345], [17.4796459, 43.3684136], [17.4759362, 43.3679446], [17.4745331, 43.3671285], [17.4722866, 43.3672919], [17.4717267, 43.3673326], [17.4698687, 43.367087], [17.4686397, 43.3669245], [17.4683749, 43.366732], [17.4681791, 43.3665897], [17.4661139, 43.3650884], [17.4638688, 43.3663125], [17.4629768, 43.3666151], [17.4596593, 43.3677406], [17.4593786, 43.3679446], [17.4587914, 43.3682434], [17.4565722, 43.3693727], [17.4560944, 43.3695174], [17.4560388, 43.3695343], [17.4536258, 43.3702651], [17.4534439, 43.3703202], [17.4532046, 43.3703927], [17.4525333, 43.3706179], [17.4495563, 43.3716167], [17.4472235, 43.3731583], [17.4464693, 43.3736567], [17.4475918, 43.3752886], [17.4495563, 43.3767165], [17.4500701, 43.377837], [17.4501691, 43.3780528], [17.4502627, 43.3782569], [17.4503982, 43.3785523], [17.4503905, 43.3786251], [17.4503591, 43.3789217], [17.4502807, 43.3796625], [17.4502489, 43.3799632], [17.4502177, 43.3802582], [17.4501176, 43.3812039], [17.4487555, 43.3824767], [17.4485015, 43.3827141], [17.4483871, 43.382821], [17.4482776, 43.3829233], [17.4481531, 43.3830396], [17.4473112, 43.3856911], [17.4461886, 43.3863029], [17.4458348, 43.3864315], [17.4454013, 43.386589], [17.4443198, 43.3869819], [17.4440688, 43.3870732], [17.4432863, 43.3873575], [17.4431622, 43.3874026], [17.4423093, 43.3877125], [17.4422277, 43.3877421], [17.4420743, 43.3877979], [17.4407718, 43.3882712], [17.4406602, 43.3883117], [17.4402493, 43.388461], [17.4400146, 43.3885463], [17.4386114, 43.3887503], [17.4344019, 43.3891581], [17.4338406, 43.3899739], [17.4324374, 43.3914015], [17.4321701, 43.3941201], [17.4321567, 43.3942565], [17.4312069, 43.3951767], [17.4304729, 43.3958878], [17.4304608, 43.3959054], [17.4299823, 43.3966008], [17.4297165, 43.396987], [17.429631, 43.3971113], [17.4285085, 43.3991504], [17.4273859, 43.4007817], [17.4265721, 43.4014716], [17.4263517, 43.4016584], [17.4262319, 43.4017509], [17.4261062, 43.4018596], [17.4257021, 43.402209], [17.4231763, 43.4030245], [17.4231763, 43.4050634], [17.4223344, 43.4071023], [17.4209312, 43.40751], [17.4192474, 43.4085294], [17.4177002, 43.4083083], [17.4137332, 43.4077415], [17.4135302, 43.4077125], [17.4114899, 43.4074209], [17.4109617, 43.4051819], [17.4110556, 43.4051508], [17.4111521, 43.4050845], [17.4111602, 43.4049656], [17.4111199, 43.404837], [17.4107444, 43.4045252], [17.4107927, 43.4043655], [17.4106482, 43.4038186], [17.4106908, 43.4035431], [17.4106666, 43.4034846], [17.4104923, 43.4032605], [17.410554, 43.4030345], [17.4105835, 43.4027578], [17.4101678, 43.4023544], [17.4096665, 43.4022133], [17.4096259, 43.4021459], [17.4094623, 43.4021517], [17.4093175, 43.4021829], [17.4093416, 43.4022628], [17.4091351, 43.4023602], [17.4089259, 43.4025863], [17.4089795, 43.402674], [17.408655, 43.4028377], [17.4083251, 43.4029799], [17.4079683, 43.4031475], [17.4077806, 43.4033112], [17.4076974, 43.4034885], [17.4074721, 43.4035334], [17.4072114, 43.4036403], [17.4069035, 43.4038315], [17.4067265, 43.404194], [17.4065736, 43.4043596], [17.4063697, 43.4044473], [17.4060962, 43.4045136], [17.40571, 43.4045411], [17.4051949, 43.4046246], [17.4047202, 43.4046597], [17.4045056, 43.4046967], [17.4043876, 43.4048546], [17.4043125, 43.404989], [17.4021962, 43.4057587], [17.4016913, 43.4059705], [17.4010992, 43.4062323], [17.4005198, 43.4063921], [17.4003938, 43.4063589], [17.4002087, 43.4060432], [17.4000156, 43.4060822], [17.3995033, 43.4062673], [17.3989508, 43.4064505], [17.3983741, 43.4066064], [17.398012, 43.4068539], [17.3976684, 43.4071373], [17.3972154, 43.40738], [17.3965579, 43.4074984], [17.3963732, 43.4076372], [17.3955487, 43.4079271], [17.3951313, 43.4081672], [17.3948792, 43.4084049], [17.394104, 43.40829], [17.3938841, 43.4085862], [17.3936373, 43.4087654], [17.39342, 43.4087342], [17.3932806, 43.4086719], [17.3931894, 43.4086466], [17.3931357, 43.4087537], [17.3930338, 43.4088804], [17.3927012, 43.4091668], [17.3924008, 43.4095273], [17.3921889, 43.4097299], [17.3920027, 43.4097753], [17.3898843, 43.4106297], [17.3882782, 43.4073079], [17.388238, 43.4070897], [17.3881495, 43.4070215], [17.3879805, 43.4069864], [17.3878464, 43.4069874], [17.3876801, 43.4069932], [17.3875151, 43.4069551], [17.3863327, 43.4055502], [17.3858415, 43.4051586], [17.3855799, 43.4051021], [17.3853121, 43.4050796], [17.3851092, 43.4051137], [17.3849813, 43.4051747], [17.3803833, 43.4057047], [17.3803711, 43.4056818], [17.3803255, 43.4056662], [17.3802799, 43.4056827], [17.3802571, 43.4057139], [17.3776252, 43.4059381], [17.3718739, 43.4064564], [17.3708117, 43.4067964], [17.3705113, 43.4068061], [17.3701452, 43.4067126], [17.3701264, 43.4065976], [17.3698609, 43.4065226], [17.3696046, 43.4063398], [17.3694746, 43.4061621], [17.368948, 43.405875], [17.3673356, 43.4053866], [17.3672578, 43.4052667], [17.3666248, 43.4051167], [17.3665269, 43.4049315], [17.3664075, 43.404688], [17.3663525, 43.4045818], [17.3662613, 43.4044736], [17.3662654, 43.4044093], [17.3664142, 43.4042495], [17.3664705, 43.404155], [17.3664665, 43.4040702], [17.3663297, 43.4039085], [17.3661433, 43.4037604], [17.3658992, 43.4035606], [17.3657209, 43.4034252], [17.3655023, 43.4032878], [17.3656565, 43.4030286], [17.3652403, 43.402914], [17.3605666, 43.4040959], [17.3622394, 43.4101294], [17.3612738, 43.4134885], [17.3600185, 43.4173735], [17.3574918, 43.4187022], [17.3503049, 43.4209689], [17.3429704, 43.4184762], [17.3279393, 43.4227076], [17.3319679, 43.4247725], [17.3297363, 43.4262335], [17.3284221, 43.4275815], [17.3279124, 43.4279594], [17.3273224, 43.430032], [17.327435, 43.4301644], [17.3282477, 43.4328154], [17.3268905, 43.4342373], [17.3270997, 43.4346034], [17.3268181, 43.4349248], [17.3264399, 43.4347826], [17.3212016, 43.4394667], [17.3178863, 43.4373165], [17.3175752, 43.437149], [17.3177201, 43.4370166], [17.3179775, 43.436779], [17.318058, 43.4366699], [17.318117, 43.4364284], [17.3179668, 43.4362453], [17.3177952, 43.4362103], [17.3173606, 43.4362181], [17.3169529, 43.4362298], [17.3163307, 43.4362804], [17.3102103, 43.4315487], [17.3095286, 43.4320889], [17.3086917, 43.4328407], [17.3079944, 43.4336588], [17.3073506, 43.4346755], [17.3071361, 43.4349131], [17.3063528, 43.4354585], [17.3039764, 43.4366972], [17.3034507, 43.4370322], [17.3030537, 43.4372581], [17.3028123, 43.4375152], [17.3028123, 43.4380333], [17.3026943, 43.4386175], [17.3025924, 43.4391239], [17.3024744, 43.4393304], [17.3021471, 43.4396264], [17.3015624, 43.4400393], [17.3009455, 43.4405612], [17.3000497, 43.441235], [17.2999585, 43.4412935], [17.2998083, 43.4413013], [17.299583, 43.4412467], [17.2991162, 43.4409234], [17.2988909, 43.4408066], [17.2984672, 43.4406352], [17.2932073, 43.4440257], [17.2855638, 43.444697], [17.2852492, 43.4435759], [17.2847235, 43.4425204], [17.2846913, 43.4414609], [17.2849837, 43.4403664], [17.2848845, 43.4402885], [17.2849246, 43.4399984], [17.2849113, 43.4398016], [17.2849756, 43.4392661], [17.2848871, 43.4391629], [17.284804, 43.4390382], [17.2848013, 43.4389214], [17.2847396, 43.4380333], [17.2842407, 43.4364284], [17.2840047, 43.4355598], [17.2838378, 43.4346001], [17.2828996, 43.4324044], [17.2823793, 43.4311656], [17.2814887, 43.4300008], [17.2810918, 43.4294632], [17.2800726, 43.4283042], [17.2787261, 43.4265842], [17.2769692, 43.4245992], [17.2766849, 43.424229], [17.2758018, 43.4227905], [17.2756897, 43.4226387], [17.2754494, 43.422435], [17.2752815, 43.4222606], [17.2752227, 43.4221997], [17.2751965, 43.4221661], [17.275175, 43.4221386], [17.2744453, 43.4211433], [17.2739518, 43.4204263], [17.2727179, 43.418897], [17.2725463, 43.418897], [17.2724026, 43.418962], [17.2720689, 43.4189944], [17.2713715, 43.4174904], [17.2713476, 43.4174384], [17.2713125, 43.4173618], [17.2711837, 43.4172566], [17.2710872, 43.4171592], [17.2703308, 43.4156473], [17.2701859, 43.4156629], [17.2700143, 43.4154758], [17.2697943, 43.4152303], [17.269628, 43.4151719], [17.2687429, 43.4148952], [17.2681682, 43.4147262], [17.2676432, 43.4145718], [17.2672409, 43.4143809], [17.2661008, 43.4134941], [17.2656863, 43.4131664], [17.2653728, 43.4129224], [17.2652005, 43.4127588], [17.2649947, 43.4125137], [17.2649117, 43.4124481], [17.2646069, 43.4126351], [17.264092, 43.4121207], [17.2638076, 43.4117622], [17.2635019, 43.4111816], [17.2623217, 43.4102541], [17.2622198, 43.4103203], [17.2610342, 43.4091668], [17.2609377, 43.409237], [17.2608396, 43.4091895], [17.2608278, 43.4091307], [17.2606168, 43.4089431], [17.2604312, 43.4087433], [17.260303, 43.4085312], [17.2601545, 43.4082296], [17.259925, 43.4077834], [17.2596044, 43.4071239], [17.2594883, 43.4068588], [17.2589207, 43.4062323], [17.2581536, 43.4056009], [17.2565524, 43.4048875], [17.2560668, 43.4055035], [17.2559273, 43.4054138], [17.2555572, 43.4050592], [17.2548759, 43.4042252], [17.2542375, 43.403321], [17.2530681, 43.4037575], [17.2519523, 43.4042252], [17.2515949, 43.4043757], [17.2512871, 43.4039328], [17.2507166, 43.4030221]]]}}]}