{"type": "FeatureCollection", "features": [{"type": "Feature", "properties": {"name": "Općina Hadžići, Kanton Sarajevo, Federacija Bosne i Hercegovine, Bosna i Hercegovina / Босна и Херцеговина", "source": "OpenStreetMap relation 2528205", "licence": "ODbL 1.0"}, "geometry": {"type": "Polygon", "coordinates": [[[18.0009554, 43.8013058], [18.0052968, 43.7936391], [18.0070774, 43.7904945], [18.0090529, 43.7899399], [18.0107165, 43.7882694], [18.010794, 43.7869164], [18.0105349, 43.7864675], [18.0110837, 43.7842883], [18.0111638, 43.7825317], [18.013934, 43.7776168], [18.0151905, 43.7765661], [18.0149662, 43.7748945], [18.0147829, 43.7728956], [18.0162419, 43.7716096], [18.0183505, 43.7671027], [18.018347, 43.7650785], [18.018866, 43.7637092], [18.0217768, 43.7608563], [18.0218494, 43.7607851], [18.0285715, 43.7566179], [18.0342654, 43.7520183], [18.0348822, 43.7509713], [18.034061, 43.7493655], [18.0359976, 43.749256], [18.0360031, 43.7473377], [18.0369883, 43.746807], [18.037191, 43.7456154], [18.0388445, 43.743645], [18.041213, 43.7431516], [18.0445321, 43.741811], [18.0465489, 43.74064], [18.0496453, 43.7406935], [18.0496793, 43.7414081], [18.0503574, 43.7415954], [18.0502189, 43.7427136], [18.0551593, 43.7416301], [18.0573454, 43.741378], [18.0571834, 43.7434195], [18.0588569, 43.7434842], [18.0590017, 43.7426474], [18.059702, 43.7425776], [18.0597038, 43.7420071], [18.0593781, 43.7417971], [18.0593953, 43.7403452], [18.0604822, 43.7396255], [18.0604382, 43.7374942], [18.0594822, 43.7345809], [18.0605625, 43.732457], [18.0611, 43.7307997], [18.0616815, 43.7289106], [18.0643733, 43.7263515], [18.0642924, 43.7239739], [18.0580673, 43.7212746], [18.0563649, 43.7210663], [18.0535418, 43.7208996], [18.0509883, 43.7208313], [18.0482206, 43.7209301], [18.0439816, 43.7212115], [18.0367018, 43.7214236], [18.0348461, 43.7184401], [18.0445639, 43.7112837], [18.0567523, 43.7073106], [18.0589957, 43.7070316], [18.0623836, 43.7063468], [18.0611783, 43.7052405], [18.059484, 43.7038563], [18.0555832, 43.7004675], [18.06213, 43.6928592], [18.0641495, 43.6919697], [18.0679321, 43.6900233], [18.0709764, 43.6903087], [18.0739581, 43.6908172], [18.0763952, 43.6907929], [18.07742, 43.6905845], [18.0776642, 43.6899703], [18.0792704, 43.6900104], [18.081942, 43.6926431], [18.085581, 43.6936668], [18.087167, 43.6947881], [18.0888862, 43.6951487], [18.0973863, 43.698534], [18.1111458, 43.6954348], [18.1166238, 43.6887471], [18.1200567, 43.6892384], [18.1214691, 43.6894786], [18.1231159, 43.6896639], [18.1250156, 43.6900443], [18.1268122, 43.6904309], [18.1279348, 43.6905858], [18.1297314, 43.6921288], [18.1322867, 43.6948346], [18.1339688, 43.6962884], [18.1360605, 43.6985831], [18.1361531, 43.7014382], [18.1361716, 43.7037766], [18.1361479, 43.7055384], [18.13946, 43.7045537], [18.1421721, 43.7036117], [18.1451943, 43.7026976], [18.1497673, 43.700342], [18.1530557, 43.6984666], [18.1559801, 43.6972919], [18.1598517, 43.6955565], [18.1619198, 43.6945767], [18.1643014, 43.693219], [18.1660021, 43.6920856], [18.1684795, 43.6925043], [18.1719563, 43.6928627], [18.1748363, 43.6933643], [18.1777663, 43.6936863], [18.1798016, 43.6939709], [18.1818855, 43.6941856], [18.1833745, 43.6952267], [18.1844648, 43.696088], [18.185904, 43.6973442], [18.1876899, 43.6984934], [18.189477, 43.7000014], [18.1923544, 43.7019746], [18.1944374, 43.7026208], [18.1963238, 43.7033024], [18.1988056, 43.7041272], [18.2018332, 43.7033726], [18.2046128, 43.7028687], [18.2080397, 43.7022222], [18.2104728, 43.7014685], [18.2121594, 43.7014693], [18.2141941, 43.7013272], [18.2168186, 43.7010041], [18.2193008, 43.7007211], [18.2222852, 43.7002639], [18.2247862, 43.6999501], [18.2271135, 43.6997921], [18.2299164, 43.6997803], [18.2321526, 43.6998373], [18.2347981, 43.6999153], [18.2371292, 43.6999341], [18.2388195, 43.6999223], [18.2404604, 43.7000094], [18.2424774, 43.7000367], [18.2419894, 43.7016327], [18.2410303, 43.7045913], [18.2396745, 43.7072627], [18.2384715, 43.7108724], [18.237219, 43.7137651], [18.236111, 43.7162927], [18.2345072, 43.7191339], [18.2331721, 43.7219218], [18.2333914, 43.7233649], [18.2334577, 43.7250886], [18.2339373, 43.7266092], [18.2340075, 43.728118], [18.2340531, 43.7291608], [18.2343673, 43.7303018], [18.2346529, 43.7320582], [18.234744, 43.7335787], [18.2350089, 43.7351827], [18.2354883, 43.7368195], [18.235567, 43.7381696], [18.2358898, 43.7417205], [18.2363948, 43.7451757], [18.2678969, 43.7468224], [18.2715742, 43.7477057], [18.2716969, 43.7477381], [18.2758701, 43.7520369], [18.2758711, 43.7521257], [18.2736885, 43.7550882], [18.2702849, 43.7608047], [18.2699899, 43.7606626], [18.2696026, 43.7604405], [18.2693389, 43.7602675], [18.2686628, 43.759898], [18.2684599, 43.7598493], [18.2680881, 43.7598576], [18.2676158, 43.7599051], [18.267115, 43.7600426], [18.2667998, 43.7601905], [18.2664735, 43.7604582], [18.2660301, 43.7607349], [18.2653776, 43.7611918], [18.2647793, 43.7615608], [18.2645047, 43.7618112], [18.2642427, 43.7621524], [18.2641148, 43.7623662], [18.2639433, 43.7624855], [18.2637093, 43.7626565], [18.2635939, 43.7629449], [18.2635482, 43.7634275], [18.2635042, 43.7635313], [18.2632801, 43.7638414], [18.2630781, 43.7642796], [18.2627575, 43.7649401], [18.2626083, 43.7651276], [18.2624591, 43.7652575], [18.2611851, 43.7660207], [18.2606837, 43.7663147], [18.2603496, 43.7666444], [18.2600407, 43.7670485], [18.2598965, 43.7672646], [18.2597672, 43.7675741], [18.2596936, 43.7681236], [18.2597096, 43.7683619], [18.2597887, 43.7684809], [18.2603258, 43.7688696], [18.2604235, 43.7690031], [18.2604386, 43.769127], [18.2604105, 43.7692535], [18.2603327, 43.7693513], [18.2600078, 43.7695324], [18.2597065, 43.7697076], [18.2595816, 43.7698497], [18.2594631, 43.7701517], [18.2594334, 43.7705027], [18.2594268, 43.7712356], [18.2595242, 43.7718185], [18.2594921, 43.7719595], [18.2588221, 43.7733689], [18.2588108, 43.7734984], [18.2589454, 43.773662], [18.2590848, 43.7738257], [18.2590853, 43.77392], [18.259018, 43.7740808], [18.2587846, 43.7743845], [18.25866, 43.7746939], [18.2584715, 43.7748657], [18.2581916, 43.7751042], [18.2580176, 43.7755743], [18.257714, 43.7759069], [18.2570183, 43.7763586], [18.2563135, 43.776841], [18.2554996, 43.7772752], [18.2556273, 43.7773644], [18.2495189, 43.7956173], [18.249273, 43.7957944], [18.249056, 43.7961382], [18.2489189, 43.7963078], [18.2489696, 43.7964097], [18.2496268, 43.7967682], [18.249585, 43.79683], [18.2499233, 43.7970284], [18.2501987, 43.7975696], [18.2503165, 43.7980765], [18.2504306, 43.7986351], [18.2507752, 43.7995276], [18.2509773, 43.7998869], [18.2513888, 43.8005379], [18.2516054, 43.8011731], [18.2523737, 43.802631], [18.2524767, 43.8027828], [18.2527635, 43.8028433], [18.253117, 43.8028629], [18.2532656, 43.8029633], [18.2533321, 43.8031687], [18.2534642, 43.8044865], [18.253586, 43.8050734], [18.2537443, 43.8053663], [18.2548619, 43.8069071], [18.2553168, 43.8077297], [18.2558577, 43.8083385], [18.2561937, 43.80854], [18.2567849, 43.8088372], [18.2571472, 43.8091943], [18.2568767, 43.8092936], [18.2485788, 43.8158681], [18.2397263, 43.8255933], [18.2393924, 43.8261175], [18.2388395, 43.8265791], [18.2385372, 43.8272522], [18.2379897, 43.8278311], [18.2377689, 43.8282553], [18.2376768, 43.8288946], [18.2374113, 43.8301008], [18.2370885, 43.8306736], [18.2368336, 43.8311864], [18.2367828, 43.8319642], [18.2368241, 43.8327247], [18.2369884, 43.8330677], [18.237174, 43.8333559], [18.2371167, 43.8337999], [18.237022, 43.8340648], [18.2369481, 43.8343401], [18.2368851, 43.8349115], [18.236764, 43.8351966], [18.2368652, 43.8354978], [18.2371438, 43.8358924], [18.2371719, 43.8360469], [18.2371233, 43.8363083], [18.2371763, 43.8365832], [18.2391397, 43.8412519], [18.24029, 43.8417006], [18.24203, 43.8429882], [18.2420326, 43.8448795], [18.2419161, 43.8450993], [18.2420426, 43.8452124], [18.2421757, 43.8454265], [18.2422088, 43.8458334], [18.2422784, 43.8459602], [18.2425646, 43.8461532], [18.2424849, 43.8463176], [18.2422608, 43.8464821], [18.2421193, 43.846556], [18.2419735, 43.8465685], [18.2417325, 43.8465935], [18.2414451, 43.8470808], [18.2429573, 43.8475699], [18.2429867, 43.84766], [18.2429041, 43.8478178], [18.2431865, 43.8478651], [18.2437179, 43.848191], [18.2434761, 43.8482979], [18.2431511, 43.8483293], [18.2428789, 43.8483271], [18.2425939, 43.8483027], [18.2425821, 43.8483956], [18.2419442, 43.8486298], [18.2414251, 43.8489257], [18.2407923, 43.849253], [18.2397792, 43.8497281], [18.239098, 43.8500184], [18.2382409, 43.8503233], [18.2372538, 43.8506413], [18.2363678, 43.8509414], [18.2358723, 43.8511368], [18.2353994, 43.8513778], [18.2343747, 43.8518799], [18.2338048, 43.8522118], [18.2329813, 43.8528194], [18.2324343, 43.8532628], [18.232029, 43.8536475], [18.2317026, 43.8542799], [18.2313954, 43.8548494], [18.2310334, 43.8555314], [18.2307975, 43.8558759], [18.2304975, 43.856003], [18.2302747, 43.8562228], [18.2298193, 43.8567749], [18.2293796, 43.8564134], [18.2289656, 43.8561689], [18.2283095, 43.8562081], [18.2272978, 43.8559585], [18.2270043, 43.8557364], [18.2266335, 43.8556009], [18.2263477, 43.8551097], [18.2252701, 43.8548677], [18.2249684, 43.8548748], [18.2245423, 43.8551543], [18.2240268, 43.8553361], [18.2239817, 43.8557708], [18.2239659, 43.8561548], [18.2241474, 43.8563099], [18.2245105, 43.8568738], [18.2249437, 43.8571548], [18.2251055, 43.8572757], [18.2252448, 43.8574947], [18.2254551, 43.8577175], [18.2258132, 43.8580686], [18.2259635, 43.8581715], [18.22618, 43.8583609], [18.2262878, 43.8585548], [18.2263224, 43.8586782], [18.2262804, 43.8587918], [18.2262064, 43.8590366], [18.2261787, 43.8592018], [18.2261831, 43.8593309], [18.2262348, 43.8594281], [18.2264316, 43.8596959], [18.2256544, 43.8599958], [18.2251175, 43.8601751], [18.2250602, 43.8601979], [18.2237886, 43.8606244], [18.2229879, 43.8609558], [18.2221883, 43.8612927], [18.2218059, 43.8614725], [18.2213374, 43.8607999], [18.2209458, 43.8603854], [18.2205306, 43.8600573], [18.2203318, 43.8599253], [18.2200275, 43.8598], [18.2198006, 43.8596718], [18.2195555, 43.8594535], [18.21933, 43.8592983], [18.2187576, 43.8591191], [18.2182623, 43.8589796], [18.2180704, 43.8592332], [18.2167098, 43.8588759], [18.2162674, 43.8589556], [18.2160919, 43.8590222], [18.2159413, 43.8591774], [18.2156979, 43.859429], [18.2160334, 43.8598502], [18.216252, 43.8599953], [18.2166831, 43.860206], [18.2171628, 43.8604217], [18.2174239, 43.8605529], [18.2178762, 43.8607169], [18.218453, 43.8608787], [18.2190541, 43.8610369], [18.2199339, 43.8612109], [18.2201358, 43.8612315], [18.2203464, 43.8612359], [18.220559, 43.8612667], [18.2207277, 43.8613225], [18.2213297, 43.8616718], [18.2209259, 43.861848], [18.2206557, 43.8619654], [18.2201801, 43.8622264], [18.2192287, 43.8627851], [18.21915, 43.8627194], [18.2185108, 43.8630682], [18.2186224, 43.8631261], [18.2174168, 43.8638475], [18.2170841, 43.8635933], [18.2167875, 43.8636774], [18.2163257, 43.8637254], [18.2159885, 43.8637682], [18.2156675, 43.8637347], [18.2150661, 43.8635561], [18.2142219, 43.864024], [18.2141352, 43.8641927], [18.2140404, 43.8643672], [18.2137775, 43.8644345], [18.213447, 43.864481], [18.2130227, 43.8646635], [18.2124233, 43.8647961], [18.2120142, 43.8647913], [18.211717, 43.8647289], [18.2113833, 43.8645629], [18.2109681, 43.8642663], [18.21061, 43.8640017], [18.2104066, 43.8639127], [18.2102131, 43.8638839], [18.209869, 43.8637759], [18.2096449, 43.8636186], [18.2095444, 43.8634907], [18.2095274, 43.8633605], [18.209416, 43.8632538], [18.2089918, 43.8630724], [18.2084656, 43.8627263], [18.2078577, 43.8623193], [18.2075503, 43.8621652], [18.2071959, 43.8621093], [18.2068861, 43.8620679], [18.2064375, 43.8619147], [18.2062297, 43.8617805], [18.205916, 43.8616022], [18.2057502, 43.8614315], [18.2056617, 43.861252], [18.2054929, 43.8610867], [18.2051146, 43.8607149], [18.2047406, 43.8603765], [18.2042125, 43.8600107], [18.2033516, 43.8595107], [18.2024714, 43.8590417], [18.2019178, 43.8587715], [18.201445, 43.8585243], [18.2010357, 43.8583504], [18.2008422, 43.8582239], [18.2004759, 43.8577796], [18.2000036, 43.8574535], [18.1998298, 43.8572766], [18.1991767, 43.8569845], [18.1984128, 43.8565889], [18.1979886, 43.8564468], [18.1973162, 43.8561695], [18.1969778, 43.8559481], [18.1966496, 43.8556099], [18.1962411, 43.8553329], [18.1957368, 43.8550905], [18.1948676, 43.8548014], [18.1941505, 43.8544005], [18.1935816, 43.8548022], [18.1919475, 43.8543001], [18.1916415, 43.8543015], [18.191035, 43.8546744], [18.1868525, 43.8535346], [18.1823523, 43.8565523], [18.1815189, 43.8571111], [18.1804616, 43.8577655], [18.1802373, 43.8570855], [18.1771346, 43.8576586], [18.176752, 43.8591894], [18.176398, 43.8591404], [18.1759064, 43.8591306], [18.1754937, 43.859197], [18.1749808, 43.8593752], [18.1744515, 43.8596051], [18.1739757, 43.8598449], [18.1735952, 43.8601001], [18.1737752, 43.8606459], [18.1740151, 43.860901], [18.1715319, 43.8614834], [18.1707677, 43.8608345], [18.1693085, 43.8588938], [18.1693123, 43.8585252], [18.1682452, 43.8581809], [18.1680152, 43.8580271], [18.1677086, 43.8578487], [18.1672001, 43.8575493], [18.1666608, 43.8572179], [18.1588282, 43.8542567], [18.1582381, 43.8535952], [18.1571931, 43.8532038], [18.1552472, 43.8525274], [18.1532531, 43.8524582], [18.1526179, 43.8519495], [18.1518442, 43.8514396], [18.1498503, 43.8509735], [18.1494551, 43.8501068], [18.1485061, 43.8495064], [18.1466286, 43.849008], [18.1460133, 43.8488446], [18.1458086, 43.8486875], [18.1450539, 43.8481087], [18.144793, 43.8479085], [18.1446784, 43.8473439], [18.1437017, 43.8469537], [18.143331, 43.8467819], [18.1421047, 43.8462134], [18.1418351, 43.8459764], [18.1417113, 43.8457673], [18.1420914, 43.8456701], [18.1420839, 43.8451534], [18.1419377, 43.8439754], [18.1429246, 43.8430763], [18.1429549, 43.8423516], [18.141934, 43.8406032], [18.1407278, 43.8404997], [18.1404941, 43.8401853], [18.138622, 43.8401911], [18.1367291, 43.8395338], [18.1315622, 43.8394963], [18.130035, 43.8404012], [18.1298524, 43.8409257], [18.1288279, 43.8409454], [18.1284391, 43.8414445], [18.1269002, 43.8414445], [18.1248456, 43.8428728], [18.1228458, 43.8435638], [18.1224635, 43.8441455], [18.1191009, 43.8455482], [18.1178896, 43.8446924], [18.1179314, 43.8440492], [18.1182149, 43.8437028], [18.1182372, 43.8432413], [18.1182177, 43.8427262], [18.1185821, 43.8418562], [18.1185964, 43.8410522], [18.119364, 43.8403357], [18.1183382, 43.83969], [18.1183108, 43.8391873], [18.1169819, 43.8392081], [18.1167979, 43.838681], [18.1173345, 43.838005], [18.117007, 43.8370589], [18.1142252, 43.8347707], [18.1125609, 43.8326268], [18.1140361, 43.8315016], [18.1144553, 43.8299845], [18.1150049, 43.8290373], [18.1137653, 43.8289155], [18.1131727, 43.8289589], [18.1132546, 43.8280115], [18.1124041, 43.8277581], [18.1115469, 43.8285091], [18.1104145, 43.8279007], [18.1095253, 43.8283466], [18.1085442, 43.8281365], [18.1082109, 43.8277847], [18.1071985, 43.8277611], [18.1068208, 43.8281316], [18.1048279, 43.8281182], [18.1047954, 43.8289649], [18.1024667, 43.8304153], [18.1000766, 43.8270647], [18.0979881, 43.8246877], [18.0969686, 43.8233834], [18.0961007, 43.8228993], [18.0947379, 43.8224444], [18.0934574, 43.8221535], [18.0917671, 43.8214866], [18.0895768, 43.8207813], [18.0872676, 43.8251524], [18.0858369, 43.8241776], [18.0847693, 43.8241718], [18.0832918, 43.8235832], [18.0819317, 43.8222185], [18.0799722, 43.822148], [18.0799738, 43.8206267], [18.0800704, 43.81996], [18.082422, 43.8187429], [18.0848443, 43.8175146], [18.0837199, 43.8163902], [18.0801236, 43.815483], [18.0762155, 43.8141908], [18.0716795, 43.8141307], [18.0695027, 43.8151123], [18.0646861, 43.8151695], [18.0589483, 43.8150826], [18.0549568, 43.8151106], [18.053825, 43.8151186], [18.0512698, 43.8151345], [18.0484802, 43.8144192], [18.0465137, 43.813939], [18.0445289, 43.8135686], [18.0408291, 43.8127799], [18.0382056, 43.8122003], [18.0356782, 43.8117886], [18.0353714, 43.8109426], [18.0352274, 43.8103138], [18.0357922, 43.8099647], [18.0349705, 43.808246], [18.0334105, 43.808066], [18.0322491, 43.8088719], [18.0308645, 43.8079913], [18.0310601, 43.8070692], [18.0292305, 43.8063723], [18.0291048, 43.8050865], [18.0282629, 43.8045988], [18.0258518, 43.8045081], [18.0248178, 43.8043403], [18.0226022, 43.805558], [18.0226635, 43.8060424], [18.0218121, 43.8060477], [18.020874, 43.8056303], [18.0196518, 43.8054563], [18.0188373, 43.8056251], [18.0183786, 43.8052734], [18.0175349, 43.8051281], [18.0172126, 43.8042344], [18.0160313, 43.804159], [18.0157043, 43.8037485], [18.0142143, 43.8038604], [18.0133088, 43.8031186], [18.0106511, 43.8031209], [18.0095378, 43.8026665], [18.0067794, 43.8028903], [18.0048537, 43.8025345], [18.0024914, 43.8021482], [18.0013689, 43.8022747], [18.0012286, 43.8018101], [18.0009554, 43.8013058]]]}}]}