{"type": "FeatureCollection", "features": [{"type": "Feature", "properties": {"name": "Opština Han Pijesak, Република Српска / Republika Srpska, 71360, Bosna i Hercegovina / Босна и Херцеговина", "source": "OpenStreetMap relation 2528206", "licence": "ODbL 1.0"}, "geometry": {"type": "Polygon", "coordinates": [[[18.7466962, 44.1156345], [18.7467324, 44.1149714], [18.7529077, 44.1091926], [18.7593934, 44.1027546], [18.7657189, 44.0968667], [18.7691824, 44.0942632], [18.7725139, 44.0916085], [18.7761312, 44.0888993], [18.7780759, 44.0872738], [18.7847706, 44.0811353], [18.7912, 44.0803924], [18.799224, 44.0795608], [18.8066934, 44.0785954], [18.8117302, 44.0780625], [18.8177372, 44.0735051], [18.8206676, 44.0713882], [18.8282071, 44.0682213], [18.831682, 44.0668621], [18.8416868, 44.0656214], [18.8449393, 44.0648822], [18.8487722, 44.0638004], [18.8522889, 44.0629394], [18.8546909, 44.0627057], [18.8564357, 44.0622796], [18.8611236, 44.0618455], [18.8649848, 44.0602053], [18.8686449, 44.0586008], [18.8739888, 44.0564777], [18.8785796, 44.0559842], [18.8830778, 44.0556385], [18.8922537, 44.0553952], [18.8950024, 44.0550723], [18.8922572, 44.0515395], [18.892537, 44.0390924], [18.8819256, 44.0328408], [18.8817889, 44.0276296], [18.8816059, 44.0252497], [18.8814489, 44.0236435], [18.8854119, 44.0224123], [18.8915273, 44.0202328], [18.8936188, 44.0187688], [18.8956245, 44.0199116], [18.899567, 44.0175906], [18.9088174, 44.0247306], [18.9096164, 44.0241747], [18.9091873, 44.0238738], [18.9094877, 44.0234958], [18.9094877, 44.0231101], [18.9091658, 44.0226935], [18.9075351, 44.0221071], [18.9071917, 44.0218448], [18.90805, 44.0213974], [18.9080715, 44.0199932], [18.9074492, 44.0192063], [18.9073849, 44.0176941], [18.9083075, 44.017617], [18.9090371, 44.0170923], [18.9099812, 44.0172775], [18.9100027, 44.0154875], [18.9126634, 44.0154566], [18.9127707, 44.0144844], [18.9224451, 44.0124909], [18.9266214, 44.0117063], [18.930006, 44.0087919], [18.9327654, 44.0064534], [18.9353413, 44.0050887], [18.9421355, 44.0021399], [18.9510324, 43.9980041], [18.955705, 43.9959596], [18.9585651, 43.9947082], [18.9640389, 43.9922309], [18.9649689, 43.9918428], [18.9679893, 43.9905824], [18.9722039, 43.9888697], [18.9744297, 43.9877565], [18.9812938, 43.9863443], [18.9892838, 43.9845843], [18.9940134, 43.9834962], [18.9998735, 43.9821765], [19.0013477, 43.9818039], [19.0084508, 43.9800085], [19.0117134, 43.9789155], [19.0147214, 43.9779179], [19.0205806, 43.9726398], [19.0222815, 43.9789495], [19.0223234, 43.9790345], [19.0235976, 43.9785753], [19.0251563, 43.9780177], [19.0260976, 43.9776585], [19.0267857, 43.9773363], [19.0269828, 43.9772591], [19.0272039, 43.9771977], [19.027368, 43.9771662], [19.0274315, 43.9771599], [19.0274687, 43.9771709], [19.0275038, 43.9771867], [19.0275235, 43.9772166], [19.02753, 43.9772513], [19.0275344, 43.9772954], [19.0274863, 43.9773615], [19.0273615, 43.9774639], [19.0271798, 43.9775868], [19.0268405, 43.9777932], [19.0267266, 43.9778404], [19.0265996, 43.9778735], [19.0264464, 43.9778846], [19.0263085, 43.9778987], [19.026164, 43.9779649], [19.0257787, 43.9782768], [19.0253058, 43.9786833], [19.0249972, 43.979033], [19.0248811, 43.9792756], [19.0248286, 43.9796111], [19.0249433, 43.980095], [19.0251842, 43.9804668], [19.0256745, 43.9807283], [19.028446, 43.9818845], [19.0289627, 43.9820042], [19.0293611, 43.9820011], [19.0296807, 43.9820263], [19.0298953, 43.9821239], [19.0299347, 43.9822594], [19.0298383, 43.9825114], [19.0297727, 43.9827729], [19.0298165, 43.9830155], [19.0299741, 43.9832833], [19.0301717, 43.983822], [19.0301641, 43.9838504], [19.0301499, 43.9838669], [19.0301312, 43.9838748], [19.0300623, 43.9838898], [19.0291242, 43.9840906], [19.0273105, 43.9844919], [19.0268617, 43.9846636], [19.026518, 43.9848968], [19.0263166, 43.9851456], [19.0262203, 43.9853945], [19.0262334, 43.9855363], [19.0263254, 43.9857064], [19.026391, 43.9858324], [19.0263823, 43.9859584], [19.0263166, 43.9861726], [19.0261896, 43.9863396], [19.026124, 43.9863963], [19.0259313, 43.986516], [19.0257781, 43.98662], [19.025476, 43.9868531], [19.0254015, 43.9869003], [19.0252833, 43.9869318], [19.0250294, 43.9869507], [19.0248586, 43.9873193], [19.0255942, 43.9876658], [19.0259007, 43.9879903], [19.0262334, 43.9884786], [19.0266844, 43.9888282], [19.0269865, 43.9891558], [19.0273718, 43.9893165], [19.0279191, 43.9891306], [19.028103, 43.9896], [19.0281249, 43.9899056], [19.0280723, 43.9902017], [19.027779, 43.9906112], [19.0274462, 43.9909388], [19.0270215, 43.9911435], [19.027131, 43.9914365], [19.0274112, 43.9915814], [19.0276608, 43.9921106], [19.0276126, 43.992813], [19.0277045, 43.9929925], [19.0275425, 43.993128], [19.0273368, 43.9931028], [19.027166, 43.9930996], [19.0269339, 43.9931091], [19.0267107, 43.9931437], [19.0265662, 43.9931563], [19.0264129, 43.9931595], [19.026124, 43.9932067], [19.0259401, 43.9932477], [19.025581, 43.9933485], [19.0253183, 43.9934241], [19.0251169, 43.9934713], [19.0249462, 43.9935217], [19.025025, 43.9939344], [19.0248236, 43.9939344], [19.0239129, 43.9948289], [19.0239129, 43.9952037], [19.0234356, 43.9975093], [19.0245448, 44.0074669], [19.0438448, 44.0020871], [19.0515507, 43.9988116], [19.0756286, 43.9908216], [19.0790239, 43.9896948], [19.0796941, 43.9894724], [19.0797116, 43.9893779], [19.0955541, 43.987272], [19.0955541, 43.9872531], [19.1001733, 43.9866467], [19.1079843, 43.984914], [19.1129231, 43.9863695], [19.1129406, 43.9864986], [19.1129625, 43.98659], [19.1129887, 43.9867349], [19.1129931, 43.9868577], [19.1129581, 43.987009], [19.1128793, 43.9871318], [19.1127654, 43.9872515], [19.1126954, 43.9873901], [19.112691, 43.9874941], [19.1127567, 43.9878249], [19.1127873, 43.9880296], [19.1127173, 43.9882092], [19.1126122, 43.9883352], [19.1124852, 43.9885242], [19.1124152, 43.9886691], [19.1124502, 43.9888014], [19.1125728, 43.9889652], [19.1127304, 43.9891164], [19.1130719, 43.9893117], [19.1131551, 43.9894598], [19.1131464, 43.9895385], [19.1131814, 43.9896299], [19.1133215, 43.989737], [19.1140746, 43.9900299], [19.1142628, 43.9900677], [19.1144423, 43.9901213], [19.1145168, 43.9901937], [19.1145693, 43.9902977], [19.114635, 43.9904961], [19.1147313, 43.9905434], [19.1149108, 43.990556], [19.1151122, 43.9906001], [19.115318, 43.9906757], [19.1154844, 43.9907733], [19.115572, 43.9909182], [19.1155676, 43.9910442], [19.1155107, 43.9911545], [19.1153968, 43.9912238], [19.1153574, 43.9912868], [19.1153968, 43.991397], [19.1155238, 43.9914726], [19.1156289, 43.9915451], [19.1156639, 43.9916175], [19.1156727, 43.9916837], [19.1154537, 43.991775], [19.1152173, 43.9918884], [19.1149415, 43.9919325], [19.1148101, 43.9919798], [19.1146832, 43.9920963], [19.1145518, 43.9922696], [19.1144467, 43.9923609], [19.1144161, 43.9924397], [19.1144205, 43.9925909], [19.1143066, 43.992698], [19.1141796, 43.992761], [19.1140308, 43.9928334], [19.1139345, 43.9929185], [19.1138162, 43.9930665], [19.1138075, 43.9931516], [19.1137943, 43.9932083], [19.1137374, 43.9933563], [19.1136718, 43.9934571], [19.1135711, 43.993539], [19.1134616, 43.9935831], [19.1132821, 43.9936146], [19.1131464, 43.9936209], [19.1129362, 43.993624], [19.1127041, 43.9936492], [19.1125378, 43.9936807], [19.1123232, 43.9937217], [19.1122006, 43.9937532], [19.1120649, 43.9937973], [19.1119861, 43.993854], [19.1119073, 43.9939579], [19.1118898, 43.9940934], [19.1119073, 43.9942383], [19.1119335, 43.9945532], [19.1119423, 43.9947517], [19.1118985, 43.9948651], [19.1118066, 43.994947], [19.1116446, 43.9950257], [19.1114257, 43.9951296], [19.1110579, 43.9953249], [19.1109397, 43.9954698], [19.1108696, 43.9956336], [19.1107996, 43.9961155], [19.1108214, 43.9962667], [19.1108302, 43.9964084], [19.1107689, 43.9965029], [19.1106376, 43.9965691], [19.1105193, 43.9966069], [19.1103136, 43.9966321], [19.1101603, 43.9966856], [19.1100771, 43.996736], [19.1099808, 43.9968557], [19.109972, 43.996947], [19.1099896, 43.9970352], [19.1100596, 43.9971234], [19.1101034, 43.9971801], [19.1101953, 43.9973471], [19.1102085, 43.997473], [19.1101997, 43.9975581], [19.1102085, 43.9976431], [19.1102479, 43.9977219], [19.1103486, 43.9978416], [19.1109659, 43.9982919], [19.1110272, 43.9983896], [19.1111104, 43.9984715], [19.1112199, 43.9985124], [19.1113644, 43.9985597], [19.1114432, 43.9985912], [19.1115307, 43.9986416], [19.1115964, 43.9987045], [19.1116183, 43.9987675], [19.1116183, 43.9988715], [19.1116271, 43.9989534], [19.1116796, 43.9990069], [19.1118723, 43.9992179], [19.1122181, 43.9993408], [19.1122006, 43.9995108], [19.1121612, 43.9996053], [19.1122926, 43.9997313], [19.1125202, 43.99981], [19.1127479, 43.9999297], [19.1128618, 44.0000557], [19.1128968, 44.0001911], [19.1129143, 44.0003045], [19.1130456, 44.0003959], [19.1132208, 44.0003896], [19.113501, 44.0003549], [19.1137549, 44.0004022], [19.1141665, 44.0005974], [19.1145474, 44.0008872], [19.1147269, 44.0010793], [19.1148714, 44.0012053], [19.115121, 44.0013155], [19.1153706, 44.0013879], [19.1155326, 44.0013627], [19.1156946, 44.001347], [19.116093, 44.0014194], [19.1163644, 44.0015958], [19.1165264, 44.0017092], [19.1167016, 44.0017596], [19.1168461, 44.0017816], [19.1169117, 44.0018541], [19.1179757, 44.0030225], [19.1179805, 44.0031798], [19.1202343, 44.0093341], [19.1374784, 44.0148263], [19.1387375, 44.0152374], [19.1385054, 44.0157189], [19.1386986, 44.0181725], [19.1367459, 44.0196692], [19.1365957, 44.0198852], [19.136939, 44.0202556], [19.1370249, 44.0208573], [19.1373038, 44.0212894], [19.137969, 44.0216905], [19.1378617, 44.0235421], [19.1353726, 44.0236192], [19.1340852, 44.0224003], [19.1339564, 44.0206413], [19.1335916, 44.020487], [19.133261, 44.0204721], [19.131266, 44.0225315], [19.1263958, 44.0257712], [19.1225664, 44.0272059], [19.1218613, 44.0282997], [19.1207865, 44.0298049], [19.1198855, 44.0306144], [19.1155603, 44.0369922], [19.1154658, 44.0371316], [19.1136959, 44.039923], [19.1125497, 44.0416952], [19.1117033, 44.0427295], [19.1114843, 44.0429971], [19.1094928, 44.0474243], [19.1064906, 44.0535906], [19.106512, 44.0546084], [19.108399, 44.0580948], [19.1017042, 44.0589042], [19.0983036, 44.0591188], [19.0934011, 44.0615469], [19.0912129, 44.0629187], [19.0873299, 44.0651], [19.0815058, 44.068314], [19.0791787, 44.0691848], [19.0734608, 44.0735322], [19.0663382, 44.0790581], [19.0643111, 44.0804989], [19.0575848, 44.0812001], [19.0533694, 44.0815698], [19.0484025, 44.0819705], [19.0437149, 44.0823789], [19.0384693, 44.0827794], [19.0355737, 44.0832803], [19.0348987, 44.0829026], [19.0344786, 44.0825912], [19.0325689, 44.082884], [19.0300287, 44.0836344], [19.03048, 44.0841276], [19.0315208, 44.0847741], [19.0364877, 44.0865079], [19.0395772, 44.0893743], [19.0427203, 44.0924794], [19.04434, 44.0940431], [19.0414953, 44.0954295], [19.0407872, 44.0951213], [19.0396285, 44.0952138], [19.0344483, 44.0973095], [19.0331268, 44.0974483], [19.0318393, 44.0978797], [19.0306941, 44.0978179], [19.0302515, 44.0981417], [19.0288567, 44.0987889], [19.0280448, 44.0987886], [19.0268183, 44.0997135], [19.0255737, 44.1004069], [19.0250097, 44.1002753], [19.0240502, 44.1009616], [19.0235567, 44.1009154], [19.0230632, 44.1011928], [19.023149, 44.101578], [19.0211749, 44.1026258], [19.0198231, 44.1030418], [19.0172643, 44.1045199], [19.0171789, 44.1051434], [19.0150335, 44.1067605], [19.0139222, 44.1070787], [19.0122056, 44.1071712], [19.0115833, 44.107356], [19.010399, 44.1083545], [19.0103994, 44.1132688], [19.0108076, 44.1134147], [19.010872, 44.1163256], [19.0108405, 44.1182508], [19.0107658, 44.1191748], [19.0101242, 44.118741], [19.0094161, 44.1189721], [19.0085363, 44.1189875], [19.0077209, 44.1186178], [19.0067768, 44.1185716], [19.00491, 44.1196037], [19.0039873, 44.1195574], [19.0028286, 44.119958], [19.0019488, 44.1197731], [18.9995885, 44.1196345], [18.9981293, 44.1188643], [18.9975929, 44.1191261], [18.9956188, 44.1192031], [18.9941382, 44.1187564], [18.994824, 44.1182201], [18.9930653, 44.11737], [18.9922714, 44.1173392], [18.9913058, 44.1165844], [18.9910483, 44.116153], [18.9905119, 44.1156909], [18.9909625, 44.1154136], [18.9923358, 44.11623], [18.9926576, 44.1161222], [18.9917342, 44.1150083], [18.9906509, 44.1142153], [18.9905548, 44.11229], [18.989954, 44.1115775], [18.9883664, 44.11313], [18.985942, 44.1159033], [18.9836899, 44.1181057], [18.9807402, 44.1208858], [18.97881, 44.1229728], [18.9769008, 44.1249127], [18.9750769, 44.1266762], [18.9743801, 44.1278382], [18.9742086, 44.1282611], [18.9735174, 44.1286144], [18.973732, 44.1289995], [18.9739466, 44.1291612], [18.9739358, 44.1298004], [18.9717314, 44.1298088], [18.9714145, 44.1302624], [18.9705992, 44.1309247], [18.9707279, 44.1312019], [18.9680671, 44.1321722], [18.9671016, 44.1321722], [18.9660501, 44.1330038], [18.9661145, 44.133281], [18.9654493, 44.1337584], [18.9650845, 44.1334658], [18.9644301, 44.1334581], [18.9642262, 44.1336891], [18.9633679, 44.1333426], [18.9624238, 44.1331578], [18.9621663, 44.1334889], [18.961474, 44.133494], [18.9610889, 44.1334968], [18.960081, 44.1347436], [18.9581718, 44.1366835], [18.9557586, 44.1400167], [18.9556843, 44.1406246], [18.9547408, 44.1418869], [18.9538193, 44.1421973], [18.9522743, 44.1426901], [18.951137, 44.1435831], [18.9501071, 44.1441375], [18.947103, 44.1440605], [18.9468884, 44.1438449], [18.9458054, 44.1438672], [18.9451504, 44.142844], [18.9448499, 44.142767], [18.944335, 44.1434754], [18.9441633, 44.1447996], [18.943305, 44.1453385], [18.9424681, 44.1456002], [18.9412021, 44.1455387], [18.940494, 44.1452923], [18.9401936, 44.1449074], [18.9399681, 44.1441502], [18.9392495, 44.1441683], [18.9387677, 44.143888], [18.9395714, 44.1431828], [18.9393997, 44.1414582], [18.9401078, 44.1410578], [18.9401722, 44.1405497], [18.9391637, 44.1401955], [18.9388847, 44.1386402], [18.9388847, 44.1365613], [18.9375446, 44.1357977], [18.9327285, 44.1365603], [18.9307336, 44.1320099], [18.929851, 44.1308015], [18.929615, 44.1300468], [18.9291677, 44.1293688], [18.9242115, 44.1315096], [18.9218732, 44.1325643], [18.9190957, 44.1338814], [18.9162425, 44.1351062], [18.9146985, 44.1357063], [18.9098283, 44.1365456], [18.9080856, 44.137022], [18.9068999, 44.1373461], [18.9046597, 44.1385016], [18.9040589, 44.1385632], [18.9007759, 44.140873], [18.8996172, 44.1409192], [18.8987589, 44.141335], [18.8978671, 44.1414417], [18.8975143, 44.1420433], [18.8968491, 44.1421973], [18.8954115, 44.142844], [18.8945746, 44.1428132], [18.8939516, 44.1433045], [18.892343, 44.143152], [18.8908839, 44.1426593], [18.8884813, 44.1426805], [18.8869082, 44.1439507], [18.8865543, 44.143888], [18.8861418, 44.1437833], [18.8841033, 44.1438757], [18.8830728, 44.1440899], [18.8829676, 44.1441117], [18.8809514, 44.1446116], [18.8749981, 44.145466], [18.8714051, 44.146344], [18.8669004, 44.1474525], [18.8598531, 44.1492074], [18.8532129, 44.148591], [18.8507036, 44.1553802], [18.8493524, 44.1589047], [18.8435055, 44.1584883], [18.8388067, 44.1629052], [18.8349672, 44.1667917], [18.8293785, 44.1674302], [18.825144, 44.1677382], [18.816272, 44.1720724], [18.8176992, 44.1686295], [18.8174035, 44.1625077], [18.814832, 44.1581123], [18.8125959, 44.1556738], [18.8085038, 44.1518555], [18.8053703, 44.1487394], [18.80468, 44.1480529], [18.7971443, 44.144202], [18.7907184, 44.1411244], [18.7869924, 44.1393398], [18.7858511, 44.1387755], [18.7810339, 44.1363934], [18.7749845, 44.133402], [18.7724821, 44.131926], [18.7683306, 44.1294772], [18.7643182, 44.1271104], [18.753747, 44.1239904], [18.7517543, 44.1237184], [18.7501805, 44.1234795], [18.7466962, 44.1156345]]]}}]}