{"type": "FeatureCollection", "features": [{"type": "Feature", "properties": {"name": "Općina Ilidža, Kanton Sarajevo, Federacija Bosne i Hercegovine, Bosna i Hercegovina / Босна и Херцеговина", "source": "OpenStreetMap relation 2528207", "licence": "ODbL 1.0"}, "geometry": {"type": "Polygon", "coordinates": [[[18.1559684, 43.9135859], [18.1561861, 43.9133142], [18.1563963, 43.9131088], [18.1564764, 43.9128228], [18.1566864, 43.9124763], [18.1570578, 43.912208], [18.1576923, 43.9118754], [18.1580491, 43.9116126], [18.1584333, 43.9111827], [18.1591893, 43.9108703], [18.1599676, 43.9107176], [18.1609552, 43.9106256], [18.1614933, 43.9104747], [18.1621253, 43.9101743], [18.1626862, 43.909786], [18.1633326, 43.9095954], [18.164106, 43.9094271], [18.1649057, 43.9093207], [18.1656434, 43.9093779], [18.1661243, 43.9095873], [18.16653, 43.9096845], [18.1672285, 43.9097108], [18.1678256, 43.9096198], [18.1683823, 43.9093883], [18.1688568, 43.9090717], [18.1694816, 43.908499], [18.1698808, 43.9079186], [18.1695515, 43.9078668], [18.1692368, 43.907773], [18.1695686, 43.9075604], [18.1699499, 43.9072829], [18.1699977, 43.9069798], [18.1701431, 43.9067282], [18.1700162, 43.9065273], [18.169779, 43.9063268], [18.1696634, 43.9059135], [18.1696612, 43.9054894], [18.1700109, 43.9049172], [18.1718089, 43.9025341], [18.1732461, 43.9010199], [18.1746157, 43.8995767], [18.1743874, 43.8993618], [18.1741647, 43.899004], [18.1734803, 43.8986281], [18.1731085, 43.8981645], [18.172554, 43.8979133], [18.1724598, 43.8975306], [18.1724428, 43.8969804], [18.1724549, 43.8967437], [18.1718361, 43.8967635], [18.1715716, 43.8968848], [18.1712688, 43.8969706], [18.1706856, 43.8969864], [18.1705094, 43.8965246], [18.1703661, 43.8964573], [18.1699158, 43.8964963], [18.1696886, 43.896415], [18.1691052, 43.8958912], [18.1688059, 43.8957548], [18.168568, 43.8955566], [18.1686691, 43.8954489], [18.1690538, 43.8953385], [18.1693112, 43.8953185], [18.1696459, 43.8953049], [18.1698452, 43.8953202], [18.1697037, 43.8952423], [18.1692472, 43.8951287], [18.1689673, 43.8950749], [18.1687488, 43.8949856], [18.168608, 43.8948322], [18.1683827, 43.8944739], [18.1681851, 43.8940824], [18.1680189, 43.8933434], [18.1683573, 43.8930086], [18.1679278, 43.8924493], [18.1674983, 43.892421], [18.1676332, 43.8917247], [18.1681073, 43.8917728], [18.1683957, 43.8917], [18.1685809, 43.8915975], [18.1687859, 43.8914447], [18.1687941, 43.8912102], [18.1686577, 43.8910539], [18.1684985, 43.8909199], [18.1684692, 43.8907636], [18.1686791, 43.8905699], [18.1690887, 43.8903241], [18.169466, 43.8901115], [18.1694198, 43.8898654], [18.1693379, 43.889723], [18.1690707, 43.8896094], [18.1689358, 43.8894759], [18.1689455, 43.8893274], [18.1689856, 43.8891794], [18.169107, 43.8890174], [18.1694309, 43.8888602], [18.1698391, 43.8888224], [18.1703625, 43.8887415], [18.170892, 43.8886341], [18.1713093, 43.8884229], [18.1716484, 43.8881687], [18.1718502, 43.8878792], [18.1719511, 43.8876093], [18.1721058, 43.8873867], [18.1723647, 43.8871204], [18.1727117, 43.8869173], [18.1731544, 43.8868471], [18.1734973, 43.8868621], [18.173773, 43.8866631], [18.1735461, 43.8864947], [18.1725204, 43.886245], [18.1730526, 43.8859063], [18.17351, 43.8854643], [18.1737399, 43.8854971], [18.1740737, 43.8854661], [18.1741366, 43.8850912], [18.1741322, 43.8849671], [18.1739797, 43.8848077], [18.1743094, 43.8846228], [18.1747793, 43.8843491], [18.1750067, 43.8841607], [18.1753384, 43.8839232], [18.175639, 43.8837461], [18.1759187, 43.8836017], [18.176363, 43.8834629], [18.1767917, 43.883374], [18.177112, 43.8832963], [18.1773727, 43.8831936], [18.1778273, 43.8830061], [18.178171, 43.8828685], [18.178597, 43.8827446], [18.1788507, 43.8827073], [18.1792011, 43.8826886], [18.1793964, 43.8826889], [18.1793013, 43.882451], [18.1792045, 43.8823364], [18.1790613, 43.8820817], [18.1788621, 43.8817168], [18.1786865, 43.8814258], [18.1785552, 43.8812404], [18.1783342, 43.881071], [18.1781881, 43.8809049], [18.1778589, 43.8803807], [18.177742, 43.880154], [18.1776221, 43.8798074], [18.1774808, 43.8795406], [18.1773542, 43.8794459], [18.1771647, 43.8793059], [18.176743, 43.879017], [18.1765888, 43.8787922], [18.1764092, 43.8784921], [18.1763061, 43.8781239], [18.1760898, 43.8778179], [18.1760435, 43.8777083], [18.1760608, 43.8776124], [18.1762508, 43.877295], [18.1763082, 43.8770171], [18.1763693, 43.8768983], [18.176443, 43.8767773], [18.1764873, 43.8765114], [18.1764882, 43.8763398], [18.1765617, 43.8761738], [18.1767434, 43.8758808], [18.1768158, 43.8757746], [18.1768679, 43.8756179], [18.176844, 43.8754987], [18.1767501, 43.8753397], [18.1765539, 43.8750882], [18.1763497, 43.8748834], [18.1761659, 43.8745656], [18.1758734, 43.8742789], [18.1752255, 43.8738324], [18.1749599, 43.8735519], [18.1747312, 43.8732409], [18.1746911, 43.8729263], [18.1748182, 43.8722923], [18.1748454, 43.8719545], [18.1748979, 43.8717757], [18.1749201, 43.8714993], [18.1747789, 43.8712689], [18.1744008, 43.8709892], [18.1740973, 43.8707108], [18.1739837, 43.8704365], [18.1737945, 43.8700175], [18.173718, 43.8696147], [18.1737371, 43.8694009], [18.1738537, 43.8692892], [18.173993, 43.8691495], [18.1741202, 43.86866], [18.1740753, 43.8683084], [18.174005, 43.8679599], [18.1740168, 43.8673103], [18.1739147, 43.8668515], [18.1737235, 43.8665457], [18.173483, 43.8663318], [18.1730547, 43.8660175], [18.1731158, 43.8658932], [18.1731911, 43.8655552], [18.1732, 43.864938], [18.1732793, 43.8645712], [18.1734916, 43.8641015], [18.1740551, 43.8634118], [18.1715319, 43.8614834], [18.1740151, 43.860901], [18.1737752, 43.8606459], [18.1735952, 43.8601001], [18.1739757, 43.8598449], [18.1744515, 43.8596051], [18.1749808, 43.8593752], [18.1754937, 43.859197], [18.1759064, 43.8591306], [18.176398, 43.8591404], [18.176752, 43.8591894], [18.1771346, 43.8576586], [18.1802373, 43.8570855], [18.1804616, 43.8577655], [18.1815189, 43.8571111], [18.1823523, 43.8565523], [18.1868525, 43.8535346], [18.191035, 43.8546744], [18.1916415, 43.8543015], [18.1919475, 43.8543001], [18.1935816, 43.8548022], [18.1941505, 43.8544005], [18.1948676, 43.8548014], [18.1957368, 43.8550905], [18.1962411, 43.8553329], [18.1966496, 43.8556099], [18.1969778, 43.8559481], [18.1973162, 43.8561695], [18.1979886, 43.8564468], [18.1984128, 43.8565889], [18.1991767, 43.8569845], [18.1998298, 43.8572766], [18.2000036, 43.8574535], [18.2004759, 43.8577796], [18.2008422, 43.8582239], [18.2010357, 43.8583504], [18.201445, 43.8585243], [18.2019178, 43.8587715], [18.2024714, 43.8590417], [18.2033516, 43.8595107], [18.2042125, 43.8600107], [18.2047406, 43.8603765], [18.2051146, 43.8607149], [18.2054929, 43.8610867], [18.2056617, 43.861252], [18.2057502, 43.8614315], [18.205916, 43.8616022], [18.2062297, 43.8617805], [18.2064375, 43.8619147], [18.2068861, 43.8620679], [18.2071959, 43.8621093], [18.2075503, 43.8621652], [18.2078577, 43.8623193], [18.2084656, 43.8627263], [18.2089918, 43.8630724], [18.209416, 43.8632538], [18.2095274, 43.8633605], [18.2095444, 43.8634907], [18.2096449, 43.8636186], [18.209869, 43.8637759], [18.2102131, 43.8638839], [18.2104066, 43.8639127], [18.21061, 43.8640017], [18.2109681, 43.8642663], [18.2113833, 43.8645629], [18.211717, 43.8647289], [18.2120142, 43.8647913], [18.2124233, 43.8647961], [18.2130227, 43.8646635], [18.213447, 43.864481], [18.2137775, 43.8644345], [18.2140404, 43.8643672], [18.2141352, 43.8641927], [18.2142219, 43.864024], [18.2150661, 43.8635561], [18.2156675, 43.8637347], [18.2159885, 43.8637682], [18.2163257, 43.8637254], [18.2167875, 43.8636774], [18.2170841, 43.8635933], [18.2174168, 43.8638475], [18.2186224, 43.8631261], [18.2185108, 43.8630682], [18.21915, 43.8627194], [18.2192287, 43.8627851], [18.2201801, 43.8622264], [18.2206557, 43.8619654], [18.2209259, 43.861848], [18.2213297, 43.8616718], [18.2207277, 43.8613225], [18.220559, 43.8612667], [18.2203464, 43.8612359], [18.2201358, 43.8612315], [18.2199339, 43.8612109], [18.2190541, 43.8610369], [18.218453, 43.8608787], [18.2178762, 43.8607169], [18.2174239, 43.8605529], [18.2171628, 43.8604217], [18.2166831, 43.860206], [18.216252, 43.8599953], [18.2160334, 43.8598502], [18.2156979, 43.859429], [18.2159413, 43.8591774], [18.2160919, 43.8590222], [18.2162674, 43.8589556], [18.2167098, 43.8588759], [18.2180704, 43.8592332], [18.2182623, 43.8589796], [18.2187576, 43.8591191], [18.21933, 43.8592983], [18.2195555, 43.8594535], [18.2198006, 43.8596718], [18.2200275, 43.8598], [18.2203318, 43.8599253], [18.2205306, 43.8600573], [18.2209458, 43.8603854], [18.2213374, 43.8607999], [18.2218059, 43.8614725], [18.2221883, 43.8612927], [18.2229879, 43.8609558], [18.2237886, 43.8606244], [18.2250602, 43.8601979], [18.2251175, 43.8601751], [18.2256544, 43.8599958], [18.2264316, 43.8596959], [18.2262348, 43.8594281], [18.2261831, 43.8593309], [18.2261787, 43.8592018], [18.2262064, 43.8590366], [18.2262804, 43.8587918], [18.2263224, 43.8586782], [18.2262878, 43.8585548], [18.22618, 43.8583609], [18.2259635, 43.8581715], [18.2258132, 43.8580686], [18.2254551, 43.8577175], [18.2252448, 43.8574947], [18.2251055, 43.8572757], [18.2249437, 43.8571548], [18.2245105, 43.8568738], [18.2241474, 43.8563099], [18.2239659, 43.8561548], [18.2239817, 43.8557708], [18.2240268, 43.8553361], [18.2245423, 43.8551543], [18.2249684, 43.8548748], [18.2252701, 43.8548677], [18.2263477, 43.8551097], [18.2266335, 43.8556009], [18.2270043, 43.8557364], [18.2272978, 43.8559585], [18.2283095, 43.8562081], [18.2289656, 43.8561689], [18.2293796, 43.8564134], [18.2298193, 43.8567749], [18.2302747, 43.8562228], [18.2304975, 43.856003], [18.2307975, 43.8558759], [18.2310334, 43.8555314], [18.2313954, 43.8548494], [18.2317026, 43.8542799], [18.232029, 43.8536475], [18.2324343, 43.8532628], [18.2329813, 43.8528194], [18.2338048, 43.8522118], [18.2343747, 43.8518799], [18.2353994, 43.8513778], [18.2358723, 43.8511368], [18.2363678, 43.8509414], [18.2372538, 43.8506413], [18.2382409, 43.8503233], [18.239098, 43.8500184], [18.2397792, 43.8497281], [18.2407923, 43.849253], [18.2414251, 43.8489257], [18.2419442, 43.8486298], [18.2425821, 43.8483956], [18.2425939, 43.8483027], [18.2428789, 43.8483271], [18.2431511, 43.8483293], [18.2434761, 43.8482979], [18.2437179, 43.848191], [18.2431865, 43.8478651], [18.2429041, 43.8478178], [18.2429867, 43.84766], [18.2429573, 43.8475699], [18.2414451, 43.8470808], [18.2417325, 43.8465935], [18.2419735, 43.8465685], [18.2421193, 43.846556], [18.2422608, 43.8464821], [18.2424849, 43.8463176], [18.2425646, 43.8461532], [18.2422784, 43.8459602], [18.2422088, 43.8458334], [18.2421757, 43.8454265], [18.2420426, 43.8452124], [18.2419161, 43.8450993], [18.2420326, 43.8448795], [18.24203, 43.8429882], [18.24029, 43.8417006], [18.2391397, 43.8412519], [18.2371763, 43.8365832], [18.2371233, 43.8363083], [18.2371719, 43.8360469], [18.2371438, 43.8358924], [18.2368652, 43.8354978], [18.236764, 43.8351966], [18.2368851, 43.8349115], [18.2369481, 43.8343401], [18.237022, 43.8340648], [18.2371167, 43.8337999], [18.237174, 43.8333559], [18.2369884, 43.8330677], [18.2368241, 43.8327247], [18.2367828, 43.8319642], [18.2368336, 43.8311864], [18.2370885, 43.8306736], [18.2374113, 43.8301008], [18.2376768, 43.8288946], [18.2377689, 43.8282553], [18.2379897, 43.8278311], [18.2385372, 43.8272522], [18.2388395, 43.8265791], [18.2393924, 43.8261175], [18.2397263, 43.8255933], [18.2485788, 43.8158681], [18.2568767, 43.8092936], [18.2571472, 43.8091943], [18.2567849, 43.8088372], [18.2561937, 43.80854], [18.2558577, 43.8083385], [18.2553168, 43.8077297], [18.2548619, 43.8069071], [18.2537443, 43.8053663], [18.253586, 43.8050734], [18.2534642, 43.8044865], [18.2533321, 43.8031687], [18.2532656, 43.8029633], [18.253117, 43.8028629], [18.2527635, 43.8028433], [18.2524767, 43.8027828], [18.2523737, 43.802631], [18.2516054, 43.8011731], [18.2513888, 43.8005379], [18.2509773, 43.7998869], [18.2507752, 43.7995276], [18.2504306, 43.7986351], [18.2503165, 43.7980765], [18.2501987, 43.7975696], [18.2499233, 43.7970284], [18.249585, 43.79683], [18.2496268, 43.7967682], [18.2489696, 43.7964097], [18.2489189, 43.7963078], [18.249056, 43.7961382], [18.249273, 43.7957944], [18.2495189, 43.7956173], [18.2556273, 43.7773644], [18.2554996, 43.7772752], [18.2563135, 43.776841], [18.2570183, 43.7763586], [18.257714, 43.7759069], [18.2580176, 43.7755743], [18.2581916, 43.7751042], [18.2584715, 43.7748657], [18.25866, 43.7746939], [18.2587846, 43.7743845], [18.259018, 43.7740808], [18.2590853, 43.77392], [18.2590848, 43.7738257], [18.2589454, 43.773662], [18.2588108, 43.7734984], [18.2588221, 43.7733689], [18.2594921, 43.7719595], [18.2595242, 43.7718185], [18.2594268, 43.7712356], [18.2594334, 43.7705027], [18.2594631, 43.7701517], [18.2595816, 43.7698497], [18.2597065, 43.7697076], [18.2600078, 43.7695324], [18.2603327, 43.7693513], [18.2604105, 43.7692535], [18.2604386, 43.769127], [18.2604235, 43.7690031], [18.2603258, 43.7688696], [18.2597887, 43.7684809], [18.2597096, 43.7683619], [18.2596936, 43.7681236], [18.2597672, 43.7675741], [18.2598965, 43.7672646], [18.2600407, 43.7670485], [18.2603496, 43.7666444], [18.2606837, 43.7663147], [18.2611851, 43.7660207], [18.2624591, 43.7652575], [18.2626083, 43.7651276], [18.2627575, 43.7649401], [18.2630781, 43.7642796], [18.2632801, 43.7638414], [18.2635042, 43.7635313], [18.2635482, 43.7634275], [18.2635939, 43.7629449], [18.2637093, 43.7626565], [18.2639433, 43.7624855], [18.2641148, 43.7623662], [18.2642427, 43.7621524], [18.2645047, 43.7618112], [18.2647793, 43.7615608], [18.2653776, 43.7611918], [18.2660301, 43.7607349], [18.2664735, 43.7604582], [18.2667998, 43.7601905], [18.267115, 43.7600426], [18.2676158, 43.7599051], [18.2680881, 43.7598576], [18.2684599, 43.7598493], [18.2686628, 43.759898], [18.2693389, 43.7602675], [18.2696026, 43.7604405], [18.2699899, 43.7606626], [18.2702849, 43.7608047], [18.2736885, 43.7550882], [18.2758711, 43.7521257], [18.2758701, 43.7520369], [18.2716969, 43.7477381], [18.2715742, 43.7477057], [18.2724846, 43.7471826], [18.2731127, 43.7465494], [18.2735992, 43.7460852], [18.2750995, 43.7448554], [18.2758518, 43.7445966], [18.276838, 43.7444357], [18.2806576, 43.7440051], [18.2842369, 43.7435986], [18.291394, 43.7425789], [18.3010738, 43.740809], [18.3090032, 43.7393591], [18.3086732, 43.7391752], [18.3098039, 43.7389265], [18.3111636, 43.7383691], [18.3119612, 43.7370925], [18.3182125, 43.7347127], [18.3185829, 43.7348786], [18.318922, 43.7349171], [18.3191346, 43.7350698], [18.3193473, 43.7351335], [18.3198454, 43.7351283], [18.320433, 43.7352102], [18.3207391, 43.7351978], [18.3209783, 43.7351649], [18.3213099, 43.7352832], [18.3216719, 43.7353336], [18.321905, 43.7354229], [18.3225913, 43.7357556], [18.3231806, 43.7359843], [18.3236838, 43.7361996], [18.3242729, 43.7364601], [18.325649, 43.7371972], [18.3263111, 43.737503], [18.3266255, 43.7376999], [18.3268534, 43.7378214], [18.3275975, 43.7380563], [18.3281465, 43.7381537], [18.3284488, 43.7383336], [18.329262, 43.7386722], [18.3298882, 43.7389026], [18.3303841, 43.7391855], [18.3306091, 43.7394679], [18.3308975, 43.7399069], [18.331028, 43.7400347], [18.331192, 43.7400925], [18.3313341, 43.7400906], [18.3314675, 43.7400756], [18.3315091, 43.7399973], [18.3314871, 43.7398735], [18.3315079, 43.7396969], [18.3316347, 43.7394711], [18.3317722, 43.7393199], [18.3318832, 43.7391649], [18.3320452, 43.7389236], [18.3322214, 43.7387876], [18.3324206, 43.7387731], [18.3326525, 43.738827], [18.3328901, 43.7388922], [18.3330748, 43.7388771], [18.3338634, 43.7384642], [18.33412, 43.7383397], [18.3343699, 43.7382354], [18.334479, 43.7380991], [18.3346288, 43.7378781], [18.3348095, 43.7377332], [18.3350285, 43.7376995], [18.3354008, 43.7377395], [18.335661, 43.7377251], [18.3363815, 43.737638], [18.336885, 43.7375056], [18.3371844, 43.7374127], [18.3374203, 43.7373924], [18.3377346, 43.737407], [18.3379394, 43.7375175], [18.3382111, 43.7379435], [18.3383981, 43.7383465], [18.3385967, 43.7384749], [18.3388058, 43.7385306], [18.3391022, 43.7384757], [18.3394267, 43.7383821], [18.3396637, 43.738268], [18.3398444, 43.7381029], [18.3401414, 43.7376817], [18.3402825, 43.7375898], [18.3404693, 43.7375477], [18.3407532, 43.7375916], [18.3409948, 43.7376317], [18.3412996, 43.73758], [18.3416001, 43.7375121], [18.3419567, 43.7374743], [18.3423556, 43.7375283], [18.3442398, 43.7382984], [18.3446774, 43.738472], [18.344982, 43.7386277], [18.3451755, 43.7388256], [18.3454151, 43.7390583], [18.3458822, 43.7394171], [18.3464704, 43.7396881], [18.3474769, 43.7399985], [18.3481775, 43.7401725], [18.3487827, 43.7402534], [18.3492485, 43.7402265], [18.3502481, 43.7409163], [18.3514793, 43.7404352], [18.3528641, 43.7418328], [18.3531494, 43.7428637], [18.354884, 43.7428346], [18.3547925, 43.7421843], [18.3544785, 43.7416112], [18.3552111, 43.741712], [18.3557301, 43.7416618], [18.3561928, 43.7417625], [18.3570647, 43.7421878], [18.3600541, 43.7418487], [18.3599961, 43.7420681], [18.361249, 43.7420647], [18.3626175, 43.7422221], [18.3629898, 43.7420951], [18.3630598, 43.7426146], [18.3632892, 43.7427853], [18.3633973, 43.7429205], [18.3636299, 43.7430235], [18.3640231, 43.7429401], [18.3642408, 43.7428208], [18.3643828, 43.7425921], [18.3651862, 43.7428214], [18.3656464, 43.7431242], [18.359324, 43.7470809], [18.3619443, 43.7523623], [18.3648063, 43.7577853], [18.3634189, 43.7611792], [18.3604509, 43.7682657], [18.3596493, 43.7697187], [18.3591914, 43.7700947], [18.3522298, 43.7756842], [18.3437211, 43.777414], [18.3420266, 43.7777585], [18.3388974, 43.7783356], [18.3317523, 43.7796532], [18.3324792, 43.7876874], [18.3340176, 43.7875802], [18.3342059, 43.7881702], [18.334065, 43.7888211], [18.3337214, 43.7895609], [18.3345084, 43.7916031], [18.3334495, 43.7919639], [18.3333371, 43.7933258], [18.333613, 43.7993618], [18.3337065, 43.8006192], [18.3349885, 43.8015339], [18.3379606, 43.8019783], [18.3393551, 43.8038191], [18.3400939, 43.8047944], [18.3428383, 43.8079937], [18.3427801, 43.8104877], [18.3452039, 43.8136336], [18.3471381, 43.8157042], [18.3473775, 43.8160699], [18.3482349, 43.8169044], [18.3498628, 43.8163081], [18.3517763, 43.8186304], [18.3513911, 43.8213521], [18.3514373, 43.8215334], [18.3490781, 43.822416], [18.346409, 43.8233218], [18.3442297, 43.8240774], [18.3439241, 43.8242025], [18.3432334, 43.824394], [18.342896, 43.8244629], [18.3423601, 43.8245426], [18.3419182, 43.8246269], [18.3416463, 43.8247194], [18.3414559, 43.8248074], [18.3412702, 43.8249221], [18.341051, 43.825076], [18.3405779, 43.8254571], [18.3397627, 43.8260542], [18.3390659, 43.8265753], [18.3384936, 43.8270029], [18.3381212, 43.8272688], [18.3372565, 43.827995], [18.3370245, 43.8281278], [18.3365006, 43.8282812], [18.3344682, 43.8290999], [18.3329723, 43.8297798], [18.3310585, 43.8305901], [18.330503, 43.830822], [18.3300845, 43.8309016], [18.33003, 43.8318111], [18.3300449, 43.8319798], [18.3301906, 43.8325985], [18.3296551, 43.8327018], [18.3293692, 43.832805], [18.329215, 43.8328186], [18.3289667, 43.8327808], [18.3287436, 43.8327595], [18.3285213, 43.8327621], [18.3283317, 43.8328263], [18.328256, 43.8329314], [18.3281582, 43.8332305], [18.3280574, 43.8333723], [18.3269485, 43.8342101], [18.3267928, 43.8343702], [18.3267198, 43.8345199], [18.3266451, 43.8347184], [18.3265968, 43.8348988], [18.3264242, 43.8351775], [18.3262211, 43.8355143], [18.3260928, 43.8357509], [18.3277343, 43.8370127], [18.3289978, 43.8360154], [18.3295109, 43.8356189], [18.3302484, 43.8350217], [18.3310172, 43.8345019], [18.332581, 43.8363635], [18.3333322, 43.8371965], [18.3340896, 43.8380255], [18.335375, 43.8393345], [18.3365664, 43.8405258], [18.3374584, 43.8412351], [18.3378611, 43.8415789], [18.3381486, 43.8417687], [18.3398348, 43.8427713], [18.3383513, 43.8445616], [18.3374484, 43.8444022], [18.3354608, 43.8440215], [18.3350451, 43.8446894], [18.3353647, 43.8447761], [18.3351143, 43.8453023], [18.3343423, 43.8451377], [18.3342425, 43.8453363], [18.3340479, 43.8456168], [18.3339136, 43.8457663], [18.3338269, 43.8460423], [18.3335734, 43.8459643], [18.3331995, 43.845933], [18.3327312, 43.8459296], [18.3320264, 43.8459969], [18.3314185, 43.8461751], [18.3302335, 43.8466461], [18.3297806, 43.8467711], [18.3291182, 43.8468681], [18.3267113, 43.8468068], [18.3242342, 43.8468213], [18.3222058, 43.8468375], [18.3208212, 43.8468715], [18.320397, 43.8469147], [18.3198804, 43.8470378], [18.3194936, 43.8471284], [18.318582, 43.8474924], [18.3178608, 43.8478543], [18.3173807, 43.848093], [18.316725, 43.8482706], [18.3161592, 43.8483578], [18.3156901, 43.8484233], [18.3151581, 43.8486824], [18.3149138, 43.8488854], [18.3148465, 43.8491437], [18.3148504, 43.8494525], [18.3149463, 43.8498342], [18.3150902, 43.8502017], [18.3151269, 43.8504265], [18.3149817, 43.8505923], [18.31415, 43.851336], [18.3136885, 43.8517296], [18.3133117, 43.8519303], [18.3127905, 43.8520675], [18.3123977, 43.8521208], [18.3120544, 43.8520172], [18.3117736, 43.8518691], [18.3115664, 43.8517513], [18.3114567, 43.8516093], [18.3115413, 43.8510471], [18.3114738, 43.8507874], [18.311266, 43.8505656], [18.3110081, 43.8504283], [18.3107716, 43.85046], [18.3106385, 43.850576], [18.3105421, 43.8509393], [18.3104899, 43.8512495], [18.3102455, 43.8516397], [18.3099543, 43.8518209], [18.309653, 43.8519353], [18.3094324, 43.8520212], [18.3092192, 43.8520585], [18.3089583, 43.852057], [18.308771, 43.8521036], [18.3085166, 43.8522586], [18.3082438, 43.8523829], [18.307955, 43.8523929], [18.3077215, 43.8523884], [18.307564, 43.8523512], [18.3073857, 43.8522356], [18.3072078, 43.8521704], [18.3068587, 43.8522466], [18.3065225, 43.8524221], [18.3063625, 43.8525303], [18.306198, 43.8527545], [18.3061393, 43.8529196], [18.3061598, 43.8530107], [18.3063693, 43.853239], [18.3064277, 43.8533396], [18.3065402, 43.8537777], [18.3066653, 43.8541352], [18.3068552, 43.8543115], [18.3071398, 43.8544481], [18.3074673, 43.8544608], [18.3077533, 43.854412], [18.3080421, 43.8543207], [18.3082831, 43.8541607], [18.3085841, 43.854072], [18.3087807, 43.8540816], [18.308991, 43.8541905], [18.3091113, 43.8543244], [18.3091643, 43.8544807], [18.3093153, 43.8545975], [18.3095055, 43.8546643], [18.3097463, 43.8547636], [18.3098991, 43.8549806], [18.309928, 43.855198], [18.3099033, 43.8554107], [18.3097095, 43.8556653], [18.309344, 43.8558209], [18.3089307, 43.8559712], [18.3086791, 43.8560303], [18.3083474, 43.8560435], [18.3080446, 43.8560141], [18.3077601, 43.8560399], [18.3073898, 43.8560067], [18.3069772, 43.8559896], [18.306603, 43.8560057], [18.3063816, 43.8560927], [18.3060748, 43.8561259], [18.3058797, 43.8562829], [18.3058117, 43.8564363], [18.3058169, 43.85665], [18.3058493, 43.8568898], [18.3058406, 43.8571648], [18.3057845, 43.8572669], [18.3056669, 43.8573063], [18.3054755, 43.8573365], [18.3052506, 43.85734], [18.3050644, 43.8573138], [18.3043871, 43.8570918], [18.3041345, 43.8570922], [18.3038965, 43.85721], [18.3036699, 43.8573693], [18.3034671, 43.8574977], [18.3032354, 43.8575298], [18.3029819, 43.8574823], [18.3027644, 43.85738], [18.3022935, 43.8572485], [18.3020813, 43.8572502], [18.3018961, 43.8573444], [18.3017183, 43.8574725], [18.3015958, 43.8576157], [18.3015539, 43.8577737], [18.301584, 43.8578683], [18.3019284, 43.8581764], [18.3020331, 43.8585245], [18.3021931, 43.8587855], [18.3021945, 43.858997], [18.3025473, 43.8594704], [18.3025296, 43.8596218], [18.3024081, 43.8599335], [18.3022144, 43.8602239], [18.3020697, 43.8603539], [18.3018055, 43.8604188], [18.3016401, 43.8603997], [18.3015291, 43.8603662], [18.3012566, 43.8600963], [18.3010643, 43.8599548], [18.3009314, 43.8599331], [18.3007134, 43.8599597], [18.300481, 43.8600644], [18.3002472, 43.8602061], [18.3000898, 43.8603646], [18.3000767, 43.8604948], [18.3001045, 43.8606328], [18.3002699, 43.8607616], [18.3004862, 43.8608572], [18.300652, 43.8609336], [18.3007638, 43.8610265], [18.3008125, 43.861151], [18.3007313, 43.861265], [18.3004934, 43.8614884], [18.3004392, 43.8616033], [18.3004277, 43.8617336], [18.3005533, 43.8618854], [18.3007099, 43.8620011], [18.30085, 43.8620897], [18.3009526, 43.8622055], [18.3009853, 43.8623233], [18.3009328, 43.8623947], [18.3008567, 43.862465], [18.3005517, 43.8625683], [18.300374, 43.8625857], [18.3001668, 43.8625671], [18.3000196, 43.862531], [18.299887, 43.8624363], [18.2997491, 43.8622634], [18.2994221, 43.8616502], [18.2992886, 43.8614956], [18.2991112, 43.8614282], [18.2990128, 43.8614162], [18.2988954, 43.8614123], [18.298844, 43.8614325], [18.2988028, 43.8614912], [18.2987487, 43.8615627], [18.2986464, 43.8616437], [18.2985053, 43.8616628], [18.2983256, 43.8616169], [18.2980693, 43.8619026], [18.2978828, 43.8622635], [18.2978444, 43.8624594], [18.297862, 43.8625975], [18.297936, 43.8627632], [18.2979676, 43.8630188], [18.2979084, 43.8631074], [18.2977655, 43.8631813], [18.297603, 43.8632424], [18.2973358, 43.8634738], [18.2970455, 43.8635755], [18.2972898, 43.8637565], [18.2973506, 43.8638815], [18.2973547, 43.8639832], [18.297158, 43.8641772], [18.2969336, 43.8642197], [18.2968314, 43.8642282], [18.2966962, 43.8641798], [18.2963631, 43.8641558], [18.2958003, 43.8643453], [18.2956562, 43.8645206], [18.2955051, 43.864689], [18.2952534, 43.8649997], [18.2949003, 43.8653429], [18.29446, 43.8656258], [18.2941666, 43.8658861], [18.2941608, 43.8659979], [18.29458, 43.8662405], [18.2946675, 43.8662479], [18.294878, 43.866147], [18.2950624, 43.8661112], [18.2952107, 43.8661154], [18.2953384, 43.8661691], [18.2953794, 43.8662558], [18.2953078, 43.866365], [18.2952661, 43.866506], [18.2952087, 43.8667828], [18.2951676, 43.8668189], [18.2951016, 43.8668404], [18.2950437, 43.8668223], [18.2950233, 43.8667497], [18.2947895, 43.8666178], [18.2944102, 43.8665237], [18.2941885, 43.8665474], [18.293999, 43.866652], [18.2938966, 43.8667596], [18.2938169, 43.866864], [18.293677, 43.8669596], [18.2935418, 43.8669684], [18.2933726, 43.8668921], [18.2930488, 43.8666611], [18.2928128, 43.8666113], [18.2926162, 43.8666282], [18.2924986, 43.8666887], [18.2924328, 43.8669091], [18.2923113, 43.8671914], [18.2920776, 43.8674112], [18.291831, 43.8674544], [18.2914942, 43.8673925], [18.2911925, 43.8672389], [18.2909553, 43.8672027], [18.2907096, 43.8672532], [18.2904842, 43.8673913], [18.290411, 43.8676179], [18.2904708, 43.8678113], [18.2906593, 43.8680223], [18.2910657, 43.8683273], [18.2903086, 43.8693355], [18.2899179, 43.8690329], [18.2895394, 43.868949], [18.2891525, 43.868917], [18.2887793, 43.8689842], [18.2883532, 43.8692024], [18.2877815, 43.8693855], [18.2871478, 43.8694805], [18.2856927, 43.8694889], [18.2850761, 43.8694218], [18.2842835, 43.8691721], [18.2839943, 43.8690502], [18.2834405, 43.8678449], [18.2815617, 43.8673993], [18.2803745, 43.8686276], [18.2780275, 43.8676294], [18.2756396, 43.8666145], [18.2736402, 43.8658043], [18.2731804, 43.8655836], [18.272721, 43.8652892], [18.2723739, 43.8649198], [18.2719078, 43.8640544], [18.2714135, 43.8638711], [18.2705023, 43.8634282], [18.2697073, 43.8633453], [18.2688545, 43.8633716], [18.2682691, 43.8636483], [18.2679234, 43.8639004], [18.2675273, 43.8640797], [18.266504, 43.8645736], [18.2652626, 43.8654513], [18.2645504, 43.8661163], [18.2632391, 43.8673121], [18.2628424, 43.867629], [18.2621267, 43.8679594], [18.2613779, 43.8682764], [18.2610436, 43.868456], [18.2609843, 43.8685979], [18.2610306, 43.8689841], [18.2610181, 43.8692962], [18.2610942, 43.869526], [18.2614763, 43.8702099], [18.2620992, 43.8709496], [18.262518, 43.8715855], [18.2626221, 43.8718157], [18.2627473, 43.8725046], [18.2627967, 43.872893], [18.2629921, 43.873324], [18.263143, 43.8735591], [18.2632527, 43.8738096], [18.263382, 43.8742369], [18.2634227, 43.8744107], [18.2635938, 43.8746758], [18.2638353, 43.8748799], [18.264116, 43.8749984], [18.2642954, 43.875051], [18.2642684, 43.8753336], [18.2642682, 43.8753356], [18.264073, 43.8753544], [18.263921, 43.8754305], [18.2637997, 43.8755118], [18.2636103, 43.8759794], [18.263422, 43.8770301], [18.2631433, 43.8776877], [18.2627419, 43.8780227], [18.262325, 43.8782854], [18.2617845, 43.8785442], [18.2615615, 43.8787197], [18.2608125, 43.8797991], [18.2604673, 43.8803856], [18.2599837, 43.8807198], [18.2590155, 43.8811757], [18.2583195, 43.8816619], [18.258035, 43.8820336], [18.2578418, 43.88273], [18.2569197, 43.8827553], [18.2566778, 43.8838671], [18.255551, 43.8855262], [18.2552537, 43.8864299], [18.2548003, 43.8872129], [18.2545922, 43.8877573], [18.2539503, 43.8885222], [18.2537172, 43.8892636], [18.2535396, 43.8895568], [18.253259, 43.8897944], [18.2531613, 43.8899664], [18.2531976, 43.890125], [18.2533088, 43.8903462], [18.2532567, 43.8905536], [18.2532764, 43.8907196], [18.2534296, 43.8909024], [18.2535179, 43.8910566], [18.2538388, 43.8912089], [18.2542122, 43.8913317], [18.254693, 43.8915824], [18.2548655, 43.8917034], [18.2550285, 43.8918403], [18.2547233, 43.8920442], [18.2542889, 43.892334], [18.2540574, 43.8924367], [18.2538184, 43.8925102], [18.2534095, 43.8927319], [18.2530097, 43.893027], [18.2527622, 43.8934335], [18.2527252, 43.8938145], [18.2527905, 43.8940725], [18.2532264, 43.8946111], [18.2535047, 43.8948969], [18.2536857, 43.8951684], [18.2537495, 43.8953811], [18.2535855, 43.8955737], [18.2529469, 43.8957999], [18.2516151, 43.896419], [18.2509132, 43.8968689], [18.2499658, 43.8973293], [18.249635, 43.8978679], [18.2494674, 43.8983941], [18.2493479, 43.8984796], [18.2493143, 43.8987877], [18.2491451, 43.8990745], [18.2489026, 43.8993033], [18.2484856, 43.8996408], [18.2480307, 43.8999789], [18.2474515, 43.90019], [18.2468237, 43.9002087], [18.2464134, 43.9002554], [18.2461002, 43.9004596], [18.245168, 43.9004796], [18.2444702, 43.9006097], [18.2439357, 43.9008722], [18.2436221, 43.9011764], [18.2435051, 43.9014613], [18.243376, 43.9018027], [18.2429202, 43.9022045], [18.2424849, 43.9024739], [18.2417297, 43.9026113], [18.2409644, 43.9026604], [18.2406586, 43.9027512], [18.2400011, 43.9030692], [18.2394221, 43.9033365], [18.2388278, 43.9035928], [18.2382082, 43.9037777], [18.2378229, 43.9038899], [18.2374303, 43.9040593], [18.2372259, 43.9041014], [18.2369865, 43.9040808], [18.2366822, 43.9040888], [18.2360698, 43.9041852], [18.2355708, 43.9042757], [18.2350652, 43.9045344], [18.2332327, 43.9049601], [18.2324857, 43.9052366], [18.2318235, 43.9052812], [18.2311758, 43.905409], [18.2306534, 43.9055154], [18.2299868, 43.9053617], [18.2291677, 43.9050244], [18.2287038, 43.9050535], [18.2283281, 43.9053016], [18.2276642, 43.9052002], [18.2272096, 43.9051664], [18.2266249, 43.9053321], [18.2262603, 43.9053525], [18.2259482, 43.9053315], [18.2255421, 43.9051389], [18.2251629, 43.9050863], [18.2248999, 43.9051327], [18.2246868, 43.9052231], [18.2245313, 43.9052316], [18.2243585, 43.905188], [18.224202, 43.905161], [18.2237472, 43.9051716], [18.2234462, 43.9051508], [18.2229294, 43.9051056], [18.2225625, 43.9051192], [18.2224297, 43.9051635], [18.222394, 43.9052042], [18.2224093, 43.9054165], [18.2223623, 43.905591], [18.2222706, 43.9057331], [18.2220251, 43.9058979], [18.2218403, 43.906171], [18.2214728, 43.9065595], [18.2212196, 43.9069091], [18.2210327, 43.907206], [18.2207432, 43.907432], [18.2201907, 43.907772], [18.2197796, 43.9080103], [18.2194381, 43.9081463], [18.2185493, 43.9084062], [18.2181035, 43.9085901], [18.217814, 43.9087658], [18.2176061, 43.9089745], [18.2174546, 43.9092154], [18.2173587, 43.9094731], [18.217136, 43.9097262], [18.2167767, 43.9099369], [18.2164481, 43.9101356], [18.2161374, 43.9104383], [18.2155659, 43.9109947], [18.2153156, 43.9111862], [18.2149568, 43.9112679], [18.2145727, 43.9113892], [18.2143629, 43.9114822], [18.2139945, 43.9116203], [18.2138222, 43.9117666], [18.2135947, 43.9119277], [18.2133178, 43.9120394], [18.213004, 43.9120721], [18.2126853, 43.9120759], [18.2123536, 43.9120504], [18.2119256, 43.9119543], [18.2112381, 43.9118156], [18.2107497, 43.9116607], [18.2102196, 43.9114878], [18.2101402, 43.9114039], [18.2099835, 43.9112923], [18.2098171, 43.9112671], [18.2096489, 43.9113004], [18.2090651, 43.911548], [18.2083865, 43.9118821], [18.2081071, 43.9119755], [18.2079061, 43.9120209], [18.2076162, 43.9120566], [18.2066076, 43.9120935], [18.2064662, 43.9121354], [18.2061525, 43.9122273], [18.2060397, 43.9122853], [18.2058065, 43.9123614], [18.2055011, 43.9124062], [18.2047836, 43.9124102], [18.2034303, 43.9124389], [18.202612, 43.9124563], [18.2024406, 43.9125224], [18.2019023, 43.9125761], [18.2015946, 43.9125567], [18.2012091, 43.912513], [18.201025, 43.9125071], [18.2008256, 43.9125225], [18.2004149, 43.9125765], [18.1998083, 43.9127416], [18.1994396, 43.912839], [18.1990536, 43.9128444], [18.1983732, 43.9127398], [18.198044, 43.9127321], [18.1977098, 43.9128154], [18.1974517, 43.9129859], [18.1970201, 43.9135853], [18.1965596, 43.9142751], [18.1960323, 43.914662], [18.1953309, 43.914905], [18.1945768, 43.9151377], [18.1938779, 43.9154365], [18.1936253, 43.9144925], [18.1931769, 43.914499], [18.1926266, 43.9145455], [18.1921621, 43.9146415], [18.1920372, 43.9143399], [18.1912343, 43.9143288], [18.1901811, 43.9142211], [18.1894626, 43.9140392], [18.1865801, 43.913999], [18.1851178, 43.9137418], [18.1832779, 43.9136949], [18.1829025, 43.9135207], [18.1823674, 43.9131314], [18.1811728, 43.9131428], [18.1795129, 43.9135777], [18.1783011, 43.9127043], [18.1751115, 43.9130891], [18.1735756, 43.9127583], [18.1731116, 43.9127395], [18.1725937, 43.9128828], [18.1724683, 43.913041], [18.1700455, 43.9132379], [18.1698245, 43.9138518], [18.1694265, 43.9144827], [18.1690475, 43.9150091], [18.1681218, 43.9155008], [18.167199, 43.9157291], [18.166459, 43.9161534], [18.1655246, 43.9166705], [18.1640763, 43.9171301], [18.1630375, 43.9174236], [18.1617882, 43.9180806], [18.1615523, 43.9183855], [18.1608714, 43.9187715], [18.1606022, 43.9190337], [18.160535, 43.9192167], [18.1603835, 43.9193889], [18.1600414, 43.9194557], [18.1595809, 43.9195318], [18.159539, 43.9193244], [18.1592963, 43.9193912], [18.1591784, 43.9194051], [18.1588791, 43.9193938], [18.1589123, 43.9190939], [18.158821, 43.9186013], [18.1587082, 43.9182918], [18.1585201, 43.9181984], [18.1583796, 43.9182539], [18.1583674, 43.9184047], [18.1582856, 43.9184992], [18.158194, 43.9185026], [18.1580797, 43.9184562], [18.1579842, 43.9183113], [18.157928, 43.9180104], [18.1578653, 43.9175403], [18.1578462, 43.917323], [18.1576715, 43.9170604], [18.1576147, 43.9167927], [18.1574846, 43.9164974], [18.1573682, 43.91634], [18.1573637, 43.9160979], [18.1571949, 43.9158582], [18.1570845, 43.915655], [18.1570455, 43.9154146], [18.1568785, 43.9150943], [18.156517, 43.9147902], [18.1562946, 43.9145362], [18.1561551, 43.9142025], [18.1560305, 43.913863], [18.1559684, 43.9135859]]]}}]}