{"type": "FeatureCollection", "features": [{"type": "Feature", "properties": {"name": "Općina Ilijaš, Kanton Sarajevo, Federacija Bosne i Hercegovine, Bosna i Hercegovina / Босна и Херцеговина", "source": "OpenStreetMap relation 2528208", "licence": "ODbL 1.0"}, "geometry": {"type": "Polygon", "coordinates": [[[18.2093201, 43.9749737], [18.2093591, 43.9738961], [18.2103838, 43.9722189], [18.2104804, 43.9710968], [18.2105546, 43.9703236], [18.2113017, 43.9698268], [18.2120121, 43.9697185], [18.2119599, 43.9686725], [18.2126638, 43.9677662], [18.2126456, 43.9662185], [18.2133328, 43.9656458], [18.2137211, 43.9647216], [18.2160336, 43.9629031], [18.2171238, 43.9627728], [18.2186146, 43.9630517], [18.2190891, 43.9623433], [18.2190596, 43.9613148], [18.2215113, 43.9597745], [18.2207157, 43.9589172], [18.220507, 43.9581624], [18.2199883, 43.9573409], [18.2216701, 43.9560252], [18.2237822, 43.9553538], [18.2238469, 43.9545882], [18.2245512, 43.9542426], [18.2247476, 43.9531289], [18.2271, 43.9530717], [18.2282558, 43.9520203], [18.2284011, 43.9512617], [18.2293304, 43.9499055], [18.2312034, 43.9498838], [18.2321681, 43.9491718], [18.2340549, 43.949052], [18.2361543, 43.9479009], [18.236219, 43.9465065], [18.2374561, 43.9453634], [18.2374025, 43.9442799], [18.2385159, 43.9440898], [18.2379732, 43.9421913], [18.2375597, 43.942021], [18.2375934, 43.9412202], [18.2399006, 43.9387879], [18.2400286, 43.936921], [18.2382242, 43.9356385], [18.2381447, 43.9346243], [18.2374784, 43.9337107], [18.2369279, 43.9334698], [18.2368433, 43.9326097], [18.2384772, 43.9318744], [18.2387965, 43.9306259], [18.2394944, 43.9299358], [18.2397805, 43.9292072], [18.2409878, 43.9279359], [18.2429138, 43.9268748], [18.2429101, 43.9264345], [18.2421641, 43.9257043], [18.2420773, 43.9247064], [18.2435638, 43.9237563], [18.2439232, 43.9226416], [18.2439113, 43.9213906], [18.2446029, 43.9191404], [18.2446713, 43.9170659], [18.2460443, 43.9139937], [18.2462315, 43.9125889], [18.2449607, 43.9119561], [18.2448611, 43.91093], [18.2443616, 43.910576], [18.2443285, 43.9092871], [18.2437024, 43.9083863], [18.2430346, 43.9072302], [18.2419183, 43.9058194], [18.2397035, 43.9058157], [18.2391672, 43.9053126], [18.2386798, 43.9049045], [18.2384461, 43.9046394], [18.2380448, 43.9041608], [18.23805, 43.9040134], [18.2380985, 43.9038918], [18.2382082, 43.9037777], [18.2388278, 43.9035928], [18.2394221, 43.9033365], [18.2400011, 43.9030692], [18.2406586, 43.9027512], [18.2409644, 43.9026604], [18.2417297, 43.9026113], [18.2424849, 43.9024739], [18.2429202, 43.9022045], [18.243376, 43.9018027], [18.2435051, 43.9014613], [18.2436221, 43.9011764], [18.2439357, 43.9008722], [18.2444702, 43.9006097], [18.245168, 43.9004796], [18.2461002, 43.9004596], [18.2464134, 43.9002554], [18.2468237, 43.9002087], [18.2474515, 43.90019], [18.2480307, 43.8999789], [18.2484856, 43.8996408], [18.2489026, 43.8993033], [18.2491451, 43.8990745], [18.2493143, 43.8987877], [18.2493479, 43.8984796], [18.2494674, 43.8983941], [18.2498876, 43.8984861], [18.2504597, 43.8984734], [18.2510489, 43.8982937], [18.2515996, 43.8981792], [18.2521675, 43.8981637], [18.2526376, 43.8983449], [18.2529832, 43.8985149], [18.253316, 43.8988162], [18.2538613, 43.8991743], [18.2542314, 43.8993649], [18.2546795, 43.8993889], [18.2551888, 43.8993396], [18.2556981, 43.8992904], [18.2560116, 43.8993646], [18.2562442, 43.8996223], [18.2563208, 43.8999978], [18.2561707, 43.900259], [18.2560162, 43.9006152], [18.2559863, 43.9009253], [18.2561086, 43.9010994], [18.2562925, 43.9012815], [18.2567246, 43.9014786], [18.2570765, 43.9015371], [18.2573063, 43.9014418], [18.2575695, 43.9013982], [18.2573419, 43.9010244], [18.2573343, 43.9008332], [18.2574306, 43.9006139], [18.2575739, 43.9003972], [18.2577594, 43.9001978], [18.2580798, 43.9000433], [18.258266, 43.8999061], [18.258393, 43.8995588], [18.2585239, 43.8993546], [18.2587244, 43.8991931], [18.2589118, 43.8991516], [18.2597234, 43.8992344], [18.2600226, 43.8993977], [18.2601662, 43.899558], [18.2603669, 43.8996706], [18.2604506, 43.8997658], [18.2604738, 43.9000133], [18.2608738, 43.9003212], [18.2610552, 43.9004079], [18.2611954, 43.9003919], [18.2613951, 43.9002525], [18.2615737, 43.9001896], [18.2618093, 43.9001907], [18.2626019, 43.9003292], [18.2627499, 43.9002936], [18.2635134, 43.8995302], [18.2636472, 43.8993178], [18.2638845, 43.8990547], [18.2641042, 43.8988959], [18.264234, 43.8989018], [18.2643298, 43.8989618], [18.2643878, 43.8991081], [18.264419, 43.8995099], [18.264554, 43.8997189], [18.2647166, 43.899791], [18.2649794, 43.8998044], [18.2653841, 43.8997826], [18.2655794, 43.899822], [18.2660125, 43.8999577], [18.2661991, 43.8999493], [18.2663789, 43.8999183], [18.2665542, 43.899841], [18.2667501, 43.89964], [18.2666538, 43.8998953], [18.2666015, 43.9001655], [18.2666, 43.9002993], [18.2667673, 43.9004541], [18.2669234, 43.9005669], [18.2670607, 43.900754], [18.2671312, 43.9009591], [18.2674662, 43.9013324], [18.2675238, 43.9015202], [18.2674857, 43.9017192], [18.2674812, 43.9020217], [18.2675946, 43.9025383], [18.2678621, 43.9030053], [18.2680129, 43.9034072], [18.2685566, 43.9036289], [18.2694367, 43.9038712], [18.2697701, 43.9042006], [18.2704432, 43.9049466], [18.270876, 43.905705], [18.2712954, 43.9060141], [18.2714402, 43.9064717], [18.271455, 43.9070681], [18.2713325, 43.9076151], [18.2712591, 43.9079175], [18.2713842, 43.9080117], [18.2716778, 43.907986], [18.2719256, 43.9077495], [18.2723033, 43.9075651], [18.2728728, 43.9075519], [18.2733403, 43.907627], [18.2738057, 43.907733], [18.2742255, 43.9077811], [18.2746248, 43.9078181], [18.2750074, 43.90796], [18.2751707, 43.9081379], [18.2752652, 43.9083268], [18.2753768, 43.9083897], [18.2757067, 43.9085116], [18.2758302, 43.9085461], [18.2758863, 43.9084929], [18.2759356, 43.9083865], [18.2760118, 43.9083093], [18.2762077, 43.9082641], [18.2764453, 43.9082699], [18.2767249, 43.9083209], [18.2769527, 43.9084361], [18.2770136, 43.9086846], [18.2771262, 43.9089253], [18.2772644, 43.9090806], [18.2774816, 43.909249], [18.277722, 43.9093521], [18.2779021, 43.909473], [18.2780411, 43.9096596], [18.2783411, 43.9100404], [18.2786642, 43.910257], [18.2788427, 43.9104936], [18.2793881, 43.9110755], [18.2794691, 43.9112059], [18.2796425, 43.9113786], [18.2800283, 43.9116153], [18.2806781, 43.9118563], [18.2808052, 43.9119471], [18.2809871, 43.9121444], [18.2811779, 43.9122737], [18.2817354, 43.9125047], [18.2818511, 43.912609], [18.282005, 43.9127667], [18.282417, 43.9130075], [18.2823846, 43.9137744], [18.2823644, 43.9142389], [18.2821642, 43.9147717], [18.2822463, 43.9151659], [18.2823789, 43.9151563], [18.2832018, 43.9142637], [18.2836986, 43.9142182], [18.2847542, 43.913591], [18.2856958, 43.913372], [18.2860237, 43.9133324], [18.2864581, 43.9134082], [18.2868109, 43.9135061], [18.2870896, 43.9135176], [18.2874732, 43.9134293], [18.2874438, 43.9136831], [18.2871431, 43.9136762], [18.2867997, 43.9142239], [18.2862037, 43.9146468], [18.2872749, 43.9159362], [18.2883715, 43.9160664], [18.2898036, 43.9167458], [18.2897218, 43.9184286], [18.2923169, 43.9215624], [18.2958443, 43.9261058], [18.2969682, 43.9264093], [18.2987097, 43.926212], [18.2996374, 43.9252457], [18.30225, 43.924847], [18.3029407, 43.925494], [18.3037351, 43.9258086], [18.3034276, 43.9269462], [18.3031495, 43.9285847], [18.3025173, 43.9307094], [18.3005505, 43.9322775], [18.2980921, 43.9324293], [18.2973194, 43.9335421], [18.2978111, 43.934655], [18.2999184, 43.9351608], [18.300224, 43.9353256], [18.3005013, 43.9357294], [18.3008043, 43.9364083], [18.300792, 43.9373819], [18.3006726, 43.9377959], [18.3004849, 43.9381093], [18.3000651, 43.9383277], [18.2989105, 43.9385553], [18.2984777, 43.9386866], [18.2979237, 43.9389612], [18.2972948, 43.9391867], [18.2974196, 43.9396873], [18.2975819, 43.9396955], [18.2978775, 43.9398419], [18.2979211, 43.9400182], [18.2979006, 43.9403147], [18.2979516, 43.9403349], [18.2984391, 43.9403572], [18.2989201, 43.940445], [18.2992479, 43.9405386], [18.2993458, 43.9407176], [18.2995937, 43.9408438], [18.3002774, 43.9417311], [18.3006208, 43.9415033], [18.3009219, 43.9413083], [18.3012035, 43.9413149], [18.3020828, 43.9419147], [18.302503, 43.9422685], [18.3027911, 43.9423681], [18.3029362, 43.9424958], [18.3031104, 43.9420026], [18.3034083, 43.9418185], [18.3039998, 43.9418737], [18.3044699, 43.9420247], [18.3047307, 43.9423104], [18.3050671, 43.9424594], [18.3056782, 43.942596], [18.3071255, 43.9421248], [18.3095415, 43.9417362], [18.3110518, 43.9404543], [18.3137209, 43.93965], [18.3177901, 43.9391449], [18.3190515, 43.9391441], [18.3191194, 43.9404628], [18.3196782, 43.9412217], [18.3219236, 43.9410161], [18.3240482, 43.9401], [18.3247287, 43.9415694], [18.3258545, 43.9433377], [18.3257174, 43.944045], [18.3248542, 43.9450742], [18.3250122, 43.9475301], [18.3241686, 43.9486896], [18.3240815, 43.9509911], [18.3251351, 43.9527105], [18.3254161, 43.9542275], [18.3251058, 43.9553385], [18.3247137, 43.9557445], [18.3267507, 43.9582221], [18.3267507, 43.9588794], [18.327821, 43.9603112], [18.3290687, 43.9612558], [18.3294901, 43.9624187], [18.3304033, 43.9629749], [18.3309054, 43.9641505], [18.3320288, 43.9649554], [18.3310354, 43.9665645], [18.3312513, 43.9675828], [18.3347609, 43.9711698], [18.3367953, 43.9722265], [18.3375679, 43.9733892], [18.3389025, 43.9735408], [18.3403763, 43.9739471], [18.3419229, 43.9733386], [18.3426253, 43.9738441], [18.3438194, 43.9737936], [18.3444516, 43.9740463], [18.345784, 43.9741444], [18.3490117, 43.9756605], [18.3522485, 43.9797582], [18.3536422, 43.9799002], [18.3551284, 43.9821843], [18.3565847, 43.9827832], [18.3572356, 43.981881], [18.3613096, 43.9821337], [18.3641193, 43.9825886], [18.3672562, 43.9815677], [18.3675611, 43.9805163], [18.3686148, 43.9803647], [18.3696398, 43.9793954], [18.3711435, 43.9792022], [18.3727234, 43.9781814], [18.3748982, 43.9776269], [18.3760884, 43.9769696], [18.3764001, 43.9761232], [18.3763216, 43.975202], [18.3758783, 43.974951], [18.3751582, 43.9747556], [18.3747495, 43.9750655], [18.3745318, 43.9750107], [18.3742588, 43.9748113], [18.3737989, 43.9736543], [18.3730374, 43.973192], [18.372338, 43.9728443], [18.3720689, 43.9722031], [18.3712137, 43.9719232], [18.3707455, 43.9714692], [18.3699827, 43.9711864], [18.3696127, 43.9707621], [18.3694173, 43.9699982], [18.3692389, 43.9695685], [18.3684272, 43.9693487], [18.3679609, 43.9691779], [18.3674749, 43.9684441], [18.3668587, 43.9678284], [18.3665337, 43.9674355], [18.3657783, 43.9669611], [18.3651313, 43.9666747], [18.3659853, 43.9660317], [18.3697081, 43.9636971], [18.3705103, 43.9623421], [18.3715026, 43.9612417], [18.3725291, 43.9610306], [18.3738247, 43.9610991], [18.3750707, 43.960935], [18.3768959, 43.9597378], [18.3793266, 43.9588903], [18.3797787, 43.9587327], [18.3824091, 43.9584507], [18.3832246, 43.9586487], [18.384146, 43.9581061], [18.3849805, 43.9580721], [18.3850415, 43.956949], [18.3905138, 43.9542739], [18.3922931, 43.9542316], [18.3931065, 43.9531082], [18.3955215, 43.9531947], [18.3970116, 43.953731], [18.3974089, 43.9531589], [18.3989983, 43.9533734], [18.3988493, 43.9528728], [18.3981826, 43.9516776], [18.3988708, 43.9510422], [18.3997769, 43.9509088], [18.4004883, 43.951028], [18.402101, 43.9519506], [18.4028014, 43.9520954], [18.4034503, 43.9521104], [18.4062661, 43.951494], [18.4074057, 43.9513505], [18.4082749, 43.9514969], [18.4094669, 43.9514598], [18.4110424, 43.9518763], [18.4121291, 43.9521828], [18.4128533, 43.9525301], [18.4130956, 43.9527966], [18.413116, 43.954829], [18.4138536, 43.9555875], [18.4162769, 43.9563459], [18.4168037, 43.9569274], [18.4176261, 43.9572043], [18.4189224, 43.958013], [18.4206319, 43.9579387], [18.4208075, 43.9582674], [18.4219665, 43.9585707], [18.4230201, 43.9586719], [18.4237287, 43.9592258], [18.4247761, 43.9589752], [18.4259703, 43.9590005], [18.42703, 43.959854], [18.4300092, 43.9611747], [18.4334129, 43.9613694], [18.4353124, 43.9613011], [18.4359797, 43.9608966], [18.4376655, 43.9617561], [18.4391055, 43.9616297], [18.4393761, 43.9623296], [18.4405454, 43.9629948], [18.4404752, 43.9636774], [18.4417395, 43.9644358], [18.4436712, 43.9639555], [18.443039, 43.9629696], [18.4434433, 43.962831], [18.4438966, 43.9624514], [18.4439521, 43.9619836], [18.4450409, 43.9617561], [18.4451814, 43.9612505], [18.4441277, 43.9609472], [18.4431795, 43.960391], [18.4427932, 43.9584191], [18.4427229, 43.956978], [18.4428119, 43.9551697], [18.4435309, 43.9550069], [18.4435741, 43.9546524], [18.4440843, 43.9538785], [18.4448688, 43.9540375], [18.4455456, 43.9540152], [18.4460782, 43.953835], [18.4467236, 43.9537685], [18.4471345, 43.9539015], [18.4475198, 43.95401], [18.4478946, 43.9539705], [18.4484366, 43.9538373], [18.4487995, 43.9537887], [18.4491956, 43.9539215], [18.4493795, 43.9539773], [18.4497791, 43.9539872], [18.4505649, 43.9538846], [18.4517338, 43.9540031], [18.4523731, 43.9540162], [18.4529006, 43.9539279], [18.4534648, 43.9535583], [18.4566303, 43.952817], [18.4583333, 43.9525346], [18.4604499, 43.952145], [18.4624684, 43.9516423], [18.4654656, 43.9507382], [18.4663508, 43.950242], [18.4671143, 43.9502052], [18.4678283, 43.9500972], [18.4689768, 43.9500259], [18.4696981, 43.9499862], [18.4701915, 43.9499297], [18.4710387, 43.9497171], [18.4716256, 43.9495464], [18.4719315, 43.9495773], [18.4722889, 43.9495906], [18.4731064, 43.9492615], [18.474, 43.9489838], [18.4748678, 43.9485488], [18.4754932, 43.9483506], [18.4756994, 43.9483266], [18.476689, 43.948047], [18.4771497, 43.9478103], [18.4774976, 43.9474835], [18.4779295, 43.9471961], [18.4783645, 43.9471654], [18.478828, 43.9472359], [18.4793267, 43.9473971], [18.4800213, 43.9480092], [18.4801222, 43.9485382], [18.4805064, 43.9489261], [18.4806184, 43.9493453], [18.4807551, 43.9496025], [18.4818535, 43.9503932], [18.4827457, 43.950608], [18.4841838, 43.9506934], [18.484633, 43.9506623], [18.484921, 43.950743], [18.4856778, 43.9510163], [18.4863345, 43.9510222], [18.4869413, 43.9510734], [18.4874327, 43.9514154], [18.4879207, 43.9518146], [18.4881582, 43.9522049], [18.492706, 43.9514683], [18.4936146, 43.9541966], [18.4975926, 43.9567564], [18.4960679, 43.9601578], [18.5050471, 43.966773], [18.5068441, 43.9667405], [18.5116417, 43.9640464], [18.5117126, 43.9635403], [18.5157997, 43.9620207], [18.5160355, 43.9621437], [18.5161941, 43.9618312], [18.5162667, 43.9615017], [18.516424, 43.9611944], [18.5171652, 43.9606251], [18.5214535, 43.9662345], [18.5235228, 43.9685581], [18.5260129, 43.9713835], [18.5278103, 43.9731844], [18.5282135, 43.973589], [18.5298735, 43.9748736], [18.5318249, 43.9763935], [18.5331236, 43.9774121], [18.534308, 43.9783318], [18.5346644, 43.9785641], [18.5346448, 43.9785049], [18.5346514, 43.97852], [18.5346719, 43.9785492], [18.5347058, 43.9785812], [18.5347398, 43.9786118], [18.5348291, 43.9786719], [18.5356331, 43.9791941], [18.5357156, 43.9792166], [18.5357519, 43.9792269], [18.535666, 43.9792153], [18.5376972, 43.9805412], [18.5396261, 43.9817922], [18.539659, 43.9816132], [18.5396669, 43.9816309], [18.5397689, 43.9817506], [18.5397645, 43.9818089], [18.5397464, 43.9818693], [18.5430751, 43.9839629], [18.5439444, 43.98451], [18.5447999, 43.9850733], [18.5464039, 43.9861625], [18.5472348, 43.9867273], [18.5493554, 43.9881099], [18.5503595, 43.9887506], [18.5519846, 43.9898043], [18.5549452, 43.991749], [18.5573195, 43.9933121], [18.5596819, 43.9948785], [18.5616728, 43.9961943], [18.5650758, 43.9984703], [18.5670948, 43.9998142], [18.5689363, 44.0014031], [18.5698006, 44.0021488], [18.5716411, 44.0037188], [18.5731818, 44.0050303], [18.5748574, 44.0066418], [18.5751248, 44.006899], [18.5767807, 44.0086239], [18.5785104, 44.0106829], [18.5799649, 44.0124813], [18.5814238, 44.0142818], [18.5831597, 44.0163635], [18.5842994, 44.0176902], [18.5864661, 44.0202218], [18.5878379, 44.0219001], [18.5897551, 44.0242547], [18.5923084, 44.0264224], [18.5938067, 44.0276943], [18.5959785, 44.0294188], [18.5979505, 44.0309876], [18.6005538, 44.0330485], [18.6015546, 44.0338412], [18.6041525, 44.035897], [18.6066179, 44.0376759], [18.6080938, 44.0387363], [18.6110119, 44.0404363], [18.6113726, 44.0406377], [18.610181, 44.0427421], [18.6086511, 44.0464818], [18.6052853, 44.0513003], [18.6010463, 44.0600609], [18.6014817, 44.0615466], [18.6015877, 44.0621324], [18.6030961, 44.0631516], [18.6044612, 44.0632826], [18.604329, 44.0650722], [18.6033298, 44.0665607], [18.6047955, 44.0685201], [18.6034609, 44.0684114], [18.5998735, 44.0682807], [18.5949989, 44.0676173], [18.5919036, 44.0689445], [18.591858, 44.0712442], [18.5909278, 44.0720909], [18.5889174, 44.0722701], [18.587971, 44.0740112], [18.5865483, 44.0748056], [18.5875393, 44.0754309], [18.5872711, 44.0769761], [18.5865303, 44.0781497], [18.5873706, 44.0782562], [18.5872423, 44.0799178], [18.5863408, 44.0803299], [18.5847043, 44.0826284], [18.5865373, 44.0824858], [18.5847126, 44.0845768], [18.5830355, 44.0840998], [18.5813645, 44.0828991], [18.580397, 44.0840685], [18.5813128, 44.0858126], [18.5786238, 44.086309], [18.5769307, 44.085701], [18.5738692, 44.0852072], [18.5717911, 44.079811], [18.568986, 44.0778941], [18.5672718, 44.0759515], [18.5642803, 44.0751205], [18.5636911, 44.0739345], [18.5662479, 44.0736642], [18.5631331, 44.0659623], [18.5581475, 44.063989], [18.5546747, 44.0603889], [18.5506781, 44.0633508], [18.5519737, 44.0652531], [18.5500548, 44.0679296], [18.5431566, 44.0700592], [18.5388524, 44.0718388], [18.5371759, 44.0716602], [18.5354592, 44.0727166], [18.5366959, 44.0743474], [18.5348029, 44.0751171], [18.5327848, 44.074397], [18.5334356, 44.0780715], [18.5317882, 44.0837153], [18.5311117, 44.0859958], [18.5325216, 44.0871955], [18.531844, 44.0889175], [18.531844, 44.0909617], [18.5329531, 44.0921909], [18.5276604, 44.0929502], [18.5254811, 44.0928107], [18.5240169, 44.0934729], [18.5218628, 44.0919744], [18.5190914, 44.0919356], [18.521064, 44.09353], [18.522223, 44.0953925], [18.5181955, 44.0952398], [18.5030174, 44.1005332], [18.4930262, 44.100777], [18.4939215, 44.1099037], [18.4845499, 44.1150051], [18.4878183, 44.1206566], [18.4835014, 44.1205679], [18.482685, 44.119046], [18.4811151, 44.1184871], [18.4812639, 44.1166058], [18.4757155, 44.1181695], [18.4750859, 44.1130616], [18.4712654, 44.1116839], [18.4698612, 44.1110213], [18.4609991, 44.1083614], [18.4611372, 44.1073831], [18.457244, 44.1058754], [18.4548961, 44.1058384], [18.456475, 44.1026903], [18.4573151, 44.1019827], [18.4509262, 44.0955514], [18.4456968, 44.0932509], [18.4418688, 44.0928376], [18.4403056, 44.0910067], [18.4377015, 44.0929266], [18.4333063, 44.0930554], [18.4282053, 44.0917045], [18.4253419, 44.0904455], [18.4237589, 44.0887531], [18.4284597, 44.085511], [18.4306184, 44.082935], [18.4306184, 44.0771674], [18.4349988, 44.0727608], [18.4326071, 44.0722461], [18.4285845, 44.0670717], [18.427542, 44.0593757], [18.4180884, 44.057644], [18.4154733, 44.0606865], [18.4122317, 44.0601618], [18.4096237, 44.0608822], [18.4088808, 44.0648718], [18.4115885, 44.0659185], [18.4080752, 44.0692449], [18.4063747, 44.0690251], [18.4041997, 44.0714922], [18.403527, 44.0735508], [18.4013781, 44.0741204], [18.3935557, 44.0733911], [18.3919629, 44.0719385], [18.3928954, 44.0716443], [18.3929092, 44.0701384], [18.3899086, 44.0693374], [18.3895941, 44.0676985], [18.3864727, 44.0677963], [18.3855836, 44.0658586], [18.3761207, 44.0614169], [18.3707614, 44.0596826], [18.3674613, 44.0598334], [18.3635076, 44.059836], [18.3636689, 44.0580318], [18.3640367, 44.0538573], [18.3643434, 44.0536764], [18.3640122, 44.0535752], [18.3640337, 44.0532667], [18.3644843, 44.053128], [18.3649568, 44.0470039], [18.3643985, 44.0468665], [18.364141, 44.0465272], [18.3643341, 44.0460336], [18.3644414, 44.0445838], [18.364141, 44.0441365], [18.3640981, 44.0437047], [18.3649034, 44.0425917], [18.3649993, 44.0416841], [18.3642697, 44.0410054], [18.3641624, 44.0403113], [18.3645024, 44.0392671], [18.365407, 44.0378124], [18.3651721, 44.0356156], [18.3654713, 44.0337091], [18.3628535, 44.0290809], [18.3627217, 44.0276779], [18.3634114, 44.0271061], [18.3633899, 44.0268284], [18.3639908, 44.0266433], [18.3644628, 44.0258564], [18.3650851, 44.025409], [18.3650982, 44.024899], [18.3657717, 44.0239432], [18.3650898, 44.0222398], [18.3653018, 44.0210912], [18.3633394, 44.0204665], [18.3628106, 44.020163], [18.3627248, 44.0198852], [18.3643341, 44.0187125], [18.3662027, 44.0168946], [18.3667803, 44.0164751], [18.3675098, 44.016367], [18.3660936, 44.0157189], [18.3643341, 44.0158424], [18.3629409, 44.0157469], [18.361656, 44.0149478], [18.3606305, 44.0141956], [18.3577508, 44.0132783], [18.3575749, 44.0124166], [18.3578753, 44.0114598], [18.3576778, 44.0109814], [18.3579818, 44.010516], [18.3574247, 44.010364], [18.357532, 44.0097622], [18.3556008, 44.008543], [18.3550215, 44.0077559], [18.3544636, 44.0075861], [18.3538265, 44.0065028], [18.3522963, 44.0065984], [18.3519237, 44.0063279], [18.3489918, 44.0082652], [18.3476781, 44.0085202], [18.3468675, 44.0085275], [18.3466538, 44.0079792], [18.344706, 44.0095294], [18.3435859, 44.0098115], [18.3430499, 44.0113527], [18.3428355, 44.0117445], [18.3431444, 44.0142646], [18.3416455, 44.0136142], [18.3412427, 44.0104917], [18.340795, 44.0129412], [18.3408379, 44.0143455], [18.3405862, 44.0147961], [18.3399796, 44.0147005], [18.3397233, 44.0131921], [18.339529, 44.0143455], [18.3398946, 44.0149875], [18.3396097, 44.015806], [18.3402042, 44.0160186], [18.3404088, 44.0165059], [18.3388676, 44.0172539], [18.3384662, 44.0179976], [18.337276, 44.0177095], [18.3366222, 44.0173378], [18.3355191, 44.016999], [18.3351022, 44.0166406], [18.3352407, 44.0158447], [18.3363506, 44.0145406], [18.3350811, 44.013873], [18.3350268, 44.0127964], [18.3345433, 44.0116861], [18.3339996, 44.0104375], [18.3344072, 44.0073148], [18.3304661, 44.0010768], [18.3308108, 43.9996821], [18.3315304, 43.9992193], [18.3315133, 43.9980049], [18.3307141, 43.9975761], [18.3307442, 43.9949957], [18.3287089, 43.9921708], [18.3285848, 43.9909221], [18.326377, 43.9907045], [18.3262238, 43.9895388], [18.3232833, 43.9886651], [18.3220399, 43.9890392], [18.320867, 43.9877094], [18.3196156, 43.987262], [18.3195821, 43.9835862], [18.320086, 43.9829225], [18.3200792, 43.9822488], [18.3190391, 43.9818833], [18.3184147, 43.9803509], [18.3185065, 43.9792977], [18.3175725, 43.9796903], [18.3165664, 43.9790774], [18.316619, 43.9778837], [18.3121833, 43.9789306], [18.3107304, 43.9774236], [18.3101604, 43.9784099], [18.3093278, 43.9783215], [18.3089282, 43.9793279], [18.3044869, 43.9807471], [18.3033061, 43.9821229], [18.3009841, 43.9831698], [18.2995289, 43.984621], [18.2994625, 43.9825452], [18.295071, 43.9821905], [18.2917151, 43.9812442], [18.2894234, 43.9816027], [18.2856198, 43.982457], [18.284911, 43.9835592], [18.2829656, 43.9833365], [18.2817445, 43.9826463], [18.2784551, 43.9825363], [18.27849, 43.9831114], [18.2791552, 43.9836788], [18.2791337, 43.983978], [18.2787877, 43.9840224], [18.2779959, 43.9832532], [18.2775056, 43.9818955], [18.2776746, 43.9812335], [18.2774887, 43.9802022], [18.2719576, 43.9824203], [18.2694601, 43.9823696], [18.2682364, 43.9829577], [18.2662546, 43.9834697], [18.2670253, 43.9842054], [18.2609095, 43.9864998], [18.2538015, 43.9850466], [18.2526958, 43.9848205], [18.2513057, 43.983401], [18.2495587, 43.9835566], [18.2483986, 43.98351], [18.2477315, 43.9827104], [18.2464968, 43.981829], [18.2450031, 43.9816558], [18.2450908, 43.982697], [18.2435653, 43.9820753], [18.2441898, 43.98345], [18.2428766, 43.9836012], [18.2425554, 43.9844716], [18.2432169, 43.9855085], [18.2432514, 43.9878626], [18.2434829, 43.9898737], [18.2448685, 43.9909337], [18.2447645, 43.9927855], [18.2431191, 43.993863], [18.2430911, 43.9945037], [18.2441674, 43.9950375], [18.2441083, 43.996636], [18.2436742, 43.9970953], [18.2437617, 43.9982439], [18.2438102, 43.9994943], [18.2418988, 44.0003133], [18.2394951, 44.0007291], [18.2371915, 44.0001033], [18.2346694, 43.9998689], [18.2321191, 43.9990487], [18.2288854, 43.9989548], [18.2252133, 43.9974683], [18.2235691, 43.9974689], [18.2218617, 43.9956314], [18.2198382, 43.9957694], [18.2166423, 43.9927145], [18.2215016, 43.9919361], [18.2231411, 43.9907432], [18.221875, 43.9899314], [18.2220595, 43.9872548], [18.2229443, 43.9867469], [18.2220972, 43.9854835], [18.2206587, 43.9849506], [18.2216198, 43.9827196], [18.2219857, 43.9808166], [18.2207358, 43.9795922], [18.2173329, 43.9762585], [18.2150436, 43.9767795], [18.2129442, 43.9768417], [18.2115762, 43.9775527], [18.2110914, 43.9769986], [18.2103863, 43.9769492], [18.2093201, 43.9749737]]]}}]}