{"type": "FeatureCollection", "features": [{"type": "Feature", "properties": {"name": "Општина Источно Ново Сарајево / Opština Istočno Novo Sarajevo, Град Источно Сарајево / Grad Istočno Sarajevo, Република Српска / Republika Srpska, Bosna i Hercegovina / Босна и Херцеговина", "source": "OpenStreetMap relation 2528194", "licence": "ODbL 1.0"}, "geometry": {"type": "Polygon", "coordinates": [[[18.3568611, 43.81983], [18.3570005, 43.8197674], [18.3570655, 43.8198512], [18.3571832, 43.8199747], [18.3572897, 43.820082], [18.3573382, 43.8201374], [18.3574763, 43.8202252], [18.3576458, 43.8203282], [18.3579518, 43.8204778], [18.3580854, 43.8203635], [18.3582393, 43.8201901], [18.3583351, 43.8200213], [18.3584732, 43.8197585], [18.3585409, 43.8196337], [18.358547, 43.8196225], [18.3586397, 43.8194741], [18.3587229, 43.8193676], [18.3587669, 43.8193076], [18.3587841, 43.8192815], [18.3587873, 43.8192577], [18.3587841, 43.8192385], [18.3587731, 43.8192169], [18.3587339, 43.819166], [18.3586868, 43.8191014], [18.3585835, 43.8189182], [18.3585188, 43.8188034], [18.3592379, 43.8182528], [18.3588642, 43.8177441], [18.359676, 43.8168275], [18.3597451, 43.8166576], [18.3598283, 43.8163789], [18.3598786, 43.8162554], [18.3599272, 43.8161715], [18.3600167, 43.8160707], [18.3601204, 43.8160016], [18.3602413, 43.8159472], [18.3603779, 43.8159019], [18.3605789, 43.8158667], [18.3611002, 43.8157704], [18.3616293, 43.8156832], [18.3618157, 43.8156426], [18.3619748, 43.8156062], [18.3621622, 43.8155652], [18.3623971, 43.8154657], [18.3628572, 43.8153138], [18.363534, 43.8150963], [18.3643489, 43.8148244], [18.3652169, 43.8145155], [18.3652472, 43.8145112], [18.3653365, 43.814489], [18.3654119, 43.814574], [18.3655014, 43.8146657], [18.3655831, 43.8147575], [18.3656946, 43.814932], [18.3662127, 43.8152696], [18.3670167, 43.815792], [18.3678803, 43.8163188], [18.3685492, 43.8167278], [18.3687282, 43.8166043], [18.3687439, 43.8166066], [18.3695776, 43.8161205], [18.3698807, 43.8160231], [18.3701712, 43.8162225], [18.3703015, 43.816295], [18.3706234, 43.8164922], [18.3708539, 43.8166631], [18.3710048, 43.8167413], [18.3713136, 43.8169247], [18.371414, 43.8169953], [18.3714984, 43.8168855], [18.3715489, 43.8169053], [18.3717602, 43.8166281], [18.3719189, 43.8164454], [18.3720842, 43.8162747], [18.372254, 43.81604], [18.3725782, 43.8154768], [18.3726859, 43.8155008], [18.3729935, 43.8154856], [18.3732322, 43.81546], [18.3733743, 43.8153286], [18.3735253, 43.8151403], [18.373542, 43.8151067], [18.3735742, 43.8150698], [18.3736086, 43.8150402], [18.3736586, 43.8150105], [18.3737107, 43.8149913], [18.3737796, 43.8149809], [18.373854, 43.8149673], [18.373925, 43.8149504], [18.3739928, 43.8149456], [18.3740827, 43.8149552], [18.3741626, 43.814964], [18.3741971, 43.8149681], [18.3742526, 43.8149673], [18.374287, 43.8149665], [18.3743303, 43.8149673], [18.374358, 43.8149729], [18.3743902, 43.8149777], [18.3745535, 43.8147149], [18.374831, 43.8145098], [18.3749254, 43.8144361], [18.375002, 43.8143648], [18.3750598, 43.8143007], [18.3751031, 43.8142454], [18.3751863, 43.8141981], [18.3752962, 43.8141477], [18.3753529, 43.8141212], [18.3754306, 43.8140731], [18.3754772, 43.8140523], [18.3755094, 43.8140411], [18.3755549, 43.8140219], [18.3756404, 43.8139858], [18.3757182, 43.8139426], [18.3758081, 43.8139057], [18.3758914, 43.8138745], [18.3760213, 43.8138152], [18.3761967, 43.813727], [18.3762666, 43.813695], [18.3763255, 43.8136653], [18.3763643, 43.8136269], [18.3765253, 43.8135323], [18.3767108, 43.8134739], [18.3767485, 43.8134675], [18.3770816, 43.8132792], [18.3770205, 43.8132776], [18.377559, 43.812792], [18.3777866, 43.8126294], [18.3778932, 43.8125252], [18.3783929, 43.8121311], [18.3786133, 43.8119747], [18.3787137, 43.8119035], [18.3788436, 43.8118755], [18.3789413, 43.8118763], [18.3790279, 43.8118843], [18.3791878, 43.8118851], [18.379381, 43.8118482], [18.3794804, 43.8118716], [18.3795389, 43.81192], [18.3796496, 43.8119576], [18.3798454, 43.8120105], [18.3799842, 43.8120087], [18.3804246, 43.8122232], [18.3806694, 43.8123107], [18.3808003, 43.812332], [18.380998, 43.8122997], [18.3811844, 43.8121439], [18.3813115, 43.8120372], [18.3814348, 43.8118317], [18.3815461, 43.8116752], [18.3816135, 43.811601], [18.3816723, 43.8115138], [18.381698, 43.8113232], [18.3816845, 43.8111106], [18.3816645, 43.8109971], [18.3816825, 43.8108774], [18.3816735, 43.8106322], [18.3816155, 43.8105341], [18.3816605, 43.8104842], [18.38182, 43.8104608], [18.3822762, 43.8103514], [18.382452, 43.8101271], [18.3824771, 43.8100387], [18.3827943, 43.8097078], [18.3829231, 43.8095424], [18.3833439, 43.8092251], [18.3833094, 43.8090959], [18.3836014, 43.8085203], [18.3835292, 43.8084727], [18.3832748, 43.8084296], [18.3832779, 43.8083299], [18.3833643, 43.8082096], [18.383405, 43.808153], [18.3834569, 43.8080806], [18.3836674, 43.8079152], [18.3840662, 43.8078245], [18.3842923, 43.8077361], [18.3843363, 43.80765], [18.3843865, 43.8075412], [18.384531, 43.8074393], [18.3846252, 43.8074098], [18.3846817, 43.8073395], [18.3846786, 43.8072421], [18.3847194, 43.8071401], [18.3849238, 43.8068245], [18.385248, 43.8064431], [18.3853591, 43.8062925], [18.3858964, 43.8060489], [18.3860919, 43.8058213], [18.3869979, 43.8052059], [18.387291, 43.8047027], [18.3875574, 43.8044591], [18.3878372, 43.8043373], [18.3881659, 43.8041739], [18.388499, 43.8039591], [18.3918645, 43.8037238], [18.3957087, 43.803455], [18.4058799, 43.7972372], [18.4107663, 43.7960857], [18.4108417, 43.795859], [18.411005, 43.7957139], [18.4111934, 43.7955598], [18.4114195, 43.7953422], [18.4116708, 43.795043], [18.4118215, 43.7946984], [18.4118718, 43.7944355], [18.4118718, 43.794245], [18.4120589, 43.7939906], [18.412195, 43.7937568], [18.4121858, 43.7935197], [18.412123, 43.7932023], [18.4120727, 43.7930481], [18.4120727, 43.7928305], [18.4122235, 43.7924588], [18.412324, 43.7922502], [18.4125124, 43.7919056], [18.4128923, 43.791417], [18.4131153, 43.7911439], [18.4133003, 43.7910109], [18.4129738, 43.7909007], [18.4126611, 43.7907682], [18.412499, 43.790647], [18.4123221, 43.7904128], [18.4122763, 43.7902447], [18.4122537, 43.7900936], [18.4122227, 43.7898153], [18.4122461, 43.7895889], [18.4122886, 43.7894369], [18.412368, 43.7893007], [18.4124767, 43.7890203], [18.412682, 43.7886244], [18.4129575, 43.7883117], [18.4130916, 43.7882051], [18.4133666, 43.7879973], [18.4133437, 43.7875571], [18.4134108, 43.7873238], [18.4134504, 43.7869976], [18.4135801, 43.7868547], [18.4132985, 43.7839964], [18.4131643, 43.7839071], [18.4134213, 43.7838092], [18.4135433, 43.7837617], [18.413657, 43.783695], [18.4138452, 43.7835563], [18.4138896, 43.7835029], [18.4139093, 43.7834388], [18.4139192, 43.7833747], [18.4139143, 43.7833106], [18.4138995, 43.7832501], [18.4138797, 43.7830685], [18.4139389, 43.7829475], [18.4140474, 43.7828549], [18.4141954, 43.7827694], [18.4143236, 43.7826911], [18.4144617, 43.7826057], [18.4149154, 43.7824419], [18.4150107, 43.7823928], [18.4150535, 43.7823707], [18.4151817, 43.7822781], [18.4152507, 43.7821571], [18.4153, 43.7820289], [18.4153395, 43.7819078], [18.4153888, 43.7817868], [18.4154381, 43.7816586], [18.4154874, 43.7815375], [18.4156255, 43.7813239], [18.4157439, 43.7812171], [18.415882, 43.7811174], [18.4160299, 43.7810462], [18.4161877, 43.7809821], [18.4163455, 43.7809322], [18.4164935, 43.7808682], [18.4166414, 43.7807898], [18.4167992, 43.7807044], [18.4169274, 43.7806118], [18.4170261, 43.780505], [18.4170853, 43.780391], [18.4171148, 43.78027], [18.4172233, 43.7799923], [18.4172431, 43.7798712], [18.4172431, 43.7795009], [18.4172529, 43.7793798], [18.4173121, 43.7792516], [18.417391, 43.7791377], [18.4175094, 43.779038], [18.4176573, 43.7789526], [18.4177954, 43.7788885], [18.4179631, 43.7788529], [18.4181307, 43.7788315], [18.4182688, 43.7787603], [18.4183477, 43.7786535], [18.4184464, 43.7785324], [18.418545, 43.7784327], [18.4186634, 43.778333], [18.4188014, 43.7782404], [18.4192551, 43.7779057], [18.4193834, 43.7778203], [18.4194623, 43.7777063], [18.4195313, 43.7775781], [18.419551, 43.7773289], [18.4195806, 43.7771936], [18.4196595, 43.7770867], [18.419768, 43.776987], [18.4199258, 43.7769229], [18.4201034, 43.7768873], [18.420271, 43.7768589], [18.4204486, 43.7768375], [18.4206162, 43.7767948], [18.4207642, 43.7767449], [18.4209121, 43.7766808], [18.4210305, 43.7765882], [18.4211489, 43.7764814], [18.4212278, 43.7763746], [18.421425, 43.7761609], [18.4215335, 43.7760541], [18.4218886, 43.7757764], [18.4220267, 43.7756909], [18.4221549, 43.7756054], [18.4224902, 43.7754986], [18.422648, 43.7754416], [18.4228552, 43.7754345], [18.4230228, 43.7754416], [18.4231905, 43.7754345], [18.4233385, 43.7753491], [18.4233878, 43.7752137], [18.4234075, 43.7750927], [18.4234568, 43.7749716], [18.423516, 43.7748434], [18.4236048, 43.7747295], [18.423802, 43.7744873], [18.4239204, 43.7743734], [18.4240289, 43.7742594], [18.4242656, 43.7740671], [18.4244037, 43.774003], [18.4245516, 43.7739389], [18.4246996, 43.7738606], [18.4248278, 43.7737751], [18.4249264, 43.7736683], [18.4257155, 43.772892], [18.425824, 43.7727923], [18.4259719, 43.772714], [18.4261494, 43.7727211], [18.426327, 43.7727567], [18.4266919, 43.7728493], [18.4268596, 43.7728778], [18.4270371, 43.7728849], [18.4271949, 43.7728493], [18.427333, 43.7727638], [18.4274612, 43.7726499], [18.4275599, 43.772543], [18.4276092, 43.7724148], [18.4275993, 43.7722938], [18.42755, 43.7721798], [18.4274908, 43.7720587], [18.4274612, 43.7719305], [18.4274612, 43.7717952], [18.4275007, 43.7716741], [18.4275697, 43.7715317], [18.4276782, 43.7714249], [18.427767, 43.7713251], [18.4278558, 43.7712041], [18.4279347, 43.7710759], [18.4280234, 43.7709548], [18.4281615, 43.770848], [18.4283095, 43.7707839], [18.428487, 43.7707554], [18.4286645, 43.7707269], [18.4288125, 43.7706557], [18.4289506, 43.7705773], [18.4290985, 43.7705061], [18.4292662, 43.7704634], [18.4294339, 43.7704562], [18.4296114, 43.7704562], [18.4297791, 43.7704705], [18.429927, 43.7705132], [18.430075, 43.7705844], [18.4301933, 43.7706628], [18.430292, 43.7708551], [18.430361, 43.7709619], [18.4304596, 43.7710687], [18.4305681, 43.7711685], [18.4306865, 43.7712468], [18.4308541, 43.7713038], [18.4310218, 43.7713323], [18.4311895, 43.7713323], [18.4313572, 43.7713251], [18.4315446, 43.7712967], [18.4317221, 43.7712824], [18.4318996, 43.771261], [18.4322547, 43.771261], [18.4323731, 43.7713465], [18.4323632, 43.7714676], [18.432304, 43.7715815], [18.4322251, 43.7716884], [18.4321659, 43.7718023], [18.4321462, 43.7719234], [18.4321857, 43.7720445], [18.4322843, 43.7721442], [18.4324125, 43.7722225], [18.4325605, 43.7722938], [18.4328366, 43.772422], [18.4329649, 43.7725145], [18.4330635, 43.7726285], [18.4331424, 43.7727425], [18.4332312, 43.7728706], [18.4333199, 43.7729704], [18.4333988, 43.7730701], [18.4335271, 43.7731769], [18.433675, 43.773241], [18.4338525, 43.7732624], [18.4340202, 43.7732481], [18.4341484, 43.7731626], [18.4342569, 43.7730629], [18.4344147, 43.7729846], [18.4345923, 43.7729561], [18.4347698, 43.7729347], [18.434898, 43.772835], [18.4349177, 43.772714], [18.434898, 43.7725929], [18.4348487, 43.7724718], [18.4347994, 43.7723579], [18.4347895, 43.7722368], [18.4347895, 43.7721157], [18.4348191, 43.7719804], [18.4348882, 43.7718664], [18.4349769, 43.7717667], [18.4351347, 43.7716813], [18.4352827, 43.77161], [18.4354405, 43.7715531], [18.4356082, 43.7715103], [18.4357561, 43.7714533], [18.4358745, 43.7713608], [18.4359632, 43.771261], [18.4361605, 43.7707411], [18.4362394, 43.7706272], [18.4363775, 43.7705417], [18.4365353, 43.7704776], [18.4368312, 43.7703636], [18.436989, 43.7702995], [18.4371172, 43.7702069], [18.4371961, 43.770093], [18.437275, 43.769979], [18.4373243, 43.769858], [18.4373934, 43.7697369], [18.4374624, 43.76963], [18.4375315, 43.7695232], [18.4376104, 43.7694164], [18.4376451, 43.7693788], [18.437709, 43.7693095], [18.4378668, 43.7692525], [18.4380641, 43.7692312], [18.438429, 43.7692312], [18.4386164, 43.7692027], [18.4387841, 43.7691671], [18.4389222, 43.769103], [18.4390603, 43.7690104], [18.4392279, 43.7689605], [18.4394153, 43.7689463], [18.4395929, 43.7689392], [18.4397704, 43.7688822], [18.4399916, 43.7684142], [18.4399637, 43.768243], [18.4399358, 43.7680617], [18.4400056, 43.7678904], [18.4401311, 43.7677393], [18.4402566, 43.7675681], [18.4403682, 43.7674069], [18.4403682, 43.7670645], [18.4403961, 43.7668932], [18.4405635, 43.766732], [18.4407727, 43.7666515], [18.440982, 43.7665608], [18.4411214, 43.7664097], [18.4411633, 43.7662284], [18.4411772, 43.7660471], [18.4412749, 43.765896], [18.4414702, 43.7657852], [18.4416375, 43.7656542], [18.441777, 43.7655132], [18.4418747, 43.7654225], [18.4482631, 43.7651304], [18.4484305, 43.7649793], [18.4486537, 43.7649189], [18.4489187, 43.764939], [18.4491976, 43.7649894], [18.4494487, 43.7649591], [18.4497556, 43.7648483], [18.4500067, 43.7648282], [18.4508994, 43.7646872], [18.4511365, 43.7646368], [18.451276, 43.7644958], [18.4514573, 43.764385], [18.4517084, 43.7643648], [18.4519455, 43.7643749], [18.4521966, 43.7643346], [18.4524198, 43.7642742], [18.4526848, 43.7642137], [18.4529359, 43.7641633], [18.4531869, 43.7641533], [18.4536891, 43.764113], [18.4539262, 43.764113], [18.4541773, 43.7641029], [18.4544283, 43.7640727], [18.4546794, 43.7640022], [18.4548468, 43.7638712], [18.4550142, 43.7637403], [18.4551955, 43.7636194], [18.4554187, 43.7635287], [18.4556977, 43.7634683], [18.4559348, 43.7634582], [18.4564369, 43.7634179], [18.456702, 43.7633675], [18.4569251, 43.7632869], [18.4571204, 43.7631963], [18.4573296, 43.7631056], [18.457511, 43.7629948], [18.4576505, 43.7628437], [18.4578736, 43.7627732], [18.4580968, 43.7627127], [18.4583339, 43.7627127], [18.458599, 43.7627228], [18.4588361, 43.762743], [18.4590732, 43.7627833], [18.4592964, 43.7628437], [18.4595335, 43.7628941], [18.4597985, 43.7629142], [18.4600636, 43.7629142], [18.4603007, 43.7628538], [18.460496, 43.762753], [18.4615389, 43.7618837], [18.4629685, 43.7613255], [18.4634028, 43.7609707], [18.4643687, 43.7604922], [18.4659589, 43.7602278], [18.4729741, 43.7607577], [18.4722964, 43.7633056], [18.468841, 43.7769688], [18.4691612, 43.77734], [18.4696425, 43.777753], [18.4700819, 43.7779141], [18.4701516, 43.7779191], [18.470231, 43.7786862], [18.4710617, 43.7826717], [18.4654133, 43.7932092], [18.4668898, 43.7977012], [18.4671241, 43.7984204], [18.466359, 43.7992578], [18.4661097, 43.7994893], [18.4659615, 43.7996718], [18.4656755, 43.7998304], [18.4652623, 43.7999235], [18.4647096, 43.7998958], [18.4643121, 43.7999021], [18.463182, 43.8000923], [18.4613919, 43.801064], [18.4610467, 43.8014591], [18.4603118, 43.8020713], [18.4601935, 43.8027262], [18.460302, 43.8028685], [18.4604302, 43.8030002], [18.4600899, 43.8033277], [18.4598384, 43.8036694], [18.459508, 43.8035875], [18.4590839, 43.8035875], [18.4587042, 43.8036658], [18.4585168, 43.8037904], [18.4583392, 43.8039149], [18.4581518, 43.8040004], [18.4580039, 43.8040538], [18.4576932, 43.8041712], [18.4575058, 43.8042993], [18.4574269, 43.8044203], [18.4574072, 43.8045449], [18.4574022, 43.8047656], [18.4574085, 43.8050002], [18.4573843, 43.8051202], [18.4573614, 43.8051868], [18.4573186, 43.8052532], [18.4572505, 43.8053106], [18.4571392, 43.8053947], [18.457054, 43.8054373], [18.4569554, 43.805479], [18.4568614, 43.8054996], [18.456719, 43.8055103], [18.4565976, 43.805514], [18.4565038, 43.8055276], [18.4563955, 43.8055222], [18.4562987, 43.8055112], [18.4561109, 43.8054817], [18.4559897, 43.8054324], [18.455877, 43.8053895], [18.4558043, 43.8053729], [18.4557426, 43.8053647], [18.4556562, 43.8053749], [18.4555737, 43.8053984], [18.4552933, 43.8055307], [18.4551208, 43.8056365], [18.454844, 43.8057383], [18.4547341, 43.8057292], [18.4546558, 43.8057094], [18.4545899, 43.8056798], [18.4544975, 43.8056233], [18.4544072, 43.8055481], [18.4542263, 43.8054205], [18.4541161, 43.8053553], [18.4540356, 43.8053212], [18.4539001, 43.8053093], [18.4537696, 43.8053071], [18.4536572, 43.8052899], [18.4535008, 43.8052836], [18.4534066, 43.8052733], [18.4532284, 43.8052725], [18.4531385, 43.8052638], [18.4529244, 43.8052405], [18.4528523, 43.8052229], [18.4526433, 43.8052639], [18.4521501, 43.8052318], [18.4515583, 43.8052211], [18.4513857, 43.8052247], [18.4503945, 43.805214], [18.4500345, 43.8052247], [18.4497879, 43.8051962], [18.44964, 43.8051784], [18.4493539, 43.8052603], [18.4489742, 43.8053564], [18.44856, 43.8054276], [18.4480668, 43.8054276], [18.4478202, 43.8053742], [18.4475194, 43.8053777], [18.4471643, 43.8054454], [18.4465479, 43.8056447], [18.4462816, 43.8057657], [18.4459019, 43.8059152], [18.4458328, 43.8061892], [18.4458575, 43.8063743], [18.4459117, 43.8065878], [18.4429873, 43.8070718], [18.4427605, 43.8073779], [18.4426569, 43.8079189], [18.4428048, 43.8081787], [18.4430169, 43.8084171], [18.4431846, 43.808652], [18.4430711, 43.8087801], [18.4429972, 43.8089367], [18.4429922, 43.8090613], [18.4429774, 43.8092001], [18.4429331, 43.8093033], [18.4429084, 43.8093745], [18.4429084, 43.8094883], [18.4429824, 43.8096841], [18.4430662, 43.8098442], [18.4431796, 43.8101254], [18.4431973, 43.8102245], [18.443145, 43.8103378], [18.4431032, 43.810446], [18.4431101, 43.8105819], [18.443138, 43.8106825], [18.4431694, 43.8107782], [18.4431799, 43.8108587], [18.4431485, 43.8110021], [18.4430404, 43.8111506], [18.4423709, 43.8118778], [18.442207, 43.8119483], [18.4419768, 43.8121521], [18.4418583, 43.8122377], [18.4417571, 43.8122754], [18.4416176, 43.8123459], [18.4414607, 43.812444], [18.4413491, 43.812527], [18.4411678, 43.8124767], [18.4409935, 43.8124893], [18.440847, 43.8125195], [18.4407354, 43.812527], [18.440582, 43.8125195], [18.4404076, 43.8125019], [18.4403239, 43.812507], [18.4402018, 43.8125471], [18.4400938, 43.8125849], [18.440031, 43.8122679], [18.4397869, 43.8118225], [18.4397416, 43.8117998], [18.4396614, 43.8117898], [18.439623, 43.8118149], [18.4394626, 43.8121471], [18.4394312, 43.812512], [18.4393754, 43.812668], [18.4393824, 43.8127862], [18.4392185, 43.8127938], [18.4391385, 43.8127891], [18.4390964, 43.8127535], [18.4390215, 43.8127019], [18.4389796, 43.812678], [18.4388977, 43.8126529], [18.438814, 43.8126352], [18.4385684, 43.8128571], [18.4382665, 43.8130957], [18.4381131, 43.8131662], [18.4377888, 43.8132819], [18.4373843, 43.8134984], [18.4370181, 43.8138053], [18.4367636, 43.814057], [18.4366764, 43.8142079], [18.4366241, 43.8144998], [18.4365962, 43.8147917], [18.4362579, 43.8156321], [18.4358604, 43.8163165], [18.4355803, 43.816685], [18.4352252, 43.8173149], [18.4351167, 43.817628], [18.434954, 43.8178522], [18.4347271, 43.8179696], [18.4344904, 43.818055], [18.4343671, 43.8181262], [18.4341846, 43.8182721], [18.4340762, 43.818361], [18.4338789, 43.8184215], [18.4337014, 43.8184678], [18.4333907, 43.818635], [18.4330849, 43.8187595], [18.4328548, 43.8188816], [18.4327754, 43.818972], [18.4327185, 43.8191888], [18.4325972, 43.8192569], [18.4324047, 43.8193286], [18.4322635, 43.8193563], [18.4321518, 43.8193841], [18.4320211, 43.8194431], [18.4318842, 43.8195255], [18.4317718, 43.8196181], [18.431729, 43.8196557], [18.4316366, 43.8197582], [18.4315206, 43.8199281], [18.4314064, 43.8200798], [18.4312582, 43.8201666], [18.4310839, 43.8201716], [18.4309235, 43.8202169], [18.430784, 43.8204182], [18.4307003, 43.820544], [18.4305399, 43.8206044], [18.4304562, 43.8207503], [18.4303586, 43.8209163], [18.4302749, 43.8209566], [18.4300029, 43.8209868], [18.4297797, 43.8209667], [18.4296123, 43.8209365], [18.4294589, 43.8209365], [18.4292566, 43.8210069], [18.4291102, 43.8210925], [18.4287126, 43.8213692], [18.4284825, 43.8214296], [18.4283081, 43.8214296], [18.4281198, 43.8214145], [18.4278687, 43.8214447], [18.4275967, 43.8215101], [18.4269551, 43.8217869], [18.4267336, 43.8219705], [18.4266667, 43.8219877], [18.4264495, 43.8221419], [18.4260397, 43.8225986], [18.4249, 43.822746], [18.422515, 43.8226872], [18.4223305, 43.8228443], [18.421999, 43.8229424], [18.4216511, 43.822809], [18.4213162, 43.8233376], [18.421283, 43.8235555], [18.4212909, 43.8241569], [18.4213472, 43.8246486], [18.4214278, 43.8248978], [18.4215826, 43.8250633], [18.4210741, 43.8260711], [18.4206611, 43.8261516], [18.4207321, 43.8265458], [18.4208104, 43.8267003], [18.4208019, 43.8269196], [18.4209708, 43.8271774], [18.421216, 43.8273046], [18.4216394, 43.8273695], [18.4220933, 43.8275069], [18.4223128, 43.8275067], [18.4226433, 43.8275181], [18.423148, 43.8275543], [18.4232221, 43.8275478], [18.4232589, 43.8275508], [18.4236202, 43.8276606], [18.4236767, 43.8276906], [18.4236396, 43.8279868], [18.4234488, 43.8282697], [18.4232487, 43.8284536], [18.4229849, 43.8286596], [18.4228106, 43.8286], [18.4227268, 43.828564], [18.4226194, 43.8285017], [18.4225601, 43.8284557], [18.4224976, 43.828435], [18.4224652, 43.8284342], [18.4224201, 43.8284556], [18.4223522, 43.828501], [18.4222937, 43.8285267], [18.4222585, 43.8285353], [18.4222051, 43.8285385], [18.4221387, 43.8285333], [18.4219892, 43.8285074], [18.4219175, 43.8285011], [18.421885, 43.8284838], [18.4218429, 43.8284735], [18.421785, 43.8284411], [18.4217185, 43.8283876], [18.4216655, 43.8283878], [18.4215877, 43.8284022], [18.421536, 43.8283958], [18.4215049, 43.8283847], [18.42147, 43.8283596], [18.4214369, 43.8283287], [18.4212614, 43.8282773], [18.4211946, 43.8282417], [18.4211369, 43.8282042], [18.421105, 43.8281749], [18.421007, 43.8281514], [18.4209107, 43.8280736], [18.4208502, 43.8280627], [18.4207854, 43.8280624], [18.4206829, 43.8280739], [18.4206276, 43.8280684], [18.4205418, 43.8280333], [18.420386, 43.8279432], [18.420305, 43.8279238], [18.4201922, 43.8279192], [18.4201386, 43.8278894], [18.4201353, 43.827863], [18.4201412, 43.8278386], [18.4201989, 43.8277819], [18.4202107, 43.8277513], [18.4202091, 43.8277061], [18.4201929, 43.8276929], [18.4201635, 43.8276834], [18.4200753, 43.8276906], [18.4199329, 43.8277152], [18.4198382, 43.8277177], [18.4196532, 43.8277083], [18.4195639, 43.827695], [18.4194666, 43.827698], [18.4193667, 43.8277081], [18.419053, 43.8276821], [18.4186359, 43.8276687], [18.4185965, 43.8276789], [18.418564, 43.8277109], [18.4185323, 43.8277717], [18.4184995, 43.8278187], [18.4184694, 43.8278519], [18.4184323, 43.8278789], [18.4183823, 43.8278974], [18.4183132, 43.8279095], [18.4182346, 43.8279194], [18.4181593, 43.8279199], [18.4181086, 43.8279373], [18.4180863, 43.8279535], [18.4180828, 43.8279975], [18.4181298, 43.8280247], [18.4181505, 43.828076], [18.4179297, 43.828205], [18.4178324, 43.8282735], [18.4177346, 43.8283025], [18.4177046, 43.8283319], [18.4176913, 43.8283634], [18.4176718, 43.828379], [18.4176087, 43.8284028], [18.4175015, 43.8284347], [18.4174182, 43.8284387], [18.4173403, 43.8284332], [18.4172971, 43.8284392], [18.4172197, 43.8284896], [18.4171664, 43.8285141], [18.4171149, 43.8285189], [18.4170581, 43.8285138], [18.4169816, 43.8284821], [18.4169352, 43.8284869], [18.4168998, 43.8285034], [18.4169046, 43.8285666], [18.4168888, 43.8285883], [18.4168599, 43.8286087], [18.4168247, 43.8285988], [18.4167775, 43.8285956], [18.4166911, 43.8286536], [18.4167035, 43.828683], [18.4167001, 43.8287201], [18.4166604, 43.8287265], [18.4166108, 43.828727], [18.4165288, 43.8287166], [18.4164279, 43.828697], [18.4163763, 43.8287093], [18.4163147, 43.8287317], [18.4162533, 43.8287347], [18.4161605, 43.8287207], [18.4160885, 43.8287], [18.4160162, 43.8287], [18.4159457, 43.828639], [18.4159103, 43.8286272], [18.4158611, 43.8286328], [18.4158041, 43.8286506], [18.4157032, 43.8286921], [18.4156505, 43.828705], [18.4156028, 43.8287083], [18.4154982, 43.8286523], [18.4154282, 43.8286498], [18.4153558, 43.8286567], [18.4152789, 43.8286996], [18.4152094, 43.8287265], [18.415146, 43.8287402], [18.4150935, 43.8287388], [18.4150571, 43.8287264], [18.4150224, 43.8287031], [18.4150233, 43.8286156], [18.4150024, 43.8285696], [18.4149717, 43.8285369], [18.4149169, 43.8285315], [18.4148599, 43.8285463], [18.4148064, 43.8285691], [18.4147238, 43.8285728], [18.4146385, 43.8285642], [18.4144801, 43.8285348], [18.4144263, 43.8285221], [18.414219, 43.828437], [18.4140642, 43.8284033], [18.4138715, 43.8283365], [18.413826, 43.8283123], [18.4137664, 43.8282928], [18.4136791, 43.8282724], [18.4136174, 43.8282642], [18.4134725, 43.8282593], [18.4133995, 43.8282635], [18.413268, 43.8282617], [18.4132064, 43.8282542], [18.4130401, 43.8282221], [18.4129606, 43.8282131], [18.4127891, 43.8282083], [18.4126921, 43.8281981], [18.4126346, 43.8281889], [18.4124861, 43.8281433], [18.412435, 43.8281728], [18.4124036, 43.8282068], [18.4123771, 43.8282584], [18.4123763, 43.8283057], [18.4123843, 43.8283319], [18.412458, 43.8284422], [18.412531, 43.8286], [18.4125589, 43.8287299], [18.4125742, 43.8288624], [18.4125946, 43.8289761], [18.4126582, 43.829208], [18.4126904, 43.8292879], [18.4127737, 43.829449], [18.4128113, 43.8295016], [18.4129501, 43.8296604], [18.4130909, 43.829899], [18.4130986, 43.8299788], [18.4130909, 43.8300801], [18.4130774, 43.83017], [18.4130719, 43.8303887], [18.4130917, 43.8304614], [18.413144, 43.8306], [18.4131836, 43.8306767], [18.4132521, 43.8307874], [18.4133814, 43.8306938], [18.4135085, 43.8306592], [18.4136188, 43.8306731], [18.4141539, 43.830679], [18.4143622, 43.8307486], [18.4145905, 43.8308348], [18.4148408, 43.8309787], [18.4150467, 43.831075], [18.4154084, 43.8312745], [18.4156979, 43.8316244], [18.4157711, 43.8316807], [18.4158298, 43.8317167], [18.4159709, 43.8318216], [18.4161387, 43.8319835], [18.4162144, 43.8320742], [18.416311, 43.8321467], [18.4164285, 43.8322444], [18.4166052, 43.8324319], [18.4166621, 43.8325171], [18.4167336, 43.8325948], [18.4169356, 43.8327673], [18.4171353, 43.832973], [18.4172291, 43.8331586], [18.4172835, 43.8332826], [18.4173725, 43.8333929], [18.4174484, 43.8335266], [18.4175525, 43.833791], [18.4177037, 43.8337053], [18.417748, 43.8337469], [18.4177999, 43.8337722], [18.4178993, 43.8338433], [18.418, 43.8338985], [18.4181106, 43.8340324], [18.4181068, 43.8340637], [18.418088, 43.834093], [18.4180088, 43.8341232], [18.4180937, 43.8342441], [18.4183873, 43.8347886], [18.4185694, 43.8349124], [18.4186276, 43.8349718], [18.4186654, 43.8350309], [18.4186741, 43.8350825], [18.418673, 43.835152], [18.4186458, 43.835225], [18.4184913, 43.8352786], [18.4183877, 43.8353073], [18.4182736, 43.8353598], [18.417855, 43.8354773], [18.4177609, 43.8355183], [18.4177019, 43.8355517], [18.4176459, 43.8355677], [18.4174975, 43.8355752], [18.4174663, 43.835559], [18.4174055, 43.8355166], [18.4169746, 43.8358036], [18.4167849, 43.8359344], [18.4165842, 43.8360615], [18.4163806, 43.8361796], [18.4161015, 43.8363283], [18.4159073, 43.8364456], [18.4157187, 43.8365704], [18.4156068, 43.8366628], [18.4154839, 43.8368035], [18.4152418, 43.8371621], [18.4151085, 43.8372997], [18.4150276, 43.8373571], [18.4149453, 43.8374068], [18.4148105, 43.8374792], [18.4147287, 43.8375159], [18.4145524, 43.8376125], [18.4144343, 43.8376867], [18.4143805, 43.8377249], [18.4142052, 43.837866], [18.4139448, 43.8380825], [18.4137798, 43.8382016], [18.4136929, 43.838292], [18.4136828, 43.8383311], [18.4136825, 43.8383785], [18.4136947, 43.8384675], [18.4137283, 43.8385777], [18.413757, 43.8386449], [18.4138245, 43.8387736], [18.4138524, 43.8388459], [18.4138663, 43.838957], [18.4138598, 43.839089], [18.4138477, 43.8391524], [18.4138109, 43.8392837], [18.4137487, 43.8394768], [18.4137354, 43.8395418], [18.4137092, 43.8397393], [18.4137071, 43.8398062], [18.4137173, 43.8399371], [18.4137304, 43.8400028], [18.4137365, 43.8400674], [18.4137629, 43.8401478], [18.4138064, 43.8403758], [18.413831, 43.8404692], [18.4138751, 43.8406004], [18.4139722, 43.8407853], [18.4140835, 43.8409543], [18.4141439, 43.8410459], [18.4144049, 43.8412803], [18.4145311, 43.8413813], [18.4146661, 43.8414981], [18.4148145, 43.8416103], [18.4149603, 43.8417413], [18.415072, 43.8418329], [18.4152746, 43.8419599], [18.4153932, 43.8420422], [18.4154854, 43.8421432], [18.4155888, 43.8422795], [18.4156272, 43.8423879], [18.4156481, 43.8424468], [18.4156986, 43.8426354], [18.4157579, 43.8427964], [18.4158102, 43.8429473], [18.4158503, 43.8430102], [18.4159144, 43.8431104], [18.4157614, 43.8430749], [18.4156917, 43.8430353], [18.4156498, 43.8430089], [18.4156115, 43.8429976], [18.4155801, 43.8429875], [18.4155295, 43.8429636], [18.4154859, 43.8429372], [18.4154127, 43.8428857], [18.4153098, 43.8428052], [18.415118, 43.8426317], [18.4148896, 43.8424342], [18.414724, 43.8423273], [18.4145601, 43.842272], [18.4144049, 43.8422418], [18.4141225, 43.8422557], [18.4138766, 43.8422846], [18.4137214, 43.842311], [18.4135558, 43.8423097], [18.4133623, 43.8423009], [18.4132248, 43.8422909], [18.4130502, 43.8422783], [18.4128741, 43.8422745], [18.4127311, 43.8422821], [18.4126317, 43.8422972], [18.4124748, 43.8423651], [18.4121156, 43.8425524], [18.4119325, 43.8426895], [18.4118419, 43.8427448], [18.4117808, 43.8427587], [18.4117355, 43.8427675], [18.4116344, 43.8427838], [18.4115629, 43.8427989], [18.41146, 43.8428241], [18.4113572, 43.8428668], [18.4112647, 43.8429096], [18.4111375, 43.842941], [18.411059, 43.8429511], [18.4109404, 43.8429712], [18.4107818, 43.8430102], [18.4106318, 43.8430529], [18.4105516, 43.8430894], [18.4104191, 43.8431548], [18.410168, 43.8432592], [18.4099588, 43.8433434], [18.4097566, 43.8434138], [18.4096188, 43.8434528], [18.4094671, 43.8434906], [18.4093503, 43.8435195], [18.4092788, 43.8435597], [18.4092335, 43.8436213], [18.4091202, 43.8437571], [18.4090243, 43.8438816], [18.4089545, 43.843942], [18.4088865, 43.8439822], [18.4088133, 43.8440149], [18.4087209, 43.8440426], [18.4086494, 43.8440489], [18.4085744, 43.8440413], [18.4083931, 43.8439948], [18.4082501, 43.8439848], [18.4081525, 43.8439873], [18.408088, 43.8440049], [18.4080043, 43.8440325], [18.4079537, 43.8440577], [18.4078736, 43.8441096], [18.4077913, 43.8441595], [18.407691, 43.8441964], [18.4047285, 43.8438042], [18.3985975, 43.8429926], [18.3985518, 43.8429865], [18.3956045, 43.8424732], [18.3945872, 43.8422697], [18.3903355, 43.8413424], [18.3827042, 43.8397913], [18.3803071, 43.8392986], [18.3775551, 43.8387769], [18.3749875, 43.8380362], [18.3702115, 43.8371777], [18.367977, 43.8368385], [18.3654802, 43.836128], [18.3651414, 43.8348456], [18.3649182, 43.8342898], [18.3649174, 43.8340676], [18.3649991, 43.8335806], [18.3653225, 43.8332431], [18.3649253, 43.8330448], [18.364458, 43.832901], [18.3640978, 43.8327866], [18.3635116, 43.8324694], [18.3634821, 43.8324505], [18.3634672, 43.8324364], [18.3634569, 43.8324197], [18.3634467, 43.832395], [18.3632941, 43.8320614], [18.3622968, 43.8317569], [18.3618837, 43.8323637], [18.3610807, 43.8321408], [18.3611177, 43.8321397], [18.3608964, 43.8314144], [18.3609189, 43.8312397], [18.3611563, 43.8312558], [18.3612196, 43.8308405], [18.3612741, 43.8303029], [18.3613263, 43.8300001], [18.361374, 43.8300081], [18.3614073, 43.8300265], [18.361444, 43.8300321], [18.3614939, 43.8300289], [18.361575, 43.8300129], [18.3616671, 43.8299056], [18.3617981, 43.8297574], [18.3618148, 43.8297286], [18.3618226, 43.8296925], [18.3618215, 43.8296605], [18.3618137, 43.8296397], [18.3617959, 43.829626], [18.3617715, 43.8296156], [18.3617493, 43.8296076], [18.3617371, 43.8295964], [18.3617337, 43.8295796], [18.3617404, 43.8295644], [18.3617759, 43.8295548], [18.3617926, 43.8295515], [18.3618503, 43.8295403], [18.3619103, 43.8295347], [18.361968, 43.8295339], [18.3620324, 43.8295371], [18.3620901, 43.8295523], [18.3621346, 43.8295788], [18.3621701, 43.8296012], [18.3622123, 43.8296164], [18.3622511, 43.8296324], [18.3622833, 43.8296461], [18.3623067, 43.8296637], [18.3623211, 43.8296805], [18.36233, 43.8297117], [18.3623477, 43.8297374], [18.3623655, 43.8297558], [18.362381, 43.8297726], [18.3623899, 43.829799], [18.3624499, 43.8298815], [18.3624876, 43.8299136], [18.3625298, 43.8299184], [18.3626298, 43.8299168], [18.3626875, 43.829912], [18.3627297, 43.8298896], [18.3627674, 43.8298751], [18.3628118, 43.8298671], [18.3628518, 43.8298607], [18.362894, 43.8298463], [18.3629762, 43.8297966], [18.3630095, 43.8297614], [18.3630361, 43.8297085], [18.3630517, 43.8296541], [18.3630561, 43.8295692], [18.3630716, 43.8294779], [18.3630428, 43.8294218], [18.363005, 43.8293898], [18.3629628, 43.8293673], [18.3629184, 43.8293481], [18.3628651, 43.8293465], [18.3627874, 43.8293465], [18.3627319, 43.8293465], [18.3626853, 43.8293433], [18.3626608, 43.8293289], [18.362652, 43.8293097], [18.3626497, 43.8292888], [18.3626542, 43.8292696], [18.3626786, 43.8292568], [18.3627008, 43.8292472], [18.3627585, 43.8292472], [18.3627852, 43.8292472], [18.3628696, 43.8292632], [18.3629628, 43.8292968], [18.3630361, 43.8293209], [18.3631516, 43.8293529], [18.3632293, 43.8293914], [18.363287, 43.8294186], [18.3633381, 43.829449], [18.3633936, 43.8294859], [18.3634536, 43.8295115], [18.3635135, 43.8295275], [18.3635802, 43.8295548], [18.3636068, 43.8295692], [18.3636623, 43.8295884], [18.3637023, 43.8295996], [18.3637267, 43.8296028], [18.3637578, 43.8296028], [18.3638133, 43.829582], [18.3638555, 43.8295564], [18.3638675, 43.8295448], [18.363873, 43.829524], [18.3638708, 43.8295032], [18.3638741, 43.82948], [18.3638874, 43.8294535], [18.3638985, 43.8294303], [18.3639163, 43.8294055], [18.363923, 43.8293806], [18.3639285, 43.829351], [18.3639319, 43.8293286], [18.3639496, 43.8292957], [18.3639729, 43.8292693], [18.3640074, 43.8292429], [18.3640584, 43.829218], [18.3641006, 43.8291964], [18.3641184, 43.829178], [18.3641306, 43.82915], [18.3641306, 43.8291267], [18.3641273, 43.8290987], [18.3641262, 43.8290675], [18.3641373, 43.829041], [18.3641628, 43.8290138], [18.3642039, 43.8289938], [18.3642916, 43.8289729], [18.3643493, 43.8289737], [18.3643782, 43.8289793], [18.3644215, 43.8289858], [18.364467, 43.8289825], [18.3645048, 43.8289689], [18.3645381, 43.8289513], [18.3645658, 43.8289345], [18.3646047, 43.8289265], [18.3646236, 43.8289273], [18.3646502, 43.8289337], [18.3645681, 43.8287711], [18.364487, 43.8286349], [18.364427, 43.8285444], [18.3643993, 43.8284996], [18.3643849, 43.8284387], [18.364376, 43.828353], [18.3643738, 43.8282569], [18.3643826, 43.8282272], [18.3643926, 43.8282136], [18.3643937, 43.8281984], [18.3643915, 43.8281832], [18.364391, 43.8281804], [18.3644015, 43.828179], [18.3644029, 43.8281379], [18.3643997, 43.8280971], [18.3643879, 43.8280496], [18.364362, 43.8280088], [18.364344, 43.8279816], [18.3643353, 43.827972], [18.3641815, 43.8277273], [18.3640755, 43.8275659], [18.3640079, 43.8274424], [18.3639483, 43.8273382], [18.3639279, 43.8272691], [18.3639184, 43.8272351], [18.36392, 43.8272124], [18.363931, 43.8271841], [18.3639451, 43.8271547], [18.3635493, 43.8265839], [18.3635746, 43.8265663], [18.3641167, 43.826338], [18.3646518, 43.8261032], [18.3642877, 43.8256517], [18.3641636, 43.825505], [18.3641236, 43.8254648], [18.3640977, 43.8254648], [18.3641361, 43.8254347], [18.3640961, 43.8253843], [18.3640851, 43.8253985], [18.3640757, 43.8253911], [18.3640616, 43.8253962], [18.3640419, 43.8253645], [18.3640011, 43.8253113], [18.3639744, 43.8252711], [18.3638972, 43.8251883], [18.3638857, 43.8251759], [18.3637459, 43.8250207], [18.3637067, 43.8249641], [18.3636643, 43.8249844], [18.3631241, 43.824358], [18.3630927, 43.8243704], [18.3624976, 43.8236771], [18.3621491, 43.8233656], [18.3617848, 43.8230937], [18.361824, 43.8230575], [18.3613319, 43.8227515], [18.361006, 43.8225488], [18.3609156, 43.8224884], [18.3602857, 43.8220681], [18.3602727, 43.8220594], [18.3597592, 43.8217343], [18.3592505, 43.8213921], [18.3587951, 43.8210998], [18.3582819, 43.8208404], [18.3581388, 43.8207577], [18.3578106, 43.8205934], [18.3574734, 43.8203725], [18.3573832, 43.8203134], [18.3572917, 43.8202493], [18.357202, 43.8201762], [18.3571067, 43.8200886], [18.357053, 43.8200351], [18.3569548, 43.8199338], [18.3568611, 43.81983]]]}}]}