{"type": "FeatureCollection", "features": [{"type": "Feature", "properties": {"name": "Општина Источна Илиџа / Opština Istočna Ilidža, Град Источно Сарајево / Grad Istočno Sarajevo, Република Српска / Republika Srpska, Bosna i Hercegovina / Босна и Херцеговина", "source": "OpenStreetMap relation 2528192", "licence": "ODbL 1.0"}, "geometry": {"type": "Polygon", "coordinates": [[[18.3317523, 43.7796532], [18.3388974, 43.7783356], [18.3420266, 43.7777585], [18.3437211, 43.777414], [18.3522298, 43.7756842], [18.3591914, 43.7700947], [18.3596493, 43.7697187], [18.3604509, 43.7682657], [18.3634189, 43.7611792], [18.3648063, 43.7577853], [18.3619443, 43.7523623], [18.359324, 43.7470809], [18.3656464, 43.7431242], [18.3659781, 43.7432935], [18.3663806, 43.7434219], [18.3668466, 43.7435052], [18.3674622, 43.7435207], [18.3682916, 43.7436597], [18.3687405, 43.743706], [18.3688653, 43.7437036], [18.3691081, 43.7439407], [18.3694929, 43.7445522], [18.3697579, 43.7448178], [18.370241, 43.7454448], [18.3705347, 43.7458171], [18.3707898, 43.7461018], [18.3842274, 43.7476712], [18.3886648, 43.7490878], [18.3872073, 43.7557211], [18.385979, 43.760442], [18.3815984, 43.7623629], [18.3815237, 43.7623986], [18.3814965, 43.7624816], [18.381102, 43.7627556], [18.3810233, 43.7629017], [18.3810089, 43.7632683], [18.3792862, 43.764277], [18.378425, 43.7667959], [18.3774151, 43.7697243], [18.3813514, 43.7746069], [18.3812774, 43.7749359], [18.3813496, 43.7781439], [18.3858818, 43.779932], [18.3860588, 43.7798968], [18.3862734, 43.7798739], [18.3864865, 43.779875], [18.3866619, 43.7799252], [18.3869203, 43.7799906], [18.3871319, 43.7800146], [18.3873193, 43.780019], [18.3874312, 43.7800157], [18.3874675, 43.7799513], [18.3875143, 43.7799121], [18.3875702, 43.7798728], [18.3876624, 43.7798477], [18.3877274, 43.7798291], [18.3877607, 43.7798149], [18.387803, 43.7797811], [18.3878423, 43.7797462], [18.3879088, 43.779708], [18.3880116, 43.779672], [18.388072, 43.779672], [18.3881673, 43.7796513], [18.38827, 43.7796174], [18.3883985, 43.7795639], [18.3884832, 43.7795214], [18.3885557, 43.7794974], [18.3886494, 43.7794745], [18.3887824, 43.7794515], [18.3891935, 43.7793675], [18.3894323, 43.7793064], [18.3895563, 43.779254], [18.3898359, 43.7792377], [18.3902803, 43.7791471], [18.3905538, 43.7790576], [18.390572, 43.7790227], [18.3905977, 43.7789856], [18.3906415, 43.7789594], [18.3907005, 43.7789474], [18.3907488, 43.7789517], [18.3907957, 43.778967], [18.3908335, 43.7789823], [18.3908985, 43.7789867], [18.3909362, 43.7789867], [18.3909589, 43.7789867], [18.3910254, 43.7790281], [18.3911327, 43.7791274], [18.3913549, 43.7793304], [18.3914154, 43.7794079], [18.3914894, 43.7794679], [18.3915272, 43.7794079], [18.3916, 43.7793511], [18.3916632, 43.7793271], [18.3917524, 43.7793228], [18.3918809, 43.7793402], [18.3920063, 43.7793621], [18.3920895, 43.7793708], [18.3921968, 43.7793708], [18.3922965, 43.7793511], [18.3923948, 43.7793228], [18.3925822, 43.7792464], [18.3926517, 43.7792027], [18.392694, 43.7791624], [18.3927243, 43.7791329], [18.3927772, 43.7791122], [18.3928271, 43.7791067], [18.3928981, 43.7791122], [18.3929616, 43.7791373], [18.3930084, 43.7791634], [18.3930387, 43.7791776], [18.393084, 43.7791918], [18.3931822, 43.7791864], [18.3933984, 43.7791536], [18.3935253, 43.7791165], [18.3936085, 43.779074], [18.3937097, 43.7790041], [18.3938322, 43.7789386], [18.3939094, 43.7789118], [18.3939924, 43.778883], [18.3942554, 43.7788306], [18.3945335, 43.7787924], [18.3947164, 43.7787488], [18.3949809, 43.7786811], [18.3951743, 43.7786233], [18.3952771, 43.7785698], [18.3953905, 43.7785174], [18.3955371, 43.7784716], [18.3956716, 43.7784388], [18.3958348, 43.7784017], [18.3960207, 43.7783417], [18.3961749, 43.7782937], [18.3962928, 43.7782522], [18.396388, 43.7782369], [18.3964938, 43.7782293], [18.3965618, 43.7782359], [18.3966162, 43.7782489], [18.3966676, 43.7782675], [18.396716, 43.7782882], [18.3967855, 43.7783079], [18.3968808, 43.7783232], [18.3969639, 43.7783264], [18.39718, 43.7783428], [18.3975156, 43.7783635], [18.3977529, 43.7783679], [18.3978541, 43.7783712], [18.3979373, 43.7783865], [18.3979871, 43.7784006], [18.3982123, 43.7784912], [18.3983846, 43.7785632], [18.3984587, 43.7785949], [18.3985192, 43.7786113], [18.3986068, 43.7786167], [18.398702, 43.7786134], [18.3988094, 43.7786113], [18.3988834, 43.7786265], [18.3990074, 43.7786505], [18.399157, 43.7786604], [18.3992855, 43.7786615], [18.3993897, 43.7786822], [18.3995031, 43.7787073], [18.3996512, 43.7787226], [18.399825, 43.7787269], [18.3999339, 43.7787313], [18.4000684, 43.7787509], [18.4001515, 43.7787673], [18.4003314, 43.7787902], [18.400546, 43.7788099], [18.400679, 43.7788121], [18.4008407, 43.7788142], [18.401007, 43.778835], [18.4011324, 43.7788623], [18.4012594, 43.7788939], [18.4014468, 43.7789245], [18.4015995, 43.7789452], [18.4018715, 43.7789801], [18.4020741, 43.779003], [18.4022267, 43.7790129], [18.4023718, 43.7790096], [18.4024973, 43.7790085], [18.4026771, 43.7790183], [18.4028238, 43.7790423], [18.4029492, 43.7790587], [18.403126, 43.7790609], [18.403389, 43.7790805], [18.4036792, 43.7790969], [18.4038304, 43.7791111], [18.4039755, 43.7791176], [18.4041251, 43.7791209], [18.4043428, 43.7791384], [18.4044652, 43.7791405], [18.404645, 43.779134], [18.4047856, 43.779134], [18.4048763, 43.7791394], [18.405029, 43.7791667], [18.4052043, 43.779194], [18.4052708, 43.7792071], [18.4053736, 43.7792093], [18.4054854, 43.7791984], [18.4055867, 43.7791776], [18.4056753, 43.7791537], [18.4057439, 43.7791351], [18.4059162, 43.7790783], [18.4060779, 43.7790401], [18.406161, 43.7790325], [18.4062487, 43.7790139], [18.406353, 43.7789845], [18.4064059, 43.7789627], [18.4064769, 43.7789201], [18.4065253, 43.7788732], [18.4067067, 43.7787553], [18.4068094, 43.7787007], [18.4069304, 43.7786276], [18.4070286, 43.7785742], [18.4071314, 43.7785152], [18.4072009, 43.7784399], [18.4072674, 43.7783548], [18.4074291, 43.77813], [18.407615, 43.7778626], [18.4076982, 43.7777851], [18.4077707, 43.7777153], [18.4078372, 43.7776225], [18.4078538, 43.7775789], [18.4079732, 43.7774261], [18.4080488, 43.7773082], [18.4081259, 43.7772155], [18.4081728, 43.7771489], [18.4081939, 43.7771282], [18.4088393, 43.777341], [18.4089859, 43.7774316], [18.4091628, 43.7775047], [18.4093834, 43.7776498], [18.409586, 43.7778965], [18.4096615, 43.7780089], [18.4097598, 43.7780994], [18.4098671, 43.7781715], [18.4101694, 43.778285], [18.4105472, 43.7784825], [18.4105956, 43.7785403], [18.4107392, 43.7791133], [18.4107604, 43.7791755], [18.4107649, 43.7792027], [18.4108828, 43.7793075], [18.4109553, 43.7793588], [18.41104, 43.7794395], [18.4111684, 43.7794799], [18.411247, 43.7795803], [18.411312, 43.7797211], [18.4113589, 43.7797986], [18.4113664, 43.7798542], [18.4113559, 43.7798968], [18.4113181, 43.7799481], [18.4112652, 43.7800125], [18.4112576, 43.7800692], [18.4112531, 43.7801172], [18.4112198, 43.7801576], [18.4111926, 43.780174], [18.4110657, 43.7802514], [18.4109906, 43.7802834], [18.411371, 43.7809324], [18.4130712, 43.7838487], [18.4131643, 43.7839071], [18.4132985, 43.7839964], [18.4135801, 43.7868547], [18.4134504, 43.7869976], [18.4134108, 43.7873238], [18.4133437, 43.7875571], [18.4133666, 43.7879973], [18.4130916, 43.7882051], [18.4129575, 43.7883117], [18.412682, 43.7886244], [18.4124767, 43.7890203], [18.412368, 43.7893007], [18.4122886, 43.7894369], [18.4122461, 43.7895889], [18.4122227, 43.7898153], [18.4122537, 43.7900936], [18.4122763, 43.7902447], [18.4123221, 43.7904128], [18.412499, 43.790647], [18.4126611, 43.7907682], [18.4129738, 43.7909007], [18.4133003, 43.7910109], [18.4131153, 43.7911439], [18.4128923, 43.791417], [18.4125124, 43.7919056], [18.412324, 43.7922502], [18.4122235, 43.7924588], [18.4120727, 43.7928305], [18.4120727, 43.7930481], [18.412123, 43.7932023], [18.4121858, 43.7935197], [18.412195, 43.7937568], [18.4120589, 43.7939906], [18.4118718, 43.794245], [18.4118718, 43.7944355], [18.4118215, 43.7946984], [18.4116708, 43.795043], [18.4114195, 43.7953422], [18.4111934, 43.7955598], [18.411005, 43.7957139], [18.4108417, 43.795859], [18.4107663, 43.7960857], [18.4058799, 43.7972372], [18.3957087, 43.803455], [18.3918645, 43.8037238], [18.388499, 43.8039591], [18.3881659, 43.8041739], [18.3878372, 43.8043373], [18.3875574, 43.8044591], [18.387291, 43.8047027], [18.3869979, 43.8052059], [18.3860919, 43.8058213], [18.3858964, 43.8060489], [18.3853591, 43.8062925], [18.385248, 43.8064431], [18.3849238, 43.8068245], [18.3847194, 43.8071401], [18.3846786, 43.8072421], [18.3846817, 43.8073395], [18.3846252, 43.8074098], [18.384531, 43.8074393], [18.3843865, 43.8075412], [18.3843363, 43.80765], [18.3842923, 43.8077361], [18.3840662, 43.8078245], [18.3836674, 43.8079152], [18.3834569, 43.8080806], [18.383405, 43.808153], [18.3833643, 43.8082096], [18.3832779, 43.8083299], [18.3832748, 43.8084296], [18.3835292, 43.8084727], [18.3836014, 43.8085203], [18.3833094, 43.8090959], [18.3833439, 43.8092251], [18.3829231, 43.8095424], [18.3827943, 43.8097078], [18.3824771, 43.8100387], [18.382452, 43.8101271], [18.3822762, 43.8103514], [18.38182, 43.8104608], [18.3816605, 43.8104842], [18.3816155, 43.8105341], [18.3816735, 43.8106322], [18.3816825, 43.8108774], [18.3816645, 43.8109971], [18.3816845, 43.8111106], [18.381698, 43.8113232], [18.3816723, 43.8115138], [18.3816135, 43.811601], [18.3815461, 43.8116752], [18.3814348, 43.8118317], [18.3813115, 43.8120372], [18.3811844, 43.8121439], [18.380998, 43.8122997], [18.3808003, 43.812332], [18.3806694, 43.8123107], [18.3804246, 43.8122232], [18.3799842, 43.8120087], [18.3798454, 43.8120105], [18.3796496, 43.8119576], [18.3795389, 43.81192], [18.3794804, 43.8118716], [18.379381, 43.8118482], [18.3791878, 43.8118851], [18.3790279, 43.8118843], [18.3789413, 43.8118763], [18.3788436, 43.8118755], [18.3787137, 43.8119035], [18.3786133, 43.8119747], [18.3783929, 43.8121311], [18.3778932, 43.8125252], [18.3777866, 43.8126294], [18.377559, 43.812792], [18.3770205, 43.8132776], [18.3770816, 43.8132792], [18.3767485, 43.8134675], [18.3767108, 43.8134739], [18.3765253, 43.8135323], [18.3763643, 43.8136269], [18.3763255, 43.8136653], [18.3762666, 43.813695], [18.3761967, 43.813727], [18.3760213, 43.8138152], [18.3758914, 43.8138745], [18.3758081, 43.8139057], [18.3757182, 43.8139426], [18.3756404, 43.8139858], [18.3755549, 43.8140219], [18.3755094, 43.8140411], [18.3754772, 43.8140523], [18.3754306, 43.8140731], [18.3753529, 43.8141212], [18.3752962, 43.8141477], [18.3751863, 43.8141981], [18.3751031, 43.8142454], [18.3750598, 43.8143007], [18.375002, 43.8143648], [18.3749254, 43.8144361], [18.374831, 43.8145098], [18.3745535, 43.8147149], [18.3743902, 43.8149777], [18.374358, 43.8149729], [18.3743303, 43.8149673], [18.374287, 43.8149665], [18.3742526, 43.8149673], [18.3741971, 43.8149681], [18.3741626, 43.814964], [18.3740827, 43.8149552], [18.3739928, 43.8149456], [18.373925, 43.8149504], [18.373854, 43.8149673], [18.3737796, 43.8149809], [18.3737107, 43.8149913], [18.3736586, 43.8150105], [18.3736086, 43.8150402], [18.3735742, 43.8150698], [18.373542, 43.8151067], [18.3735253, 43.8151403], [18.3733743, 43.8153286], [18.3732322, 43.81546], [18.3729935, 43.8154856], [18.3726859, 43.8155008], [18.3725782, 43.8154768], [18.372254, 43.81604], [18.3720842, 43.8162747], [18.3719189, 43.8164454], [18.3717602, 43.8166281], [18.3715489, 43.8169053], [18.3714984, 43.8168855], [18.371414, 43.8169953], [18.3713136, 43.8169247], [18.3710048, 43.8167413], [18.3708539, 43.8166631], [18.3706234, 43.8164922], [18.3703015, 43.816295], [18.3701712, 43.8162225], [18.3698807, 43.8160231], [18.3695776, 43.8161205], [18.3687439, 43.8166066], [18.3687282, 43.8166043], [18.3685492, 43.8167278], [18.3678803, 43.8163188], [18.3670167, 43.815792], [18.3662127, 43.8152696], [18.3656946, 43.814932], [18.3655831, 43.8147575], [18.3655014, 43.8146657], [18.3654119, 43.814574], [18.3653365, 43.814489], [18.3652472, 43.8145112], [18.3652169, 43.8145155], [18.3643489, 43.8148244], [18.363534, 43.8150963], [18.3628572, 43.8153138], [18.3623971, 43.8154657], [18.3621622, 43.8155652], [18.3619748, 43.8156062], [18.3618157, 43.8156426], [18.3616293, 43.8156832], [18.3611002, 43.8157704], [18.3605789, 43.8158667], [18.3603779, 43.8159019], [18.3602413, 43.8159472], [18.3601204, 43.8160016], [18.3600167, 43.8160707], [18.3599272, 43.8161715], [18.3598786, 43.8162554], [18.3598283, 43.8163789], [18.3597451, 43.8166576], [18.359676, 43.8168275], [18.3588642, 43.8177441], [18.3592379, 43.8182528], [18.3585188, 43.8188034], [18.3585835, 43.8189182], [18.3586868, 43.8191014], [18.3587339, 43.819166], [18.3587731, 43.8192169], [18.3587841, 43.8192385], [18.3587873, 43.8192577], [18.3587841, 43.8192815], [18.3587669, 43.8193076], [18.3587229, 43.8193676], [18.3586397, 43.8194741], [18.358547, 43.8196225], [18.3585409, 43.8196337], [18.3584732, 43.8197585], [18.3583351, 43.8200213], [18.3582393, 43.8201901], [18.3580854, 43.8203635], [18.3579518, 43.8204778], [18.3576458, 43.8203282], [18.3574763, 43.8202252], [18.3573382, 43.8201374], [18.3572897, 43.820082], [18.3571832, 43.8199747], [18.3570655, 43.8198512], [18.3570005, 43.8197674], [18.3568611, 43.81983], [18.3569548, 43.8199338], [18.357053, 43.8200351], [18.3571067, 43.8200886], [18.357202, 43.8201762], [18.3572917, 43.8202493], [18.3573832, 43.8203134], [18.3574734, 43.8203725], [18.3578106, 43.8205934], [18.3581388, 43.8207577], [18.3582819, 43.8208404], [18.3587951, 43.8210998], [18.3592505, 43.8213921], [18.3597592, 43.8217343], [18.3602727, 43.8220594], [18.3602857, 43.8220681], [18.3609156, 43.8224884], [18.361006, 43.8225488], [18.3613319, 43.8227515], [18.361824, 43.8230575], [18.3617848, 43.8230937], [18.3621491, 43.8233656], [18.3624976, 43.8236771], [18.3630927, 43.8243704], [18.3631241, 43.824358], [18.3636643, 43.8249844], [18.3637067, 43.8249641], [18.3637459, 43.8250207], [18.3638857, 43.8251759], [18.3638972, 43.8251883], [18.3639744, 43.8252711], [18.3640011, 43.8253113], [18.3640419, 43.8253645], [18.3640616, 43.8253962], [18.3640757, 43.8253911], [18.3640851, 43.8253985], [18.3640961, 43.8253843], [18.3641361, 43.8254347], [18.3640977, 43.8254648], [18.3641236, 43.8254648], [18.3641636, 43.825505], [18.3642877, 43.8256517], [18.3646518, 43.8261032], [18.3641167, 43.826338], [18.3635746, 43.8265663], [18.3635493, 43.8265839], [18.3639451, 43.8271547], [18.363931, 43.8271841], [18.36392, 43.8272124], [18.3639184, 43.8272351], [18.3639279, 43.8272691], [18.3639483, 43.8273382], [18.3640079, 43.8274424], [18.3640755, 43.8275659], [18.3641815, 43.8277273], [18.3643353, 43.827972], [18.364344, 43.8279816], [18.364362, 43.8280088], [18.3643879, 43.8280496], [18.3643997, 43.8280971], [18.3644029, 43.8281379], [18.3644015, 43.828179], [18.364391, 43.8281804], [18.3643915, 43.8281832], [18.3643937, 43.8281984], [18.3643926, 43.8282136], [18.3643826, 43.8282272], [18.3643738, 43.8282569], [18.364376, 43.828353], [18.3643849, 43.8284387], [18.3643993, 43.8284996], [18.364427, 43.8285444], [18.364487, 43.8286349], [18.3645681, 43.8287711], [18.3646502, 43.8289337], [18.3646236, 43.8289273], [18.3646047, 43.8289265], [18.3645658, 43.8289345], [18.3645381, 43.8289513], [18.3645048, 43.8289689], [18.364467, 43.8289825], [18.3644215, 43.8289858], [18.3643782, 43.8289793], [18.3643493, 43.8289737], [18.3642916, 43.8289729], [18.3642039, 43.8289938], [18.3641628, 43.8290138], [18.3641373, 43.829041], [18.3641262, 43.8290675], [18.3641273, 43.8290987], [18.3641306, 43.8291267], [18.3641306, 43.82915], [18.3641184, 43.829178], [18.3641006, 43.8291964], [18.3640584, 43.829218], [18.3640074, 43.8292429], [18.3639729, 43.8292693], [18.3639496, 43.8292957], [18.3639319, 43.8293286], [18.3639285, 43.829351], [18.363923, 43.8293806], [18.3639163, 43.8294055], [18.3638985, 43.8294303], [18.3638874, 43.8294535], [18.3638741, 43.82948], [18.3638708, 43.8295032], [18.363873, 43.829524], [18.3638675, 43.8295448], [18.3638555, 43.8295564], [18.3638133, 43.829582], [18.3637578, 43.8296028], [18.3637267, 43.8296028], [18.3637023, 43.8295996], [18.3636623, 43.8295884], [18.3636068, 43.8295692], [18.3635802, 43.8295548], [18.3635135, 43.8295275], [18.3634536, 43.8295115], [18.3633936, 43.8294859], [18.3633381, 43.829449], [18.363287, 43.8294186], [18.3632293, 43.8293914], [18.3631516, 43.8293529], [18.3630361, 43.8293209], [18.3629628, 43.8292968], [18.3628696, 43.8292632], [18.3627852, 43.8292472], [18.3627585, 43.8292472], [18.3627008, 43.8292472], [18.3626786, 43.8292568], [18.3626542, 43.8292696], [18.3626497, 43.8292888], [18.362652, 43.8293097], [18.3626608, 43.8293289], [18.3626853, 43.8293433], [18.3627319, 43.8293465], [18.3627874, 43.8293465], [18.3628651, 43.8293465], [18.3629184, 43.8293481], [18.3629628, 43.8293673], [18.363005, 43.8293898], [18.3630428, 43.8294218], [18.3630716, 43.8294779], [18.3630561, 43.8295692], [18.3630517, 43.8296541], [18.3630361, 43.8297085], [18.3630095, 43.8297614], [18.3629762, 43.8297966], [18.362894, 43.8298463], [18.3628518, 43.8298607], [18.3628118, 43.8298671], [18.3627674, 43.8298751], [18.3627297, 43.8298896], [18.3626875, 43.829912], [18.3626298, 43.8299168], [18.3625298, 43.8299184], [18.3624876, 43.8299136], [18.3624499, 43.8298815], [18.3623899, 43.829799], [18.362381, 43.8297726], [18.3623655, 43.8297558], [18.3623477, 43.8297374], [18.36233, 43.8297117], [18.3623211, 43.8296805], [18.3623067, 43.8296637], [18.3622833, 43.8296461], [18.3622511, 43.8296324], [18.3622123, 43.8296164], [18.3621701, 43.8296012], [18.3621346, 43.8295788], [18.3620901, 43.8295523], [18.3620324, 43.8295371], [18.361968, 43.8295339], [18.3619103, 43.8295347], [18.3618503, 43.8295403], [18.3617926, 43.8295515], [18.3617759, 43.8295548], [18.3617404, 43.8295644], [18.3617337, 43.8295796], [18.3617371, 43.8295964], [18.3617493, 43.8296076], [18.3617715, 43.8296156], [18.3617959, 43.829626], [18.3618137, 43.8296397], [18.3618215, 43.8296605], [18.3618226, 43.8296925], [18.3618148, 43.8297286], [18.3617981, 43.8297574], [18.3616671, 43.8299056], [18.361575, 43.8300129], [18.3614939, 43.8300289], [18.361444, 43.8300321], [18.3614073, 43.8300265], [18.361374, 43.8300081], [18.3613263, 43.8300001], [18.3612741, 43.8303029], [18.3612196, 43.8308405], [18.3611563, 43.8312558], [18.3609189, 43.8312397], [18.3608964, 43.8314144], [18.3611177, 43.8321397], [18.3610807, 43.8321408], [18.3618837, 43.8323637], [18.3622968, 43.8317569], [18.3632941, 43.8320614], [18.3634467, 43.832395], [18.3634569, 43.8324197], [18.3634672, 43.8324364], [18.3634821, 43.8324505], [18.3635116, 43.8324694], [18.3640978, 43.8327866], [18.364458, 43.832901], [18.3649253, 43.8330448], [18.3653225, 43.8332431], [18.3649991, 43.8335806], [18.3649174, 43.8340676], [18.3649182, 43.8342898], [18.3651414, 43.8348456], [18.3654802, 43.836128], [18.3641459, 43.8358505], [18.3626737, 43.8356687], [18.3618943, 43.835002], [18.3587054, 43.8305875], [18.3580997, 43.830692], [18.3578058, 43.8306635], [18.3576419, 43.830622], [18.3573873, 43.8304263], [18.357233, 43.8302479], [18.3570117, 43.8298683], [18.3583056, 43.829481], [18.3578674, 43.8288649], [18.3583189, 43.8286894], [18.358402, 43.828503], [18.3582151, 43.8281948], [18.3575444, 43.8281387], [18.3573527, 43.8278235], [18.357966, 43.8275836], [18.358045, 43.826876], [18.3577469, 43.8264723], [18.3574895, 43.8263707], [18.3571209, 43.8263617], [18.3564929, 43.8265846], [18.3564257, 43.8264819], [18.3562377, 43.8261949], [18.3561653, 43.8260986], [18.3555679, 43.8253042], [18.3555173, 43.8249756], [18.3547556, 43.8239548], [18.3556745, 43.8235626], [18.3545163, 43.8219947], [18.3530643, 43.8210062], [18.3529979, 43.820961], [18.3529159, 43.8209096], [18.3528298, 43.8210032], [18.3527531, 43.8211022], [18.3523384, 43.8215356], [18.3522385, 43.8216222], [18.3517705, 43.8219255], [18.3514373, 43.8215334], [18.3513911, 43.8213521], [18.3517763, 43.8186304], [18.3498628, 43.8163081], [18.3482349, 43.8169044], [18.3473775, 43.8160699], [18.3471381, 43.8157042], [18.3452039, 43.8136336], [18.3427801, 43.8104877], [18.3428383, 43.8079937], [18.3400939, 43.8047944], [18.3393551, 43.8038191], [18.3379606, 43.8019783], [18.3349885, 43.8015339], [18.3337065, 43.8006192], [18.333613, 43.7993618], [18.3333371, 43.7933258], [18.3334495, 43.7919639], [18.3345084, 43.7916031], [18.3337214, 43.7895609], [18.334065, 43.7888211], [18.3342059, 43.7881702], [18.3340176, 43.7875802], [18.3324792, 43.7876874], [18.3317523, 43.7796532]]]}}]}