{"type": "FeatureCollection", "features": [{"type": "Feature", "properties": {"name": "Општина Источни Стари Град / Opština Istočni Stari Grad, Град Источно Сарајево / Grad Istočno Sarajevo, Република Српска / Republika Srpska, Bosna i Hercegovina / Босна и Херцеговина", "source": "OpenStreetMap relation 2528195", "licence": "ODbL 1.0"}, "geometry": {"type": "MultiPolygon", "coordinates": [[[[18.407691, 43.8441964], [18.4077913, 43.8441595], [18.4078736, 43.8441096], [18.4079537, 43.8440577], [18.4080043, 43.8440325], [18.408088, 43.8440049], [18.4081525, 43.8439873], [18.4082501, 43.8439848], [18.4083931, 43.8439948], [18.4085744, 43.8440413], [18.4086494, 43.8440489], [18.4087209, 43.8440426], [18.4088133, 43.8440149], [18.4088865, 43.8439822], [18.4089545, 43.843942], [18.4090243, 43.8438816], [18.4091202, 43.8437571], [18.4092335, 43.8436213], [18.4092788, 43.8435597], [18.4093503, 43.8435195], [18.4094671, 43.8434906], [18.4096188, 43.8434528], [18.4097566, 43.8434138], [18.4099588, 43.8433434], [18.410168, 43.8432592], [18.4104191, 43.8431548], [18.4105516, 43.8430894], [18.4106318, 43.8430529], [18.4107818, 43.8430102], [18.4109404, 43.8429712], [18.411059, 43.8429511], [18.4111375, 43.842941], [18.4112647, 43.8429096], [18.4113572, 43.8428668], [18.41146, 43.8428241], [18.4115629, 43.8427989], [18.4116344, 43.8427838], [18.4117355, 43.8427675], [18.4117808, 43.8427587], [18.4118419, 43.8427448], [18.4119325, 43.8426895], [18.4121156, 43.8425524], [18.4124748, 43.8423651], [18.4126317, 43.8422972], [18.4127311, 43.8422821], [18.4128741, 43.8422745], [18.4130502, 43.8422783], [18.4132248, 43.8422909], [18.4133623, 43.8423009], [18.4135558, 43.8423097], [18.4137214, 43.842311], [18.4138766, 43.8422846], [18.4141225, 43.8422557], [18.4144049, 43.8422418], [18.4145601, 43.842272], [18.414724, 43.8423273], [18.4148896, 43.8424342], [18.415118, 43.8426317], [18.4153098, 43.8428052], [18.4154127, 43.8428857], [18.4154859, 43.8429372], [18.4155295, 43.8429636], [18.4155801, 43.8429875], [18.4156115, 43.8429976], [18.4156498, 43.8430089], [18.4156917, 43.8430353], [18.4157614, 43.8430749], [18.4159144, 43.8431104], [18.4158503, 43.8430102], [18.4158102, 43.8429473], [18.4157579, 43.8427964], [18.4156986, 43.8426354], [18.4156481, 43.8424468], [18.4156272, 43.8423879], [18.4155888, 43.8422795], [18.4154854, 43.8421432], [18.4153932, 43.8420422], [18.4152746, 43.8419599], [18.415072, 43.8418329], [18.4149603, 43.8417413], [18.4148145, 43.8416103], [18.4146661, 43.8414981], [18.4145311, 43.8413813], [18.4144049, 43.8412803], [18.4141439, 43.8410459], [18.4140835, 43.8409543], [18.4139722, 43.8407853], [18.4138751, 43.8406004], [18.413831, 43.8404692], [18.4138064, 43.8403758], [18.4137629, 43.8401478], [18.4137365, 43.8400674], [18.4137304, 43.8400028], [18.4137173, 43.8399371], [18.4137071, 43.8398062], [18.4137092, 43.8397393], [18.4137354, 43.8395418], [18.4137487, 43.8394768], [18.4138109, 43.8392837], [18.4138477, 43.8391524], [18.4138598, 43.839089], [18.4138663, 43.838957], [18.4138524, 43.8388459], [18.4138245, 43.8387736], [18.413757, 43.8386449], [18.4137283, 43.8385777], [18.4136947, 43.8384675], [18.4136825, 43.8383785], [18.4136828, 43.8383311], [18.4136929, 43.838292], [18.4137798, 43.8382016], [18.4139448, 43.8380825], [18.4142052, 43.837866], [18.4143805, 43.8377249], [18.4144343, 43.8376867], [18.4145524, 43.8376125], [18.4147287, 43.8375159], [18.4148105, 43.8374792], [18.4149453, 43.8374068], [18.4150276, 43.8373571], [18.4151085, 43.8372997], [18.4152418, 43.8371621], [18.4154839, 43.8368035], [18.4156068, 43.8366628], [18.4157187, 43.8365704], [18.4159073, 43.8364456], [18.4161015, 43.8363283], [18.4163806, 43.8361796], [18.4165842, 43.8360615], [18.4167849, 43.8359344], [18.4169746, 43.8358036], [18.4174055, 43.8355166], [18.4174663, 43.835559], [18.4174975, 43.8355752], [18.4176459, 43.8355677], [18.4177019, 43.8355517], [18.4177609, 43.8355183], [18.417855, 43.8354773], [18.4182736, 43.8353598], [18.4183877, 43.8353073], [18.4184913, 43.8352786], [18.4186458, 43.835225], [18.418673, 43.835152], [18.4186741, 43.8350825], [18.4186654, 43.8350309], [18.4186276, 43.8349718], [18.4185694, 43.8349124], [18.4183873, 43.8347886], [18.4180937, 43.8342441], [18.4180088, 43.8341232], [18.418088, 43.834093], [18.4181068, 43.8340637], [18.4181106, 43.8340324], [18.418, 43.8338985], [18.4178993, 43.8338433], [18.4177999, 43.8337722], [18.417748, 43.8337469], [18.4177037, 43.8337053], [18.4175525, 43.833791], [18.4174484, 43.8335266], [18.4173725, 43.8333929], [18.4172835, 43.8332826], [18.4172291, 43.8331586], [18.4171353, 43.832973], [18.4169356, 43.8327673], [18.4167336, 43.8325948], [18.4166621, 43.8325171], [18.4166052, 43.8324319], [18.4164285, 43.8322444], [18.416311, 43.8321467], [18.4162144, 43.8320742], [18.4161387, 43.8319835], [18.4159709, 43.8318216], [18.4158298, 43.8317167], [18.4157711, 43.8316807], [18.4156979, 43.8316244], [18.4154084, 43.8312745], [18.4150467, 43.831075], [18.4148408, 43.8309787], [18.4145905, 43.8308348], [18.4143622, 43.8307486], [18.4141539, 43.830679], [18.4136188, 43.8306731], [18.4135085, 43.8306592], [18.4133814, 43.8306938], [18.4132521, 43.8307874], [18.4131836, 43.8306767], [18.413144, 43.8306], [18.4130917, 43.8304614], [18.4130719, 43.8303887], [18.4130774, 43.83017], [18.4130909, 43.8300801], [18.4130986, 43.8299788], [18.4130909, 43.829899], [18.4129501, 43.8296604], [18.4128113, 43.8295016], [18.4127737, 43.829449], [18.4126904, 43.8292879], [18.4126582, 43.829208], [18.4125946, 43.8289761], [18.4125742, 43.8288624], [18.4125589, 43.8287299], [18.412531, 43.8286], [18.412458, 43.8284422], [18.4123843, 43.8283319], [18.4123763, 43.8283057], [18.4123771, 43.8282584], [18.4124036, 43.8282068], [18.412435, 43.8281728], [18.4124861, 43.8281433], [18.4126346, 43.8281889], [18.4126921, 43.8281981], [18.4127891, 43.8282083], [18.4129606, 43.8282131], [18.4130401, 43.8282221], [18.4132064, 43.8282542], [18.413268, 43.8282617], [18.4133995, 43.8282635], [18.4134725, 43.8282593], [18.4136174, 43.8282642], [18.4136791, 43.8282724], [18.4137664, 43.8282928], [18.413826, 43.8283123], [18.4138715, 43.8283365], [18.4140642, 43.8284033], [18.414219, 43.828437], [18.4144263, 43.8285221], [18.4144801, 43.8285348], [18.4146385, 43.8285642], [18.4147238, 43.8285728], [18.4148064, 43.8285691], [18.4148599, 43.8285463], [18.4149169, 43.8285315], [18.4149717, 43.8285369], [18.4150024, 43.8285696], [18.4150233, 43.8286156], [18.4150224, 43.8287031], [18.4150571, 43.8287264], [18.4150935, 43.8287388], [18.415146, 43.8287402], [18.4152094, 43.8287265], [18.4152789, 43.8286996], [18.4153558, 43.8286567], [18.4154282, 43.8286498], [18.4154982, 43.8286523], [18.4156028, 43.8287083], [18.4156505, 43.828705], [18.4157032, 43.8286921], [18.4158041, 43.8286506], [18.4158611, 43.8286328], [18.4159103, 43.8286272], [18.4159457, 43.828639], [18.4160162, 43.8287], [18.4160885, 43.8287], [18.4161605, 43.8287207], [18.4162533, 43.8287347], [18.4163147, 43.8287317], [18.4163763, 43.8287093], [18.4164279, 43.828697], [18.4165288, 43.8287166], [18.4166108, 43.828727], [18.4166604, 43.8287265], [18.4167001, 43.8287201], [18.4167035, 43.828683], [18.4166911, 43.8286536], [18.4167775, 43.8285956], [18.4168247, 43.8285988], [18.4168599, 43.8286087], [18.4168888, 43.8285883], [18.4169046, 43.8285666], [18.4168998, 43.8285034], [18.4169352, 43.8284869], [18.4169816, 43.8284821], [18.4170581, 43.8285138], [18.4171149, 43.8285189], [18.4171664, 43.8285141], [18.4172197, 43.8284896], [18.4172971, 43.8284392], [18.4173403, 43.8284332], [18.4174182, 43.8284387], [18.4175015, 43.8284347], [18.4176087, 43.8284028], [18.4176718, 43.828379], [18.4176913, 43.8283634], [18.4177046, 43.8283319], [18.4177346, 43.8283025], [18.4178324, 43.8282735], [18.4179297, 43.828205], [18.4181505, 43.828076], [18.4181298, 43.8280247], [18.4180828, 43.8279975], [18.4180863, 43.8279535], [18.4181086, 43.8279373], [18.4181593, 43.8279199], [18.4182346, 43.8279194], [18.4183132, 43.8279095], [18.4183823, 43.8278974], [18.4184323, 43.8278789], [18.4184694, 43.8278519], [18.4184995, 43.8278187], [18.4185323, 43.8277717], [18.418564, 43.8277109], [18.4185965, 43.8276789], [18.4186359, 43.8276687], [18.419053, 43.8276821], [18.4193667, 43.8277081], [18.4194666, 43.827698], [18.4195639, 43.827695], [18.4196532, 43.8277083], [18.4198382, 43.8277177], [18.4199329, 43.8277152], [18.4200753, 43.8276906], [18.4201635, 43.8276834], [18.4201929, 43.8276929], [18.4202091, 43.8277061], [18.4202107, 43.8277513], [18.4201989, 43.8277819], [18.4201412, 43.8278386], [18.4201353, 43.827863], [18.4201386, 43.8278894], [18.4201922, 43.8279192], [18.420305, 43.8279238], [18.420386, 43.8279432], [18.4205418, 43.8280333], [18.4206276, 43.8280684], [18.4206829, 43.8280739], [18.4207854, 43.8280624], [18.4208502, 43.8280627], [18.4209107, 43.8280736], [18.421007, 43.8281514], [18.421105, 43.8281749], [18.4211369, 43.8282042], [18.4211946, 43.8282417], [18.4212614, 43.8282773], [18.4214369, 43.8283287], [18.42147, 43.8283596], [18.4215049, 43.8283847], [18.421536, 43.8283958], [18.4215877, 43.8284022], [18.4216655, 43.8283878], [18.4217185, 43.8283876], [18.421785, 43.8284411], [18.4218429, 43.8284735], [18.421885, 43.8284838], [18.4219175, 43.8285011], [18.4219892, 43.8285074], [18.4221387, 43.8285333], [18.4222051, 43.8285385], [18.4222585, 43.8285353], [18.4222937, 43.8285267], [18.4223522, 43.828501], [18.4224201, 43.8284556], [18.4224652, 43.8284342], [18.4224976, 43.828435], [18.4225601, 43.8284557], [18.4226194, 43.8285017], [18.4227268, 43.828564], [18.4228106, 43.8286], [18.4229849, 43.8286596], [18.4232487, 43.8284536], [18.4234488, 43.8282697], [18.4236396, 43.8279868], [18.4236767, 43.8276906], [18.4236202, 43.8276606], [18.4232589, 43.8275508], [18.4232221, 43.8275478], [18.423148, 43.8275543], [18.4226433, 43.8275181], [18.4223128, 43.8275067], [18.4220933, 43.8275069], [18.4216394, 43.8273695], [18.421216, 43.8273046], [18.4209708, 43.8271774], [18.4208019, 43.8269196], [18.4208104, 43.8267003], [18.4207321, 43.8265458], [18.4206611, 43.8261516], [18.4210741, 43.8260711], [18.4215826, 43.8250633], [18.4214278, 43.8248978], [18.4213472, 43.8246486], [18.4212909, 43.8241569], [18.421283, 43.8235555], [18.4213162, 43.8233376], [18.4216511, 43.822809], [18.421999, 43.8229424], [18.4223305, 43.8228443], [18.422515, 43.8226872], [18.4249, 43.822746], [18.4260397, 43.8225986], [18.4264495, 43.8221419], [18.4266667, 43.8219877], [18.4267336, 43.8219705], [18.4269551, 43.8217869], [18.4275967, 43.8215101], [18.4278687, 43.8214447], [18.4281198, 43.8214145], [18.4283081, 43.8214296], [18.4284825, 43.8214296], [18.4287126, 43.8213692], [18.4291102, 43.8210925], [18.4292566, 43.8210069], [18.4294589, 43.8209365], [18.4296123, 43.8209365], [18.4297797, 43.8209667], [18.4300029, 43.8209868], [18.4302749, 43.8209566], [18.4303586, 43.8209163], [18.4304562, 43.8207503], [18.4305399, 43.8206044], [18.4307003, 43.820544], [18.430784, 43.8204182], [18.4309235, 43.8202169], [18.4310839, 43.8201716], [18.4312582, 43.8201666], [18.4314064, 43.8200798], [18.4315206, 43.8199281], [18.4316366, 43.8197582], [18.431729, 43.8196557], [18.4317718, 43.8196181], [18.4318842, 43.8195255], [18.4320211, 43.8194431], [18.4321518, 43.8193841], [18.4322635, 43.8193563], [18.4324047, 43.8193286], [18.4325972, 43.8192569], [18.4327185, 43.8191888], [18.4327754, 43.818972], [18.4328548, 43.8188816], [18.4330849, 43.8187595], [18.4333907, 43.818635], [18.4337014, 43.8184678], [18.4338789, 43.8184215], [18.4340762, 43.818361], [18.4341846, 43.8182721], [18.4343671, 43.8181262], [18.4344904, 43.818055], [18.4347271, 43.8179696], [18.434954, 43.8178522], [18.4351167, 43.817628], [18.4352252, 43.8173149], [18.4355803, 43.816685], [18.4358604, 43.8163165], [18.4362579, 43.8156321], [18.4365962, 43.8147917], [18.4366241, 43.8144998], [18.4366764, 43.8142079], [18.4367636, 43.814057], [18.4370181, 43.8138053], [18.4373843, 43.8134984], [18.4377888, 43.8132819], [18.4381131, 43.8131662], [18.4382665, 43.8130957], [18.4385684, 43.8128571], [18.438814, 43.8126352], [18.4388977, 43.8126529], [18.4389796, 43.812678], [18.4390215, 43.8127019], [18.4390964, 43.8127535], [18.4391385, 43.8127891], [18.4392185, 43.8127938], [18.4393824, 43.8127862], [18.4393754, 43.812668], [18.4394312, 43.812512], [18.4394626, 43.8121471], [18.439623, 43.8118149], [18.4396614, 43.8117898], [18.4397416, 43.8117998], [18.4397869, 43.8118225], [18.440031, 43.8122679], [18.4400938, 43.8125849], [18.4402018, 43.8125471], [18.4403239, 43.812507], [18.4404076, 43.8125019], [18.440582, 43.8125195], [18.4407354, 43.812527], [18.440847, 43.8125195], [18.4409935, 43.8124893], [18.4411678, 43.8124767], [18.4413491, 43.812527], [18.4414607, 43.812444], [18.4416176, 43.8123459], [18.4417571, 43.8122754], [18.4418583, 43.8122377], [18.4419768, 43.8121521], [18.442207, 43.8119483], [18.4423709, 43.8118778], [18.4430404, 43.8111506], [18.4431485, 43.8110021], [18.4431799, 43.8108587], [18.4431694, 43.8107782], [18.443138, 43.8106825], [18.4431101, 43.8105819], [18.4431032, 43.810446], [18.443145, 43.8103378], [18.4431973, 43.8102245], [18.4431796, 43.8101254], [18.4430662, 43.8098442], [18.4429824, 43.8096841], [18.4429084, 43.8094883], [18.4429084, 43.8093745], [18.4429331, 43.8093033], [18.4429774, 43.8092001], [18.4429922, 43.8090613], [18.4429972, 43.8089367], [18.4430711, 43.8087801], [18.4431846, 43.808652], [18.4430169, 43.8084171], [18.4428048, 43.8081787], [18.4426569, 43.8079189], [18.4427605, 43.8073779], [18.4429873, 43.8070718], [18.4459117, 43.8065878], [18.4458575, 43.8063743], [18.4458328, 43.8061892], [18.4459019, 43.8059152], [18.4462816, 43.8057657], [18.4465479, 43.8056447], [18.4471643, 43.8054454], [18.4475194, 43.8053777], [18.4478202, 43.8053742], [18.4480668, 43.8054276], [18.44856, 43.8054276], [18.4489742, 43.8053564], [18.4493539, 43.8052603], [18.44964, 43.8051784], [18.4497879, 43.8051962], [18.4500345, 43.8052247], [18.4503945, 43.805214], [18.4513857, 43.8052247], [18.4515583, 43.8052211], [18.4521501, 43.8052318], [18.4526433, 43.8052639], [18.4528523, 43.8052229], [18.4529244, 43.8052405], [18.4531385, 43.8052638], [18.4532284, 43.8052725], [18.4534066, 43.8052733], [18.4535008, 43.8052836], [18.4536572, 43.8052899], [18.4537696, 43.8053071], [18.4539001, 43.8053093], [18.4540356, 43.8053212], [18.4541161, 43.8053553], [18.4542263, 43.8054205], [18.4544072, 43.8055481], [18.4544975, 43.8056233], [18.4545899, 43.8056798], [18.4546558, 43.8057094], [18.4547341, 43.8057292], [18.454844, 43.8057383], [18.4551208, 43.8056365], [18.4552933, 43.8055307], [18.4555737, 43.8053984], [18.4556562, 43.8053749], [18.4557426, 43.8053647], [18.4558043, 43.8053729], [18.455877, 43.8053895], [18.4559897, 43.8054324], [18.4561109, 43.8054817], [18.4562987, 43.8055112], [18.4563955, 43.8055222], [18.4565038, 43.8055276], [18.4565976, 43.805514], [18.456719, 43.8055103], [18.4568614, 43.8054996], [18.4569554, 43.805479], [18.457054, 43.8054373], [18.4571392, 43.8053947], [18.4572505, 43.8053106], [18.4573186, 43.8052532], [18.4573614, 43.8051868], [18.4573843, 43.8051202], [18.4574085, 43.8050002], [18.4574022, 43.8047656], [18.4574072, 43.8045449], [18.4574269, 43.8044203], [18.4575058, 43.8042993], [18.4576932, 43.8041712], [18.4580039, 43.8040538], [18.4581518, 43.8040004], [18.4583392, 43.8039149], [18.4585168, 43.8037904], [18.4587042, 43.8036658], [18.4590839, 43.8035875], [18.459508, 43.8035875], [18.4598384, 43.8036694], [18.4600899, 43.8033277], [18.4604302, 43.8030002], [18.460302, 43.8028685], [18.4601935, 43.8027262], [18.4603118, 43.8020713], [18.4610467, 43.8014591], [18.4613919, 43.801064], [18.463182, 43.8000923], [18.4643121, 43.7999021], [18.4647096, 43.7998958], [18.4652623, 43.7999235], [18.4656755, 43.7998304], [18.4659615, 43.7996718], [18.4661097, 43.7994893], [18.466359, 43.7992578], [18.4671241, 43.7984204], [18.4669914, 43.7988302], [18.4669513, 43.7989781], [18.467762, 43.7992529], [18.4675353, 43.799447], [18.4672982, 43.7995799], [18.4679199, 43.7998475], [18.4681324, 43.7999661], [18.4681935, 43.8000035], [18.4683223, 43.8000837], [18.4683708, 43.8001233], [18.4684965, 43.8001761], [18.4687723, 43.800163], [18.4689461, 43.8002348], [18.4690191, 43.8002064], [18.4691747, 43.8006068], [18.4693381, 43.8007301], [18.4694706, 43.800776], [18.4697269, 43.8008355], [18.4703165, 43.8013354], [18.4705031, 43.8014877], [18.4708623, 43.8016878], [18.4710907, 43.8019596], [18.4712615, 43.8020829], [18.4717079, 43.802249], [18.4721769, 43.8023824], [18.4723495, 43.8026656], [18.4749338, 43.8050325], [18.4823657, 43.8081324], [18.4827213, 43.8099549], [18.4828794, 43.8107653], [18.4846782, 43.8126153], [18.4847328, 43.8129652], [18.4840128, 43.8135061], [18.4838747, 43.8138121], [18.4839635, 43.8139402], [18.4841607, 43.8140114], [18.4849892, 43.8138406], [18.4856106, 43.8141893], [18.4863602, 43.8144099], [18.487386, 43.8145808], [18.4875335, 43.8154215], [18.4871982, 43.8157916], [18.487139, 43.8167168], [18.4870009, 43.8174142], [18.4870206, 43.8178981], [18.4868234, 43.8180689], [18.4867247, 43.8184248], [18.4867642, 43.8188375], [18.4870404, 43.8191934], [18.4872968, 43.8196488], [18.4873954, 43.8200473], [18.4872771, 43.8204174], [18.4870404, 43.820517], [18.4870995, 43.8209725], [18.4860245, 43.8210863], [18.485768, 43.8212571], [18.4854919, 43.8212429], [18.4853439, 43.8212429], [18.4851368, 43.8212998], [18.4850973, 43.8214492], [18.4850579, 43.8216272], [18.4849592, 43.8218264], [18.4848409, 43.8219545], [18.485334, 43.8225878], [18.4854721, 43.8230433], [18.4854623, 43.8232923], [18.4851664, 43.8235129], [18.4852058, 43.8237406], [18.4851664, 43.823947], [18.4849987, 43.8242672], [18.4849592, 43.8245163], [18.4854228, 43.82505], [18.4854228, 43.8252136], [18.4861132, 43.8259465], [18.4861428, 43.8261244], [18.4864486, 43.8262739], [18.4870404, 43.8268004], [18.4873757, 43.8268858], [18.4874941, 43.8270708], [18.4875237, 43.8274906], [18.487573, 43.8278678], [18.4877209, 43.8281524], [18.4879971, 43.8283943], [18.4883522, 43.8286006], [18.488796, 43.8287501], [18.4893779, 43.8297106], [18.4894174, 43.8299525], [18.4895357, 43.8304435], [18.4895259, 43.8306641], [18.4896245, 43.8308704], [18.4896344, 43.8309985], [18.4897527, 43.8310839], [18.48995, 43.8310341], [18.4900683, 43.830906], [18.4907686, 43.8308846], [18.4913012, 43.83097], [18.4919522, 43.8311977], [18.4925144, 43.8312973], [18.492978, 43.8313187], [18.4945758, 43.8312262], [18.4953845, 43.831155], [18.4960059, 43.8309914], [18.4965681, 43.8306996], [18.4972289, 43.8301518], [18.4984816, 43.8291556], [18.4990339, 43.8291414], [18.4995862, 43.8288995], [18.4998723, 43.8286362], [18.5004838, 43.8279318], [18.5009079, 43.8275689], [18.5009572, 43.8272202], [18.5009473, 43.8267221], [18.5009473, 43.8260838], [18.5012679, 43.8260838], [18.5012432, 43.8259308], [18.5013419, 43.8259273], [18.5013764, 43.8260732], [18.502486, 43.8261621], [18.5024811, 43.8265712], [18.5025994, 43.8268808], [18.5026093, 43.8271369], [18.5025304, 43.8272935], [18.5022887, 43.8274714], [18.5020619, 43.8276564], [18.5019682, 43.8278947], [18.5019632, 43.8284391], [18.5018893, 43.8286312], [18.501761, 43.8288091], [18.5014997, 43.8290225], [18.5010065, 43.8293392], [18.5000103, 43.8298693], [18.4993594, 43.8303068], [18.4985901, 43.8308903], [18.4980229, 43.8313207], [18.4974371, 43.8320855], [18.4968652, 43.832337], [18.4962096, 43.8324376], [18.4957075, 43.8324879], [18.495289, 43.8326489], [18.4942987, 43.8331621], [18.4938384, 43.8333633], [18.4927504, 43.8336048], [18.4918856, 43.8338463], [18.4910626, 43.8340375], [18.4906581, 43.8340978], [18.490156, 43.834118], [18.489877, 43.8341381], [18.489333, 43.834279], [18.4891656, 43.8343595], [18.4889703, 43.8344701], [18.4888678, 43.8347043], [18.4890522, 43.8347287], [18.4892997, 43.8347147], [18.4896538, 43.834772], [18.4900304, 43.8348726], [18.4903791, 43.8349128], [18.4906302, 43.834943], [18.4910766, 43.8352147], [18.4913974, 43.8354763], [18.491774, 43.8357077], [18.4921506, 43.835748], [18.4925272, 43.835758], [18.4929317, 43.835919], [18.4931967, 43.8361605], [18.493657, 43.8369251], [18.494215, 43.8374785], [18.4944661, 43.837891], [18.494759, 43.8383941], [18.4947869, 43.8387764], [18.4945916, 43.8392191], [18.4944939, 43.8397623], [18.4947032, 43.8401447], [18.4950379, 43.8405068], [18.4954564, 43.8409294], [18.4956656, 43.8413016], [18.4960841, 43.8416437], [18.4965304, 43.8418751], [18.4967536, 43.842197], [18.4966978, 43.8424787], [18.4965444, 43.8428409], [18.4965862, 43.8432131], [18.4967536, 43.8437664], [18.4970047, 43.8441386], [18.4975905, 43.8442594], [18.4981485, 43.8441286], [18.4984414, 43.8439978], [18.4990551, 43.844038], [18.4995015, 43.8443801], [18.4995991, 43.8447724], [18.4998641, 43.845205], [18.5004639, 43.8454364], [18.500715, 43.8454464], [18.5012032, 43.8452955], [18.5018309, 43.8452754], [18.5024446, 43.8452955], [18.5031292, 43.8452766], [18.5036367, 43.8452193], [18.5040069, 43.8451648], [18.5044183, 43.8452333], [18.5046485, 43.8453358], [18.5050111, 43.8454867], [18.5052408, 43.8455211], [18.5054961, 43.8454256], [18.5058234, 43.8452758], [18.5062107, 43.8453559], [18.5064805, 43.8454032], [18.5066614, 43.8454611], [18.5068357, 43.8455416], [18.506974, 43.8457321], [18.5070513, 43.8459343], [18.5071334, 43.8461564], [18.507229, 43.8463417], [18.507759, 43.846553], [18.508303, 43.8465429], [18.5085262, 43.8465027], [18.5091678, 43.8465128], [18.5094607, 43.8467542], [18.5094886, 43.8469353], [18.5094607, 43.8473376], [18.5094328, 43.8475388], [18.5094886, 43.8478104], [18.5096979, 43.848082], [18.5098373, 43.8481525], [18.5103255, 43.8481726], [18.51073, 43.8482329], [18.5110648, 43.8484442], [18.5112601, 43.8488264], [18.5112601, 43.8491986], [18.5113298, 43.8494702], [18.5116925, 43.8497519], [18.512097, 43.8500034], [18.5124039, 43.8503353], [18.5127805, 43.8508986], [18.5130873, 43.85114], [18.5136592, 43.8513714], [18.5140498, 43.8513814], [18.514259, 43.8513513], [18.5147054, 43.8513211], [18.5154447, 43.8512909], [18.5162258, 43.8510998], [18.5164768, 43.8509288], [18.5166861, 43.8506673], [18.5170069, 43.8504862], [18.5172789, 43.8504611], [18.5175509, 43.8504359], [18.518184, 43.8506383], [18.5183899, 43.8509503], [18.5184017, 43.8519146], [18.5185691, 43.8522063], [18.5188792, 43.8522759], [18.5195303, 43.8522366], [18.5200292, 43.8522457], [18.5204382, 43.8522666], [18.5208846, 43.8522163], [18.521232, 43.8521863], [18.5216765, 43.852212], [18.5220702, 43.8522867], [18.5225468, 43.8524693], [18.5230153, 43.8526898], [18.5232717, 43.8528285], [18.523628, 43.8528408], [18.5238191, 43.852864], [18.5240016, 43.8529174], [18.5241044, 43.8529969], [18.5242161, 43.85311], [18.5243506, 43.8532066], [18.5244849, 43.8532623], [18.5247401, 43.8534579], [18.5248077, 43.8535742], [18.5249238, 43.8537567], [18.5251112, 43.8537815], [18.5252444, 43.8537567], [18.525412, 43.8537104], [18.5256537, 43.8537602], [18.5257129, 43.8538171], [18.5259644, 43.8541123], [18.5260235, 43.854219], [18.526137, 43.8543007], [18.5262307, 43.8544394], [18.5263983, 43.8545106], [18.5266548, 43.8545355], [18.5268225, 43.854571], [18.5268175, 43.8547275], [18.5269014, 43.8548164], [18.5269803, 43.8548875], [18.5270148, 43.8549835], [18.5272071, 43.8550902], [18.5274192, 43.8551471], [18.52772, 43.855236], [18.5278679, 43.8552858], [18.5280504, 43.8553818], [18.528154, 43.8554778], [18.5284499, 43.8558121], [18.528514, 43.8560539], [18.5286274, 43.8562779], [18.5286915, 43.8564984], [18.5287211, 43.8566869], [18.5289036, 43.8568611], [18.5289775, 43.8569251], [18.5290762, 43.857359], [18.5291058, 43.8575581], [18.529091, 43.8576897], [18.5291995, 43.8578853], [18.5294066, 43.8581199], [18.52952, 43.8584862], [18.5296039, 43.8586391], [18.5297469, 43.8594178], [18.5301118, 43.8598588], [18.5303781, 43.8602712], [18.5305852, 43.8608046], [18.530605, 43.8612455], [18.5306937, 43.862106], [18.5305556, 43.8622482], [18.5306543, 43.8625469], [18.5304373, 43.8628029], [18.5303189, 43.8631585], [18.5303682, 43.8633363], [18.5327255, 43.8662874], [18.5327878, 43.8667455], [18.5335047, 43.8720185], [18.5334357, 43.8740093], [18.5337414, 43.8746065], [18.5338203, 43.8750402], [18.5339979, 43.8753104], [18.5342839, 43.8754882], [18.5345699, 43.8758436], [18.5349053, 43.8761991], [18.5351617, 43.876839], [18.5353886, 43.8769883], [18.5355345, 43.8771227], [18.5357436, 43.8773153], [18.5359803, 43.8777064], [18.5360593, 43.8782396], [18.5364341, 43.878723], [18.5368187, 43.8790145], [18.5374598, 43.8793344], [18.5378248, 43.8795904], [18.5379135, 43.8797254], [18.5376965, 43.8799245], [18.5376867, 43.8802231], [18.5376965, 43.8804293], [18.5377261, 43.8805217], [18.5390083, 43.8811615], [18.5393141, 43.8812184], [18.5394719, 43.8812113], [18.5396297, 43.8813748], [18.5399059, 43.8814956], [18.5403497, 43.8818084], [18.5404582, 43.8820786], [18.5406456, 43.8822279], [18.5407837, 43.8824838], [18.5411388, 43.8833724], [18.5411881, 43.8836852], [18.5413557, 43.8840548], [18.5415431, 43.8842681], [18.5415136, 43.8847551], [18.5415925, 43.884947], [18.5417059, 43.8851425], [18.5417207, 43.8853273], [18.5416862, 43.8855299], [18.5416566, 43.8855974], [18.5415283, 43.8857396], [18.5414692, 43.8858711], [18.5414741, 43.8859777], [18.5415194, 43.8860886], [18.5411149, 43.8861502], [18.5408046, 43.8861879], [18.5406128, 43.886208], [18.5405012, 43.8862093], [18.5404123, 43.886213], [18.5403722, 43.8862181], [18.540346, 43.8862306], [18.5403338, 43.8862545], [18.5403512, 43.8862784], [18.5403948, 43.8863035], [18.5405378, 43.8863374], [18.5407366, 43.8863839], [18.5414741, 43.8865146], [18.5418298, 43.8866126], [18.5419937, 43.8867081], [18.5421088, 43.8868263], [18.5422064, 43.8869997], [18.5422831, 43.8873063], [18.5422448, 43.8874495], [18.542175, 43.8875677], [18.54191, 43.8881407], [18.5418089, 43.8883593], [18.5418333, 43.8885076], [18.5418856, 43.8886458], [18.5420355, 43.8887614], [18.5421192, 43.8887966], [18.5426981, 43.8893218], [18.5428449, 43.8894642], [18.5431723, 43.8897817], [18.5436117, 43.8902014], [18.543542, 43.8902291], [18.5436815, 43.8904251], [18.5438454, 43.8905683], [18.5438872, 43.8906487], [18.5439604, 43.8908372], [18.5441662, 43.8911137], [18.5444033, 43.891365], [18.5445986, 43.8916439], [18.5447485, 43.8919656], [18.5449714, 43.8921599], [18.545144, 43.8924869], [18.5453955, 43.8928103], [18.5457062, 43.8929773], [18.5459922, 43.8930697], [18.5462585, 43.8931763], [18.5463818, 43.8933043], [18.5464065, 43.8934535], [18.5463966, 43.8936063], [18.5464361, 43.8937023], [18.5465002, 43.8937414], [18.5462782, 43.8938835], [18.5461599, 43.8940292], [18.5460711, 43.8941572], [18.545938, 43.8942673], [18.5457752, 43.8943704], [18.5456519, 43.8945517], [18.5455188, 43.8946902], [18.545435, 43.8948288], [18.5452821, 43.8953512], [18.5451884, 43.8955858], [18.5450158, 43.8958736], [18.5449023, 43.8960797], [18.5447593, 43.8962041], [18.5446065, 43.8962645], [18.5443796, 43.8963214], [18.5442859, 43.8963498], [18.5440689, 43.8964564], [18.5440393, 43.8966163], [18.5441034, 43.8967763], [18.5442711, 43.8969539], [18.5444881, 43.8971672], [18.5446952, 43.8973555], [18.54471, 43.8975012], [18.5446903, 43.8976753], [18.5447495, 43.8978672], [18.5447741, 43.8981053], [18.5447297, 43.8983221], [18.5447002, 43.8985388], [18.5447445, 43.8987236], [18.5448037, 43.8988729], [18.5447741, 43.8992709], [18.5448086, 43.8995658], [18.544858, 43.899843], [18.5449122, 43.8999958], [18.545001, 43.9002409], [18.5451144, 43.9003689], [18.5451982, 43.9003866], [18.5452278, 43.9006105], [18.5452969, 43.9007988], [18.5454695, 43.9010724], [18.5460021, 43.9017156], [18.5464509, 43.9022699], [18.5466481, 43.9027318], [18.5467172, 43.9030765], [18.5467172, 43.9033963], [18.5465988, 43.903542], [18.5463226, 43.9039648], [18.5462289, 43.9039115], [18.5461155, 43.9041425], [18.5461155, 43.9043272], [18.5461648, 43.9044303], [18.5462141, 43.9044694], [18.5457062, 43.9047963], [18.5445917, 43.9057343], [18.5453018, 43.9066616], [18.5455977, 43.9072728], [18.5462487, 43.907859], [18.5467961, 43.9084133], [18.546944, 43.9083742], [18.5471314, 43.9082676], [18.5472991, 43.9080793], [18.5476246, 43.907724], [18.5477183, 43.9074469], [18.5476985, 43.9071377], [18.5475605, 43.9069672], [18.5472054, 43.9067327], [18.5471166, 43.9065941], [18.5470722, 43.9063561], [18.5474026, 43.9066119], [18.5477133, 43.9066581], [18.5483396, 43.9066616], [18.549035, 43.9067469], [18.5496416, 43.906818], [18.5499868, 43.9069352], [18.5503123, 43.9070667], [18.550549, 43.9072692], [18.551052, 43.9076991], [18.5512049, 43.9078732], [18.5512788, 43.9080509], [18.5512986, 43.9083173], [18.5511703, 43.9085234], [18.5509583, 43.9086229], [18.5508399, 43.9087472], [18.5508301, 43.9088787], [18.5507462, 43.9089924], [18.5506082, 43.9091167], [18.5505243, 43.909202], [18.5504553, 43.9093121], [18.5504849, 43.9094152], [18.5505835, 43.9094898], [18.5508005, 43.9095324], [18.5510668, 43.9096426], [18.5513528, 43.9098238], [18.5515797, 43.9099907], [18.5516586, 43.9101435], [18.5517227, 43.9102643], [18.5517967, 43.9103744], [18.551846, 43.9104135], [18.5519545, 43.9104846], [18.5517868, 43.9105627], [18.5523095, 43.9111134], [18.5531775, 43.9118595], [18.5539172, 43.9128436], [18.555663, 43.9155969], [18.5548986, 43.916286], [18.5547507, 43.9165596], [18.5545534, 43.9168367], [18.5543808, 43.9169752], [18.5543512, 43.9171244], [18.5544794, 43.9172772], [18.5547161, 43.9175187], [18.5549183, 43.9178171], [18.555017, 43.9181901], [18.5550515, 43.91862], [18.5550564, 43.9193162], [18.5549775, 43.9197318], [18.5585973, 43.9225309], [18.5578773, 43.9349407], [18.5672398, 43.9366053], [18.5685176, 43.9374268], [18.5693856, 43.9378894], [18.569589, 43.9380288], [18.569769, 43.9382081], [18.5698048, 43.9383093], [18.569806, 43.9385215], [18.5699379, 43.9387301], [18.5701598, 43.9388464], [18.570461, 43.9392094], [18.5705639, 43.9392826], [18.5707872, 43.9392685], [18.5708362, 43.9393002], [18.5708935, 43.9393135], [18.5707766, 43.9395736], [18.5703712, 43.9398496], [18.5697962, 43.9402424], [18.569553, 43.940545], [18.5693024, 43.9410492], [18.5689264, 43.9413252], [18.5686316, 43.9416702], [18.5680419, 43.9419091], [18.5676438, 43.9420736], [18.56729, 43.942063], [18.5667519, 43.9422222], [18.5665602, 43.9421798], [18.5662359, 43.9421001], [18.5658231, 43.942132], [18.5654029, 43.94227], [18.5651302, 43.9423708], [18.564769, 43.9424504], [18.5642825, 43.9424186], [18.5640687, 43.9423761], [18.563936, 43.9423602], [18.56342, 43.9423496], [18.5630957, 43.9422965], [18.562764, 43.9422222], [18.5622996, 43.9422169], [18.5619089, 43.9422328], [18.5615329, 43.9422859], [18.561157, 43.9424558], [18.5610538, 43.9425141], [18.5608105, 43.9425672], [18.5602141, 43.942637], [18.559646, 43.9427514], [18.5596173, 43.9428865], [18.5585878, 43.9431493], [18.5579572, 43.9432487], [18.5570268, 43.9428978], [18.5560573, 43.9427214], [18.5554787, 43.9426576], [18.5547385, 43.9425187], [18.5544154, 43.9427064], [18.5541495, 43.9424737], [18.5537534, 43.9424549], [18.5534511, 43.9422973], [18.5528673, 43.9422072], [18.5526432, 43.9421134], [18.5508605, 43.941937], [18.549375, 43.9419145], [18.5492291, 43.9418357], [18.5486036, 43.9416855], [18.5480198, 43.9417831], [18.5470816, 43.941314], [18.546086, 43.940781], [18.5451322, 43.9406947], [18.544736, 43.9409762], [18.5445015, 43.94107], [18.544293, 43.9412502], [18.5441835, 43.9414303], [18.543803, 43.9418394], [18.5435268, 43.942211], [18.5434903, 43.9423273], [18.5434955, 43.9424024], [18.5433856, 43.942547], [18.5431406, 43.9428022], [18.5430259, 43.9429186], [18.5428331, 43.943095], [18.5420721, 43.9434628], [18.5413215, 43.9438268], [18.5411339, 43.9438906], [18.5411964, 43.9440745], [18.5413893, 43.9444535], [18.5416603, 43.944979], [18.5416551, 43.9453505], [18.5413841, 43.9456958], [18.5411287, 43.9458534], [18.5406439, 43.9459322], [18.5399976, 43.9460936], [18.5396014, 43.9461499], [18.5391949, 43.9461649], [18.5374331, 43.9470468], [18.5369379, 43.9469154], [18.5363229, 43.9464538], [18.5354993, 43.945707], [18.5350823, 43.9451966], [18.5349989, 43.9447988], [18.5349624, 43.9439506], [18.5345924, 43.9439431], [18.534337, 43.9440219], [18.5341493, 43.9441796], [18.5339617, 43.9444535], [18.5338626, 43.9445586], [18.5336333, 43.9446487], [18.5334561, 43.9446975], [18.5331225, 43.9447688], [18.5330443, 43.9447913], [18.5329036, 43.9448664], [18.5327159, 43.9449302], [18.5323354, 43.944979], [18.5317516, 43.9452304], [18.5315484, 43.9453167], [18.5313659, 43.9454068], [18.5312825, 43.9455194], [18.5312773, 43.9456019], [18.5313711, 43.9457258], [18.5314598, 43.9458083], [18.5316578, 43.945981], [18.5317308, 43.9461273], [18.5317256, 43.9462061], [18.5316526, 43.9462925], [18.531491, 43.946375], [18.5314285, 43.9464313], [18.5314493, 43.9464914], [18.5315796, 43.9465739], [18.5316474, 43.9465852], [18.5317621, 43.9466227], [18.5317933, 43.946694], [18.5317621, 43.9467653], [18.5316578, 43.9471368], [18.5315744, 43.9473845], [18.5314962, 43.9475009], [18.5313242, 43.9476585], [18.5311783, 43.9478424], [18.5311157, 43.9481426], [18.5311574, 43.948304], [18.5312982, 43.9485817], [18.5312721, 43.948788], [18.5311991, 43.9488894], [18.5309854, 43.9491896], [18.5308134, 43.949471], [18.5305997, 43.9497225], [18.5303652, 43.9499326], [18.530115, 43.950154], [18.5298908, 43.9503904], [18.5297501, 43.9507094], [18.5297293, 43.9509833], [18.529552, 43.9513511], [18.5290047, 43.9519928], [18.5286972, 43.9521654], [18.5283428, 43.9523868], [18.5280978, 43.9527583], [18.5279049, 43.9529984], [18.5275922, 43.9533774], [18.5275088, 43.95349], [18.5276912, 43.9534675], [18.5278632, 43.9533924], [18.5280092, 43.9532348], [18.5281291, 43.9530585], [18.5283167, 43.9529721], [18.5286659, 43.9530284], [18.5287962, 43.9531673], [18.5289213, 43.9533586], [18.5291976, 43.9535613], [18.5295312, 43.9537451], [18.5299325, 43.9542404], [18.5300889, 43.9546194], [18.5300889, 43.9548596], [18.5299742, 43.955216], [18.5294843, 43.9560941], [18.5290152, 43.9565293], [18.5285617, 43.9567357], [18.5281603, 43.95761], [18.5284418, 43.9583341], [18.5273055, 43.9579289], [18.5267843, 43.9579739], [18.5263308, 43.9579476], [18.5251997, 43.9584279], [18.5242615, 43.9590658], [18.5235422, 43.9597599], [18.5229897, 43.9596773], [18.5225206, 43.9593322], [18.5234215, 43.9676256], [18.5235228, 43.9685581], [18.5214535, 43.9662345], [18.5171652, 43.9606251], [18.5094636, 43.9509336], [18.5078252, 43.9488242], [18.5032279, 43.9419571], [18.4976175, 43.9343041], [18.4960142, 43.9325605], [18.4941795, 43.9300902], [18.4910653, 43.9258968], [18.4836449, 43.9118204], [18.4795037, 43.9065695], [18.4682099, 43.8964352], [18.4687022, 43.8930655], [18.4730947, 43.8924274], [18.4739761, 43.8922993], [18.4764372, 43.8911893], [18.4778228, 43.8905556], [18.4807024, 43.888381], [18.4826432, 43.8857764], [18.4832576, 43.8832317], [18.4821426, 43.8813975], [18.4812533, 43.8807563], [18.4810217, 43.8801735], [18.4788207, 43.8781196], [18.4755913, 43.8762717], [18.4722735, 43.8750912], [18.4706044, 43.8745106], [18.4693326, 43.8695063], [18.4691864, 43.8675887], [18.4691673, 43.8673385], [18.4675982, 43.8612188], [18.4677106, 43.8578888], [18.4666283, 43.8547859], [18.4662621, 43.853736], [18.4647035, 43.8467186], [18.4646786, 43.8466095], [18.4637732, 43.8446802], [18.4636438, 43.8444045], [18.4633673, 43.8431557], [18.4632008, 43.840871], [18.4631952, 43.8407935], [18.4629794, 43.8375387], [18.4632634, 43.8357334], [18.4632556, 43.8351478], [18.4622031, 43.8301789], [18.4602901, 43.8272991], [18.4596694, 43.8269198], [18.458542, 43.8266358], [18.4571319, 43.8263519], [18.4551653, 43.8263638], [18.4534963, 43.8265475], [18.4524936, 43.8268653], [18.4502813, 43.8279653], [18.4485349, 43.8289069], [18.4467048, 43.8300949], [18.4462845, 43.830506], [18.4440222, 43.8326662], [18.4331572, 43.8435296], [18.4295098, 43.8439965], [18.4226229, 43.8452061], [18.4180604, 43.8457053], [18.41575, 43.8453437], [18.4091087, 43.8443898], [18.407691, 43.8441964]]], [[[18.5278103, 43.9731844], [18.527894, 43.9731625], [18.5280188, 43.9731313], [18.5281644, 43.9730805], [18.5285206, 43.9729147], [18.5287345, 43.9728178], [18.5289431, 43.9727369], [18.5291212, 43.9727023], [18.5294325, 43.9726827], [18.529678, 43.9726792], [18.5299042, 43.972715], [18.5301931, 43.9727577], [18.530323, 43.9728074], [18.5306536, 43.9729136], [18.530859, 43.9730314], [18.5310403, 43.9731873], [18.5311125, 43.9733328], [18.5311767, 43.9735418], [18.5311911, 43.973767], [18.5311767, 43.9739575], [18.5312296, 43.9741007], [18.53135, 43.9742324], [18.531419, 43.9743513], [18.5315506, 43.9744795], [18.5317239, 43.9745649], [18.5318249, 43.9746273], [18.5318602, 43.974685], [18.5318795, 43.9747589], [18.5318972, 43.9750061], [18.5319421, 43.9750996], [18.5320384, 43.9751793], [18.5321555, 43.9752347], [18.5323304, 43.9752797], [18.5325101, 43.9753421], [18.532677, 43.9754298], [18.5329546, 43.9755615], [18.53316, 43.9756573], [18.5333076, 43.9758155], [18.5334584, 43.9759114], [18.5336141, 43.9759864], [18.5337553, 43.9760753], [18.5339302, 43.9762012], [18.5341869, 43.9763617], [18.5343859, 43.9765176], [18.5346089, 43.9767], [18.5347501, 43.9768386], [18.534832, 43.9769529], [18.5348881, 43.9770846], [18.5349218, 43.977222], [18.534909, 43.9773559], [18.5348576, 43.9775257], [18.5347903, 43.9777116], [18.5347774, 43.977767], [18.534771, 43.9778293], [18.5347951, 43.9778905], [18.534824, 43.9780164], [18.5348384, 43.9781134], [18.5348304, 43.9781734], [18.5348031, 43.9782173], [18.5347485, 43.9782716], [18.5346868, 43.9783339], [18.5346531, 43.9783686], [18.5346266, 43.9784148], [18.5346258, 43.9784494], [18.5346448, 43.9785049], [18.5346644, 43.9785641], [18.534308, 43.9783318], [18.5331236, 43.9774121], [18.5318249, 43.9763935], [18.5298735, 43.9748736], [18.5282135, 43.973589], [18.5278103, 43.9731844]]], [[[18.535666, 43.9792153], [18.5357519, 43.9792269], [18.535851, 43.9792405], [18.5360292, 43.9792373], [18.5361568, 43.9792401], [18.5362709, 43.979232], [18.5363554, 43.9792169], [18.5364064, 43.9791928], [18.5364751, 43.9791385], [18.5366368, 43.9790152], [18.5367894, 43.9788939], [18.536913, 43.9788147], [18.5369851, 43.9787764], [18.5370742, 43.9787523], [18.5371661, 43.9787568], [18.5373879, 43.9788172], [18.5374911, 43.9788637], [18.537684, 43.9789372], [18.5378544, 43.9790181], [18.538132, 43.979204], [18.5383518, 43.9793946], [18.5384882, 43.9795574], [18.538607, 43.9797363], [18.5386503, 43.9799118], [18.538745, 43.9800504], [18.5387739, 43.9801612], [18.5388573, 43.9804938], [18.5389391, 43.9807559], [18.5390001, 43.980854], [18.5390579, 43.9808979], [18.5392199, 43.9810168], [18.5393644, 43.9811508], [18.539451, 43.9812639], [18.539589, 43.981466], [18.539659, 43.9816132], [18.5396261, 43.9817922], [18.5376972, 43.9805412], [18.535666, 43.9792153]]], [[[18.5503595, 43.9887506], [18.5508918, 43.9887239], [18.5514438, 43.988747], [18.5518674, 43.9888578], [18.5521819, 43.9889224], [18.5525734, 43.988964], [18.5530548, 43.9889917], [18.5536774, 43.9890933], [18.5546402, 43.9893473], [18.5549739, 43.9894627], [18.5556543, 43.9896336], [18.5560587, 43.9897675], [18.556386, 43.9897952], [18.5567968, 43.9898229], [18.5570728, 43.9898599], [18.5574322, 43.989883], [18.5578301, 43.9898783], [18.5582281, 43.9897998], [18.5586003, 43.9896936], [18.5590561, 43.9896105], [18.559454, 43.9895551], [18.5599418, 43.9895135], [18.5603911, 43.9896151], [18.5608083, 43.9897629], [18.5612191, 43.9898045], [18.5615015, 43.9897998], [18.5617839, 43.9897906], [18.5620856, 43.9897998], [18.5623872, 43.9897213], [18.562676, 43.9896336], [18.5629906, 43.9895966], [18.5633821, 43.9895966], [18.5637736, 43.9896336], [18.5642101, 43.9897537], [18.5648005, 43.9898783], [18.5652498, 43.990063], [18.5656863, 43.9901277], [18.5660393, 43.9900954], [18.566341, 43.990063], [18.5668095, 43.9900723], [18.5672075, 43.9900908], [18.5676204, 43.9900838], [18.5679071, 43.9900076], [18.5682414, 43.9898646], [18.5685938, 43.9897167], [18.5689148, 43.9896428], [18.5694796, 43.9894812], [18.5696978, 43.9893888], [18.5698727, 43.9893715], [18.5698438, 43.9894454], [18.5701535, 43.989435], [18.5702835, 43.9892688], [18.5705996, 43.9891903], [18.5707504, 43.9890898], [18.5708515, 43.9889871], [18.5710826, 43.9888382], [18.571288, 43.9887735], [18.5716265, 43.988665], [18.5718672, 43.988598], [18.5721962, 43.9885218], [18.5726102, 43.988426], [18.5731589, 43.9883117], [18.5735601, 43.9882401], [18.573881, 43.9882171], [18.5740992, 43.9882217], [18.5742661, 43.9882448], [18.5743496, 43.9883487], [18.5743367, 43.9884664], [18.5743175, 43.9887204], [18.5747443, 43.9888843], [18.5750203, 43.9891476], [18.5751775, 43.9893069], [18.5758001, 43.9893831], [18.5762911, 43.9895863], [18.5765671, 43.9897779], [18.5766121, 43.9898264], [18.5767886, 43.9896948], [18.58048, 43.9914902], [18.5804768, 43.9913909], [18.5804543, 43.9913147], [18.5804543, 43.9912593], [18.5804992, 43.9911993], [18.5806244, 43.9911462], [18.5807014, 43.9911069], [18.5807688, 43.9910284], [18.5807688, 43.9909684], [18.5807431, 43.9909107], [18.580695, 43.9908691], [18.580679, 43.990816], [18.5806982, 43.9907583], [18.5808202, 43.9906475], [18.5810384, 43.9904997], [18.5811443, 43.9904281], [18.5812983, 43.9903866], [18.5814524, 43.9903796], [18.5816738, 43.9903889], [18.5818311, 43.9903912], [18.5820461, 43.9904027], [18.5822226, 43.9904281], [18.5823959, 43.9904258], [18.5825435, 43.9903912], [18.5827008, 43.9903335], [18.5828388, 43.9902619], [18.5830442, 43.990218], [18.5832078, 43.9902134], [18.5833715, 43.9902157], [18.5835127, 43.990188], [18.5836635, 43.9901857], [18.5838112, 43.9901995], [18.5840133, 43.990255], [18.5841802, 43.9902596], [18.5844113, 43.9902642], [18.584745, 43.9903265], [18.5849761, 43.9903681], [18.5854511, 43.9904835], [18.5858105, 43.9905736], [18.5861731, 43.9906428], [18.586616, 43.9907421], [18.5869947, 43.9907952], [18.5872996, 43.990883], [18.5874889, 43.9909014], [18.5878002, 43.9908622], [18.5879318, 43.9908068], [18.5880634, 43.9907352], [18.5882559, 43.9906636], [18.5885223, 43.9906682], [18.5886988, 43.9907306], [18.5888817, 43.9907791], [18.5890935, 43.9908022], [18.5893438, 43.9907906], [18.5897578, 43.990756], [18.5900182, 43.9907436], [18.5902224, 43.9907332], [18.5902039, 43.9906659], [18.5901666, 43.9906042], [18.5901642, 43.9905652], [18.5902031, 43.9905141], [18.5903206, 43.9904293], [18.5903586, 43.9903981], [18.5903868, 43.9903658], [18.5904077, 43.9903323], [18.5904157, 43.9903115], [18.5904237, 43.990293], [18.5904318, 43.9902746], [18.5904269, 43.9902353], [18.5904045, 43.9901995], [18.5903933, 43.9901638], [18.5904622, 43.9901337], [18.5905393, 43.990121], [18.5905617, 43.9901106], [18.5905762, 43.9900933], [18.5905778, 43.9900725], [18.5905682, 43.9900552], [18.5905329, 43.9900252], [18.5905312, 43.9899917], [18.5905553, 43.9899813], [18.5905778, 43.989971], [18.5905794, 43.9899086], [18.5905714, 43.9898913], [18.5905665, 43.9897724], [18.590642, 43.9897216], [18.5906676, 43.9897147], [18.5906949, 43.9897054], [18.5907158, 43.9896939], [18.590727, 43.9896766], [18.5907238, 43.9896385], [18.5907126, 43.9896188], [18.5906596, 43.9895761], [18.590658, 43.9895565], [18.5906885, 43.9895253], [18.5906853, 43.9894676], [18.5906773, 43.9894491], [18.590666, 43.9894318], [18.5907094, 43.9894122], [18.590735, 43.9894041], [18.5907591, 43.989396], [18.5908794, 43.9893118], [18.5908923, 43.9892944], [18.5909003, 43.9892737], [18.5909003, 43.9892529], [18.5908907, 43.9892344], [18.5908762, 43.9892183], [18.590873, 43.9891986], [18.5908859, 43.9891813], [18.5908875, 43.989082], [18.5909115, 43.989067], [18.5909356, 43.9890589], [18.5909484, 43.9890416], [18.5909549, 43.9890231], [18.5909549, 43.9890035], [18.5909837, 43.9890081], [18.5909693, 43.9889562], [18.5909581, 43.9888962], [18.59095, 43.9888788], [18.5909388, 43.9888592], [18.590926, 43.9888419], [18.5909131, 43.9888246], [18.5909003, 43.9888073], [18.5908923, 43.9887865], [18.5908971, 43.9887472], [18.590918, 43.9887322], [18.5910255, 43.9887264], [18.5910527, 43.9887207], [18.5910784, 43.9887126], [18.5910977, 43.9886999], [18.5911041, 43.9886803], [18.5911041, 43.9886606], [18.5910929, 43.988641], [18.5910832, 43.9886237], [18.5910752, 43.9886041], [18.5910736, 43.9885648], [18.5910993, 43.9885567], [18.5911442, 43.9885094], [18.5911586, 43.9884921], [18.5911747, 43.9884725], [18.5911907, 43.9884563], [18.5912068, 43.9884355], [18.5912164, 43.9884194], [18.5912244, 43.9884009], [18.5912292, 43.9883801], [18.591226, 43.98826], [18.5912196, 43.9882393], [18.59121, 43.9882023], [18.5912052, 43.9881792], [18.5912052, 43.9881342], [18.5912132, 43.9881134], [18.5912212, 43.9880961], [18.5912357, 43.9880799], [18.5913159, 43.9880776], [18.5913416, 43.9880834], [18.5913769, 43.9880603], [18.5913769, 43.9880407], [18.5913689, 43.9880199], [18.5913464, 43.987983], [18.5913368, 43.9879449], [18.5913303, 43.9879252], [18.5913287, 43.9878871], [18.5913528, 43.9878537], [18.5913672, 43.9878375], [18.5913833, 43.9878213], [18.5914138, 43.9877867], [18.5914298, 43.9877694], [18.5914443, 43.9877521], [18.5914587, 43.9877359], [18.5914972, 43.9877082], [18.5915213, 43.9876978], [18.5915454, 43.9876909], [18.5915694, 43.9876851], [18.5915919, 43.9876736], [18.5916063, 43.9876574], [18.5916144, 43.9876389], [18.591624, 43.9876181], [18.5916336, 43.9875997], [18.5916432, 43.98758], [18.5916561, 43.9875581], [18.5916689, 43.9875385], [18.5916834, 43.9875189], [18.5916994, 43.9875015], [18.5917122, 43.9874854], [18.5917283, 43.9874692], [18.5917668, 43.9874369], [18.5917893, 43.9874276], [18.5918952, 43.98743], [18.5919224, 43.9874311], [18.5919513, 43.98743], [18.591977, 43.9874207], [18.5919979, 43.9874057], [18.5920075, 43.9873884], [18.5920187, 43.9873711], [18.5920316, 43.9873538], [18.592046, 43.9873376], [18.5920636, 43.9873249], [18.5920861, 43.9873133], [18.5921278, 43.987288], [18.5921359, 43.9872683], [18.5921455, 43.9872302], [18.5921679, 43.9872198], [18.5921856, 43.9872337], [18.5921936, 43.9872533], [18.5922049, 43.9873133], [18.5922081, 43.987333], [18.5922225, 43.9874173], [18.5922241, 43.9874392], [18.5922257, 43.987714], [18.5922193, 43.9877347], [18.5922065, 43.9877751], [18.5921952, 43.9877959], [18.5921856, 43.9878144], [18.5921744, 43.9878317], [18.5921599, 43.9878513], [18.592131, 43.987886], [18.5921166, 43.9879033], [18.5921022, 43.9879229], [18.5920861, 43.9879426], [18.5920283, 43.9879899], [18.5920027, 43.9879991], [18.5919754, 43.9880049], [18.5919481, 43.9880164], [18.5919256, 43.9880338], [18.5919112, 43.9880499], [18.5918335, 43.9881852], [18.5918271, 43.9882268], [18.5918207, 43.9882706], [18.5918111, 43.9883099], [18.5918046, 43.9883491], [18.5917886, 43.9885177], [18.5917854, 43.9885592], [18.5917854, 43.9886885], [18.5917886, 43.9887301], [18.5918014, 43.9888132], [18.5918078, 43.9888525], [18.5918207, 43.988894], [18.5918399, 43.988931], [18.5918592, 43.9889656], [18.5918817, 43.9890003], [18.591917, 43.9890349], [18.5919587, 43.9890672], [18.5920036, 43.9890949], [18.592055, 43.9891203], [18.5921063, 43.9891388], [18.5921673, 43.9891573], [18.592225, 43.9891734], [18.5922732, 43.9891896], [18.5923245, 43.9892057], [18.5923855, 43.9892219], [18.5924369, 43.9892358], [18.5924978, 43.9892542], [18.592546, 43.9892704], [18.5925941, 43.9892843], [18.5926455, 43.9892981], [18.5926968, 43.9893097], [18.5927385, 43.9893143], [18.5928348, 43.9891088], [18.5928637, 43.9890718], [18.5928926, 43.9890418], [18.592915, 43.9890072], [18.5929279, 43.9889679], [18.5929407, 43.9889333], [18.5929567, 43.9888964], [18.5929632, 43.9888525], [18.5929696, 43.9888086], [18.5929856, 43.988767], [18.5931108, 43.98849], [18.5931365, 43.9884484], [18.5932584, 43.9882083], [18.5933194, 43.9881344], [18.5933483, 43.9881021], [18.5933707, 43.9880674], [18.5934189, 43.9879889], [18.5934606, 43.9879127], [18.5934831, 43.9878735], [18.5934991, 43.9878388], [18.5935119, 43.9877927], [18.5935344, 43.9877142], [18.593544, 43.9876357], [18.5937558, 43.9877996], [18.5949721, 43.9879959], [18.5958675, 43.9873609], [18.5957041, 43.987285], [18.5956367, 43.9872227], [18.5956046, 43.9871904], [18.5955725, 43.9871442], [18.5955404, 43.987068], [18.5955308, 43.9870287], [18.5955179, 43.9869849], [18.5953831, 43.9867101], [18.5953639, 43.9866755], [18.5953414, 43.9866362], [18.5953286, 43.9865993], [18.5953222, 43.98656], [18.5953254, 43.9864446], [18.5953318, 43.9864053], [18.5953318, 43.9862875], [18.5953254, 43.9862483], [18.5953029, 43.986216], [18.595274, 43.9861836], [18.5952002, 43.9861213], [18.5951713, 43.986089], [18.5951617, 43.9860497], [18.5951555, 43.985801], [18.5951725, 43.985743], [18.5952315, 43.9856402], [18.5952576, 43.985561], [18.5955753, 43.9855765], [18.5956014, 43.9857251], [18.5955866, 43.9857969], [18.595657, 43.9859365], [18.5956808, 43.9860271], [18.5956865, 43.9861235], [18.5957852, 43.9862696], [18.596306, 43.9861182], [18.5968506, 43.9859239], [18.5970753, 43.9858358], [18.6131983, 43.9860364], [18.6134054, 43.9862477], [18.6137027, 43.9864191], [18.6145355, 43.9869008], [18.6146626, 43.9869579], [18.614792, 43.9869987], [18.6149962, 43.9870183], [18.6152367, 43.9870297], [18.6153706, 43.9870493], [18.6154932, 43.9870918], [18.6155703, 43.9871375], [18.6157155, 43.9873008], [18.6159243, 43.9875277], [18.6159515, 43.9875457], [18.6160423, 43.9875914], [18.6161762, 43.9876241], [18.6163055, 43.9876306], [18.6163441, 43.9876306], [18.6165325, 43.9876257], [18.6166754, 43.9876192], [18.6168139, 43.9876289], [18.6171316, 43.987771], [18.6174769, 43.987814], [18.6176245, 43.9878279], [18.6177272, 43.987851], [18.6178106, 43.9878971], [18.618016, 43.9880819], [18.6180994, 43.9881696], [18.6181572, 43.9882389], [18.6182278, 43.9882989], [18.6183048, 43.9883543], [18.6183883, 43.9884051], [18.6184781, 43.9884467], [18.6185808, 43.9884744], [18.6186899, 43.9884882], [18.6187926, 43.9885021], [18.6188889, 43.9885298], [18.6189788, 43.9885714], [18.6190622, 43.9886314], [18.6194281, 43.9889454], [18.6195115, 43.9890101], [18.6195885, 43.989084], [18.6199544, 43.9894072], [18.6200314, 43.9894672], [18.620102, 43.9895365], [18.6201726, 43.9896058], [18.6202753, 43.9897628], [18.620301, 43.9898413], [18.6203266, 43.9899152], [18.6203459, 43.9899937], [18.6203587, 43.9900722], [18.6204037, 43.9902754], [18.6204999, 43.9903862], [18.6207567, 43.9905755], [18.6209556, 43.990691], [18.6210648, 43.9907418], [18.6212894, 43.990908], [18.6213664, 43.9909773], [18.6214948, 43.9911296], [18.6215397, 43.9911989], [18.6215847, 43.9912774], [18.6217323, 43.9915868], [18.6217579, 43.9916653], [18.62179, 43.9917484], [18.6218478, 43.9918177], [18.6219056, 43.9918916], [18.6220596, 43.992007], [18.6221431, 43.9920624], [18.6222265, 43.9921224], [18.6223035, 43.9921825], [18.6223613, 43.9922517], [18.6225282, 43.9929305], [18.6225346, 43.9930552], [18.6225988, 43.9932168], [18.622618, 43.9932999], [18.6226309, 43.993383], [18.6226565, 43.9935031], [18.6226886, 43.9935862], [18.6227721, 43.9937247], [18.6228362, 43.9937848], [18.6229004, 43.993854], [18.6232149, 43.9943573], [18.6232406, 43.9944405], [18.6232727, 43.9945282], [18.6232984, 43.9946113], [18.6233946, 43.9948422], [18.6234396, 43.9949992], [18.6234524, 43.9950869], [18.6234652, 43.9951792], [18.6234781, 43.9952577], [18.6234717, 43.9957472], [18.6234524, 43.9958349], [18.6234203, 43.995918], [18.623369, 43.9959873], [18.6233112, 43.9960565], [18.6232278, 43.9961258], [18.6231507, 43.9961858], [18.6230545, 43.9962366], [18.6229454, 43.9962828], [18.6228298, 43.9963197], [18.6226116, 43.9963798], [18.6225089, 43.9964121], [18.6223998, 43.9964398], [18.6222843, 43.9964767], [18.6220018, 43.9965968], [18.6219633, 43.9966706], [18.6218863, 43.9967353], [18.6218221, 43.9967999], [18.6217579, 43.9968692], [18.6216809, 43.9969615], [18.6216167, 43.9970493], [18.621559, 43.9971278], [18.621482, 43.9972524], [18.6214306, 43.9973217], [18.6213857, 43.9973956], [18.6213087, 43.9975341], [18.6212701, 43.9976079], [18.6212381, 43.9976864], [18.6211931, 43.9977603], [18.6211482, 43.9978434], [18.6210904, 43.9979219], [18.6210391, 43.9979912], [18.6209813, 43.998065], [18.6209236, 43.9981343], [18.6208722, 43.9982036], [18.6207117, 43.9984067], [18.620654, 43.9984898], [18.6205128, 43.9987299], [18.6204678, 43.9987992], [18.6203972, 43.99891], [18.6203266, 43.9989746], [18.6202625, 43.9990393], [18.6201854, 43.9991085], [18.6200956, 43.9991732], [18.6199993, 43.9992332], [18.6198966, 43.9992794], [18.6197426, 43.9993394], [18.61955, 43.9994132], [18.6194537, 43.9994502], [18.6192933, 43.999561], [18.6192291, 43.9996256], [18.6191585, 43.9996949], [18.61912, 43.9995379], [18.6190879, 43.999464], [18.6190365, 43.9993948], [18.6189531, 43.9993301], [18.6188632, 43.9992794], [18.6187734, 43.9992378], [18.6184589, 43.9990162], [18.6183883, 43.9989562], [18.6183113, 43.9988961], [18.618215, 43.99885], [18.6181059, 43.9988269], [18.6179839, 43.9988176], [18.6173806, 43.998813], [18.6172586, 43.9988038], [18.6170083, 43.9987946], [18.6168671, 43.9987715], [18.6166168, 43.9987253], [18.6165013, 43.9987022], [18.6163986, 43.9986791], [18.6163023, 43.9986514], [18.6159749, 43.9985822], [18.6157503, 43.9985545], [18.6156348, 43.9985498], [18.61563, 43.9985002], [18.6150443, 43.998244], [18.6147731, 43.9982116], [18.6146046, 43.9981747], [18.6142548, 43.9982024], [18.613499, 43.9983629], [18.6132263, 43.9984841], [18.6129326, 43.9984529], [18.6125796, 43.9983756], [18.6121849, 43.9983444], [18.6119185, 43.9982855], [18.6117292, 43.9981747], [18.6110385, 43.997845], [18.6104667, 43.9976621], [18.6069319, 43.9975255], [18.6009217, 44.0007033], [18.598457, 44.0024439], [18.5897809, 44.0102668], [18.5898967, 44.0103602], [18.5893135, 44.0123476], [18.5894315, 44.012563], [18.5898082, 44.012971], [18.5900691, 44.0131938], [18.5901281, 44.013255], [18.5901372, 44.0132672], [18.5901486, 44.0132786], [18.5901576, 44.01329], [18.5901599, 44.0133888], [18.590152, 44.0134027], [18.5901213, 44.0135104], [18.5900521, 44.0136866], [18.5899988, 44.0137878], [18.5899681, 44.01384], [18.5899443, 44.0139216], [18.5898456, 44.0141052], [18.5898365, 44.0141909], [18.5898536, 44.0142333], [18.5899023, 44.0142505], [18.5900442, 44.0142701], [18.5902666, 44.0142774], [18.5902858, 44.014279], [18.5903244, 44.0142847], [18.5903619, 44.0143157], [18.5903709, 44.0143288], [18.5903789, 44.014341], [18.5904038, 44.0143867], [18.5904617, 44.0145255], [18.5904821, 44.0146764], [18.5904492, 44.0147841], [18.5903914, 44.0149098], [18.5903085, 44.0150346], [18.59027, 44.0151325], [18.5902688, 44.015188], [18.5902881, 44.0152272], [18.5903301, 44.0152631], [18.5904141, 44.0153047], [18.5905037, 44.0153316], [18.5907215, 44.0153325], [18.5864661, 44.0202218], [18.5842994, 44.0176902], [18.5831597, 44.0163635], [18.5814238, 44.0142818], [18.5799649, 44.0124813], [18.5785104, 44.0106829], [18.5767807, 44.0086239], [18.5751248, 44.006899], [18.5748574, 44.0066418], [18.5731818, 44.0050303], [18.5716411, 44.0037188], [18.5698006, 44.0021488], [18.5689363, 44.0014031], [18.5670948, 43.9998142], [18.5650758, 43.9984703], [18.5616728, 43.9961943], [18.5596819, 43.9948785], [18.5573195, 43.9933121], [18.5549452, 43.991749], [18.5519846, 43.9898043], [18.5503595, 43.9887506]]], [[[18.6015546, 44.0338412], [18.6132843, 44.0362967], [18.6113726, 44.0406377], [18.6110119, 44.0404363], [18.6080938, 44.0387363], [18.6066179, 44.0376759], [18.6041525, 44.035897], [18.6015546, 44.0338412]]]]}}]}