{"type": "FeatureCollection", "features": [{"type": "Feature", "properties": {"name": "Град Источно Сарајево / Grad Istočno Sarajevo, Република Српска / Republika Srpska, Bosna i Hercegovina / Босна и Херцеговина", "source": "OpenStreetMap relation 2567396", "licence": "ODbL 1.0"}, "geometry": {"type": "MultiPolygon", "coordinates": [[[[18.3317523, 43.7796532], [18.3388974, 43.7783356], [18.3420266, 43.7777585], [18.3437211, 43.777414], [18.3522298, 43.7756842], [18.3591914, 43.7700947], [18.3596493, 43.7697187], [18.3604509, 43.7682657], [18.3634189, 43.7611792], [18.3648063, 43.7577853], [18.3619443, 43.7523623], [18.359324, 43.7470809], [18.3656464, 43.7431242], [18.3682151, 43.7415034], [18.3709723, 43.7404053], [18.3760724, 43.7383946], [18.3846154, 43.736026], [18.3862388, 43.7344453], [18.3890372, 43.7317269], [18.3913318, 43.7295032], [18.3924192, 43.728458], [18.3932891, 43.7275297], [18.395403, 43.7253297], [18.3964407, 43.723771], [18.3977874, 43.7216961], [18.3989435, 43.7200053], [18.4002966, 43.7180149], [18.4016548, 43.7159133], [18.4045666, 43.7160233], [18.4234459, 43.7169048], [18.4297358, 43.7172829], [18.4489266, 43.7184365], [18.4527191, 43.7185563], [18.4583826, 43.7186583], [18.4630424, 43.7187423], [18.4744752, 43.7189892], [18.4749567, 43.7189996], [18.4897598, 43.7193209], [18.4959539, 43.7194755], [18.5059706, 43.7197256], [18.5088494, 43.7198078], [18.5212145, 43.7201611], [18.5249631, 43.7202531], [18.5467746, 43.7207883], [18.5503079, 43.7208895], [18.5549486, 43.7210225], [18.5559495, 43.7204982], [18.5651977, 43.7156531], [18.5761918, 43.7097827], [18.5890011, 43.7028416], [18.5955017, 43.6993187], [18.5987637, 43.6970268], [18.6167015, 43.6846396], [18.6285169, 43.6805984], [18.6330445, 43.6791022], [18.6370807, 43.6782582], [18.6488115, 43.6800468], [18.6515179, 43.6813693], [18.6528234, 43.68192], [18.6544078, 43.6821514], [18.6557127, 43.6823474], [18.6583635, 43.6809236], [18.6630075, 43.6807304], [18.6657767, 43.6804479], [18.6663362, 43.6803908], [18.6670135, 43.6801491], [18.6684126, 43.6796499], [18.6701632, 43.6789835], [18.6731787, 43.6784337], [18.6742012, 43.6780259], [18.6759556, 43.6773274], [18.6788797, 43.6771834], [18.6820155, 43.6756208], [18.6834623, 43.6744074], [18.6849852, 43.6747182], [18.6864499, 43.6742116], [18.6880475, 43.6736596], [18.6892536, 43.6733665], [18.6939541, 43.6728397], [18.6951704, 43.6723261], [18.6973579, 43.6724351], [18.7036401, 43.6728664], [18.7015513, 43.6780382], [18.6993271, 43.6831404], [18.7002908, 43.6860962], [18.7008789, 43.6878395], [18.7013709, 43.6897904], [18.7121295, 43.6996736], [18.7215104, 43.7038964], [18.7213935, 43.7054057], [18.7199251, 43.7243594], [18.724045, 43.732667], [18.7279982, 43.741045], [18.7323941, 43.7446944], [18.7338274, 43.7459385], [18.7343519, 43.746394], [18.7353222, 43.7471723], [18.7466995, 43.749132], [18.7532205, 43.7501179], [18.7538395, 43.7532939], [18.7555039, 43.7618326], [18.7578724, 43.7735954], [18.7706378, 43.7696595], [18.7890029, 43.769763], [18.7925707, 43.7697831], [18.8013678, 43.7701801], [18.8197075, 43.7710078], [18.8202839, 43.7710338], [18.8266349, 43.7692797], [18.8307196, 43.7681516], [18.8309839, 43.7680809], [18.8361622, 43.7666961], [18.8497852, 43.7634816], [18.8535994, 43.7623296], [18.8562026, 43.761596], [18.8591265, 43.7616507], [18.8627371, 43.761798], [18.8632827, 43.7618802], [18.8640687, 43.7621774], [18.8705247, 43.7646186], [18.8715591, 43.7650177], [18.8718832, 43.7651472], [18.8670366, 43.7723947], [18.8583606, 43.7749697], [18.856085, 43.7800681], [18.8527256, 43.7875845], [18.8429713, 43.7854007], [18.8383215, 43.7860329], [18.8379712, 43.7860392], [18.8375684, 43.7862289], [18.837367, 43.7862541], [18.8370518, 43.786134], [18.8367102, 43.7861151], [18.8359659, 43.7861783], [18.835747, 43.7860455], [18.8354668, 43.7861024], [18.8351165, 43.7862036], [18.8347663, 43.7865196], [18.8346524, 43.7868168], [18.8348188, 43.7871139], [18.8347925, 43.7877271], [18.8346524, 43.7879736], [18.8345036, 43.7881064], [18.8342584, 43.7881885], [18.8341708, 43.7883466], [18.833733, 43.7890672], [18.8336979, 43.789358], [18.8337155, 43.789554], [18.8338643, 43.7897247], [18.8340132, 43.78987], [18.8341183, 43.7899206], [18.8342584, 43.7899775], [18.8296786, 43.7953757], [18.829261, 43.7955441], [18.8168588, 43.8005458], [18.8201201, 43.8054181], [18.8205549, 43.8060676], [18.8260628, 43.8142951], [18.823968, 43.8172392], [18.8172045, 43.829526], [18.8171081, 43.8295954], [18.8169884, 43.829793], [18.8166314, 43.8299345], [18.8163057, 43.8301102], [18.8160761, 43.8302086], [18.815933, 43.830383], [18.8160395, 43.8311834], [18.8170051, 43.8327003], [18.8179127, 43.8329463], [18.8180136, 43.8339541], [18.819344, 43.8348054], [18.8208031, 43.8357031], [18.8233899, 43.8390588], [18.8241557, 43.8400522], [18.8247057, 43.8408928], [18.8267898, 43.841275], [18.8301372, 43.841244], [18.834514, 43.8412275], [18.8359947, 43.8402132], [18.8369837, 43.8395357], [18.8382482, 43.8395106], [18.8390207, 43.8389999], [18.8397932, 43.8390308], [18.8402009, 43.839263], [18.8406359, 43.8392213], [18.8412738, 43.8392166], [18.8444066, 43.8379165], [18.8457799, 43.8378391], [18.8462305, 43.8380558], [18.8473972, 43.8374805], [18.8480544, 43.8375373], [18.8484836, 43.8380171], [18.8491595, 43.8380403], [18.8495564, 43.8377617], [18.8498783, 43.8380248], [18.8501465, 43.8380325], [18.8506141, 43.8378051], [18.8512194, 43.8380248], [18.8512409, 43.8388141], [18.8524961, 43.8393636], [18.8544595, 43.8398821], [18.8550281, 43.8394023], [18.8555589, 43.8392983], [18.8560581, 43.8398047], [18.8562298, 43.8416309], [18.8564014, 43.8419714], [18.8566267, 43.8421339], [18.8569271, 43.8420952], [18.8574529, 43.8420333], [18.8580966, 43.8417393], [18.8585189, 43.8419675], [18.8578598, 43.842872], [18.8576419, 43.8432483], [18.8558942, 43.8432479], [18.8550496, 43.8436893], [18.8547921, 43.844169], [18.8538999, 43.844751], [18.8526463, 43.847001], [18.8521732, 43.8476571], [18.8520174, 43.8489155], [18.8504576, 43.8489354], [18.8488483, 43.8502043], [18.8484159, 43.8498504], [18.8479042, 43.8503745], [18.847239, 43.8506531], [18.8471532, 43.8510244], [18.8476681, 43.8515815], [18.8481617, 43.8518136], [18.848277, 43.8531528], [18.8491058, 43.8538406], [18.8492775, 43.8541501], [18.8495135, 43.8543667], [18.8498997, 43.8544132], [18.8502645, 43.8547381], [18.8503074, 43.8556046], [18.8505864, 43.8558057], [18.850547, 43.8573629], [18.8509297, 43.8578481], [18.851273, 43.8610662], [18.8515734, 43.8612828], [18.8515305, 43.8619636], [18.8544048, 43.8638756], [18.8561744, 43.8639187], [18.8570666, 43.8645627], [18.8588159, 43.8661325], [18.8596844, 43.8664191], [18.8603496, 43.8663108], [18.8616586, 43.8662026], [18.863182, 43.8652279], [18.8637996, 43.8654886], [18.8646626, 43.865955], [18.8652634, 43.865692], [18.865478, 43.8658622], [18.8660978, 43.8665796], [18.8667655, 43.8663108], [18.8672161, 43.8664655], [18.867538, 43.8671308], [18.8682246, 43.8675948], [18.8691902, 43.8677805], [18.8712599, 43.8680468], [18.8739109, 43.8684302], [18.8754988, 43.8687241], [18.8765931, 43.8692656], [18.8777947, 43.8698225], [18.8792511, 43.8698349], [18.879919, 43.869544], [18.8809275, 43.8701628], [18.8829016, 43.8710754], [18.8885512, 43.8675576], [18.8908212, 43.8661368], [18.8937811, 43.8671023], [18.8973701, 43.8681567], [18.8991216, 43.8685792], [18.9025819, 43.8696506], [18.90378, 43.8700545], [18.9045031, 43.8705939], [18.9065967, 43.8721557], [18.9086723, 43.8706887], [18.9094098, 43.8706488], [18.9101314, 43.8703252], [18.9107537, 43.8700545], [18.9120412, 43.8698766], [18.9133709, 43.8689973], [18.9139402, 43.869049], [18.914659, 43.8691882], [18.9148736, 43.8693042], [18.9150131, 43.869691], [18.9158441, 43.8702515], [18.9161181, 43.8705418], [18.9165473, 43.87065], [18.9174488, 43.8714157], [18.9177382, 43.8719804], [18.9179957, 43.8722201], [18.9180386, 43.8729085], [18.9173173, 43.8732121], [18.9179757, 43.8735413], [18.9189505, 43.874726], [18.9190578, 43.8755303], [18.9201093, 43.8762109], [18.9212894, 43.8762263], [18.9221692, 43.8765048], [18.9207744, 43.8767522], [18.9200234, 43.8767986], [18.918457, 43.8777731], [18.9176572, 43.8782092], [18.9157963, 43.8781907], [18.9156031, 43.8784691], [18.9160538, 43.8786702], [18.9171481, 43.8789795], [18.9164614, 43.8797064], [18.9165258, 43.8801086], [18.916204, 43.8804024], [18.9172768, 43.880851], [18.9185324, 43.8816646], [18.9186501, 43.8820573], [18.9198947, 43.8829698], [18.9201237, 43.8834937], [18.9201522, 43.8838823], [18.9196372, 43.8844081], [18.9198947, 43.884671], [18.9187145, 43.886434], [18.918861, 43.8875552], [18.9193797, 43.8894032], [18.9209728, 43.8893874], [18.9214825, 43.8891094], [18.9236498, 43.8897744], [18.9274586, 43.890176], [18.9361116, 43.8904625], [18.9401806, 43.8906171], [18.9425037, 43.8907775], [18.9438588, 43.890871], [18.947488, 43.891687], [18.9476161, 43.8917158], [18.950637, 43.8924759], [18.9553486, 43.8935347], [18.9579719, 43.8942794], [18.9634492, 43.892777], [18.9675117, 43.8913932], [18.9678073, 43.8912925], [18.9741134, 43.8881387], [18.9782649, 43.8863156], [18.9803813, 43.8853519], [18.983209, 43.8823394], [18.9858686, 43.8793838], [18.9871323, 43.8778659], [18.9874542, 43.8774251], [18.9887482, 43.8761436], [18.9887524, 43.8768102], [18.9890875, 43.8772004], [18.9891386, 43.8780979], [18.9894605, 43.8783376], [18.9895039, 43.8793268], [18.9915097, 43.8807195], [18.9923713, 43.8806948], [18.9941308, 43.8829857], [18.9944888, 43.8844183], [18.9948034, 43.8847793], [18.995254, 43.8847174], [18.9958977, 43.8842535], [18.9958453, 43.8903094], [18.9959526, 43.8944454], [18.9960237, 43.8974312], [18.9961479, 43.8992752], [18.9961365, 43.9001817], [18.9961534, 43.9022372], [18.9984052, 43.90319], [19.0004468, 43.9038604], [19.0026594, 43.9042153], [19.0036011, 43.9043551], [19.0042019, 43.9042624], [19.0048241, 43.9042314], [19.0048616, 43.9045472], [19.0047383, 43.9048808], [19.005382, 43.9052982], [19.0054679, 43.9057002], [19.0062833, 43.9061639], [19.0066695, 43.9063185], [19.0067768, 43.9069988], [19.0075278, 43.90805], [19.0083513, 43.9084235], [19.0086436, 43.9085833], [19.0080213, 43.9089466], [19.0090084, 43.9096114], [19.0099525, 43.9096887], [19.0134287, 43.9121929], [19.01227, 43.9122393], [19.0117764, 43.9120074], [19.0108323, 43.9119302], [19.0088426, 43.9133375], [19.0083217, 43.9134296], [19.0076136, 43.9139552], [19.0068584, 43.9140583], [19.0075076, 43.9148255], [19.0077209, 43.9155473], [19.0089983, 43.9166697], [19.0091157, 43.9170157], [19.0109498, 43.9182869], [19.0110683, 43.9189169], [19.0116477, 43.9198133], [19.012348, 43.9202417], [19.012356, 43.9205865], [19.0123954, 43.9222738], [19.0117597, 43.923345], [19.011832, 43.9244757], [19.0121841, 43.9248364], [19.0113687, 43.9252228], [19.010627, 43.9254745], [19.0114243, 43.9260918], [19.0114559, 43.9271988], [19.0117335, 43.9274096], [19.0118623, 43.9283445], [19.012388, 43.9286304], [19.0123987, 43.9291327], [19.0118408, 43.9293104], [19.0112078, 43.9292486], [19.0110797, 43.9295088], [19.0124631, 43.9304308], [19.0129351, 43.9312344], [19.0138149, 43.9312035], [19.0138793, 43.9317134], [19.0141797, 43.9321461], [19.014287, 43.9327024], [19.0148878, 43.9333823], [19.0134287, 43.933985], [19.0125918, 43.9345722], [19.0123343, 43.9351748], [19.0116591, 43.9359736], [19.0105964, 43.9372529], [19.0106709, 43.9387435], [19.009974, 43.9392541], [19.0105319, 43.939594], [19.0114116, 43.9399648], [19.0117764, 43.9399648], [19.0128171, 43.9407142], [19.0133858, 43.9408301], [19.013536, 43.9414326], [19.0139866, 43.9420661], [19.0141368, 43.9425605], [19.0154569, 43.9437762], [19.0155101, 43.9442755], [19.0169263, 43.9449862], [19.01572, 43.9468474], [19.0154457, 43.9471491], [19.0154671, 43.9491883], [19.015231, 43.9498225], [19.0152687, 43.9547186], [19.0153641, 43.9572697], [19.0153631, 43.9585557], [19.0153993, 43.9598905], [19.0151678, 43.9599108], [19.0151328, 43.9605977], [19.0150866, 43.9623064], [19.0151905, 43.9641207], [19.0163225, 43.9656112], [19.0205806, 43.9726398], [19.0147214, 43.9779179], [19.0117134, 43.9789155], [19.0084508, 43.9800085], [19.0013477, 43.9818039], [18.9998735, 43.9821765], [18.9940134, 43.9834962], [18.9892838, 43.9845843], [18.9812938, 43.9863443], [18.9744297, 43.9877565], [18.9722039, 43.9888697], [18.9679893, 43.9905824], [18.9649689, 43.9918428], [18.9640389, 43.9922309], [18.9585651, 43.9947082], [18.955705, 43.9959596], [18.9510324, 43.9980041], [18.9421355, 44.0021399], [18.9353413, 44.0050887], [18.9327654, 44.0064534], [18.930006, 44.0087919], [18.9266214, 44.0117063], [18.9224451, 44.0124909], [18.9127707, 44.0144844], [18.9126634, 44.0154566], [18.9100027, 44.0154875], [18.9099812, 44.0172775], [18.9090371, 44.0170923], [18.9083075, 44.017617], [18.9073849, 44.0176941], [18.9074492, 44.0192063], [18.9080715, 44.0199932], [18.90805, 44.0213974], [18.9071917, 44.0218448], [18.9075351, 44.0221071], [18.9091658, 44.0226935], [18.9094877, 44.0231101], [18.9094877, 44.0234958], [18.9091873, 44.0238738], [18.9096164, 44.0241747], [18.9088174, 44.0247306], [18.899567, 44.0175906], [18.8956245, 44.0199116], [18.8936188, 44.0187688], [18.8915273, 44.0202328], [18.8854119, 44.0224123], [18.8814489, 44.0236435], [18.8816059, 44.0252497], [18.8817889, 44.0276296], [18.8819256, 44.0328408], [18.892537, 44.0390924], [18.8922572, 44.0515395], [18.8950024, 44.0550723], [18.8922537, 44.0553952], [18.8830778, 44.0556385], [18.8785796, 44.0559842], [18.8739888, 44.0564777], [18.8686449, 44.0586008], [18.8649848, 44.0602053], [18.8611236, 44.0618455], [18.8564357, 44.0622796], [18.8546909, 44.0627057], [18.8522889, 44.0629394], [18.8487722, 44.0638004], [18.8449393, 44.0648822], [18.8416868, 44.0656214], [18.831682, 44.0668621], [18.8282071, 44.0682213], [18.8206676, 44.0713882], [18.8177372, 44.0735051], [18.8117302, 44.0780625], [18.8066934, 44.0785954], [18.799224, 44.0795608], [18.7912, 44.0803924], [18.7847706, 44.0811353], [18.7780759, 44.0872738], [18.7761312, 44.0888993], [18.7725139, 44.0916085], [18.7691824, 44.0942632], [18.7657189, 44.0968667], [18.7593934, 44.1027546], [18.7529077, 44.1091926], [18.7467324, 44.1149714], [18.7466962, 44.1156345], [18.7501805, 44.1234795], [18.7421677, 44.1222445], [18.7303864, 44.119038], [18.7289866, 44.118657], [18.7110154, 44.1130884], [18.7078926, 44.1119757], [18.6974964, 44.1057657], [18.695825, 44.1046694], [18.6885745, 44.0999136], [18.6759753, 44.0942097], [18.6722441, 44.0922364], [18.6714387, 44.0918104], [18.6637249, 44.0873572], [18.6595535, 44.0846611], [18.6569002, 44.0824261], [18.6530092, 44.0791485], [18.6481006, 44.0757276], [18.6443216, 44.072899], [18.6412308, 44.0704267], [18.638693, 44.0683181], [18.6360519, 44.066158], [18.635066, 44.0652324], [18.6343629, 44.0645723], [18.6300416, 44.0600694], [18.6265943, 44.0554785], [18.6253344, 44.0538005], [18.6231682, 44.0505618], [18.6213774, 44.0476426], [18.6199743, 44.0464421], [18.6165194, 44.0437087], [18.6153601, 44.0429249], [18.61286, 44.0415156], [18.6113726, 44.0406377], [18.6110119, 44.0404363], [18.6080938, 44.0387363], [18.6066179, 44.0376759], [18.6041525, 44.035897], [18.6015546, 44.0338412], [18.6005538, 44.0330485], [18.5979505, 44.0309876], [18.5959785, 44.0294188], [18.5938067, 44.0276943], [18.5923084, 44.0264224], [18.5897551, 44.0242547], [18.5878379, 44.0219001], [18.5864661, 44.0202218], [18.5842994, 44.0176902], [18.5831597, 44.0163635], [18.5814238, 44.0142818], [18.5799649, 44.0124813], [18.5785104, 44.0106829], [18.5767807, 44.0086239], [18.5751248, 44.006899], [18.5748574, 44.0066418], [18.5731818, 44.0050303], [18.5716411, 44.0037188], [18.5698006, 44.0021488], [18.5689363, 44.0014031], [18.5670948, 43.9998142], [18.5650758, 43.9984703], [18.5616728, 43.9961943], [18.5596819, 43.9948785], [18.5573195, 43.9933121], [18.5549452, 43.991749], [18.5519846, 43.9898043], [18.5503595, 43.9887506], [18.5493554, 43.9881099], [18.5472348, 43.9867273], [18.5464039, 43.9861625], [18.5447999, 43.9850733], [18.5439444, 43.98451], [18.5430751, 43.9839629], [18.5397464, 43.9818693], [18.5397645, 43.9818089], [18.5397689, 43.9817506], [18.5396669, 43.9816309], [18.539659, 43.9816132], [18.5396261, 43.9817922], [18.5376972, 43.9805412], [18.535666, 43.9792153], [18.5357519, 43.9792269], [18.5357156, 43.9792166], [18.5356331, 43.9791941], [18.5348291, 43.9786719], [18.5347398, 43.9786118], [18.5347058, 43.9785812], [18.5346719, 43.9785492], [18.5346514, 43.97852], [18.5346448, 43.9785049], [18.5346644, 43.9785641], [18.534308, 43.9783318], [18.5331236, 43.9774121], [18.5318249, 43.9763935], [18.5298735, 43.9748736], [18.5282135, 43.973589], [18.5278103, 43.9731844], [18.5260129, 43.9713835], [18.5235228, 43.9685581], [18.5214535, 43.9662345], [18.5171652, 43.9606251], [18.5094636, 43.9509336], [18.5078252, 43.9488242], [18.5032279, 43.9419571], [18.4976175, 43.9343041], [18.4960142, 43.9325605], [18.4941795, 43.9300902], [18.4910653, 43.9258968], [18.4836449, 43.9118204], [18.4795037, 43.9065695], [18.4682099, 43.8964352], [18.4687022, 43.8930655], [18.4730947, 43.8924274], [18.4739761, 43.8922993], [18.4764372, 43.8911893], [18.4778228, 43.8905556], [18.4807024, 43.888381], [18.4826432, 43.8857764], [18.4832576, 43.8832317], [18.4821426, 43.8813975], [18.4812533, 43.8807563], [18.4810217, 43.8801735], [18.4788207, 43.8781196], [18.4755913, 43.8762717], [18.4722735, 43.8750912], [18.4706044, 43.8745106], [18.4693326, 43.8695063], [18.4691864, 43.8675887], [18.4691673, 43.8673385], [18.4675982, 43.8612188], [18.4677106, 43.8578888], [18.4666283, 43.8547859], [18.4662621, 43.853736], [18.4647035, 43.8467186], [18.4646786, 43.8466095], [18.4637732, 43.8446802], [18.4636438, 43.8444045], [18.4633673, 43.8431557], [18.4632008, 43.840871], [18.4631952, 43.8407935], [18.4629794, 43.8375387], [18.4632634, 43.8357334], [18.4632556, 43.8351478], [18.4622031, 43.8301789], [18.4602901, 43.8272991], [18.4596694, 43.8269198], [18.458542, 43.8266358], [18.4571319, 43.8263519], [18.4551653, 43.8263638], [18.4534963, 43.8265475], [18.4524936, 43.8268653], [18.4502813, 43.8279653], [18.4485349, 43.8289069], [18.4467048, 43.8300949], [18.4462845, 43.830506], [18.4440222, 43.8326662], [18.4331572, 43.8435296], [18.4295098, 43.8439965], [18.4226229, 43.8452061], [18.4180604, 43.8457053], [18.41575, 43.8453437], [18.4091087, 43.8443898], [18.407691, 43.8441964], [18.4047285, 43.8438042], [18.3985975, 43.8429926], [18.3985518, 43.8429865], [18.3956045, 43.8424732], [18.3945872, 43.8422697], [18.3903355, 43.8413424], [18.3827042, 43.8397913], [18.3803071, 43.8392986], [18.3775551, 43.8387769], [18.3749875, 43.8380362], [18.3702115, 43.8371777], [18.367977, 43.8368385], [18.3654802, 43.836128], [18.3641459, 43.8358505], [18.3626737, 43.8356687], [18.3618943, 43.835002], [18.3587054, 43.8305875], [18.3580997, 43.830692], [18.3578058, 43.8306635], [18.3576419, 43.830622], [18.3573873, 43.8304263], [18.357233, 43.8302479], [18.3570117, 43.8298683], [18.3583056, 43.829481], [18.3578674, 43.8288649], [18.3583189, 43.8286894], [18.358402, 43.828503], [18.3582151, 43.8281948], [18.3575444, 43.8281387], [18.3573527, 43.8278235], [18.357966, 43.8275836], [18.358045, 43.826876], [18.3577469, 43.8264723], [18.3574895, 43.8263707], [18.3571209, 43.8263617], [18.3564929, 43.8265846], [18.3564257, 43.8264819], [18.3562377, 43.8261949], [18.3561653, 43.8260986], [18.3555679, 43.8253042], [18.3555173, 43.8249756], [18.3547556, 43.8239548], [18.3556745, 43.8235626], [18.3545163, 43.8219947], [18.3530643, 43.8210062], [18.3529979, 43.820961], [18.3529159, 43.8209096], [18.3528298, 43.8210032], [18.3527531, 43.8211022], [18.3523384, 43.8215356], [18.3522385, 43.8216222], [18.3517705, 43.8219255], [18.3514373, 43.8215334], [18.3513911, 43.8213521], [18.3517763, 43.8186304], [18.3498628, 43.8163081], [18.3482349, 43.8169044], [18.3473775, 43.8160699], [18.3471381, 43.8157042], [18.3452039, 43.8136336], [18.3427801, 43.8104877], [18.3428383, 43.8079937], [18.3400939, 43.8047944], [18.3393551, 43.8038191], [18.3379606, 43.8019783], [18.3349885, 43.8015339], [18.3337065, 43.8006192], [18.333613, 43.7993618], [18.3333371, 43.7933258], [18.3334495, 43.7919639], [18.3345084, 43.7916031], [18.3337214, 43.7895609], [18.334065, 43.7888211], [18.3342059, 43.7881702], [18.3340176, 43.7875802], [18.3324792, 43.7876874], [18.3317523, 43.7796532]]], [[[18.3841301, 43.6174468], [18.3845391, 43.6098246], [18.384618, 43.6083551], [18.3859052, 43.6014558], [18.3859079, 43.6009721], [18.3862389, 43.6012039], [18.3865665, 43.6012521], [18.3868196, 43.6011865], [18.3870061, 43.6010939], [18.3871952, 43.6010573], [18.3878319, 43.6010554], [18.3879677, 43.6010939], [18.3881491, 43.6010467], [18.388242, 43.6010296], [18.3883092, 43.6010296], [18.3884041, 43.6010396], [18.3885128, 43.6010911], [18.3886531, 43.6011655], [18.38875, 43.6012056], [18.3888705, 43.6012314], [18.3891611, 43.6012314], [18.3893982, 43.6012228], [18.3895801, 43.6012128], [18.3898627, 43.6012099], [18.3899536, 43.6011956], [18.3899951, 43.6011698], [18.390009, 43.6011355], [18.390005, 43.601011], [18.3900149, 43.6009222], [18.3900485, 43.6008535], [18.3900801, 43.6008278], [18.3901355, 43.6008177], [18.3902007, 43.600822], [18.3903133, 43.6008535], [18.3904873, 43.6008893], [18.3907225, 43.6009165], [18.3909023, 43.6009165], [18.3910723, 43.6009151], [18.3911296, 43.6008192], [18.3912502, 43.6007991], [18.3913194, 43.6007734], [18.3913589, 43.600739], [18.3913747, 43.6006961], [18.3913826, 43.6006474], [18.3913866, 43.6005988], [18.3913984, 43.6005043], [18.39143, 43.6004156], [18.3914735, 43.6003783], [18.3915328, 43.6003526], [18.3915961, 43.600344], [18.3916474, 43.6003125], [18.3916712, 43.6002724], [18.391683, 43.6002238], [18.3916949, 43.6001751], [18.3917107, 43.6001293], [18.3917384, 43.6000806], [18.3917977, 43.6000549], [18.3918649, 43.6000406], [18.3919281, 43.6000549], [18.3919874, 43.6000749], [18.3920506, 43.6000949], [18.3921139, 43.6000978], [18.3921258, 43.600052], [18.3921139, 43.6000033], [18.3920902, 43.5999575], [18.3920744, 43.599906], [18.3920981, 43.5998602], [18.3921613, 43.5998516], [18.3922206, 43.5998287], [18.3922562, 43.5997858], [18.3922839, 43.5997457], [18.3923274, 43.5997085], [18.392359, 43.5996713], [18.392355, 43.5996198], [18.3924538, 43.5995739], [18.3924973, 43.5995396], [18.3925289, 43.5995024], [18.3925764, 43.599468], [18.3926436, 43.599468], [18.3927108, 43.5994652], [18.3927819, 43.5994623], [18.3928452, 43.5994509], [18.3929005, 43.5994337], [18.3929598, 43.5994079], [18.3930112, 43.5993736], [18.3930468, 43.5993306], [18.3930468, 43.5992848], [18.3930389, 43.5992362], [18.3930152, 43.5991875], [18.3929796, 43.5991474], [18.392948, 43.5991045], [18.392944, 43.5990558], [18.3929717, 43.5990157], [18.3929954, 43.5989728], [18.3929835, 43.598927], [18.392861, 43.5988383], [18.3928175, 43.598801], [18.3928136, 43.5987552], [18.3928215, 43.5987094], [18.3928649, 43.5986722], [18.3929242, 43.5986465], [18.3929756, 43.5986178], [18.3930665, 43.5985463], [18.39311, 43.5985033], [18.3931535, 43.5984661], [18.393193, 43.5984289], [18.3932247, 43.5983888], [18.3932761, 43.5983058], [18.3933037, 43.5982657], [18.3933353, 43.5982228], [18.3933867, 43.5981942], [18.3934539, 43.5981913], [18.3935211, 43.5981856], [18.3935686, 43.5981541], [18.3935765, 43.5981054], [18.3935686, 43.5980596], [18.3935014, 43.5978764], [18.3934658, 43.5978335], [18.3934302, 43.5977905], [18.3933867, 43.5977533], [18.3933591, 43.5977104], [18.3933512, 43.5976617], [18.3933116, 43.5976187], [18.3932919, 43.5975729], [18.3932919, 43.5975271], [18.3933393, 43.5974928], [18.3933946, 43.5974756], [18.3934618, 43.5974728], [18.3935251, 43.5974728], [18.3935844, 43.5974613], [18.3936437, 43.597447], [18.393699, 43.5974269], [18.3937504, 43.5973983], [18.3938018, 43.5973668], [18.393865, 43.5973611], [18.3939283, 43.597364], [18.3939915, 43.5973668], [18.3940627, 43.5973668], [18.3941259, 43.5973525], [18.3942406, 43.5973067], [18.394284, 43.5972752], [18.3943473, 43.5971951], [18.3943908, 43.5971521], [18.3944382, 43.5971206], [18.3944975, 43.597092], [18.394628, 43.5970605], [18.3946714, 43.5970233], [18.3946912, 43.5969775], [18.3947189, 43.5969374], [18.3947584, 43.5968973], [18.39479, 43.5968573], [18.3948177, 43.5968143], [18.3955015, 43.5965195], [18.3954897, 43.5964765], [18.3955253, 43.5964364], [18.3955767, 43.5964107], [18.395628, 43.5963763], [18.3956597, 43.5963391], [18.3958257, 43.5963162], [18.3958889, 43.596299], [18.3959443, 43.596279], [18.3960431, 43.5962103], [18.3960678, 43.5961803], [18.3960873, 43.5961489], [18.3960873, 43.5960709], [18.3961111, 43.5960669], [18.3961293, 43.5960831], [18.3961405, 43.5961003], [18.3961558, 43.5961195], [18.3961824, 43.5961499], [18.3962103, 43.5961722], [18.3962299, 43.5961823], [18.3962495, 43.5961904], [18.3963575, 43.5962247], [18.3963931, 43.596229], [18.3964287, 43.5962319], [18.3964662, 43.5962347], [18.3964998, 43.596239], [18.3965986, 43.5962419], [18.3966955, 43.5962218], [18.3967251, 43.5962132], [18.3967548, 43.5962061], [18.3968141, 43.5961846], [18.3968417, 43.5961732], [18.3968694, 43.5961589], [18.3968971, 43.5961417], [18.3969188, 43.5961231], [18.3969406, 43.5961045], [18.3969722, 43.5960601], [18.396986, 43.59604], [18.3970117, 43.5959699], [18.3970157, 43.595947], [18.3969761, 43.5959084], [18.3969386, 43.5958125], [18.3968991, 43.5957638], [18.3969089, 43.5957323], [18.3971343, 43.5955204], [18.3972034, 43.5954732], [18.3972687, 43.5954045], [18.3973161, 43.5953644], [18.3973517, 43.5953601], [18.3974208, 43.5953601], [18.3974841, 43.595373], [18.3975493, 43.595373], [18.3976126, 43.5953601], [18.3976422, 43.5953472], [18.3976719, 43.5953344], [18.3977312, 43.5953129], [18.3977529, 43.5952971], [18.3977687, 43.5952771], [18.3977964, 43.5952041], [18.3977964, 43.5951311], [18.3978122, 43.5950824], [18.39783, 43.5950624], [18.3978754, 43.595028], [18.3978912, 43.595008], [18.3978952, 43.5949837], [18.3978754, 43.5949651], [18.3978418, 43.5949579], [18.3978221, 43.5949364], [18.3977924, 43.5948806], [18.3977865, 43.5948548], [18.3977885, 43.5948062], [18.3978161, 43.5947604], [18.3978754, 43.5947017], [18.3979011, 43.5946859], [18.3979268, 43.5946688], [18.3979565, 43.5946487], [18.3979841, 43.5946315], [18.3980118, 43.5946172], [18.3980395, 43.5946015], [18.3980652, 43.5945886], [18.3980948, 43.5945771], [18.3981245, 43.5945671], [18.3981521, 43.5945571], [18.3981778, 43.5945428], [18.3982075, 43.5945299], [18.3982312, 43.5945142], [18.3983083, 43.5944712], [18.3983557, 43.5944383], [18.3983735, 43.5944183], [18.3983913, 43.5943996], [18.3984111, 43.5943782], [18.3984328, 43.5943596], [18.3984684, 43.5943223], [18.3985277, 43.5942336], [18.3985415, 43.5942136], [18.3985553, 43.5941935], [18.3985692, 43.594172], [18.398585, 43.594152], [18.3986028, 43.594132], [18.3986265, 43.5941177], [18.3986937, 43.5941177], [18.3987332, 43.5941305], [18.3987826, 43.5941649], [18.3988044, 43.5941835], [18.3988558, 43.5942179], [18.3988795, 43.5942336], [18.3989071, 43.5942508], [18.3989328, 43.5943252], [18.3989664, 43.5943667], [18.3989921, 43.5943796], [18.3990593, 43.5943782], [18.399089, 43.5943653], [18.3991068, 43.5943467], [18.3991206, 43.5943252], [18.3991542, 43.5942837], [18.3991759, 43.5942608], [18.3992471, 43.5942107], [18.3992669, 43.5941907], [18.3992807, 43.5941692], [18.3992985, 43.5941219], [18.3992985, 43.5940976], [18.3992886, 43.5940747], [18.3992688, 43.5940547], [18.3991937, 43.5940003], [18.399172, 43.5939802], [18.3991483, 43.5939602], [18.3991028, 43.5938943], [18.399089, 43.5938714], [18.3990633, 43.5938271], [18.3990574, 43.5938042], [18.3990514, 43.5937784], [18.3990554, 43.5937283], [18.399085, 43.5936839], [18.3991028, 43.5936625], [18.3991048, 43.5936381], [18.3990949, 43.5936138], [18.3990811, 43.5935923], [18.3990672, 43.5935723], [18.3990554, 43.5935494], [18.3990613, 43.593525], [18.3990929, 43.5934062], [18.3991107, 43.5933604], [18.3991087, 43.5933361], [18.3990771, 43.5932917], [18.3990554, 43.5932717], [18.3990336, 43.5932488], [18.3989269, 43.5931858], [18.3988933, 43.5931743], [18.3988538, 43.5931529], [18.3987925, 43.5931228], [18.3987668, 43.5931085], [18.3987431, 43.5930913], [18.3987154, 43.5930727], [18.3986403, 43.593004], [18.3986087, 43.5929582], [18.3985316, 43.5929095], [18.3984763, 43.5928752], [18.3982154, 43.5926833], [18.3979604, 43.5925531], [18.3978142, 43.5924829], [18.397745, 43.5924643], [18.3977094, 43.5924629], [18.3976719, 43.5924586], [18.3976383, 43.5924514], [18.397577, 43.5924271], [18.3975019, 43.5923741], [18.3974821, 43.5923527], [18.3974663, 43.5923326], [18.3974564, 43.5923112], [18.3974604, 43.5919132], [18.397496, 43.5917801], [18.3975987, 43.5915296], [18.397747, 43.5913206], [18.3979189, 43.5911545], [18.3980415, 43.5910099], [18.3980731, 43.590924], [18.3981423, 43.5908081], [18.3983738, 43.5905867], [18.3983962, 43.590449], [18.3983515, 43.5903113], [18.3983068, 43.5901737], [18.398262, 43.5900441], [18.3982173, 43.5898983], [18.3982061, 43.5897607], [18.3982173, 43.5896311], [18.3982844, 43.5894934], [18.398385, 43.5893801], [18.398508, 43.5892829], [18.3986869, 43.5892424], [18.3989217, 43.5892181], [18.3992683, 43.589291], [18.3994136, 43.5893882], [18.3995925, 43.5894367], [18.3997938, 43.5894367], [18.3999727, 43.5894529], [18.4001515, 43.5895177], [18.4002969, 43.5895906], [18.400487, 43.5895906], [18.4006658, 43.5895663], [18.4008447, 43.5895015], [18.4010124, 43.5894286], [18.4011578, 43.5893396], [18.4013143, 43.5891938], [18.4015827, 43.5891209], [18.4019404, 43.5890966], [18.4021305, 43.5890885], [18.4023429, 43.5890723], [18.4027119, 43.5890237], [18.402902, 43.5890156], [18.4036846, 43.5890156], [18.4038635, 43.5889832], [18.4040312, 43.5889428], [18.4042213, 43.588878], [18.404389, 43.5888294], [18.4047356, 43.5887727], [18.4049256, 43.5887565], [18.4051045, 43.5887565], [18.4052834, 43.5887403], [18.4054623, 43.588716], [18.4056859, 43.5886917], [18.4058536, 43.5886593], [18.4060325, 43.5886593], [18.4062114, 43.5886512], [18.4064015, 43.5886674], [18.4065804, 43.5887079], [18.4067369, 43.5886512], [18.4068934, 43.5885945], [18.4091357, 43.5882336], [18.4122265, 43.5877361], [18.4127073, 43.5881572], [18.4127968, 43.5882706], [18.412998, 43.5884974], [18.4131098, 43.5886107], [18.4132328, 43.5887079], [18.413367, 43.5888051], [18.41349, 43.5889023], [18.4136577, 43.588967], [18.4138366, 43.5890237], [18.4138813, 43.5891776], [18.4138701, 43.5893234], [18.4138701, 43.5894772], [18.413926, 43.5896149], [18.4140266, 43.5897283], [18.4140825, 43.5898659], [18.4140825, 43.5900117], [18.4140713, 43.5901494], [18.4140825, 43.590287], [18.414172, 43.5904085], [18.4142838, 43.5905219], [18.4144068, 43.5906271], [18.4145968, 43.5907162], [18.4147645, 43.5907972], [18.4151447, 43.590862], [18.4153124, 43.5909268], [18.415413, 43.5910401], [18.415536, 43.5911697], [18.4158043, 43.591364], [18.4159385, 43.5914693], [18.4160838, 43.5915908], [18.4163745, 43.5918175], [18.4165311, 43.5919309], [18.4166429, 43.5920524], [18.4167547, 43.5921657], [18.4168441, 43.5922953], [18.4169447, 43.5924168], [18.4170342, 43.5925301], [18.4171125, 43.5926516], [18.4171907, 43.5928054], [18.4173472, 43.5930484], [18.4174702, 43.5931617], [18.4176268, 43.593267], [18.4177721, 43.5933399], [18.4179286, 43.5934047], [18.4181746, 43.5935099], [18.4183311, 43.5935909], [18.4184877, 43.5936962], [18.4186218, 43.5937933], [18.4187225, 43.5939067], [18.4188119, 43.5940282], [18.4188231, 43.5941658], [18.4188231, 43.5948703], [18.418879, 43.5949999], [18.4189572, 43.5951213], [18.4190467, 43.5952428], [18.4191697, 43.5953804], [18.4192591, 43.59551], [18.4195498, 43.5959391], [18.4196504, 43.5960849], [18.4197399, 43.5961982], [18.4198405, 43.5963116], [18.4199635, 43.596425], [18.4200641, 43.5965383], [18.4201759, 43.5966679], [18.420243, 43.5967974], [18.420366, 43.5969108], [18.4204554, 43.5970242], [18.420489, 43.5971699], [18.4205672, 43.5972914], [18.4206679, 43.5974209], [18.4207461, 43.5975424], [18.4209362, 43.5982468], [18.4209362, 43.5985707], [18.4209138, 43.5987083], [18.4208803, 43.598846], [18.4208356, 43.5989836], [18.4208244, 43.5991941], [18.420802, 43.5993318], [18.4207126, 43.5994694], [18.4206455, 43.5996152], [18.4206232, 43.5997609], [18.4206567, 43.5998985], [18.4207573, 43.6000119], [18.4208803, 43.6001171], [18.4209362, 43.6002467], [18.4209362, 43.6003924], [18.4208915, 43.6005382], [18.4208579, 43.6006758], [18.420925, 43.6008054], [18.4210816, 43.6008782], [18.4211263, 43.601024], [18.4211263, 43.6011697], [18.421294, 43.6012345], [18.4214729, 43.6014774], [18.4215623, 43.6016879], [18.4215847, 43.6018255], [18.4215959, 43.6019712], [18.4215959, 43.6022465], [18.4217188, 43.6023518], [18.421853, 43.6024651], [18.4218307, 43.6026109], [18.4217188, 43.6027323], [18.4215959, 43.6028456], [18.4215847, 43.6029995], [18.4216182, 43.6031452], [18.4216406, 43.6032909], [18.421634, 43.6033585], [18.421638, 43.6034157], [18.4216222, 43.6034644], [18.4215787, 43.6035073], [18.4215392, 43.6035474], [18.4215273, 43.6036132], [18.4215668, 43.6036562], [18.4216222, 43.6036791], [18.4217566, 43.6036762], [18.42197, 43.6037048], [18.4221005, 43.6037392], [18.4221598, 43.6037621], [18.422223, 43.6037907], [18.4222744, 43.6038222], [18.4223179, 43.6038651], [18.4223495, 43.6039081], [18.4223772, 43.6039539], [18.4223969, 43.6040025], [18.4226262, 43.6041084], [18.4226855, 43.6041313], [18.4227409, 43.60416], [18.4227922, 43.6041915], [18.4228231, 43.6042478], [18.4228301, 43.604264], [18.4228371, 43.6042802], [18.4228455, 43.6042984], [18.4228497, 43.6043166], [18.4228525, 43.6043349], [18.4228553, 43.6043541], [18.4228567, 43.604428], [18.4228623, 43.6044472], [18.4228693, 43.6044634], [18.422879, 43.6044786], [18.422893, 43.6044927], [18.422907, 43.6045079], [18.4229224, 43.6045221], [18.4229391, 43.6045363], [18.4229531, 43.6045494], [18.4229685, 43.6045636], [18.4229811, 43.6045777], [18.422995, 43.6045919], [18.4230076, 43.6046071], [18.423016, 43.6046233], [18.4230174, 43.6046405], [18.423009, 43.6046577], [18.4229909, 43.6046688], [18.4229643, 43.6046729], [18.4229419, 43.6046668], [18.4229252, 43.6046536], [18.4229084, 43.6046405], [18.4228567, 43.604603], [18.4228399, 43.6045899], [18.4228176, 43.6045818], [18.4227938, 43.6045828], [18.4227728, 43.6045909], [18.4227533, 43.6046], [18.4227295, 43.6046101], [18.4227044, 43.6046172], [18.4226764, 43.6046233], [18.4226023, 43.6046405], [18.422545, 43.6046516], [18.4224905, 43.6046597], [18.4224612, 43.6046628], [18.4224374, 43.6046658], [18.4223787, 43.6046698], [18.4223536, 43.6046729], [18.4222753, 43.6046749], [18.4220852, 43.6046648], [18.4220265, 43.6046648], [18.4219762, 43.6046688], [18.4216045, 43.6046688], [18.4214451, 43.604687], [18.4213892, 43.6046951], [18.4212914, 43.6047174], [18.4212383, 43.6047275], [18.4211852, 43.6047397], [18.4210902, 43.6047619], [18.4210315, 43.6047741], [18.4209756, 43.6047862], [18.4208693, 43.6048024], [18.420819, 43.6048085], [18.4207715, 43.6048105], [18.4206681, 43.6048247], [18.4206234, 43.6048429], [18.4205283, 43.6048793], [18.4204445, 43.6049137], [18.4204026, 43.6049299], [18.4203578, 43.6049461], [18.4203131, 43.6049583], [18.4202544, 43.6049724], [18.4202069, 43.6049805], [18.4201594, 43.6049906], [18.4201035, 43.6050008], [18.420056, 43.6050089], [18.4199469, 43.6050109], [18.4198882, 43.6050068], [18.4198435, 43.6049947], [18.4198016, 43.6049765], [18.4197625, 43.6049542], [18.4197233, 43.604934], [18.4196674, 43.6048733], [18.4196395, 43.6048429], [18.4195081, 43.6045595], [18.4194857, 43.6045231], [18.4194578, 43.6044826], [18.419427, 43.6044179], [18.4194047, 43.6043106], [18.4193991, 43.6042762], [18.4193711, 43.6041244], [18.4193572, 43.604092], [18.4193432, 43.6040596], [18.4193292, 43.6040211], [18.4193152, 43.6039888], [18.4192929, 43.6039483], [18.4192677, 43.6039199], [18.419209, 43.6038511], [18.4191727, 43.6038228], [18.4190832, 43.6037702], [18.4190413, 43.6037479], [18.4189966, 43.6037297], [18.4189519, 43.6037155], [18.4189072, 43.6036973], [18.4188065, 43.603671], [18.41865, 43.6036548], [18.418555, 43.6036467], [18.4184711, 43.6036831], [18.4183984, 43.6037317], [18.4183593, 43.6037924], [18.4183258, 43.6038612], [18.4182866, 43.603926], [18.4182419, 43.6039908], [18.4181972, 43.6040596], [18.4181469, 43.6041284], [18.4180742, 43.604181], [18.4179959, 43.6042256], [18.4179233, 43.6042782], [18.417873, 43.6043389], [18.4178282, 43.6044077], [18.4178059, 43.6044806], [18.4177891, 43.6045535], [18.4177667, 43.6046223], [18.4177052, 43.604683], [18.4176214, 43.6047397], [18.4174705, 43.6048449], [18.4174425, 43.6049097], [18.4174593, 43.6049785], [18.417504, 43.6050392], [18.4175319, 43.605104], [18.4175319, 43.6051769], [18.4174984, 43.6052416], [18.4174984, 43.6053145], [18.4175208, 43.6053792], [18.4175319, 43.6054481], [18.4174984, 43.6055128], [18.417286, 43.605946], [18.4172077, 43.6061443], [18.4171742, 43.6062415], [18.4171742, 43.6063791], [18.4171853, 43.606456], [18.4172021, 43.6065977], [18.4172021, 43.6066746], [18.4171909, 43.6067555], [18.4171742, 43.6068244], [18.4171965, 43.6073587], [18.4171965, 43.6074315], [18.4172021, 43.6075084], [18.4172077, 43.6075773], [18.4172357, 43.6077189], [18.4172412, 43.6078039], [18.417258, 43.6078727], [18.4172804, 43.6080913], [18.417286, 43.6081642], [18.4172972, 43.6083139], [18.4172972, 43.6084597], [18.417286, 43.6086054], [18.4172692, 43.6086944], [18.4172412, 43.6087754], [18.4171406, 43.6092975], [18.4171239, 43.6093947], [18.4171015, 43.6094635], [18.4170847, 43.6095364], [18.4170847, 43.609678], [18.4170959, 43.6097509], [18.4171406, 43.6098197], [18.4171965, 43.6098764], [18.4173251, 43.6099897], [18.4175096, 43.6101476], [18.4175655, 43.6102042], [18.4176214, 43.610273], [18.4176661, 43.6103338], [18.4176941, 43.6104066], [18.4177891, 43.6107223], [18.417817, 43.6108235], [18.417873, 43.6109085], [18.41794, 43.6110137], [18.4179736, 43.6111109], [18.4179848, 43.6111837], [18.4179848, 43.6112526], [18.4179736, 43.6113254], [18.4179456, 43.6113942], [18.4178674, 43.611544], [18.4178338, 43.6116128], [18.4178003, 43.6116775], [18.4178338, 43.6118273], [18.417845, 43.6119123], [18.4178674, 43.6119811], [18.4179233, 43.6120378], [18.4180015, 43.6120823], [18.418091, 43.6121106], [18.4181748, 43.6121349], [18.4182475, 43.6121754], [18.4182978, 43.6122402], [18.4183202, 43.612309], [18.4183202, 43.6123818], [18.4182866, 43.6124466], [18.4182419, 43.6125113], [18.418186, 43.6125801], [18.4181357, 43.6126409], [18.418091, 43.6127016], [18.418063, 43.6127704], [18.4180686, 43.6128432], [18.4181077, 43.612908], [18.4181636, 43.6129647], [18.4182475, 43.6130051], [18.4184432, 43.6131063], [18.4185326, 43.6131265], [18.4185941, 43.6131751], [18.4186444, 43.6132318], [18.4186947, 43.6132925], [18.418773, 43.613337], [18.418868, 43.6133613], [18.4189575, 43.6133856], [18.4190413, 43.6134099], [18.4191252, 43.6134382], [18.4192649, 43.6135272], [18.419332, 43.6135758], [18.4194103, 43.6136163], [18.4194941, 43.6136527], [18.4195892, 43.613681], [18.4196842, 43.6136932], [18.4199805, 43.6137134], [18.4200755, 43.6137256], [18.420165, 43.6137458], [18.4202488, 43.6137822], [18.4203383, 43.6138308], [18.420506, 43.6139117], [18.4205898, 43.6139482], [18.420696, 43.6139725], [18.4207855, 43.6139967], [18.4208693, 43.6140413], [18.4209979, 43.6141546], [18.4210538, 43.6142274], [18.4211209, 43.6142922], [18.4211824, 43.6143448], [18.4212942, 43.6144096], [18.4214116, 43.6144662], [18.4215625, 43.6144824], [18.4217023, 43.6144824], [18.4217973, 43.6144865], [18.4218924, 43.6144865], [18.4219986, 43.6144986], [18.422088, 43.6145189], [18.4222446, 43.6145715], [18.4224123, 43.6146403], [18.4224849, 43.6146807], [18.4226247, 43.6147819], [18.4226918, 43.6148467], [18.4227533, 43.6149195], [18.4228036, 43.6149883], [18.4228483, 43.6150612], [18.4231446, 43.6154376], [18.4231949, 43.6154943], [18.4232452, 43.6155509], [18.4233067, 43.6156035], [18.4233738, 43.6156683], [18.4234297, 43.615725], [18.4234856, 43.6157776], [18.4235415, 43.6158423], [18.4236086, 43.6158949], [18.4236701, 43.6159516], [18.4237427, 43.6160002], [18.4238154, 43.6160568], [18.4239049, 43.6161094], [18.4240614, 43.6162025], [18.4241397, 43.616239], [18.4242235, 43.6162754], [18.4243185, 43.6163239], [18.424408, 43.6163563], [18.4245086, 43.6163927], [18.4246651, 43.6164615], [18.4250397, 43.6166841], [18.4261466, 43.6174005], [18.4262192, 43.6174369], [18.4263143, 43.617445], [18.4264093, 43.617445], [18.426728, 43.6175624], [18.426823, 43.6175361], [18.4268677, 43.61753], [18.4269096, 43.6175158], [18.4269907, 43.6174774], [18.427027, 43.6174572], [18.4271025, 43.6174207], [18.4271416, 43.6174005], [18.4271864, 43.6173823], [18.4272255, 43.6173641], [18.4272674, 43.6173438], [18.4273093, 43.6173256], [18.4273513, 43.6173135], [18.427396, 43.6173013], [18.4274491, 43.6172953], [18.4274994, 43.6172932], [18.4275469, 43.6172912], [18.4275944, 43.6172912], [18.4277398, 43.6173054], [18.4277845, 43.6173054], [18.4278348, 43.6173013], [18.4278768, 43.6172932], [18.4279159, 43.6172811], [18.4279522, 43.6172609], [18.4279718, 43.6172305], [18.4279662, 43.6171981], [18.4279466, 43.6171658], [18.4278684, 43.6171172], [18.4277789, 43.6170848], [18.427737, 43.6170707], [18.4276951, 43.6170524], [18.4276615, 43.6170261], [18.4276448, 43.6169938], [18.4276364, 43.6169614], [18.427628, 43.616925], [18.4276084, 43.6168926], [18.4275805, 43.6168622], [18.427533, 43.6168056], [18.4275134, 43.6167732], [18.4274994, 43.6167408], [18.4274854, 43.616668], [18.4274938, 43.6166315], [18.4275413, 43.6165728], [18.4276196, 43.6165182], [18.4276531, 43.6164919], [18.4276839, 43.6163927], [18.4276979, 43.6163583], [18.4277007, 43.6163219], [18.4277007, 43.6162875], [18.4276867, 43.6162207], [18.4276783, 43.6161823], [18.4276308, 43.6161196], [18.4275665, 43.6160669], [18.4275162, 43.6160609], [18.4273625, 43.6160609], [18.4272646, 43.616071], [18.4272199, 43.6160548], [18.4271808, 43.6160325], [18.427164, 43.6159981], [18.4271612, 43.6159617], [18.4271752, 43.6159293], [18.4271975, 43.615897], [18.4272171, 43.6158666], [18.4272339, 43.6158282], [18.4272339, 43.6157917], [18.4272255, 43.6157594], [18.4272227, 43.615725], [18.4272339, 43.6156905], [18.4272674, 43.6156663], [18.4273093, 43.615644], [18.4273541, 43.6156258], [18.4274212, 43.6156177], [18.4274631, 43.6156015], [18.4275106, 43.6155975], [18.427533, 43.6155651], [18.4275358, 43.6155307], [18.4275358, 43.6154983], [18.4275274, 43.6154639], [18.427533, 43.6153971], [18.4275441, 43.6153647], [18.4275665, 43.6153324], [18.4275917, 43.615304], [18.4276252, 43.6152717], [18.4276531, 43.6152433], [18.4276755, 43.615217], [18.4276951, 43.6151867], [18.4276979, 43.6151482], [18.4277146, 43.6151158], [18.4277538, 43.6150976], [18.4277957, 43.6150875], [18.4278376, 43.6150713], [18.4278712, 43.615047], [18.4278907, 43.6150126], [18.4278991, 43.6149742], [18.4278991, 43.6149357], [18.4279159, 43.6149013], [18.4279522, 43.614875], [18.4279886, 43.6148568], [18.4280333, 43.6148467], [18.428078, 43.6148447], [18.4281143, 43.6148244], [18.4281451, 43.6147941], [18.4281702, 43.6147657], [18.428201, 43.6147415], [18.4282345, 43.6147172], [18.4282793, 43.6146929], [18.428324, 43.6146666], [18.4283631, 43.6146423], [18.4284274, 43.6146281], [18.4284749, 43.61462], [18.4285196, 43.614614], [18.4285755, 43.6146099], [18.4286231, 43.6146018], [18.4287209, 43.6145978], [18.4288131, 43.6145856], [18.4289725, 43.6145189], [18.4290172, 43.6145006], [18.4291346, 43.6144359], [18.4291709, 43.6144156], [18.4292156, 43.6143893], [18.429333, 43.6143367], [18.4293777, 43.6143226], [18.4294281, 43.6143104], [18.4294784, 43.6143003], [18.4295287, 43.6142902], [18.4295706, 43.6142821], [18.4296125, 43.614272], [18.4296545, 43.6142598], [18.4297076, 43.6142396], [18.4297775, 43.6142092], [18.4298138, 43.6141849], [18.4298809, 43.6141303], [18.4299172, 43.614108], [18.4299619, 43.6140979], [18.4300122, 43.614106], [18.430043, 43.6141323], [18.4300709, 43.6141627], [18.4300961, 43.614193], [18.43018, 43.6142922], [18.4301967, 43.6143226], [18.4302191, 43.6143529], [18.430247, 43.6143893], [18.4302722, 43.6144197], [18.4303057, 43.614448], [18.4303393, 43.6144723], [18.4303784, 43.6144946], [18.4304706, 43.614529], [18.4305154, 43.6145391], [18.4305741, 43.6145472], [18.4306719, 43.6145492], [18.4307977, 43.614533], [18.4308536, 43.6145209], [18.4309039, 43.6145168], [18.4309514, 43.6145168], [18.4310492, 43.6145391], [18.4311862, 43.6145917], [18.4312337, 43.6145917], [18.4312784, 43.6145877], [18.4313707, 43.6145877], [18.4314154, 43.6145958], [18.4314601, 43.6146079], [18.4315076, 43.6146241], [18.4315887, 43.6146544], [18.4316278, 43.6146706], [18.4316698, 43.6146868], [18.4317145, 43.614703], [18.4318095, 43.6147151], [18.4320359, 43.6147151], [18.4320862, 43.6147192], [18.4321925, 43.6147212], [18.4322428, 43.614703], [18.4322763, 43.6146727], [18.4322819, 43.6146362], [18.4322791, 43.6146038], [18.4322651, 43.6145694], [18.4322428, 43.6145371], [18.4321925, 43.6144784], [18.4320862, 43.6143448], [18.4320695, 43.6143124], [18.4320555, 43.6142477], [18.4320723, 43.6142133], [18.4321058, 43.614193], [18.4321477, 43.6141769], [18.4322036, 43.6141728], [18.4322484, 43.6141748], [18.4322987, 43.614193], [18.4323434, 43.6142032], [18.4324021, 43.6141951], [18.4324412, 43.6141769], [18.432472, 43.6141505], [18.4325083, 43.6141283], [18.432553, 43.6141121], [18.4325978, 43.614102], [18.4327096, 43.6141], [18.4328074, 43.6140878], [18.4329248, 43.6140129], [18.4329667, 43.6140008], [18.4330142, 43.6140008], [18.4330673, 43.6140048], [18.433126, 43.6140129], [18.4331708, 43.6140251], [18.4332099, 43.6140392], [18.4332518, 43.6140655], [18.4333636, 43.6141121], [18.4334223, 43.6141465], [18.4334587, 43.6141688], [18.4335034, 43.6141829], [18.4335537, 43.614189], [18.433604, 43.6141991], [18.4337074, 43.6142092], [18.4337549, 43.6142133], [18.4338053, 43.6142173], [18.4338472, 43.6142295], [18.4338891, 43.6142436], [18.433931, 43.6142598], [18.433959, 43.6142882], [18.4339897, 43.6143185], [18.4340149, 43.6143509], [18.4340848, 43.6144035], [18.4341323, 43.6144055], [18.4341798, 43.6144015], [18.4342217, 43.6143893], [18.4342553, 43.614363], [18.434286, 43.6143367], [18.4343307, 43.6143286], [18.4344258, 43.6143286], [18.4344705, 43.6143408], [18.4345012, 43.6143651], [18.4345404, 43.6143873], [18.4345823, 43.6144015], [18.4346326, 43.6144096], [18.4346801, 43.6144116], [18.434764, 43.6144318], [18.4348003, 43.6144541], [18.4348422, 43.6144703], [18.4349345, 43.6144662], [18.4349764, 43.6144541], [18.4350631, 43.614444], [18.4351749, 43.6144541], [18.435228, 43.6144581], [18.4352811, 43.6144602], [18.4353314, 43.6144764], [18.4353677, 43.6144986], [18.4353873, 43.614531], [18.4353873, 43.6146038], [18.4354041, 43.6146362], [18.4354404, 43.6146565], [18.4354879, 43.6146646], [18.4355802, 43.6146625], [18.4356193, 43.6146423], [18.4356612, 43.614618], [18.4357004, 43.6145998], [18.4357395, 43.6145856], [18.4358289, 43.6145674], [18.4358569, 43.6145411], [18.4358597, 43.6145087], [18.4358597, 43.6144764], [18.4358569, 43.614442], [18.4358625, 43.6144055], [18.4358932, 43.6143772], [18.4359268, 43.6143549], [18.436019, 43.6143327], [18.4360581, 43.6143205], [18.4360917, 43.6142962], [18.4361224, 43.6142639], [18.436156, 43.6142315], [18.4361783, 43.6142011], [18.4362007, 43.6141708], [18.436251, 43.614102], [18.4362845, 43.6140797], [18.4363237, 43.6140655], [18.4363712, 43.6140615], [18.436469, 43.6140595], [18.4365193, 43.6140534], [18.4365668, 43.6140453], [18.4366032, 43.614019], [18.4366088, 43.6139846], [18.4365864, 43.6139522], [18.4365445, 43.6139279], [18.4365026, 43.6139077], [18.4364942, 43.6138733], [18.4365082, 43.6138348], [18.4365361, 43.6138004], [18.4365696, 43.6137741], [18.4365976, 43.6137458], [18.4366423, 43.6137195], [18.4366787, 43.6137013], [18.4367346, 43.6136912], [18.4368324, 43.6136912], [18.4368799, 43.6136993], [18.436919, 43.6137154], [18.4369721, 43.6137235], [18.4370197, 43.6137175], [18.4370504, 43.6136912], [18.4370672, 43.6136608], [18.4370756, 43.6136284], [18.4370895, 43.6135961], [18.4371203, 43.6135697], [18.4371594, 43.6135556], [18.4372069, 43.6135495], [18.43726, 43.6135556], [18.4373132, 43.6135637], [18.4374054, 43.6135859], [18.4374557, 43.61359], [18.437506, 43.6135799], [18.4375507, 43.6135616], [18.4375843, 43.6135394], [18.4376234, 43.6135191], [18.4376681, 43.613505], [18.4377129, 43.6134949], [18.4377604, 43.6134908], [18.4378582, 43.613503], [18.4379029, 43.6135009], [18.4379476, 43.6134928], [18.4380427, 43.6134584], [18.4380846, 43.6134402], [18.4381349, 43.6134139], [18.4381741, 43.6133856], [18.438202, 43.6133552], [18.43823, 43.6133228], [18.4382495, 43.6132925], [18.4382663, 43.6132601], [18.4382859, 43.6132298], [18.4383082, 43.6131974], [18.4383837, 43.6131529], [18.4384284, 43.6131468], [18.438529, 43.613167], [18.4385654, 43.6131852], [18.4385961, 43.6132136], [18.4386129, 43.6132439], [18.4386185, 43.6132804], [18.4386129, 43.6133168], [18.4386129, 43.6133552], [18.4386185, 43.6133896], [18.4386464, 43.6134159], [18.4386856, 43.6134301], [18.4387331, 43.6134362], [18.4388225, 43.613424], [18.4388728, 43.613418], [18.4389204, 43.613418], [18.4389651, 43.6134281], [18.4390098, 43.6134443], [18.439035, 43.6134726], [18.4390433, 43.613507], [18.4390545, 43.6135434], [18.4390853, 43.6135738], [18.4391272, 43.61359], [18.4391719, 43.613592], [18.4392083, 43.6136183], [18.4392166, 43.6136527], [18.4392474, 43.613681], [18.4392893, 43.6137013], [18.439334, 43.6137154], [18.4393732, 43.6137316], [18.4394039, 43.6137579], [18.4394207, 43.6137944], [18.4394375, 43.6138652], [18.4394542, 43.6138996], [18.4394822, 43.613932], [18.4395213, 43.6139563], [18.4395576, 43.6139765], [18.4395996, 43.6139988], [18.4396415, 43.614017], [18.439689, 43.6140311], [18.4397365, 43.6140332], [18.4397757, 43.614021], [18.4398204, 43.6139623], [18.439826, 43.6138956], [18.4398288, 43.6138571], [18.4398455, 43.6138227], [18.4398735, 43.6137964], [18.4399098, 43.6137721], [18.4399462, 43.6137519], [18.4399825, 43.6137215], [18.4400021, 43.6136891], [18.4400133, 43.6136547], [18.4400161, 43.6136203], [18.4400244, 43.6135839], [18.4400356, 43.6135455], [18.4400552, 43.6135171], [18.4401027, 43.6134584], [18.4401362, 43.6134261], [18.4401642, 43.6133998], [18.4402061, 43.6133755], [18.4402536, 43.6133552], [18.4402984, 43.613337], [18.4403459, 43.6133228], [18.440385, 43.6133107], [18.4404633, 43.6132783], [18.4404968, 43.6132561], [18.4405192, 43.6132257], [18.4405583, 43.6132055], [18.4406058, 43.6131974], [18.4406561, 43.6131974], [18.4407456, 43.6132217], [18.4407903, 43.6132358], [18.4408378, 43.6132399], [18.4408881, 43.6132298], [18.4409273, 43.6132156], [18.4409636, 43.6131974], [18.4410279, 43.6131731], [18.4410754, 43.6131711], [18.4411229, 43.6131711], [18.4411677, 43.6131771], [18.4412655, 43.6132115], [18.4413074, 43.6132298], [18.4413493, 43.61325], [18.4414024, 43.6132561], [18.4414444, 43.6132419], [18.4414891, 43.6132237], [18.4415338, 43.6132035], [18.4415785, 43.6131832], [18.4416261, 43.613165], [18.4416708, 43.6131488], [18.4417127, 43.6131367], [18.4417546, 43.6131265], [18.4418133, 43.6131185], [18.4418608, 43.6131164], [18.4419084, 43.6131205], [18.4419615, 43.6131326], [18.4420006, 43.6131468], [18.4420341, 43.6131711], [18.4420677, 43.6132379], [18.44209, 43.6132702], [18.4421264, 43.6132925], [18.4421683, 43.6133026], [18.4422158, 43.6133107], [18.4422606, 43.6133228], [18.4423025, 43.613335], [18.442364, 43.6133957], [18.4423947, 43.6134261], [18.4424422, 43.6134847], [18.4424674, 43.6135191], [18.4424842, 43.6135495], [18.4424953, 43.6135839], [18.4424981, 43.6136183], [18.4425093, 43.6136912], [18.4425317, 43.6137215], [18.4425736, 43.6137357], [18.4426211, 43.6137397], [18.4426686, 43.6137397], [18.4427609, 43.6137316], [18.4428615, 43.6137296], [18.4429146, 43.6137337], [18.4430879, 43.6137721], [18.4431941, 43.6138004], [18.44325, 43.6138166], [18.4432948, 43.6138328], [18.4433898, 43.6138753], [18.4434345, 43.6138976], [18.4434708, 43.6139178], [18.4435072, 43.6139401], [18.4435351, 43.6139684], [18.4435659, 43.6139967], [18.4435938, 43.6140332], [18.4436134, 43.6140696], [18.4436302, 43.614106], [18.4436441, 43.6141445], [18.4436581, 43.614187], [18.4436637, 43.6142214], [18.4436693, 43.6142983], [18.4436833, 43.6143347], [18.4436945, 43.6143671], [18.4437084, 43.6144035], [18.4437252, 43.6144339], [18.4437476, 43.6144662], [18.4437755, 43.6144925], [18.4438174, 43.6145047], [18.4438706, 43.6145047], [18.4439097, 43.6144905], [18.4439404, 43.6144642], [18.4439907, 43.6144035], [18.4440606, 43.6143549], [18.4441053, 43.6143387], [18.4441557, 43.6143387], [18.4441948, 43.614357], [18.4442227, 43.6143833], [18.4442591, 43.6144055], [18.4443066, 43.6144055], [18.4443541, 43.6143974], [18.444396, 43.6143833], [18.4444464, 43.6143833], [18.4444911, 43.6143995], [18.4445218, 43.6144258], [18.444547, 43.6144581], [18.4445693, 43.6144905], [18.4445917, 43.6145209], [18.4446113, 43.6145573], [18.4446392, 43.6145897], [18.4446756, 43.614614], [18.4447175, 43.6146302], [18.4447678, 43.6146322], [18.4448237, 43.6146221], [18.4448656, 43.6146119], [18.4449048, 43.6145978], [18.4449858, 43.6145512], [18.4450194, 43.6145249], [18.4450529, 43.6145006], [18.4451088, 43.614448], [18.445134, 43.6144197], [18.4451591, 43.6143893], [18.4451927, 43.6143529], [18.445229, 43.6143266], [18.44531, 43.6142821], [18.4454023, 43.6142538], [18.4455476, 43.6142578], [18.4455924, 43.6142699], [18.4456371, 43.6142882], [18.4456734, 43.6143064], [18.4457349, 43.6143651], [18.4458271, 43.6144622], [18.445897, 43.6145168], [18.445925, 43.6145452], [18.4459529, 43.6145755], [18.4460452, 43.6146605], [18.4460815, 43.6146828], [18.4461206, 43.6147071], [18.4461598, 43.6147273], [18.4462017, 43.6147435], [18.4462436, 43.6147617], [18.4462883, 43.6147759], [18.4463303, 43.61479], [18.446375, 43.6148042], [18.4464225, 43.6148143], [18.4464672, 43.6148305], [18.4465623, 43.6148528], [18.4466042, 43.6148669], [18.4466461, 43.6148811], [18.4466908, 43.6148973], [18.4467216, 43.6149236], [18.4467719, 43.6149823], [18.4467887, 43.6150147], [18.446811, 43.615047], [18.4468306, 43.6150814], [18.4468502, 43.6151158], [18.4468781, 43.6151462], [18.446948, 43.6151968], [18.4469871, 43.615215], [18.4470263, 43.6152332], [18.4470682, 43.6152534], [18.4471744, 43.6153121], [18.4472163, 43.6153708], [18.4472415, 43.6154113], [18.4472639, 43.6154599], [18.4472611, 43.6156339], [18.4472583, 43.6156703], [18.4472722, 43.6157027], [18.447289, 43.6157351], [18.4473198, 43.6157614], [18.4473589, 43.6157816], [18.4474036, 43.6157897], [18.4475462, 43.6157917], [18.4475853, 43.615812], [18.447658, 43.615901], [18.4476859, 43.6159314], [18.4477223, 43.6159536], [18.4477586, 43.6159759], [18.4478005, 43.6159961], [18.4478508, 43.6160022], [18.447957, 43.6160022], [18.4480549, 43.6159981], [18.4480996, 43.6160164], [18.4481443, 43.6160366], [18.448217, 43.6160933], [18.4482422, 43.6161256], [18.4482953, 43.6161985], [18.4483176, 43.6162288], [18.448354, 43.6162612], [18.4483875, 43.6162875], [18.4484378, 43.6163158], [18.4484797, 43.616332], [18.4485273, 43.6163422], [18.4485804, 43.6163422], [18.4486251, 43.6163341], [18.4486614, 43.6163179], [18.448681, 43.6162875], [18.4486978, 43.6162511], [18.4487117, 43.6162187], [18.4487593, 43.61616], [18.4487984, 43.6161337], [18.4488459, 43.6161115], [18.4489409, 43.6160973], [18.4489996, 43.6160973], [18.4490947, 43.6160872], [18.4491366, 43.616073], [18.4491757, 43.6160447], [18.4492093, 43.6160224], [18.4492372, 43.6159981], [18.4492847, 43.6159415], [18.4493043, 43.6159111], [18.4493239, 43.6158808], [18.4493434, 43.6158464], [18.4493658, 43.615816], [18.4493993, 43.6157897], [18.4494413, 43.6157816], [18.4494888, 43.6157816], [18.449595, 43.6157917], [18.4496397, 43.6158018], [18.4496816, 43.615816], [18.4498801, 43.6159091], [18.4499164, 43.6159293], [18.4499695, 43.6159536], [18.4500171, 43.6159759], [18.450059, 43.6159981], [18.4500953, 43.6160204], [18.4501736, 43.6160649], [18.4502127, 43.6160831], [18.4503134, 43.6161135], [18.4503553, 43.6161277], [18.450414, 43.6161459], [18.4504587, 43.6161621], [18.4505034, 43.6161803], [18.4505985, 43.6162187], [18.450646, 43.6162309], [18.4507857, 43.616247], [18.4512972, 43.616247], [18.4513867, 43.6162349], [18.4514286, 43.6162228], [18.4514677, 43.6162045], [18.4515097, 43.6161843], [18.4515544, 43.616156], [18.4516718, 43.6160872], [18.4516997, 43.6160609], [18.4517277, 43.6160305], [18.4517584, 43.6159941], [18.4517836, 43.6159637], [18.4518227, 43.6158949], [18.4518395, 43.6158585], [18.4518507, 43.6158221], [18.4518619, 43.6157877], [18.451873, 43.6157533], [18.451887, 43.6157209], [18.4519038, 43.6156926], [18.4519541, 43.6156339], [18.4519876, 43.6156096], [18.4520212, 43.6155894], [18.4520659, 43.6155894], [18.4521078, 43.6156015], [18.453729, 43.6159536], [18.4561272, 43.6149782], [18.462338, 43.6176838], [18.4683001, 43.6190092], [18.4684259, 43.6189667], [18.4686495, 43.6187684], [18.4688843, 43.6185681], [18.469147, 43.6184103], [18.4692504, 43.6183576], [18.4693511, 43.6183495], [18.4693986, 43.6183374], [18.4694461, 43.6183313], [18.4695244, 43.6182949], [18.4695579, 43.6182706], [18.469583, 43.6182403], [18.469597, 43.6182059], [18.4696138, 43.6181371], [18.469639, 43.6180986], [18.4696725, 43.6180703], [18.4697116, 43.6180501], [18.4697508, 43.6180298], [18.4697899, 43.6180055], [18.4698206, 43.6179813], [18.4698458, 43.6179509], [18.4698654, 43.6179185], [18.4698849, 43.6178841], [18.4698989, 43.6178538], [18.4699101, 43.6178234], [18.4699436, 43.6178032], [18.4701644, 43.6181512], [18.4707654, 43.6185357], [18.4706256, 43.6186531], [18.4706061, 43.6186855], [18.4704999, 43.6188129], [18.4704328, 43.6189667], [18.4708884, 43.6189991], [18.4712657, 43.6190031], [18.4712937, 43.6192439], [18.4718192, 43.6193127], [18.4721769, 43.6194119], [18.4728282, 43.6188008], [18.4732531, 43.6189121], [18.4735633, 43.6187502], [18.4738428, 43.6186672], [18.4741084, 43.61856], [18.4743236, 43.6184345], [18.4744158, 43.6183637], [18.4745221, 43.6183576], [18.4748575, 43.6184831], [18.4750252, 43.6185984], [18.4750615, 43.6186227], [18.4752264, 43.6187947], [18.4753047, 43.6187907], [18.4761572, 43.619762], [18.476378, 43.6199845], [18.4768253, 43.6203245], [18.4775305, 43.6203434], [18.4777993, 43.6203549], [18.4780681, 43.6203549], [18.4783527, 43.6204006], [18.4785741, 43.6204922], [18.4789378, 43.6207784], [18.4791117, 43.6209386], [18.4792698, 43.6211103], [18.4794121, 43.6212706], [18.4795702, 43.6214308], [18.4797441, 43.6215911], [18.4799971, 43.6216712], [18.4802501, 43.6217055], [18.4805031, 43.621717], [18.4807877, 43.6217055], [18.4810565, 43.6217284], [18.4813411, 43.6218085], [18.4815625, 43.6219345], [18.4817839, 43.622026], [18.4820052, 43.622129], [18.4821633, 43.6223007], [18.4822266, 43.6224839], [18.4823847, 43.6226441], [18.4825903, 43.6227471], [18.4830962, 43.6229074], [18.483365, 43.6229532], [18.4835864, 43.6230447], [18.4838078, 43.6231706], [18.4840607, 43.6232164], [18.4843295, 43.6232279], [18.4845667, 43.6232965], [18.4848118, 43.6234224], [18.4847802, 43.6235598], [18.4865274, 43.6256544], [18.4933264, 43.6282639], [18.4934687, 43.6282067], [18.493611, 43.6282181], [18.4937296, 43.6282524], [18.493864, 43.6282639], [18.4939905, 43.6282353], [18.4941091, 43.6281952], [18.4942119, 43.6281437], [18.4943146, 43.6280808], [18.4944174, 43.628035], [18.494536, 43.6280121], [18.4946625, 43.6279892], [18.4947969, 43.6279835], [18.4949234, 43.6279835], [18.4950499, 43.6280121], [18.4951922, 43.6280579], [18.495295, 43.6281151], [18.4953977, 43.6281666], [18.4955005, 43.6282353], [18.4955954, 43.6282982], [18.4958088, 43.6284184], [18.4959274, 43.6284642], [18.4960618, 43.6284928], [18.4961883, 43.6285157], [18.4964729, 43.62855], [18.4966073, 43.6285958], [18.4967971, 43.6286473], [18.4969236, 43.6286931], [18.4970421, 43.6287274], [18.4971607, 43.6287789], [18.4972793, 43.6288361], [18.4973821, 43.6288933], [18.4976351, 43.6289964], [18.4977774, 43.6290593], [18.4978881, 43.6291051], [18.4980067, 43.6291451], [18.4982597, 43.6292252], [18.4983941, 43.6292768], [18.4986312, 43.6294141], [18.4987182, 43.6295056], [18.4987893, 43.6296029], [18.4988289, 43.6296945], [18.4988605, 43.6297918], [18.4989396, 43.6298719], [18.4990186, 43.629952], [18.4990819, 43.6300378], [18.4991135, 43.6301351], [18.4991293, 43.6302324], [18.4991293, 43.6303354], [18.4991056, 43.6304441], [18.4991135, 43.6305471], [18.4991451, 43.6306501], [18.4992163, 43.6307359], [18.4992637, 43.6308218], [18.4993269, 43.6309362], [18.4993586, 43.6310449], [18.4993744, 43.6311479], [18.4993981, 43.6312452], [18.4994376, 43.6313368], [18.4994455, 43.6314455], [18.4994455, 43.6315485], [18.4994297, 43.6316515], [18.4993665, 43.6317545], [18.4992558, 43.6318632], [18.4991609, 43.6319433], [18.498987, 43.6321322], [18.4989158, 43.6322237], [18.4988526, 43.6323267], [18.4987972, 43.632424], [18.4987577, 43.6325213], [18.4986866, 43.6326185], [18.4985601, 43.6326643], [18.4984336, 43.6327101], [18.4983229, 43.6327788], [18.4982201, 43.6328474], [18.497975, 43.6331965], [18.4979592, 43.6333109], [18.4979197, 43.6334025], [18.4978802, 43.6334997], [18.4978327, 43.633597], [18.4977379, 43.6338946], [18.4977062, 43.6340033], [18.4976904, 43.634112], [18.4976904, 43.634215], [18.4976825, 43.634318], [18.4976825, 43.6346327], [18.4976983, 43.6348387], [18.4976904, 43.6349417], [18.4976272, 43.6350275], [18.4975639, 43.635119], [18.4975244, 43.6352163], [18.4974849, 43.6354852], [18.4974849, 43.6356912], [18.497477, 43.6357942], [18.4975007, 43.6358915], [18.4975639, 43.6359773], [18.4976588, 43.6360746], [18.4977616, 43.6361547], [18.4978644, 43.6362119], [18.4979671, 43.6362748], [18.4980778, 43.6363721], [18.4981411, 43.6364579], [18.4981964, 43.6365438], [18.4982359, 43.636641], [18.4982517, 43.6367498], [18.4982359, 43.636847], [18.4981885, 43.6369443], [18.4981253, 43.6370473], [18.4980304, 43.6371217], [18.4979276, 43.6372075], [18.4978565, 43.6372933], [18.497809, 43.6373906], [18.4977616, 43.637608], [18.4977379, 43.6377053], [18.49773, 43.6378083], [18.49773, 43.63802], [18.4977141, 43.6381172], [18.4976746, 43.6382202], [18.4976035, 43.6383118], [18.4975323, 43.6383919], [18.4974453, 43.638472], [18.4973584, 43.6385578], [18.4972714, 43.6386379], [18.4972161, 43.6387351], [18.4971607, 43.6388324], [18.4971212, 43.6390269], [18.4971212, 43.6391242], [18.4971449, 43.6392329], [18.4971845, 43.6393359], [18.497303, 43.6395419], [18.4973426, 43.6396334], [18.4973979, 43.6397364], [18.4974453, 43.6398337], [18.4974849, 43.6399252], [18.4975244, 43.6400396], [18.497556, 43.6401426], [18.4975877, 43.640257], [18.4976035, 43.6403658], [18.4976114, 43.640463], [18.4976114, 43.640669], [18.4976035, 43.6407662], [18.4977695, 43.6406289], [18.4979355, 43.6407548], [18.4980462, 43.6408177], [18.4981094, 43.6409093], [18.4981253, 43.6410065], [18.4981253, 43.6411095], [18.4982122, 43.6411839], [18.4983308, 43.6412182], [18.4984178, 43.6412869], [18.4984494, 43.6413784], [18.4984257, 43.6414757], [18.498315, 43.6415443], [18.4981727, 43.6415901], [18.4980699, 43.6416645], [18.4979829, 43.6417617], [18.4979355, 43.641859], [18.4978723, 43.641962], [18.4977774, 43.6420421], [18.4976904, 43.6421222], [18.4976193, 43.6422137], [18.4975797, 43.6423167], [18.497556, 43.6424197], [18.497556, 43.6425169], [18.4975797, 43.6427286], [18.4975877, 43.6429346], [18.4976114, 43.6430318], [18.497643, 43.6431405], [18.4976904, 43.6432321], [18.4977537, 43.6433122], [18.4978565, 43.6433751], [18.4980778, 43.6434552], [18.4981885, 43.643501], [18.4982992, 43.6435696], [18.4983861, 43.6436383], [18.4984573, 43.6437184], [18.4985205, 43.6438099], [18.4985892, 43.6439712], [18.4992667, 43.6440311], [18.5001255, 43.6445703], [18.5002846, 43.6445825], [18.5004539, 43.6446013], [18.5006176, 43.6450631], [18.5004286, 43.6452917], [18.494593, 43.6453096], [18.4834502, 43.6423183], [18.4772932, 43.6427413], [18.4744381, 43.6429375], [18.4706044, 43.6454298], [18.4665184, 43.6480941], [18.4631866, 43.6522613], [18.4612191, 43.6547472], [18.4601265, 43.6561414], [18.4598311, 43.6596643], [18.4595797, 43.6634352], [18.4592133, 43.6654046], [18.4586872, 43.667813], [18.4580529, 43.6692259], [18.4571864, 43.6705472], [18.4568819, 43.6710052], [18.4560768, 43.6712226], [18.4546862, 43.6715981], [18.4536098, 43.6718887], [18.4528987, 43.6717438], [18.4510938, 43.6711971], [18.4499504, 43.6708507], [18.4492852, 43.6707488], [18.4393851, 43.668037], [18.4373436, 43.6677334], [18.436172, 43.6678665], [18.4351901, 43.6679163], [18.4323533, 43.66806], [18.4290693, 43.6678613], [18.4272543, 43.6675147], [18.424654, 43.6662254], [18.4234198, 43.664878], [18.4229747, 43.6640462], [18.4220855, 43.663185], [18.4218199, 43.6629277], [18.4195856, 43.6622789], [18.414627, 43.6608107], [18.4049925, 43.657228], [18.4044467, 43.6545767], [18.4058676, 43.6529744], [18.407168, 43.6518493], [18.4095826, 43.6500305], [18.4085517, 43.6490633], [18.4074405, 43.6480208], [18.4059397, 43.6475102], [18.4037874, 43.6468436], [18.4026118, 43.6465645], [18.4014851, 43.645368], [18.4011749, 43.6450386], [18.3992811, 43.6429962], [18.3970434, 43.6405593], [18.3952825, 43.638645], [18.392182, 43.635268], [18.3878715, 43.6306129], [18.387183, 43.6298335], [18.3852754, 43.6276739], [18.3841301, 43.6174468]]]]}}]}