{"type": "FeatureCollection", "features": [{"type": "Feature", "properties": {"name": "Općina Jablanica, Hercegovačko-neretvanska županija (kanton), Federacija Bosne i Hercegovine, Bosna i Hercegovina / Босна и Херцеговина", "source": "OpenStreetMap relation 2528209", "licence": "ODbL 1.0"}, "geometry": {"type": "Polygon", "coordinates": [[[17.4991555, 43.6782145], [17.5055483, 43.6681301], [17.5327608, 43.6560838], [17.5328493, 43.6560237], [17.5329781, 43.6558509], [17.5331175, 43.6557442], [17.533823, 43.655195], [17.5339691, 43.6550737], [17.5341542, 43.6549699], [17.5348851, 43.6546109], [17.5350648, 43.6545216], [17.5355127, 43.6550146], [17.5355718, 43.6550844], [17.5370979, 43.6547545], [17.5379938, 43.6544595], [17.5383747, 43.6544479], [17.5388253, 43.6545139], [17.5402254, 43.6550456], [17.5409871, 43.6552164], [17.5418884, 43.6552824], [17.5437391, 43.6553639], [17.5440663, 43.6553639], [17.5446832, 43.6555502], [17.5453913, 43.6559422], [17.5457936, 43.6560625], [17.5460994, 43.6560469], [17.5462657, 43.6560043], [17.5475049, 43.6558762], [17.5481325, 43.655752], [17.5490606, 43.6555812], [17.5501174, 43.655325], [17.5510186, 43.6550689], [17.551378, 43.6550029], [17.5518179, 43.6549486], [17.5520088, 43.6545814], [17.5524294, 43.6537726], [17.5537115, 43.6515757], [17.5539154, 43.6513739], [17.5540173, 43.6511992], [17.5541246, 43.6510905], [17.5542909, 43.6510051], [17.5545373, 43.6508878], [17.5573164, 43.6497242], [17.5611937, 43.6456501], [17.5697314, 43.6443848], [17.5735102, 43.6416446], [17.5826355, 43.6345902], [17.5835583, 43.6338768], [17.5852955, 43.6337676], [17.588571, 43.6335616], [17.5891097, 43.6335277], [17.5892259, 43.6335204], [17.5894119, 43.6332781], [17.5894588, 43.6332169], [17.5898858, 43.6326606], [17.5902593, 43.6321741], [17.5903907, 43.632003], [17.5904987, 43.6318622], [17.5911234, 43.6310484], [17.5915819, 43.6304511], [17.5918518, 43.6300993], [17.5920323, 43.6298642], [17.5921929, 43.6298837], [17.5984244, 43.6306397], [17.6045985, 43.6302334], [17.6079661, 43.6294209], [17.6096499, 43.6290146], [17.6147014, 43.6277958], [17.6195345, 43.6274072], [17.6197529, 43.6273896], [17.6225593, 43.6269833], [17.6270495, 43.6245456], [17.6304171, 43.6233267], [17.6343461, 43.6229204], [17.638275, 43.6241393], [17.6427652, 43.626577], [17.6461329, 43.626577], [17.6495005, 43.6277958], [17.6528682, 43.6298272], [17.6579197, 43.6310459], [17.6624099, 43.6334834], [17.6663388, 43.6338896], [17.6736354, 43.6338896], [17.6775643, 43.6355145], [17.6842996, 43.6351083], [17.6899124, 43.6326709], [17.69328, 43.6306397], [17.6977702, 43.6286084], [17.7022604, 43.6277958], [17.7073119, 43.6245456], [17.7151698, 43.6225141], [17.71966, 43.6200762], [17.7235889, 43.6188572], [17.7292017, 43.6180445], [17.7325693, 43.6172318], [17.7348144, 43.6160128], [17.7387433, 43.6131682], [17.7404272, 43.61073], [17.7409885, 43.6046338], [17.7449174, 43.6005694], [17.7477238, 43.5981306], [17.7527752, 43.5969112], [17.7578267, 43.5940658], [17.7611944, 43.5932528], [17.7651233, 43.5908137], [17.7696135, 43.5875614], [17.7718586, 43.5859352], [17.7741037, 43.5822761], [17.7741037, 43.5733307], [17.7757875, 43.5692642], [17.7774714, 43.5664174], [17.780839, 43.5643839], [17.7830841, 43.5623504], [17.7870131, 43.5607235], [17.7915033, 43.5603168], [17.7965547, 43.5603168], [17.7999224, 43.5595033], [17.8027288, 43.5570629], [17.8055352, 43.5550291], [17.8077803, 43.553402], [17.8105866, 43.5529953], [17.8139543, 43.5554359], [17.8167607, 43.5578764], [17.8201283, 43.5586899], [17.8218121, 43.5611303], [17.8206896, 43.5639772], [17.8201283, 43.5668241], [17.8190058, 43.5692642], [17.8190058, 43.5712975], [17.8206896, 43.5753639], [17.823496, 43.577397], [17.8251798, 43.5782102], [17.82967, 43.5757705], [17.8330377, 43.5733307], [17.8380891, 43.5704841], [17.8425793, 43.5696708], [17.8470696, 43.5672308], [17.852121, 43.5643839], [17.8554887, 43.5619437], [17.8599789, 43.5603168], [17.8639078, 43.5578764], [17.8684395, 43.5578639], [17.8654204, 43.5636801], [17.8645982, 43.5672659], [17.8638552, 43.5702501], [17.8630297, 43.5734829], [17.8615886, 43.5776457], [17.8599477, 43.5806629], [17.8588545, 43.5827416], [17.8569607, 43.5866124], [17.8544039, 43.5911703], [17.8529595, 43.5937803], [17.8503857, 43.5962553], [17.8489414, 43.5976194], [17.8454732, 43.6007657], [17.8453456, 43.6038643], [17.8451739, 43.6064991], [17.8450801, 43.6097095], [17.8448724, 43.6125828], [17.8448724, 43.6167183], [17.8446565, 43.6203762], [17.8451783, 43.6216573], [17.8451228, 43.6226405], [17.8441483, 43.6228321], [17.844007, 43.6241627], [17.845097, 43.6249306], [17.8444361, 43.6262285], [17.8443503, 43.6273468], [17.8451084, 43.6284604], [17.8446078, 43.6292417], [17.8444827, 43.6299898], [17.8443969, 43.6332953], [17.8440716, 43.6369358], [17.8420196, 43.640675], [17.8417754, 43.6417433], [17.8413658, 43.6428563], [17.8355312, 43.6456873], [17.8353362, 43.6462011], [17.8346944, 43.6467742], [17.8337717, 43.6471779], [17.8320122, 43.6485753], [17.8317332, 43.649895], [17.8315563, 43.6504439], [17.8327417, 43.6510284], [17.8368401, 43.6546769], [17.8369771, 43.6551244], [17.837162, 43.6560586], [17.8383673, 43.65819], [17.8389534, 43.659592], [17.8401527, 43.6605463], [17.8411645, 43.6607317], [17.8413248, 43.6613057], [17.8420114, 43.6612746], [17.8429341, 43.6609021], [17.8439855, 43.6610418], [17.8442859, 43.6622526], [17.8446829, 43.6626096], [17.8447097, 43.6627803], [17.8445741, 43.6628949], [17.843771, 43.6630598], [17.8426337, 43.6637272], [17.8417677, 43.6639496], [17.8408313, 43.664938], [17.8402126, 43.665956], [17.8404879, 43.6682907], [17.8402519, 43.6693306], [17.8401348, 43.6695121], [17.8393721, 43.669967], [17.8381705, 43.6719692], [17.8380632, 43.6725434], [17.8385782, 43.6731797], [17.8393702, 43.673304], [17.8396725, 43.6742661], [17.83977, 43.6751941], [17.8389001, 43.6758957], [17.8388142, 43.6764854], [17.839179, 43.6770131], [17.8399914, 43.6773528], [17.8396725, 43.6783943], [17.8397768, 43.679064], [17.8376555, 43.6792013], [17.8371191, 43.679372], [17.8370976, 43.679822], [17.8380418, 43.6800703], [17.8380418, 43.6805048], [17.8385782, 43.6809393], [17.8385782, 43.6812497], [17.8375124, 43.6819494], [17.8373441, 43.682388], [17.8375789, 43.6830054], [17.8378692, 43.6842851], [17.8386462, 43.6854097], [17.839037, 43.6878997], [17.8397316, 43.6887564], [17.8413489, 43.690272], [17.8423418, 43.6915671], [17.8434276, 43.6935698], [17.8429127, 43.6957495], [17.8432831, 43.6977542], [17.8361644, 43.6960623], [17.8316903, 43.6956487], [17.8308226, 43.6968763], [17.8301406, 43.6981892], [17.8275919, 43.6974638], [17.8274631, 43.6966106], [17.8255105, 43.6970139], [17.8241189, 43.6965545], [17.8217124, 43.6986584], [17.8190561, 43.6998173], [17.8186655, 43.7016835], [17.8171917, 43.70255], [17.8119921, 43.7027383], [17.8115258, 43.7060418], [17.8107252, 43.7067733], [17.8063591, 43.7074704], [17.7995187, 43.708659], [17.7975345, 43.7082549], [17.7952318, 43.7102476], [17.7928646, 43.71209], [17.7928692, 43.7132785], [17.7906818, 43.7151935], [17.7892634, 43.7169901], [17.7867789, 43.718334], [17.7804708, 43.7218001], [17.7731752, 43.7258009], [17.769475, 43.723754], [17.767025, 43.721584], [17.7611053, 43.7167677], [17.7584392, 43.7160814], [17.757656, 43.7159069], [17.7575755, 43.7160349], [17.7565455, 43.7156239], [17.7564114, 43.7157247], [17.7557731, 43.7153564], [17.755655, 43.7154611], [17.7556068, 43.7155813], [17.7555585, 43.7156743], [17.7554297, 43.715651], [17.7551454, 43.7155619], [17.755022, 43.7154456], [17.7549684, 43.7153137], [17.7550274, 43.7151082], [17.7545232, 43.7150307], [17.7527314, 43.7146856], [17.7522057, 43.714608], [17.7518249, 43.7146042], [17.7510577, 43.7146972], [17.7499849, 43.714767], [17.7491748, 43.7147438], [17.7483594, 43.7147244], [17.7473885, 43.7147282], [17.7467018, 43.7147903], [17.7458382, 43.7148717], [17.745291, 43.7149182], [17.7451461, 43.7149686], [17.7450389, 43.7150307], [17.7449423, 43.7147825], [17.7447814, 43.7145887], [17.7446526, 43.7144491], [17.7443576, 43.7140226], [17.7442717, 43.7138946], [17.7442503, 43.7136814], [17.7442288, 43.7133595], [17.744202, 43.7131734], [17.7441966, 43.7124522], [17.7441966, 43.7118318], [17.7440947, 43.711413], [17.7441323, 43.7111571], [17.7445936, 43.7106647], [17.7450925, 43.7100791], [17.7453339, 43.7098155], [17.7454519, 43.7095595], [17.7454734, 43.7089546], [17.7455431, 43.7085087], [17.7458328, 43.7076672], [17.7460796, 43.7068877], [17.7462941, 43.7065736], [17.7466965, 43.7060695], [17.7469057, 43.7057864], [17.7469808, 43.7056391], [17.746895, 43.7054995], [17.7467126, 43.7048169], [17.7466214, 43.704371], [17.7466643, 43.7040103], [17.7469432, 43.7030912], [17.7469861, 43.7025715], [17.7469379, 43.7020441], [17.7467877, 43.7003726], [17.7469928, 43.6983883], [17.7412966, 43.6975398], [17.737461, 43.6972294], [17.7356306, 43.696655], [17.73466, 43.6960544], [17.7333435, 43.6941271], [17.7327382, 43.6936085], [17.7323468, 43.6935826], [17.7314334, 43.694805], [17.7315566, 43.6961499], [17.7320124, 43.6975661], [17.7323819, 43.698911], [17.7321972, 43.7011643], [17.7311747, 43.7024201], [17.7292282, 43.7043705], [17.7284398, 43.7053857], [17.7283289, 43.7060982], [17.7294869, 43.7080662], [17.7298688, 43.7089033], [17.7299797, 43.7100431], [17.7292898, 43.7115659], [17.7284521, 43.7125365], [17.7266289, 43.7132399], [17.7243375, 43.7138098], [17.7229947, 43.7143529], [17.721923, 43.7150297], [17.7208142, 43.7164276], [17.7199273, 43.7175406], [17.7186707, 43.7180748], [17.718206, 43.7174258], [17.7178681, 43.7169538], [17.7174228, 43.7169267], [17.7169669, 43.7168375], [17.7166933, 43.7167677], [17.7165806, 43.7166824], [17.7164841, 43.7165506], [17.716409, 43.7163683], [17.7162802, 43.7161939], [17.7161086, 43.7161221], [17.7160522, 43.7160562], [17.7158564, 43.7155987], [17.7159771, 43.7155657], [17.715784, 43.7153409], [17.715674, 43.7152808], [17.7155989, 43.7152653], [17.7149767, 43.7152943], [17.7147594, 43.7153467], [17.7143956, 43.7150895], [17.7142671, 43.715197], [17.714065, 43.7152877], [17.7136915, 43.7154253], [17.7137884, 43.714703], [17.7136973, 43.7146352], [17.7135363, 43.7144975], [17.713338, 43.7144792], [17.7132842, 43.7144743], [17.7131098, 43.7144336], [17.713016, 43.7146255], [17.7129221, 43.7148252], [17.7128309, 43.714957], [17.7126753, 43.7151237], [17.7106583, 43.7146197], [17.7078474, 43.7142824], [17.7075523, 43.7142281], [17.7072573, 43.7141777], [17.7072519, 43.713945], [17.7062809, 43.7136348], [17.7051651, 43.7129369], [17.7047253, 43.7126073], [17.704221, 43.7122467], [17.7033949, 43.7116961], [17.7027243, 43.7112502], [17.702322, 43.7110873], [17.7013993, 43.7106491], [17.7007019, 43.7102963], [17.6996559, 43.7093579], [17.699554, 43.709102], [17.6994137, 43.7090192], [17.6993501, 43.7089817], [17.699098, 43.7091097], [17.6988351, 43.7089624], [17.6986688, 43.7087375], [17.6984006, 43.708404], [17.6980144, 43.7078378], [17.6977569, 43.7075431], [17.6978695, 43.7073337], [17.6978159, 43.7072484], [17.6974511, 43.7072096], [17.6969039, 43.7067869], [17.6964748, 43.7061044], [17.6961851, 43.7055382], [17.6958472, 43.7046579], [17.6957372, 43.7046592], [17.6797271, 43.704848], [17.6657581, 43.7069963], [17.6649964, 43.7072212], [17.6644814, 43.7074384], [17.6642239, 43.7076866], [17.663784, 43.7080511], [17.6634407, 43.708214], [17.6630545, 43.7082527], [17.6628506, 43.7081286], [17.6627004, 43.7078727], [17.6625287, 43.7076013], [17.6624215, 43.7074151], [17.6621854, 43.7073764], [17.6599967, 43.7076478], [17.6591149, 43.7080135], [17.6582597, 43.7083681], [17.6582043, 43.7084426], [17.6579965, 43.7085932], [17.6576073, 43.7088694], [17.6575221, 43.7089815], [17.657057, 43.7095556], [17.6565528, 43.7103002], [17.6561236, 43.7109438], [17.6557857, 43.7114634], [17.6554316, 43.7118318], [17.6549274, 43.7119598], [17.6544974, 43.7120611], [17.6544338, 43.7120761], [17.6538974, 43.712363], [17.6533341, 43.7128516], [17.6530606, 43.7130842], [17.6526153, 43.7133789], [17.6524222, 43.7134875], [17.6523417, 43.7136309], [17.6520252, 43.7143832], [17.6517194, 43.7148407], [17.6513922, 43.7152129], [17.6423187, 43.7145999], [17.6406349, 43.7150056], [17.6372672, 43.7178453], [17.6361447, 43.7190623], [17.6282868, 43.7174396], [17.6237966, 43.7206849], [17.6209902, 43.7231187], [17.6193064, 43.7275804], [17.6193064, 43.7344752], [17.6153775, 43.7365029], [17.6125711, 43.7360973], [17.610326, 43.7356918], [17.6063971, 43.7360973], [17.6061713, 43.7360041], [17.6024681, 43.7344752], [17.5974166, 43.7344752], [17.5946103, 43.7328529], [17.5912426, 43.7316362], [17.587875, 43.7316362], [17.5850686, 43.7312307], [17.5800171, 43.7292028], [17.5755269, 43.7283916], [17.5665465, 43.7283916], [17.5637401, 43.727986], [17.5598112, 43.7275804], [17.5558822, 43.725958], [17.5519533, 43.722713], [17.5502695, 43.7219018], [17.5485857, 43.7186566], [17.5474631, 43.7154112], [17.5469018, 43.7150056], [17.545218, 43.7121657], [17.545218, 43.7101372], [17.5440955, 43.7077028], [17.5424116, 43.7068914], [17.5407278, 43.7064856], [17.5384827, 43.7028339], [17.5379214, 43.7020223], [17.5371622, 43.7016303], [17.5339925, 43.6999934], [17.5300636, 43.6991819], [17.5278185, 43.6943122], [17.5250121, 43.6926889], [17.522767, 43.6906597], [17.5222057, 43.6878187], [17.5199606, 43.6866011], [17.5160317, 43.6837599], [17.5121027, 43.6821363], [17.5109802, 43.6817304], [17.5092964, 43.6801067], [17.5081738, 43.678889], [17.4991555, 43.6782145]]]}}]}