{"type": "FeatureCollection", "features": [{"type": "Feature", "properties": {"name": "Općina Jajce, Srednjobosanski kanton / Županija Središnja Bosna, Federacija Bosne i Hercegovine, 70101, Bosna i Hercegovina / Босна и Херцеговина", "source": "OpenStreetMap relation 2528210", "licence": "ODbL 1.0"}, "geometry": {"type": "Polygon", "coordinates": [[[17.1770626, 44.3349056], [17.182597, 44.3332999], [17.1861884, 44.3323586], [17.1905978, 44.3307562], [17.1953396, 44.3288934], [17.1966518, 44.3283813], [17.1997061, 44.3263081], [17.2019636, 44.3241263], [17.2041309, 44.322199], [17.2059105, 44.3203685], [17.2070229, 44.3188414], [17.2088159, 44.316368], [17.2104455, 44.3140217], [17.2118442, 44.3119383], [17.2141916, 44.3081902], [17.2156908, 44.3064801], [17.21606, 44.3061234], [17.2199859, 44.3023309], [17.2244018, 44.2978963], [17.2263531, 44.2943847], [17.2280537, 44.291431], [17.2307634, 44.2876478], [17.2323456, 44.2851807], [17.2330118, 44.2839], [17.2355489, 44.2790221], [17.2368561, 44.2759875], [17.2387403, 44.2710658], [17.2419352, 44.2637476], [17.2426634, 44.2612412], [17.2431143, 44.257712], [17.2434528, 44.2550629], [17.2439743, 44.2531346], [17.2454234, 44.2452734], [17.2521186, 44.2352836], [17.252891, 44.2324394], [17.2623002, 44.2265813], [17.2632551, 44.2263968], [17.2635555, 44.2264352], [17.2638988, 44.2264198], [17.2650146, 44.2261815], [17.2655404, 44.2259508], [17.2660661, 44.2257894], [17.2677934, 44.2256356], [17.2685766, 44.2254434], [17.2697353, 44.2248591], [17.2707653, 44.2244747], [17.2715056, 44.2241825], [17.2724878, 44.2239254], [17.2731149, 44.2238519], [17.2737816, 44.2238691], [17.2755182, 44.2238827], [17.2768056, 44.2239749], [17.2778356, 44.2239057], [17.2800457, 44.223652], [17.2800243, 44.2259201], [17.2783828, 44.2266351], [17.2786617, 44.2270349], [17.2789943, 44.2275039], [17.2790265, 44.227919], [17.2788334, 44.228142], [17.2777712, 44.2282111], [17.2771168, 44.2281112], [17.2763121, 44.227796], [17.2757971, 44.2274654], [17.2755396, 44.2273808], [17.2755289, 44.2277037], [17.2756469, 44.2280804], [17.2762906, 44.2289569], [17.2768485, 44.2295719], [17.2775566, 44.2301331], [17.2783935, 44.2305559], [17.2789128, 44.2307097], [17.2793602, 44.2309941], [17.2796531, 44.2313769], [17.2798204, 44.2315476], [17.2798633, 44.2317244], [17.2798204, 44.2319627], [17.2796917, 44.232178], [17.2797882, 44.2323471], [17.2800779, 44.2325085], [17.2807217, 44.2327622], [17.2812259, 44.2328929], [17.2817945, 44.233062], [17.2820091, 44.233185], [17.2822451, 44.2333695], [17.2825241, 44.2334925], [17.2828781, 44.2337231], [17.2833395, 44.2339537], [17.2835755, 44.2341075], [17.2836506, 44.2342151], [17.2836721, 44.234415], [17.2837365, 44.2347763], [17.2836506, 44.2352606], [17.2836399, 44.2354297], [17.2839296, 44.2355834], [17.2844016, 44.2358063], [17.2850132, 44.2359601], [17.2851634, 44.2360907], [17.2854102, 44.2364443], [17.2859144, 44.2371515], [17.2864079, 44.2376435], [17.2866547, 44.2381201], [17.2867513, 44.2384429], [17.2866976, 44.2388964], [17.2864938, 44.239519], [17.286233, 44.2401774], [17.2867491, 44.2404714], [17.2880387, 44.2408795], [17.2879744, 44.2410563], [17.2886664, 44.2412062], [17.2886878, 44.2413637], [17.2886985, 44.2415213], [17.2897553, 44.2417403], [17.2898465, 44.2418211], [17.2898251, 44.2419517], [17.2903186, 44.2419863], [17.2904152, 44.2418518], [17.2905439, 44.2418211], [17.2907317, 44.2419479], [17.2909033, 44.2421516], [17.2911394, 44.2424552], [17.2915846, 44.242974], [17.2919655, 44.2432968], [17.2923464, 44.2434467], [17.2928023, 44.2435312], [17.2937196, 44.243585], [17.2941488, 44.243487], [17.2943473, 44.2434755], [17.2950511, 44.2434947], [17.2951102, 44.2440629], [17.2951875, 44.2445917], [17.2952862, 44.2448838], [17.2955222, 44.2451205], [17.2960329, 44.2454249], [17.2966595, 44.2457323], [17.2971916, 44.2458676], [17.2977924, 44.2460151], [17.2980499, 44.2461504], [17.2982387, 44.2462672], [17.2987237, 44.2468359], [17.2989683, 44.2471341], [17.2991228, 44.2476352], [17.2992601, 44.2483208], [17.2993159, 44.2489233], [17.299346, 44.2494121], [17.299205, 44.2500702], [17.2991367, 44.2502962], [17.2991692, 44.250436], [17.2993318, 44.2506317], [17.2995237, 44.2509508], [17.2996603, 44.2513282], [17.2996928, 44.2515239], [17.299592, 44.2519013], [17.2995367, 44.2521459], [17.2994554, 44.2523533], [17.2993286, 44.2525233], [17.2991835, 44.2526357], [17.2990313, 44.2527185], [17.2992531, 44.2529098], [17.2992823, 44.2528896], [17.2993702, 44.2529517], [17.2993294, 44.252985], [17.2993726, 44.253154], [17.2994086, 44.2532435], [17.2994542, 44.2533319], [17.2995079, 44.2533626], [17.2997063, 44.253426], [17.2998297, 44.2535144], [17.2998968, 44.2535989], [17.3001945, 44.2538487], [17.3004386, 44.2540081], [17.3006853, 44.2540811], [17.3008543, 44.2541003], [17.3012981, 44.2541197], [17.3017324, 44.2542335], [17.3021569, 44.2544339], [17.3025672, 44.2544942], [17.3029625, 44.2544903], [17.3033434, 44.2544519], [17.303785, 44.2543926], [17.3043573, 44.2544519], [17.3047167, 44.2544557], [17.3048615, 44.254425], [17.3050868, 44.2542867], [17.305178, 44.254133], [17.3052263, 44.2539255], [17.3053336, 44.2537833], [17.3054838, 44.2537065], [17.3058754, 44.2536143], [17.3060632, 44.2535835], [17.3063636, 44.2535028], [17.307018, 44.2533568], [17.3073077, 44.2533645], [17.3079568, 44.2533453], [17.3083055, 44.253353], [17.3085737, 44.2534183], [17.3089492, 44.253572], [17.309196, 44.2535374], [17.3093569, 44.2535297], [17.3096091, 44.2536296], [17.3100811, 44.2537334], [17.3105854, 44.2539639], [17.3108, 44.2540869], [17.3111004, 44.2541983], [17.3112935, 44.254279], [17.3115456, 44.2544173], [17.3118621, 44.254644], [17.3121303, 44.2547746], [17.3123664, 44.254863], [17.31322, 44.2550556], [17.3135208, 44.2552053], [17.3140148, 44.2552335], [17.3149145, 44.2553049], [17.3153222, 44.2553971], [17.3158264, 44.2555239], [17.3161429, 44.255593], [17.316504, 44.2556943], [17.3167223, 44.2557813], [17.3170334, 44.2557813], [17.3177791, 44.2555969], [17.3182458, 44.2555431], [17.3187232, 44.2554317], [17.3191416, 44.2554278], [17.3195279, 44.2553779], [17.3201823, 44.255228], [17.3204237, 44.2551589], [17.3207241, 44.2550782], [17.3214537, 44.2549744], [17.3216683, 44.2549091], [17.321915, 44.2548169], [17.3221511, 44.25479], [17.3224354, 44.2547977], [17.3226875, 44.2548515], [17.3229182, 44.2549322], [17.3232508, 44.2549552], [17.3237282, 44.255009], [17.3242164, 44.2550551], [17.3245597, 44.2551589], [17.3248494, 44.2552626], [17.3250318, 44.2553049], [17.3253375, 44.2553241], [17.3256969, 44.2553202], [17.3260403, 44.2552626], [17.3265016, 44.2551627], [17.3267001, 44.2551089], [17.3271024, 44.2550897], [17.3273063, 44.255132], [17.3274404, 44.2551396], [17.3277408, 44.2550666], [17.3280519, 44.2549053], [17.3281807, 44.2548015], [17.3287815, 44.2546901], [17.3290229, 44.2546209], [17.3291999, 44.2545825], [17.3295057, 44.2545364], [17.3298007, 44.2545441], [17.3301065, 44.2546133], [17.3303425, 44.2546594], [17.3307073, 44.2548246], [17.3309863, 44.2548861], [17.331174, 44.2549168], [17.331351, 44.2549667], [17.3314959, 44.2550551], [17.3316139, 44.255155], [17.3317158, 44.2553202], [17.3318285, 44.255935], [17.3319358, 44.2561271], [17.3321074, 44.2562923], [17.3323971, 44.2566611], [17.3327082, 44.2570377], [17.332837, 44.257418], [17.3329443, 44.2581019], [17.3329121, 44.2588012], [17.3327941, 44.2599691], [17.3327726, 44.2601497], [17.332719, 44.2602918], [17.3329174, 44.2603648], [17.333132, 44.2602995], [17.3332903, 44.2602566], [17.33347, 44.260361], [17.3336685, 44.2601919], [17.3344517, 44.2597232], [17.3347789, 44.2595427], [17.3350149, 44.2595234], [17.3355514, 44.2597578], [17.3357284, 44.2599307], [17.3358142, 44.2600767], [17.3359376, 44.2601074], [17.3361307, 44.2600882], [17.3364419, 44.2599998], [17.3369139, 44.2600267], [17.3372894, 44.260238], [17.3379439, 44.261137], [17.3381907, 44.2614521], [17.3386091, 44.2622166], [17.3387647, 44.2624624], [17.338872, 44.2625393], [17.3389631, 44.2624778], [17.3390793, 44.2623903], [17.3391724, 44.2623203], [17.3392743, 44.2622588], [17.33936, 44.2622405], [17.3396337, 44.262182], [17.3398109, 44.262182], [17.3399663, 44.262182], [17.3402548, 44.262235], [17.3403633, 44.262255], [17.3405861, 44.2623513], [17.3407012, 44.262401], [17.3411035, 44.2624279], [17.3413932, 44.2623626], [17.3415971, 44.2622473], [17.3417902, 44.2621705], [17.3418905, 44.2621233], [17.3421789, 44.2619876], [17.3425251, 44.2618247], [17.3427207, 44.2617647], [17.3430884, 44.2616518], [17.3435277, 44.2615223], [17.3438179, 44.2614367], [17.3441988, 44.2613599], [17.3443201, 44.2613237], [17.3446494, 44.2612254], [17.3447893, 44.261186], [17.3451, 44.2610986], [17.3451614, 44.2610492], [17.3452288, 44.2609949], [17.3453044, 44.2609091], [17.3453575, 44.2608489], [17.3454217, 44.2607606], [17.3454916, 44.2606645], [17.3456253, 44.2606103], [17.345776, 44.2605492], [17.3459648, 44.2604684], [17.3461622, 44.260384], [17.3463982, 44.2602918], [17.3465967, 44.2602765], [17.3467554, 44.2602933], [17.3468864, 44.2603072], [17.3470205, 44.2603302], [17.3471302, 44.2603426], [17.347396, 44.2603725], [17.3475212, 44.2603539], [17.3476803, 44.2603302], [17.3477295, 44.260306], [17.3479378, 44.2602035], [17.3481256, 44.2601151], [17.3482758, 44.2600959], [17.3484528, 44.2600959], [17.3486149, 44.2601258], [17.3489081, 44.26018], [17.3491394, 44.2602227], [17.3494566, 44.2603182], [17.3497134, 44.2603956], [17.3497992, 44.2604049], [17.3499978, 44.2604263], [17.3501028, 44.260455], [17.3502231, 44.2604878], [17.3504054, 44.2605684], [17.3511833, 44.2609027], [17.3512982, 44.2609647], [17.3515534, 44.2611025], [17.3519355, 44.2611955], [17.352342, 44.2612945], [17.352527, 44.2613563], [17.3528945, 44.2614789], [17.3531628, 44.2616057], [17.3534686, 44.2616786], [17.3538762, 44.2618132], [17.3540899, 44.2618438], [17.3545736, 44.2619131], [17.3547275, 44.2619282], [17.3550832, 44.261963], [17.3553528, 44.2619864], [17.3554373, 44.2619937], [17.3556411, 44.2620398], [17.3557993, 44.2620965], [17.3559844, 44.2621628], [17.3565034, 44.2623876], [17.3568803, 44.2625508], [17.3572897, 44.2626813], [17.3577601, 44.2628312], [17.35828, 44.263029], [17.35879, 44.2632231], [17.3588893, 44.2632381], [17.358933, 44.2632447], [17.3591035, 44.2632705], [17.3592728, 44.2632961], [17.3594551, 44.2632975], [17.3595814, 44.2632984], [17.3597932, 44.2632999], [17.3599978, 44.2632755], [17.360115, 44.2632615], [17.3603354, 44.2631964], [17.3605442, 44.2631347], [17.3607103, 44.2630705], [17.3611504, 44.2629004], [17.3613389, 44.2628418], [17.361719, 44.2627237], [17.3618493, 44.2626891], [17.3621535, 44.2626084], [17.3623636, 44.2625589], [17.3626095, 44.2625009], [17.3627757, 44.2624369], [17.3628992, 44.2623894], [17.3630528, 44.2622948], [17.3633605, 44.2621052], [17.3635997, 44.2619532], [17.3642188, 44.2615596], [17.3642621, 44.2615343], [17.3645312, 44.2613768], [17.3651576, 44.2610102], [17.3652734, 44.2609328], [17.3657106, 44.2606407], [17.3660374, 44.2604224], [17.3662684, 44.2602631], [17.3666114, 44.2600267], [17.3667234, 44.2599546], [17.366832, 44.2598847], [17.3670096, 44.2597705], [17.3672444, 44.2596195], [17.3673635, 44.2595391], [17.3674981, 44.2594484], [17.3677057, 44.2593083], [17.3678739, 44.2591628], [17.3679632, 44.2590855], [17.3679745, 44.2590196], [17.3680061, 44.2588357], [17.3678899, 44.2587642], [17.3679422, 44.2585894], [17.368077, 44.2583612], [17.3684579, 44.257874], [17.369121, 44.2572528], [17.3695805, 44.2569387], [17.3703933, 44.2563346], [17.3708761, 44.256081], [17.3710585, 44.2560041], [17.3712087, 44.255958], [17.3714018, 44.2557582], [17.3714983, 44.2555585], [17.3716593, 44.2554201], [17.3720348, 44.2551896], [17.3722708, 44.255082], [17.373569, 44.2539293], [17.3741698, 44.2535297], [17.3747921, 44.2531839], [17.3753714, 44.2530533], [17.3768413, 44.252646], [17.3776889, 44.2524231], [17.378059, 44.2523694], [17.3788583, 44.2523232], [17.3789924, 44.2523117], [17.379384, 44.2522502], [17.3798025, 44.2521004], [17.3801458, 44.2519697], [17.380296, 44.2518929], [17.3807412, 44.2516124], [17.3811865, 44.2513665], [17.381444, 44.2511513], [17.3819375, 44.2508324], [17.3826563, 44.2500677], [17.382946, 44.2496758], [17.3833162, 44.2491263], [17.3835307, 44.2485076], [17.3836917, 44.2481503], [17.384035, 44.2474932], [17.3843676, 44.2466823], [17.3847055, 44.2462135], [17.3855263, 44.2453105], [17.3859662, 44.2449953], [17.3863578, 44.2448916], [17.3868996, 44.2448724], [17.3871303, 44.2449569], [17.3872858, 44.245345], [17.3873234, 44.2455564], [17.3878813, 44.2461405], [17.3879027, 44.2463711], [17.3880154, 44.2465286], [17.3882139, 44.2465978], [17.3883855, 44.2467054], [17.3886806, 44.2469859], [17.3890936, 44.2473625], [17.3893833, 44.2475124], [17.390703, 44.2484654], [17.3909604, 44.2485038], [17.3917579, 44.2484906], [17.3921728, 44.2485268], [17.3928165, 44.2482886], [17.3965394, 44.2473279], [17.3985028, 44.2497642], [17.4020219, 44.2500178], [17.4107337, 44.2534222], [17.4149394, 44.2530072], [17.420218, 44.2509938], [17.4258613, 44.2514549], [17.4317622, 44.2505288], [17.4315798, 44.2512089], [17.4313867, 44.252085], [17.4311077, 44.2529765], [17.4309575, 44.25323], [17.4304426, 44.2535451], [17.4299598, 44.2538294], [17.4298525, 44.2541061], [17.4295306, 44.2548131], [17.4294019, 44.255228], [17.4294448, 44.2558351], [17.4296808, 44.2564729], [17.4303353, 44.2570492], [17.430861, 44.2577177], [17.4309361, 44.2578868], [17.4310648, 44.2583785], [17.4310756, 44.2588396], [17.4312687, 44.259316], [17.4313652, 44.2596464], [17.4314403, 44.2600383], [17.4314082, 44.2605915], [17.4312258, 44.2612062], [17.4310648, 44.2615058], [17.4309683, 44.2617978], [17.4310005, 44.2619822], [17.432009, 44.2632577], [17.432481, 44.2640183], [17.4325669, 44.2644409], [17.4324489, 44.2648942], [17.4324274, 44.2654935], [17.4326527, 44.2665922], [17.4326742, 44.2670224], [17.4326527, 44.2672606], [17.4325669, 44.2676217], [17.432481, 44.2681595], [17.4348956, 44.2683039], [17.435033, 44.2684308], [17.4362898, 44.2692658], [17.4373251, 44.2703989], [17.437427, 44.2704834], [17.4374753, 44.2707561], [17.437368, 44.2718278], [17.43747, 44.2719623], [17.4381834, 44.2720929], [17.4385395, 44.2720169], [17.4386743, 44.2719888], [17.4390149, 44.2719008], [17.4391007, 44.2719123], [17.4392081, 44.2720145], [17.4392175, 44.272406], [17.4384838, 44.2735179], [17.438119, 44.2742131], [17.4379635, 44.2745665], [17.437647, 44.2748315], [17.4398893, 44.2771053], [17.441327, 44.2773281], [17.4413806, 44.2777121], [17.441622, 44.2781884], [17.4420458, 44.2789719], [17.4415147, 44.2790756], [17.4413377, 44.2791869], [17.4412143, 44.2794596], [17.4409622, 44.2798936], [17.4408013, 44.2801586], [17.4406832, 44.2804083], [17.4407262, 44.280631], [17.4409139, 44.2806464], [17.4410909, 44.2806656], [17.4411553, 44.2807232], [17.4413323, 44.2807654], [17.4414825, 44.2808], [17.4415469, 44.2809651], [17.4416488, 44.2810343], [17.441799, 44.2810535], [17.44196, 44.2809843], [17.4422657, 44.280873], [17.4423682, 44.2809912], [17.4424428, 44.2811572], [17.442829, 44.2812647], [17.4430114, 44.2813185], [17.4436015, 44.2815335], [17.4438161, 44.2817409], [17.443977, 44.2818869], [17.4442452, 44.2819329], [17.4444759, 44.2818792], [17.4446315, 44.2818177], [17.44461, 44.28239], [17.4447548, 44.2826396], [17.4452054, 44.2828777], [17.4449533, 44.2832272], [17.4453503, 44.2837418], [17.4438, 44.2838839], [17.4439341, 44.2843601], [17.4439341, 44.2844791], [17.4438912, 44.2845905], [17.4437839, 44.284625], [17.4429792, 44.2847287], [17.4430329, 44.2848247], [17.4364963, 44.2895442], [17.4410319, 44.2931537], [17.4416756, 44.2942902], [17.441976, 44.2961332], [17.4349165, 44.3031975], [17.4345517, 44.3038886], [17.434144, 44.3087639], [17.434659, 44.3126869], [17.4323201, 44.3201177], [17.4300844, 44.3303371], [17.4159214, 44.3387808], [17.4084227, 44.3554361], [17.4039016, 44.365833], [17.4004601, 44.3687739], [17.4004403, 44.369626], [17.4001277, 44.370409], [17.399679, 44.3712043], [17.3996884, 44.3715468], [17.3997152, 44.3720031], [17.3995274, 44.3726052], [17.399447, 44.3727432], [17.399286, 44.3728544], [17.3987389, 44.3730116], [17.3987174, 44.3731343], [17.3987576, 44.3735962], [17.3990285, 44.374139], [17.3988408, 44.3745339], [17.3986584, 44.3749365], [17.3986101, 44.3751129], [17.3986459, 44.375508], [17.3988515, 44.3759641], [17.398771, 44.3761251], [17.3975694, 44.3764587], [17.3971242, 44.3768422], [17.396296, 44.3775297], [17.3968202, 44.3781355], [17.3965073, 44.3783873], [17.396159, 44.3785974], [17.3961958, 44.3787995], [17.3953342, 44.3789729], [17.395196, 44.3787021], [17.3935354, 44.3799286], [17.3933959, 44.3801894], [17.393195, 44.3806588], [17.3931526, 44.3810554], [17.3933208, 44.3815351], [17.3932671, 44.3816731], [17.3929721, 44.3819223], [17.3926878, 44.3820872], [17.3921835, 44.3821255], [17.3913583, 44.385061], [17.3909926, 44.3863618], [17.3908301, 44.3874252], [17.3911053, 44.3877726], [17.3907942, 44.3883936], [17.3903811, 44.3888805], [17.3897803, 44.3893941], [17.389217, 44.3899385], [17.3891848, 44.3902758], [17.3893833, 44.390571], [17.3895228, 44.3912456], [17.3895603, 44.392066], [17.3895818, 44.3922768], [17.3893833, 44.3925605], [17.3891473, 44.3927521], [17.3886377, 44.3929629], [17.388702, 44.3940822], [17.3886645, 44.394431], [17.3886323, 44.3946304], [17.3885786, 44.3948335], [17.3884124, 44.3950635], [17.3883372, 44.3953586], [17.388348, 44.39542], [17.3881978, 44.3958799], [17.3882085, 44.3961252], [17.3881119, 44.3962594], [17.3879993, 44.3963744], [17.3877525, 44.3964702], [17.3875004, 44.3966312], [17.3874736, 44.3968075], [17.3875919, 44.3973145], [17.3860788, 44.3974974], [17.3862237, 44.3978577], [17.3856876, 44.3980697], [17.3859585, 44.3985134], [17.3865284, 44.3990265], [17.3862932, 44.3992626], [17.3863902, 44.3996034], [17.3858803, 44.4004564], [17.3856497, 44.4009239], [17.3855334, 44.4013861], [17.3854041, 44.4016438], [17.3849855, 44.4021673], [17.3843623, 44.4026982], [17.3828363, 44.4040939], [17.3817244, 44.4048619], [17.3808013, 44.4057219], [17.3802482, 44.4063304], [17.3800422, 44.4066063], [17.3798105, 44.4069865], [17.3797332, 44.4073053], [17.3794071, 44.4076855], [17.3790809, 44.4081147], [17.3786089, 44.4082803], [17.3779823, 44.4083661], [17.376918, 44.4085868], [17.3744546, 44.4091203], [17.3738023, 44.4093226], [17.3738195, 44.4095433], [17.3739654, 44.4099603], [17.3737251, 44.410181], [17.3733045, 44.4104201], [17.3723175, 44.4106899], [17.3717939, 44.4106899], [17.3709356, 44.4108554], [17.3699485, 44.4111007], [17.3693477, 44.4110946], [17.3693906, 44.4111681], [17.3697769, 44.4116586], [17.370043, 44.4121859], [17.370309, 44.4129094], [17.3705322, 44.4135225], [17.3706609, 44.4138474], [17.3709957, 44.4142459], [17.3711158, 44.4145524], [17.3712188, 44.4147548], [17.3710386, 44.4148406], [17.3714763, 44.4152023], [17.3715536, 44.4153985], [17.371442, 44.4156621], [17.370927, 44.4164346], [17.3704378, 44.4172745], [17.3701202, 44.4175013], [17.3696996, 44.4177343], [17.3696224, 44.4180285], [17.3692791, 44.4180837], [17.3685237, 44.4181941], [17.3680603, 44.4184393], [17.368292, 44.4187887], [17.3677942, 44.4189726], [17.3673565, 44.4189971], [17.3671934, 44.4191627], [17.3671333, 44.4193527], [17.367099, 44.4196408], [17.3658544, 44.4197696], [17.3658716, 44.4199596], [17.3659402, 44.4201619], [17.3663093, 44.4207381], [17.3663951, 44.421106], [17.3663694, 44.4213634], [17.3662321, 44.4216761], [17.3659488, 44.4221235], [17.3659488, 44.4228898], [17.3658716, 44.4232392], [17.3656999, 44.4235151], [17.3652536, 44.4238093], [17.3649103, 44.4240054], [17.3644554, 44.4246], [17.364258, 44.424974], [17.3642923, 44.4254643], [17.3645498, 44.425875], [17.3646442, 44.4261018], [17.3639747, 44.4260037], [17.3633482, 44.4261386], [17.3628933, 44.4262857], [17.3625928, 44.4266719], [17.3624126, 44.4269048], [17.3622753, 44.4271438], [17.3624298, 44.4274626], [17.362507, 44.4277384], [17.3623783, 44.4280387], [17.3622066, 44.4282349], [17.3601698, 44.4298562], [17.3540502, 44.4332283], [17.3551337, 44.4353465], [17.3554176, 44.4359013], [17.3553877, 44.4361734], [17.3551262, 44.4364028], [17.3548497, 44.4365736], [17.3545583, 44.4366109], [17.354095, 44.4366856], [17.3539082, 44.4368563], [17.3536766, 44.4370537], [17.35343, 44.4370377], [17.3532432, 44.4370057], [17.3530639, 44.4368083], [17.353034, 44.4366429], [17.3529518, 44.4364935], [17.3526455, 44.4364935], [17.3524661, 44.4366269], [17.3522719, 44.4368403], [17.3518833, 44.4369844], [17.3512743, 44.4369797], [17.3506729, 44.43686], [17.3497559, 44.4364024], [17.3491451, 44.4367762], [17.3444269, 44.4396633], [17.3343847, 44.4423719], [17.3318199, 44.4436146], [17.323383, 44.4513424], [17.3227864, 44.4514268], [17.3226947, 44.4503218], [17.3232439, 44.4490413], [17.3228323, 44.4477608], [17.322755, 44.4467089], [17.3218668, 44.4446134], [17.3211702, 44.4434222], [17.32075, 44.4432313], [17.3171433, 44.4430205], [17.3143971, 44.4414261], [17.3136169, 44.4406243], [17.3119798, 44.4408067], [17.308415, 44.4401211], [17.3058267, 44.4375925], [17.3042947, 44.4375422], [17.301859, 44.4370215], [17.3016558, 44.4369214], [17.3004249, 44.4367006], [17.2994109, 44.4362063], [17.2966444, 44.4348578], [17.2933523, 44.4352806], [17.2900925, 44.4369798], [17.2889782, 44.4371071], [17.2870438, 44.4380926], [17.2856584, 44.4384899], [17.2836254, 44.4389603], [17.2795912, 44.4389798], [17.2795172, 44.439776], [17.2792268, 44.4402575], [17.2781443, 44.4405726], [17.2744214, 44.4405228], [17.2727885, 44.4412078], [17.2696199, 44.4441651], [17.2686143, 44.4458858], [17.2674721, 44.4470678], [17.2657659, 44.4476198], [17.2647454, 44.4475866], [17.2630978, 44.4466882], [17.2601494, 44.4455839], [17.2571641, 44.4456833], [17.2551132, 44.4460009], [17.2524601, 44.4481934], [17.2521216, 44.4488402], [17.2510697, 44.4499721], [17.250631, 44.4507084], [17.2491715, 44.4516028], [17.2472656, 44.4521847], [17.2447033, 44.452489], [17.2429806, 44.4521642], [17.2422923, 44.4527754], [17.2402737, 44.4536857], [17.2406362, 44.4545608], [17.2418309, 44.4560983], [17.2391274, 44.459695], [17.2365108, 44.4581769], [17.233978, 44.4552454], [17.2288729, 44.4520375], [17.2223038, 44.4488934], [17.2111727, 44.4449966], [17.2096113, 44.441443], [17.2084946, 44.4390812], [17.2083015, 44.4337347], [17.20891, 44.4292769], [17.2087697, 44.4228505], [17.208484, 44.4221553], [17.207812, 44.417632], [17.2077196, 44.4169813], [17.2070853, 44.4145297], [17.2058266, 44.4098145], [17.2075978, 44.4067192], [17.2100577, 44.4031839], [17.2133089, 44.4002109], [17.2160497, 44.397042], [17.217475, 44.393709], [17.2179444, 44.3910304], [17.2168671, 44.3888232], [17.2153447, 44.3871979], [17.2095649, 44.3829533], [17.2077966, 44.3816632], [17.200357, 44.376162], [17.2002024, 44.3732855], [17.2001991, 44.373224], [17.2000905, 44.3730765], [17.1961718, 44.3677537], [17.1910752, 44.3636026], [17.1890005, 44.3626664], [17.1836915, 44.3601378], [17.1808897, 44.3588187], [17.1788386, 44.357853], [17.1787876, 44.3572379], [17.1786257, 44.3526973], [17.1783397, 44.34832], [17.1782184, 44.3442209], [17.1771711, 44.33997], [17.1770626, 44.3349056]]]}}]}