{"type": "FeatureCollection", "features": [{"type": "Feature", "properties": {"name": "Općina Kakanj, Zeničko-dobojski kanton, Federacija Bosne i Hercegovine, 72240, Bosna i Hercegovina / Босна и Херцеговина", "source": "OpenStreetMap relation 2528213", "licence": "ODbL 1.0"}, "geometry": {"type": "Polygon", "coordinates": [[[17.9555011, 44.1235635], [17.9559195, 44.1230865], [17.9558802, 44.1224093], [17.9559466, 44.1210007], [17.9559804, 44.1197378], [17.9564545, 44.1188598], [17.9571977, 44.1180569], [17.9587844, 44.1171775], [17.9599514, 44.1167789], [17.9615212, 44.1160539], [17.9630611, 44.1156508], [17.9675222, 44.113093], [17.9678903, 44.112084], [17.9677777, 44.1110997], [17.9668374, 44.1098831], [17.9668445, 44.1093474], [17.967466, 44.1088701], [17.9683604, 44.108767], [17.9689278, 44.1085305], [17.9691175, 44.1081215], [17.9682372, 44.1071216], [17.9691127, 44.1066086], [17.9691813, 44.1063746], [17.9685414, 44.1065505], [17.9678593, 44.1067521], [17.966742, 44.1065584], [17.9651589, 44.1059852], [17.9632383, 44.1052848], [17.9625951, 44.1049122], [17.9622306, 44.1042523], [17.9620464, 44.1033673], [17.9626495, 44.1019548], [17.9622044, 44.1004057], [17.9621055, 44.0987124], [17.9616479, 44.0969977], [17.9623116, 44.094967], [17.9633734, 44.0937012], [17.9647614, 44.0930396], [17.965845, 44.0928309], [17.9665401, 44.0931159], [17.9688088, 44.091945], [17.9694047, 44.093881], [17.971244, 44.0939199], [17.9731005, 44.0948588], [17.9755105, 44.0965971], [17.978197, 44.0975277], [17.9797994, 44.0972044], [17.9822155, 44.0976891], [17.9845887, 44.0980485], [17.9864125, 44.0988023], [17.9891729, 44.0977742], [17.9915159, 44.0969335], [17.9944736, 44.0949055], [18.0050084, 44.0923843], [18.0094424, 44.0905645], [18.0117678, 44.0875345], [18.0144103, 44.0853142], [18.0192973, 44.0841983], [18.0233776, 44.0828299], [18.0235009, 44.0806994], [18.0248591, 44.0791749], [18.0245115, 44.077406], [18.0366794, 44.0714536], [18.0411133, 44.0709985], [18.0468141, 44.0728189], [18.0518815, 44.0769145], [18.0531483, 44.0778246], [18.0645499, 44.073274], [18.0689838, 44.0728189], [18.0734177, 44.0709985], [18.0765848, 44.0669025], [18.0803854, 44.0664474], [18.0854527, 44.0673576], [18.0898866, 44.0669025], [18.0930537, 44.0641717], [18.0974877, 44.0673576], [18.0987545, 44.0678128], [18.1107895, 44.0632614], [18.1183905, 44.0637165], [18.1278918, 44.0587096], [18.1348594, 44.0587096], [18.141827, 44.0609855], [18.1481612, 44.0637165], [18.1513283, 44.0655371], [18.1570291, 44.0669025], [18.1614631, 44.0673576], [18.165897, 44.0659922], [18.1715978, 44.0682679], [18.1766651, 44.0659922], [18.1810991, 44.0618959], [18.1861664, 44.0591648], [18.1867998, 44.0564336], [18.1874333, 44.0505156], [18.1925006, 44.0518813], [18.1950343, 44.0546127], [18.2001016, 44.0577992], [18.2045356, 44.05962], [18.2102364, 44.0609855], [18.21277, 44.062351], [18.2115032, 44.0659922], [18.2083361, 44.0678128], [18.2032687, 44.0719087], [18.2001016, 44.0741841], [18.205169, 44.0755493], [18.2083361, 44.0764595], [18.2108698, 44.0778246], [18.2089695, 44.0814649], [18.2070693, 44.0837399], [18.2064358, 44.0860149], [18.2115032, 44.0869248], [18.2149968, 44.0870327], [18.2170119, 44.0862049], [18.21911, 44.0849134], [18.2216379, 44.0837399], [18.2229048, 44.0828299], [18.2255764, 44.0823479], [18.2282765, 44.0827532], [18.2297294, 44.0839923], [18.2314748, 44.0848522], [18.2333154, 44.0865813], [18.2324518, 44.0873921], [18.2289029, 44.091292], [18.2317957, 44.092284], [18.2406405, 44.0946589], [18.2431742, 44.0955687], [18.2469747, 44.0978432], [18.2501418, 44.0992079], [18.2545757, 44.1001177], [18.2596431, 44.1005725], [18.2628102, 44.1019371], [18.2672441, 44.1060307], [18.2691444, 44.1087596], [18.2666107, 44.1105788], [18.2647104, 44.1142171], [18.2647104, 44.1187646], [18.2678775, 44.1210382], [18.2691444, 44.1224023], [18.2691444, 44.1251305], [18.2697778, 44.1251305], [18.2742117, 44.1278585], [18.2792791, 44.1283131], [18.2830796, 44.1301317], [18.2818128, 44.1333142], [18.2786457, 44.134678], [18.2735783, 44.1333142], [18.268511, 44.1319503], [18.264077, 44.1314957], [18.2596431, 44.1314957], [18.2552091, 44.1324049], [18.2514086, 44.134678], [18.2482415, 44.1342234], [18.2463413, 44.1328595], [18.2438076, 44.1296771], [18.2355881, 44.1338046], [18.2353064, 44.1336987], [18.2350811, 44.1335062], [18.2345179, 44.1332002], [18.2345259, 44.1328883], [18.2343221, 44.1325264], [18.2339251, 44.1324956], [18.2336998, 44.1321105], [18.2333243, 44.1319719], [18.2331204, 44.1317717], [18.2329273, 44.131687], [18.2328093, 44.1315022], [18.232702, 44.1310094], [18.2318973, 44.1304857], [18.2315969, 44.1302085], [18.2315111, 44.1293691], [18.2316077, 44.1290842], [18.2313931, 44.1288917], [18.2311034, 44.1282276], [18.2313493, 44.1278261], [18.2312627, 44.1276719], [18.2313394, 44.1271204], [18.231667, 44.1260855], [18.2313609, 44.1259036], [18.2311392, 44.1260398], [18.2293891, 44.1268037], [18.2237716, 44.1304515], [18.2239529, 44.1321468], [18.2248336, 44.1364004], [18.2249912, 44.1399341], [18.2251376, 44.1446412], [18.2228111, 44.1504412], [18.2219433, 44.152051], [18.2205056, 44.154972], [18.2185897, 44.1589029], [18.217755, 44.1642749], [18.216834, 44.1664139], [18.2164049, 44.1676453], [18.2157353, 44.1689564], [18.2161903, 44.1704465], [18.216531, 44.17203], [18.215223, 44.1742705], [18.2157182, 44.1758946], [18.2148239, 44.1782193], [18.2152891, 44.1801266], [18.2180004, 44.1813979], [18.2165336, 44.1829887], [18.2171232, 44.1850232], [18.2172672, 44.1875958], [18.2219356, 44.1923303], [18.2222199, 44.1956514], [18.2232928, 44.1963745], [18.2244515, 44.1968514], [18.2254815, 44.1976206], [18.2265115, 44.1983283], [18.2271766, 44.198559], [18.2278633, 44.1986898], [18.2282173, 44.1988128], [18.22843, 44.1989896], [18.2289791, 44.1995974], [18.2293975, 44.1997974], [18.2297797, 44.2001425], [18.2299715, 44.2002973], [18.2302129, 44.2003358], [18.2306957, 44.2007127], [18.2313716, 44.200928], [18.2315165, 44.2011511], [18.2316962, 44.2013434], [18.2317686, 44.2014414], [18.2318357, 44.2014895], [18.2319671, 44.2015164], [18.2323265, 44.2018933], [18.2329219, 44.2025048], [18.2330024, 44.2026471], [18.2331419, 44.2028316], [18.2331848, 44.2029047], [18.2330722, 44.2031239], [18.2331687, 44.2034623], [18.233512, 44.2039353], [18.233571, 44.203993], [18.2337052, 44.2041738], [18.2343328, 44.2048583], [18.2349035, 44.2052483], [18.2356846, 44.2057043], [18.2362318, 44.2061196], [18.2361245, 44.2066848], [18.2362264, 44.2069886], [18.2363605, 44.2072078], [18.2365644, 44.2074501], [18.2367039, 44.2079038], [18.2367253, 44.2080538], [18.2368702, 44.2081691], [18.2368863, 44.2084268], [18.2368624, 44.2089335], [18.2368594, 44.2089959], [18.23679, 44.2091452], [18.2366878, 44.209365], [18.2363015, 44.2098149], [18.2361621, 44.2099995], [18.236044, 44.2101802], [18.236028, 44.2104109], [18.2359368, 44.2105339], [18.235871, 44.2108185], [18.2355881, 44.2111684], [18.2353198, 44.2114991], [18.2349819, 44.211799], [18.2346258, 44.2120724], [18.2350999, 44.2123565], [18.235175, 44.2124545], [18.2353064, 44.2125084], [18.2353869, 44.2125295], [18.2356203, 44.2126103], [18.2357544, 44.2127333], [18.235808, 44.2131178], [18.2358134, 44.2133062], [18.2360601, 44.2135157], [18.236323, 44.2136984], [18.2363874, 44.2140636], [18.2366502, 44.2142751], [18.2372403, 44.2145789], [18.2371195, 44.2147957], [18.2370499, 44.214971], [18.2370928, 44.2151191], [18.2371679, 44.2152459], [18.2374871, 44.2155285], [18.2376802, 44.2157246], [18.2377875, 44.2159438], [18.2378358, 44.2160899], [18.2379645, 44.216186], [18.2381737, 44.2164032], [18.2384393, 44.2165897], [18.2384366, 44.2166762], [18.2384634, 44.2169357], [18.2385331, 44.2170626], [18.2394665, 44.2178315], [18.2400942, 44.2182736], [18.2404911, 44.2186081], [18.2409613, 44.2187054], [18.2411027, 44.218735], [18.2417303, 44.2187888], [18.2421568, 44.2190118], [18.2423875, 44.2191445], [18.242645, 44.219156], [18.2427533, 44.219204], [18.2428837, 44.2192617], [18.2430339, 44.2194924], [18.2430821, 44.2196769], [18.2431251, 44.2200691], [18.2433075, 44.2205381], [18.2434952, 44.2208456], [18.2437581, 44.220986], [18.2448524, 44.2210802], [18.2455069, 44.2213723], [18.2456249, 44.2217337], [18.246054, 44.2221028], [18.2463598, 44.2227832], [18.2464242, 44.2230062], [18.2471401, 44.2234159], [18.2474461, 44.223579], [18.2477814, 44.223875], [18.2482454, 44.2242882], [18.2483017, 44.2244978], [18.248468, 44.2247438], [18.2492512, 44.2250974], [18.2501739, 44.2254281], [18.2500613, 44.2258086], [18.2526415, 44.2302869], [18.2526791, 44.2306251], [18.25284, 44.2309095], [18.2531726, 44.231217], [18.2536071, 44.23149], [18.2546103, 44.2319205], [18.2561338, 44.2323586], [18.2565844, 44.2328699], [18.2576465, 44.2340757], [18.2583225, 44.2346571], [18.258135, 44.2350858], [18.2584405, 44.2353643], [18.2588428, 44.2360446], [18.2591808, 44.2364174], [18.2597762, 44.2367057], [18.2603073, 44.2370977], [18.2607056, 44.2375118], [18.2610986, 44.2378279], [18.2612944, 44.2378923], [18.2614942, 44.2380259], [18.2617476, 44.2380951], [18.2624155, 44.2382373], [18.262909, 44.2383593], [18.264277, 44.2385428], [18.2654169, 44.2385736], [18.2666239, 44.2387542], [18.2681393, 44.2408488], [18.271704, 44.2438598], [18.2738793, 44.2446457], [18.2745766, 44.2453989], [18.2868801, 44.2518505], [18.2824462, 44.2550263], [18.2792791, 44.258202], [18.2799125, 44.2604703], [18.282036, 44.2690286], [18.2739739, 44.2671042], [18.2685991, 44.2671042], [18.2596412, 44.2613307], [18.2569539, 44.2594061], [18.2542665, 44.2574814], [18.2471002, 44.2555566], [18.2417254, 44.2555566], [18.2354549, 44.258123], [18.2282886, 44.2606892], [18.2229138, 44.2606892], [18.2175391, 44.2600476], [18.212284, 44.2613848], [18.2121382, 44.2613781], [18.2120597, 44.2612984], [18.2115233, 44.261137], [18.2109976, 44.2610909], [18.2103029, 44.2611447], [18.2099891, 44.2610967], [18.2097074, 44.2609786], [18.2093346, 44.2609296], [18.2088303, 44.2607759], [18.2082215, 44.2608393], [18.2079532, 44.2609526], [18.2078178, 44.261211], [18.2075389, 44.2615001], [18.2073175, 44.2615834], [18.2068674, 44.2640487], [18.2051182, 44.2639031], [18.2037663, 44.2639108], [18.2034016, 44.2640875], [18.2025218, 44.2642335], [18.2010395, 44.264719], [18.1985521, 44.2657854], [18.1978226, 44.2659929], [18.1972539, 44.2660851], [18.1965297, 44.2665307], [18.1963312, 44.2668803], [18.1957509, 44.2668511], [18.1949855, 44.2669609], [18.1936276, 44.2671645], [18.1927746, 44.2670531], [18.1919324, 44.2669648], [18.190527, 44.2668572], [18.1901514, 44.2667765], [18.1900978, 44.2666383], [18.1899556, 44.2666555], [18.1891966, 44.2667612], [18.1884777, 44.2667458], [18.1870186, 44.2664615], [18.1871366, 44.2672913], [18.1867397, 44.2674526], [18.1864607, 44.2675026], [18.1866431, 44.2678022], [18.1867129, 44.2678982], [18.1866914, 44.2679866], [18.1865305, 44.2680865], [18.1863051, 44.2681076], [18.1861221, 44.2680802], [18.1858009, 44.2678867], [18.1856561, 44.2676678], [18.1854951, 44.2676024], [18.1854629, 44.2676293], [18.1854254, 44.2678291], [18.1854039, 44.267952], [18.1851572, 44.267952], [18.1849319, 44.2679174], [18.1844974, 44.2676562], [18.184154, 44.2673835], [18.1838536, 44.2670647], [18.1838322, 44.2668649], [18.1836605, 44.2668073], [18.1834835, 44.2667958], [18.1834406, 44.2668495], [18.1835586, 44.266911], [18.1835532, 44.2669993], [18.1834888, 44.2670915], [18.1832421, 44.2671492], [18.1829685, 44.2671107], [18.1829202, 44.266934], [18.1827003, 44.2669955], [18.1824857, 44.2670454], [18.1824213, 44.267153], [18.1824321, 44.267395], [18.182416, 44.267541], [18.1824803, 44.267637], [18.1826413, 44.2676678], [18.1828022, 44.2677599], [18.1828451, 44.2678752], [18.1826627, 44.2679981], [18.1821906, 44.2680058], [18.1818581, 44.2678214], [18.1816542, 44.2675295], [18.1816435, 44.2672836], [18.1817722, 44.2670378], [18.1798947, 44.2670147], [18.1791115, 44.2675756], [18.1780386, 44.2681287], [18.1765365, 44.2683899], [18.1748199, 44.2683415], [18.1739781, 44.2674272], [18.1716442, 44.2670839], [18.1702715, 44.2678037], [18.168801, 44.2670301], [18.1663227, 44.2666844], [18.166151, 44.2670839], [18.1646061, 44.2672683], [18.1646275, 44.2677446], [18.1638551, 44.2678214], [18.1637478, 44.2672068], [18.1628895, 44.2671761], [18.1625891, 44.2666997], [18.1600785, 44.2670992], [18.1592535, 44.2675767], [18.1576109, 44.267299], [18.1558943, 44.2681595], [18.1548818, 44.2688786], [18.1532979, 44.2700801], [18.1523967, 44.27197], [18.1515939, 44.2736415], [18.147807, 44.2765028], [18.1464981, 44.2771249], [18.1436011, 44.2796057], [18.1434777, 44.2821288], [18.1440843, 44.2837801], [18.1440843, 44.2863452], [18.1422927, 44.2895514], [18.1378137, 44.2933986], [18.1349063, 44.2943622], [18.1311033, 44.2957215], [18.1293656, 44.2959827], [18.1244413, 44.2954951], [18.1227195, 44.2954357], [18.1212884, 44.2952885], [18.120017, 44.2949967], [18.1172051, 44.2950114], [18.1151247, 44.2951887], [18.1116427, 44.2950535], [18.107636, 44.2955217], [18.1058121, 44.2964941], [18.1047284, 44.2976383], [18.1025223, 44.3001531], [18.0990743, 44.299988], [18.0960702, 44.2997116], [18.0935812, 44.2977151], [18.091967, 44.2966583], [18.0890536, 44.2953346], [18.0873756, 44.2946275], [18.0870967, 44.2932645], [18.0862548, 44.2927193], [18.0838716, 44.2921016], [18.082509, 44.2915487], [18.0810499, 44.2914258], [18.0758577, 44.290222], [18.076694, 44.287655], [18.0792499, 44.2841616], [18.0830558, 44.2813026], [18.085231, 44.2803463], [18.087433, 44.2782322], [18.0922743, 44.2765463], [18.0954149, 44.2757552], [18.0971688, 44.2727038], [18.0978394, 44.2712884], [18.094967, 44.2626055], [18.0936234, 44.2597186], [18.0922797, 44.2565108], [18.0900402, 44.2523403], [18.0886965, 44.2494529], [18.0873528, 44.2465654], [18.086457, 44.2446403], [18.086457, 44.2385437], [18.0869049, 44.2359765], [18.0873528, 44.2318046], [18.0855612, 44.229558], [18.0842176, 44.2269905], [18.0826775, 44.223949], [18.0815302, 44.221213], [18.0770512, 44.2141509], [18.0762096, 44.2128439], [18.0743639, 44.2099775], [18.0743639, 44.2061248], [18.0747938, 44.203243], [18.0751387, 44.2004768], [18.0753752, 44.1978002], [18.0749792, 44.1946932], [18.0751489, 44.1920572], [18.072008, 44.1897963], [18.0685663, 44.1869351], [18.0668272, 44.1826809], [18.0691887, 44.1761332], [18.0679664, 44.1750904], [18.0653851, 44.1737695], [18.06107, 44.1731067], [18.0601696, 44.173084], [18.0573755, 44.1725132], [18.0571889, 44.1719391], [18.0591608, 44.170111], [18.0607316, 44.1691479], [18.0613831, 44.1676268], [18.0618228, 44.1653351], [18.0627186, 44.1627647], [18.0649581, 44.1614795], [18.0676454, 44.1595516], [18.0680933, 44.1560169], [18.0658539, 44.1550529], [18.0622707, 44.1547316], [18.0564481, 44.1534462], [18.052417, 44.1540889], [18.0443549, 44.1556956], [18.0416675, 44.1576236], [18.0385322, 44.1582663], [18.0341976, 44.1565157], [18.0307569, 44.154733], [18.0267722, 44.1536353], [18.0216245, 44.1533874], [18.0186269, 44.1530864], [18.0164983, 44.1526846], [18.0143459, 44.1518394], [18.0077598, 44.1542962], [18.0037421, 44.1529547], [18.0023121, 44.1543631], [18.0011534, 44.154505], [18.000856, 44.1532007], [17.9869778, 44.1498939], [17.9832403, 44.1458425], [17.9807259, 44.1437679], [17.9783414, 44.1432486], [17.9766918, 44.1431102], [17.9758942, 44.142986], [17.9748449, 44.1428866], [17.9744243, 44.1429303], [17.974188, 44.1423266], [17.9736275, 44.1420714], [17.9735874, 44.1416296], [17.9603292, 44.1377255], [17.9609104, 44.1372611], [17.9605643, 44.136293], [17.9598136, 44.1352262], [17.9600971, 44.1339236], [17.9598525, 44.1326758], [17.9601064, 44.1319823], [17.9596578, 44.1310672], [17.958641, 44.1294087], [17.9585388, 44.1288713], [17.9587101, 44.1281214], [17.9564098, 44.1270144], [17.9565884, 44.1263234], [17.9555011, 44.1235635]]]}}]}