{"type": "FeatureCollection", "features": [{"type": "Feature", "properties": {"name": "Općina Kalesija, Tuzlanski kanton, Federacija Bosne i Hercegovine, Bosna i Hercegovina / Босна и Херцеговина", "source": "OpenStreetMap relation 2528214", "licence": "ODbL 1.0"}, "geometry": {"type": "Polygon", "coordinates": [[[18.7222694, 44.4433874], [18.7259942, 44.4422964], [18.7338008, 44.438461], [18.728092, 44.4347529], [18.7254046, 44.432834], [18.7237917, 44.4318927], [18.7254017, 44.4309472], [18.7283272, 44.4301961], [18.7320919, 44.4290323], [18.734989, 44.4290364], [18.7389322, 44.4287144], [18.7415006, 44.4284755], [18.7450242, 44.428192], [18.7493275, 44.4273579], [18.7517427, 44.4267], [18.7552945, 44.4271535], [18.7596545, 44.4266252], [18.7633312, 44.4260078], [18.7669994, 44.4253863], [18.769477, 44.4247911], [18.782732, 44.4219901], [18.7845925, 44.4229464], [18.7841776, 44.4258622], [18.7832144, 44.4275968], [18.784021, 44.4284703], [18.7866551, 44.4284591], [18.7909978, 44.4281761], [18.7939905, 44.4280856], [18.7986684, 44.4283104], [18.8009375, 44.4281895], [18.8022953, 44.4272188], [18.8019147, 44.4261239], [18.8009078, 44.4250323], [18.800192, 44.4239597], [18.8002986, 44.4229173], [18.8002313, 44.4220628], [18.800095, 44.4210998], [18.800391, 44.4204533], [18.8011819, 44.4201524], [18.8023737, 44.4194712], [18.8043391, 44.4182442], [18.8108195, 44.4165842], [18.8127787, 44.4156307], [18.8146877, 44.4160048], [18.8155788, 44.4185149], [18.8194251, 44.417243], [18.8237661, 44.4158615], [18.8263087, 44.4142752], [18.8267745, 44.4120604], [18.8262217, 44.4095993], [18.825315, 44.4070507], [18.8223802, 44.404416], [18.8176914, 44.4021044], [18.8152468, 44.400049], [18.8156884, 44.3961417], [18.8129275, 44.3953617], [18.8122368, 44.3935992], [18.8122415, 44.389875], [18.8114882, 44.386681], [18.8114679, 44.3840218], [18.8126268, 44.3822109], [18.8134442, 44.3807725], [18.8192682, 44.3782179], [18.820298, 44.37857], [18.8214174, 44.3793135], [18.823497, 44.380695], [18.8243243, 44.3809421], [18.831979, 44.3809617], [18.8375907, 44.380641], [18.8433316, 44.3809182], [18.8446243, 44.38363], [18.8462743, 44.3876404], [18.8465937, 44.3888195], [18.8473845, 44.3901725], [18.8487152, 44.3930197], [18.8499699, 44.39409], [18.8590432, 44.394985], [18.8612434, 44.3949192], [18.8666917, 44.3953381], [18.8678032, 44.3954236], [18.8707056, 44.3958699], [18.8707809, 44.3992984], [18.8712571, 44.4001512], [18.8721719, 44.4084075], [18.8748871, 44.4084565], [18.8775866, 44.4084645], [18.8885833, 44.40925], [18.8938011, 44.4098317], [18.8953439, 44.4099172], [18.8994619, 44.4101455], [18.9014687, 44.4104029], [18.9033273, 44.4103781], [18.9044781, 44.4102287], [18.9078415, 44.4093824], [18.9084864, 44.4088541], [18.9091343, 44.4082232], [18.9109323, 44.4075273], [18.9124201, 44.4074609], [18.9142269, 44.4079952], [18.9157084, 44.40826], [18.9167586, 44.4087323], [18.9194239, 44.4082317], [18.9206404, 44.4088562], [18.9216309, 44.4090627], [18.9259111, 44.4086337], [18.9265228, 44.4083079], [18.9288166, 44.4078242], [18.9307033, 44.4075214], [18.9327198, 44.4070928], [18.933194, 44.406992], [18.9343264, 44.4070395], [18.9354084, 44.4077644], [18.9360551, 44.4089973], [18.9363741, 44.409728], [18.9367358, 44.4128434], [18.9381599, 44.4141127], [18.9390487, 44.4146259], [18.9406111, 44.4167614], [18.9434772, 44.4180643], [18.9445186, 44.4190605], [18.9513753, 44.4256193], [18.9536592, 44.4291754], [18.9560784, 44.4324385], [18.9617705, 44.4395551], [18.9597115, 44.4416766], [18.9599441, 44.4434963], [18.9592084, 44.4449863], [18.957922, 44.4488043], [18.95808, 44.4511051], [18.9588503, 44.4528724], [18.9587265, 44.4548229], [18.956254, 44.4582773], [18.9536893, 44.4590076], [18.9521598, 44.4598262], [18.9489078, 44.4601815], [18.9446206, 44.4622742], [18.9448452, 44.4642734], [18.9444713, 44.4648302], [18.9447111, 44.4654477], [18.942579, 44.4662883], [18.9415288, 44.4676388], [18.9417876, 44.4693393], [18.9429696, 44.471106], [18.9405509, 44.4730296], [18.9392643, 44.4736577], [18.9381015, 44.47581], [18.9390416, 44.4774999], [18.9414853, 44.4791227], [18.9414753, 44.4819649], [18.9449651, 44.4836754], [18.9538147, 44.4871338], [18.9617641, 44.4902035], [18.9650281, 44.4955242], [18.9606585, 44.4942978], [18.9560229, 44.4927985], [18.9526392, 44.4934236], [18.9482862, 44.493983], [18.9460502, 44.4945096], [18.9446214, 44.4945345], [18.9421885, 44.4950883], [18.9336096, 44.4971684], [18.9255403, 44.4986727], [18.9214659, 44.4980109], [18.9188822, 44.4991789], [18.9174383, 44.5010879], [18.9138807, 44.5039174], [18.9086389, 44.5035529], [18.9058815, 44.5035529], [18.9040146, 44.5036034], [18.90205, 44.5036382], [18.9004134, 44.5034628], [18.8985905, 44.5037156], [18.8967612, 44.5038593], [18.8953149, 44.5045402], [18.8937912, 44.5057122], [18.8932729, 44.5068526], [18.8921257, 44.5084669], [18.8914812, 44.5097778], [18.8909895, 44.5110113], [18.8909297, 44.5129665], [18.8910892, 44.5151506], [18.8922918, 44.5176933], [18.8920349, 44.52142], [18.8910072, 44.5279239], [18.8910604, 44.5320083], [18.888901, 44.5356332], [18.886819, 44.5395106], [18.883494, 44.5401963], [18.8789103, 44.5411416], [18.8727665, 44.5424946], [18.8679672, 44.5453941], [18.8633943, 44.5462467], [18.8602526, 44.5462467], [18.8567985, 44.5461031], [18.8543826, 44.5464987], [18.8535143, 44.5421286], [18.8517227, 44.5376592], [18.8463479, 44.5344666], [18.8420643, 44.5334103], [18.8361812, 44.5341712], [18.8369487, 44.5295288], [18.8358338, 44.5267942], [18.8325539, 44.5236009], [18.8318534, 44.5209117], [18.8284321, 44.5191395], [18.8229383, 44.5172859], [18.8097939, 44.5192322], [18.8040873, 44.5195232], [18.8009435, 44.5175769], [18.8007369, 44.5152859], [18.8009619, 44.5130132], [18.7992615, 44.5122196], [18.7966316, 44.5124326], [18.7866478, 44.5123172], [18.7824636, 44.5086603], [18.7783955, 44.5056178], [18.777494, 44.5038508], [18.7740589, 44.5001505], [18.7719973, 44.5022111], [18.7675184, 44.5034889], [18.7643831, 44.5041278], [18.7594563, 44.5041278], [18.7569163, 44.5031958], [18.7535741, 44.5027308], [18.7523009, 44.5002002], [18.7515213, 44.4983885], [18.7515496, 44.4966415], [18.7509543, 44.4945729], [18.7487177, 44.492381], [18.7498147, 44.4882154], [18.7514385, 44.4849061], [18.7488027, 44.4836486], [18.7442162, 44.4817474], [18.7433204, 44.4788712], [18.7432523, 44.4732967], [18.7420531, 44.4713728], [18.7421068, 44.4674321], [18.739309, 44.4652128], [18.741129, 44.4635436], [18.743444, 44.4622155], [18.7443092, 44.4601232], [18.744667, 44.4560027], [18.7414636, 44.4536192], [18.7394905, 44.4522937], [18.7331699, 44.4518935], [18.7315762, 44.4518935], [18.7306818, 44.4516845], [18.7254046, 44.446585], [18.723307, 44.4450874], [18.7231652, 44.4449862], [18.7222694, 44.4433874]]]}}]}