{"type": "FeatureCollection", "features": [{"type": "Feature", "properties": {"name": "Općina Kiseljak, Srednjobosanski kanton / Županija Središnja Bosna, Federacija Bosne i Hercegovine, 71250, Bosna i Hercegovina / Босна и Херцеговина", "source": "OpenStreetMap relation 2528216", "licence": "ODbL 1.0"}, "geometry": {"type": "Polygon", "coordinates": [[[17.931245, 44.0211587], [17.9344108, 44.0095576], [17.9530909, 44.0010195], [17.9649854, 44.0016208], [17.9652965, 44.0012426], [17.96579, 44.0011192], [17.9660582, 44.0011809], [17.9663157, 44.001397], [17.9666161, 44.0015899], [17.9675496, 44.0016825], [17.9688585, 44.0017443], [17.9699421, 44.0018523], [17.9708004, 44.0016902], [17.9715836, 44.0016054], [17.9721308, 44.0016054], [17.9726243, 44.0016825], [17.9737401, 44.0020298], [17.9745018, 44.0020298], [17.9749203, 44.0020684], [17.9754782, 44.0021996], [17.9761004, 44.0021996], [17.9767764, 44.0021996], [17.9773557, 44.0020838], [17.9778921, 44.0018755], [17.978096, 44.0017751], [17.9785681, 44.0017751], [17.9789758, 44.0018909], [17.9795551, 44.0019295], [17.9807031, 44.0016362], [17.9813039, 44.0013893], [17.9819476, 44.001204], [17.9824519, 44.0012735], [17.9827738, 44.0014124], [17.983278, 44.0014742], [17.9835033, 44.0014742], [17.9844582, 44.0012735], [17.984941, 44.0011269], [17.9858959, 44.0007024], [17.9864859, 44.0005249], [17.9866362, 44.0003628], [17.9867434, 44.0001776], [17.9868615, 43.9999075], [17.9869902, 43.9996914], [17.987076, 43.9994367], [17.9871941, 43.9991975], [17.9875696, 43.9989736], [17.9878592, 43.9987807], [17.9881167, 43.9983639], [17.988342, 43.9981864], [17.9886317, 43.9979472], [17.9887283, 43.9975304], [17.9887605, 43.9969515], [17.9889858, 43.9965734], [17.9895651, 43.9952535], [17.9900479, 43.9941267], [17.990858, 43.9925559], [17.9912066, 43.99261], [17.9913998, 43.9926987], [17.9915607, 43.9927643], [17.9919523, 43.9928724], [17.9921561, 43.9928763], [17.9925263, 43.9927064], [17.9926336, 43.9926331], [17.9928803, 43.9924903], [17.9936421, 43.9921314], [17.9938004, 43.9920324], [17.9943078, 43.991918], [17.994707, 43.9918085], [17.995123, 43.9916965], [17.9954478, 43.99157], [17.9956304, 43.9914653], [17.9958194, 43.9914383], [17.995852, 43.9914337], [17.9959518, 43.9913728], [17.9960972, 43.9912366], [17.9962867, 43.9910589], [17.996422, 43.9908496], [17.9964964, 43.9906938], [17.9965607, 43.9904724], [17.9965824, 43.9903], [17.9965986, 43.9900811], [17.996587, 43.9899937], [17.9968554, 43.9900357], [17.9971021, 43.9901129], [17.9972684, 43.9902171], [17.9977405, 43.9905722], [17.9980677, 43.9909157], [17.9982233, 43.9909659], [17.9983199, 43.9908424], [17.9984701, 43.990661], [17.9987383, 43.9904873], [17.9995537, 43.9899007], [17.9999345, 43.9895803], [18.0001169, 43.9894375], [18.0004495, 43.9894375], [18.0007499, 43.9894684], [18.0009538, 43.9894568], [18.0012059, 43.989341], [18.0016565, 43.9891519], [18.0020267, 43.9890747], [18.002311, 43.9890593], [18.0025953, 43.9889975], [18.0037808, 43.9885228], [18.0044138, 43.9882835], [18.0049181, 43.9881214], [18.0050696, 43.9880236], [18.0051695, 43.9879517], [18.0054305, 43.9876888], [18.0057437, 43.987439], [18.0060137, 43.9872757], [18.0063156, 43.9871418], [18.0066833, 43.9870373], [18.0073061, 43.9868322], [18.0082423, 43.986549], [18.0084445, 43.9864941], [18.0088909, 43.9863473], [18.0093029, 43.9861771], [18.0097054, 43.9859877], [18.0099515, 43.9858532], [18.0102586, 43.9856542], [18.0105734, 43.9854387], [18.0111037, 43.9851408], [18.0115367, 43.9849487], [18.0125401, 43.9845657], [18.012733, 43.9844906], [18.0126589, 43.9843543], [18.0125087, 43.9842887], [18.0123317, 43.9841999], [18.0121654, 43.9840494], [18.0120152, 43.9837522], [18.0120313, 43.9835051], [18.0122083, 43.9832967], [18.0123639, 43.98315], [18.012439, 43.9829647], [18.01238, 43.9828181], [18.0122459, 43.9826868], [18.012042, 43.9825247], [18.0119455, 43.9823549], [18.0118167, 43.9821271], [18.0115646, 43.9819534], [18.0114573, 43.9817681], [18.0113822, 43.981606], [18.0110979, 43.9814169], [18.0107707, 43.9814478], [18.0104113, 43.9814207], [18.0101645, 43.9813937], [18.0095905, 43.9812586], [18.0093437, 43.981054], [18.0090648, 43.9807143], [18.0089307, 43.9804673], [18.0087107, 43.9802164], [18.0085766, 43.9799539], [18.0086195, 43.9798034], [18.0091721, 43.9795331], [18.0095637, 43.9794096], [18.009848, 43.979398], [18.0108404, 43.9793826], [18.0111623, 43.9794019], [18.0112427, 43.9793865], [18.012498, 43.9782207], [18.0125785, 43.9781435], [18.0125999, 43.9780624], [18.0124819, 43.9779852], [18.0124015, 43.977935], [18.0123854, 43.9778655], [18.012101, 43.9777034], [18.0120099, 43.9770549], [18.0133188, 43.9767267], [18.0141288, 43.9766379], [18.0143411, 43.9766183], [18.0142856, 43.9763889], [18.0142482, 43.975938], [18.0141019, 43.9754805], [18.0139333, 43.9752105], [18.0135581, 43.9748387], [18.0127664, 43.9738201], [18.0123459, 43.9732692], [18.0120218, 43.9727144], [18.0118885, 43.9723627], [18.0119245, 43.9721628], [18.0120641, 43.9719589], [18.012414, 43.971721], [18.0126523, 43.9715605], [18.0127023, 43.9714664], [18.012637, 43.9713834], [18.0122909, 43.9711094], [18.0122292, 43.9710692], [18.0120737, 43.9707484], [18.0109584, 43.969075], [18.0102503, 43.9683801], [18.0100143, 43.9679631], [18.0099285, 43.9675616], [18.0102825, 43.9667276], [18.0106473, 43.9657546], [18.0107331, 43.9654071], [18.0107331, 43.9650673], [18.0106795, 43.9648048], [18.0105829, 43.9645422], [18.0105829, 43.9639862], [18.0105722, 43.9636387], [18.0107009, 43.9633452], [18.0109048, 43.9631522], [18.010937, 43.9629128], [18.0108726, 43.9619397], [18.0105936, 43.9616308], [18.010422, 43.9614146], [18.0106258, 43.9613219], [18.0106687, 43.9612215], [18.0107975, 43.9609899], [18.0114627, 43.9614764], [18.0121493, 43.9617312], [18.0123424, 43.9617621], [18.0123532, 43.9615613], [18.0121279, 43.9610362], [18.0119347, 43.9606501], [18.0119669, 43.9604879], [18.0125892, 43.9603025], [18.0129218, 43.9601635], [18.0128574, 43.9591055], [18.0130935, 43.9588583], [18.0124926, 43.9584567], [18.0110443, 43.9576072], [18.0104756, 43.9574527], [18.0100572, 43.9572983], [18.0093598, 43.9567113], [18.0089307, 43.9564101], [18.0082977, 43.955993], [18.0078685, 43.9556686], [18.0070853, 43.9551203], [18.005948, 43.9543943], [18.0045747, 43.9541162], [18.0033517, 43.9536296], [18.0028045, 43.9534211], [18.0023754, 43.9530812], [18.0020749, 43.9526024], [18.0017424, 43.9520462], [18.0012488, 43.9517296], [18.0004871, 43.9515905], [17.9997361, 43.951382], [17.9991889, 43.9510498], [17.9985559, 43.9506945], [17.9981053, 43.9504937], [17.9886248, 43.9457979], [17.9899299, 43.9452256], [17.9902303, 43.9449475], [17.9904234, 43.9447003], [17.990402, 43.9443991], [17.9902089, 43.9441441], [17.9902178, 43.9438615], [17.9907024, 43.9436806], [17.9922366, 43.9432403], [17.9930305, 43.9429236], [17.9942858, 43.9426223], [17.9958629, 43.9422052], [18.0060553, 43.942576], [18.0121922, 43.9431167], [18.0217623, 43.9391768], [18.0199814, 43.9336296], [18.0193376, 43.9327951], [18.0192518, 43.9323315], [18.0192089, 43.9317289], [18.0192303, 43.9311417], [18.0193376, 43.9304308], [18.0193591, 43.9297972], [18.0194235, 43.9290554], [18.0192411, 43.9287309], [18.0211401, 43.9275255], [18.0233502, 43.9254855], [18.0373079, 43.9231789], [18.0411084, 43.9224946], [18.0433253, 43.9218102], [18.0477593, 43.9220383], [18.0528266, 43.923407], [18.0534601, 43.9240914], [18.055677, 43.9254601], [18.0588441, 43.9256882], [18.0607365, 43.925462], [18.0607444, 43.9254601], [18.0623279, 43.9236352], [18.0670786, 43.9202133], [18.0683454, 43.9199852], [18.0727794, 43.919529], [18.0765799, 43.9188446], [18.0791136, 43.9183883], [18.0806971, 43.917932], [18.0863979, 43.9177039], [18.0905151, 43.9172476], [18.0952658, 43.916335], [18.097166, 43.9158787], [18.1006498, 43.9145099], [18.1035002, 43.9124565], [18.1073007, 43.9101749], [18.1088843, 43.909034], [18.1114179, 43.9060677], [18.1139516, 43.9026449], [18.1171187, 43.9003629], [18.1218694, 43.8978526], [18.1250365, 43.8969397], [18.1250365, 43.8944293], [18.1275701, 43.892147], [18.1275701, 43.8916905], [18.1244031, 43.8896363], [18.1221861, 43.8878103], [18.1199691, 43.8841582], [18.1177521, 43.8827886], [18.1155352, 43.8809624], [18.114585, 43.8786795], [18.114585, 43.8761683], [18.1126848, 43.8734287], [18.1111012, 43.8709173], [18.1098344, 43.8663508], [18.1088843, 43.8652091], [18.1085676, 43.863839], [18.1114179, 43.8626973], [18.114585, 43.8620122], [18.1174354, 43.8613272], [18.1199691, 43.8617839], [18.1221861, 43.8604138], [18.1225028, 43.8565316], [18.1215527, 43.8551613], [18.1206025, 43.8540194], [18.1183856, 43.8517356], [18.1136349, 43.8483096], [18.1123681, 43.8462539], [18.1098344, 43.8451119], [18.1130015, 43.8439698], [18.114585, 43.8430561], [18.1111012, 43.8407718], [18.1079341, 43.8398581], [18.1035002, 43.8378021], [18.1009665, 43.8357461], [18.0990663, 43.8352892], [18.0958992, 43.8350607], [18.0936822, 43.8330046], [18.0930488, 43.8304915], [18.0908318, 43.8279782], [18.0898817, 43.8270643], [18.0901984, 43.8254649], [18.088132, 43.8253596], [18.0872676, 43.8251524], [18.0895768, 43.8207813], [18.0917671, 43.8214866], [18.0934574, 43.8221535], [18.0947379, 43.8224444], [18.0961007, 43.8228993], [18.0969686, 43.8233834], [18.0979881, 43.8246877], [18.1000766, 43.8270647], [18.1024667, 43.8304153], [18.1047954, 43.8289649], [18.1048279, 43.8281182], [18.1068208, 43.8281316], [18.1071985, 43.8277611], [18.1082109, 43.8277847], [18.1085442, 43.8281365], [18.1095253, 43.8283466], [18.1104145, 43.8279007], [18.1115469, 43.8285091], [18.1124041, 43.8277581], [18.1132546, 43.8280115], [18.1131727, 43.8289589], [18.1137653, 43.8289155], [18.1150049, 43.8290373], [18.1144553, 43.8299845], [18.1140361, 43.8315016], [18.1125609, 43.8326268], [18.1142252, 43.8347707], [18.117007, 43.8370589], [18.1173345, 43.838005], [18.1167979, 43.838681], [18.1169819, 43.8392081], [18.1183108, 43.8391873], [18.1183382, 43.83969], [18.119364, 43.8403357], [18.1185964, 43.8410522], [18.1185821, 43.8418562], [18.1182177, 43.8427262], [18.1182372, 43.8432413], [18.1182149, 43.8437028], [18.1179314, 43.8440492], [18.1178896, 43.8446924], [18.1191009, 43.8455482], [18.1224635, 43.8441455], [18.1228458, 43.8435638], [18.1248456, 43.8428728], [18.1269002, 43.8414445], [18.1284391, 43.8414445], [18.1288279, 43.8409454], [18.1298524, 43.8409257], [18.130035, 43.8404012], [18.1315622, 43.8394963], [18.1367291, 43.8395338], [18.138622, 43.8401911], [18.1404941, 43.8401853], [18.1407278, 43.8404997], [18.141934, 43.8406032], [18.1429549, 43.8423516], [18.1429246, 43.8430763], [18.1419377, 43.8439754], [18.1420839, 43.8451534], [18.1420914, 43.8456701], [18.1417113, 43.8457673], [18.1418351, 43.8459764], [18.1421047, 43.8462134], [18.143331, 43.8467819], [18.1437017, 43.8469537], [18.1446784, 43.8473439], [18.144793, 43.8479085], [18.1450539, 43.8481087], [18.1458086, 43.8486875], [18.1460133, 43.8488446], [18.1466286, 43.849008], [18.1485061, 43.8495064], [18.1494551, 43.8501068], [18.1498503, 43.8509735], [18.1518442, 43.8514396], [18.1526179, 43.8519495], [18.1532531, 43.8524582], [18.1552472, 43.8525274], [18.1571931, 43.8532038], [18.1582381, 43.8535952], [18.1588282, 43.8542567], [18.1666608, 43.8572179], [18.1672001, 43.8575493], [18.1677086, 43.8578487], [18.1680152, 43.8580271], [18.1682452, 43.8581809], [18.1693123, 43.8585252], [18.1693085, 43.8588938], [18.1707677, 43.8608345], [18.1715319, 43.8614834], [18.1740551, 43.8634118], [18.1734916, 43.8641015], [18.1732793, 43.8645712], [18.1732, 43.864938], [18.1731911, 43.8655552], [18.1731158, 43.8658932], [18.1730547, 43.8660175], [18.173483, 43.8663318], [18.1737235, 43.8665457], [18.1739147, 43.8668515], [18.1740168, 43.8673103], [18.174005, 43.8679599], [18.1740753, 43.8683084], [18.1741202, 43.86866], [18.173993, 43.8691495], [18.1738537, 43.8692892], [18.1737371, 43.8694009], [18.173718, 43.8696147], [18.1737945, 43.8700175], [18.1739837, 43.8704365], [18.1740973, 43.8707108], [18.1744008, 43.8709892], [18.1747789, 43.8712689], [18.1749201, 43.8714993], [18.1748979, 43.8717757], [18.1748454, 43.8719545], [18.1748182, 43.8722923], [18.1746911, 43.8729263], [18.1747312, 43.8732409], [18.1749599, 43.8735519], [18.1752255, 43.8738324], [18.1758734, 43.8742789], [18.1761659, 43.8745656], [18.1763497, 43.8748834], [18.1765539, 43.8750882], [18.1767501, 43.8753397], [18.176844, 43.8754987], [18.1768679, 43.8756179], [18.1768158, 43.8757746], [18.1767434, 43.8758808], [18.1765617, 43.8761738], [18.1764882, 43.8763398], [18.1764873, 43.8765114], [18.176443, 43.8767773], [18.1763693, 43.8768983], [18.1763082, 43.8770171], [18.1762508, 43.877295], [18.1760608, 43.8776124], [18.1760435, 43.8777083], [18.1760898, 43.8778179], [18.1763061, 43.8781239], [18.1764092, 43.8784921], [18.1765888, 43.8787922], [18.176743, 43.879017], [18.1771647, 43.8793059], [18.1773542, 43.8794459], [18.1774808, 43.8795406], [18.1776221, 43.8798074], [18.177742, 43.880154], [18.1778589, 43.8803807], [18.1781881, 43.8809049], [18.1783342, 43.881071], [18.1785552, 43.8812404], [18.1786865, 43.8814258], [18.1788621, 43.8817168], [18.1790613, 43.8820817], [18.1792045, 43.8823364], [18.1793013, 43.882451], [18.1793964, 43.8826889], [18.1792011, 43.8826886], [18.1788507, 43.8827073], [18.178597, 43.8827446], [18.178171, 43.8828685], [18.1778273, 43.8830061], [18.1773727, 43.8831936], [18.177112, 43.8832963], [18.1767917, 43.883374], [18.176363, 43.8834629], [18.1759187, 43.8836017], [18.175639, 43.8837461], [18.1753384, 43.8839232], [18.1750067, 43.8841607], [18.1747793, 43.8843491], [18.1743094, 43.8846228], [18.1739797, 43.8848077], [18.1741322, 43.8849671], [18.1741366, 43.8850912], [18.1740737, 43.8854661], [18.1737399, 43.8854971], [18.17351, 43.8854643], [18.1730526, 43.8859063], [18.1725204, 43.886245], [18.1735461, 43.8864947], [18.173773, 43.8866631], [18.1734973, 43.8868621], [18.1731544, 43.8868471], [18.1727117, 43.8869173], [18.1723647, 43.8871204], [18.1721058, 43.8873867], [18.1719511, 43.8876093], [18.1718502, 43.8878792], [18.1716484, 43.8881687], [18.1713093, 43.8884229], [18.170892, 43.8886341], [18.1703625, 43.8887415], [18.1698391, 43.8888224], [18.1694309, 43.8888602], [18.169107, 43.8890174], [18.1689856, 43.8891794], [18.1689455, 43.8893274], [18.1689358, 43.8894759], [18.1690707, 43.8896094], [18.1693379, 43.889723], [18.1694198, 43.8898654], [18.169466, 43.8901115], [18.1690887, 43.8903241], [18.1686791, 43.8905699], [18.1684692, 43.8907636], [18.1684985, 43.8909199], [18.1686577, 43.8910539], [18.1687941, 43.8912102], [18.1687859, 43.8914447], [18.1685809, 43.8915975], [18.1683957, 43.8917], [18.1681073, 43.8917728], [18.1676332, 43.8917247], [18.1674983, 43.892421], [18.1679278, 43.8924493], [18.1683573, 43.8930086], [18.1680189, 43.8933434], [18.1681851, 43.8940824], [18.1683827, 43.8944739], [18.168608, 43.8948322], [18.1687488, 43.8949856], [18.1689673, 43.8950749], [18.1692472, 43.8951287], [18.1697037, 43.8952423], [18.1698452, 43.8953202], [18.1696459, 43.8953049], [18.1693112, 43.8953185], [18.1690538, 43.8953385], [18.1686691, 43.8954489], [18.168568, 43.8955566], [18.1688059, 43.8957548], [18.1691052, 43.8958912], [18.1696886, 43.896415], [18.1699158, 43.8964963], [18.1703661, 43.8964573], [18.1705094, 43.8965246], [18.1706856, 43.8969864], [18.1712688, 43.8969706], [18.1715716, 43.8968848], [18.1718361, 43.8967635], [18.1724549, 43.8967437], [18.1724428, 43.8969804], [18.1724598, 43.8975306], [18.172554, 43.8979133], [18.1731085, 43.8981645], [18.1734803, 43.8986281], [18.1741647, 43.899004], [18.1743874, 43.8993618], [18.1746157, 43.8995767], [18.1732461, 43.9010199], [18.1718089, 43.9025341], [18.1700109, 43.9049172], [18.1696612, 43.9054894], [18.1696634, 43.9059135], [18.169779, 43.9063268], [18.1700162, 43.9065273], [18.1701431, 43.9067282], [18.1699977, 43.9069798], [18.1699499, 43.9072829], [18.1695686, 43.9075604], [18.1692368, 43.907773], [18.1695515, 43.9078668], [18.1698808, 43.9079186], [18.1694816, 43.908499], [18.1688568, 43.9090717], [18.1683823, 43.9093883], [18.1678256, 43.9096198], [18.1672285, 43.9097108], [18.16653, 43.9096845], [18.1661243, 43.9095873], [18.1656434, 43.9093779], [18.1649057, 43.9093207], [18.164106, 43.9094271], [18.1633326, 43.9095954], [18.1626862, 43.909786], [18.1621253, 43.9101743], [18.1614933, 43.9104747], [18.1609552, 43.9106256], [18.1599676, 43.9107176], [18.1591893, 43.9108703], [18.1584333, 43.9111827], [18.1580491, 43.9116126], [18.1576923, 43.9118754], [18.1570578, 43.912208], [18.1566864, 43.9124763], [18.1564764, 43.9128228], [18.1563963, 43.9131088], [18.1561861, 43.9133142], [18.1559684, 43.9135859], [18.1560305, 43.913863], [18.1561551, 43.9142025], [18.1562946, 43.9145362], [18.156517, 43.9147902], [18.1568785, 43.9150943], [18.1570455, 43.9154146], [18.1570845, 43.915655], [18.1571949, 43.9158582], [18.1573637, 43.9160979], [18.1573682, 43.91634], [18.1574846, 43.9164974], [18.1576147, 43.9167927], [18.1576715, 43.9170604], [18.1578462, 43.917323], [18.1578653, 43.9175403], [18.157928, 43.9180104], [18.1579842, 43.9183113], [18.1580797, 43.9184562], [18.158194, 43.9185026], [18.1582856, 43.9184992], [18.1582848, 43.9185858], [18.1556355, 43.9185918], [18.1548454, 43.9192611], [18.155003, 43.9200911], [18.1549641, 43.9211688], [18.1492951, 43.9205482], [18.1483993, 43.9221613], [18.1358583, 43.9234517], [18.1354104, 43.9276455], [18.1354104, 43.9311937], [18.1363062, 43.9344193], [18.1376499, 43.936032], [18.1380978, 43.9395798], [18.137202, 43.9424824], [18.1319326, 43.9477356], [18.1313793, 43.9482871], [18.128692, 43.948932], [18.1192864, 43.95091], [18.1143593, 43.9482871], [18.1116719, 43.9466747], [18.1098804, 43.9469972], [18.1062972, 43.9505443], [18.1058493, 43.9540913], [18.1067888, 43.9555834], [18.1073982, 43.9562561], [18.1078574, 43.9571188], [18.1083037, 43.9589198], [18.1089346, 43.9617587], [18.1110825, 43.9654083], [18.1108464, 43.9684446], [18.107193, 43.9708557], [18.1022661, 43.9705333], [18.0991309, 43.971178], [18.0946519, 43.9724674], [18.0937561, 43.9727897], [18.090173, 43.976013], [18.0852461, 43.9789138], [18.0803193, 43.980203], [18.0753924, 43.9818145], [18.0713614, 43.9843927], [18.0691219, 43.9892266], [18.0691219, 43.9940601], [18.068674, 43.9969601], [18.0682261, 44.0108133], [18.0673303, 44.0150008], [18.0650908, 44.0182218], [18.0628514, 44.0207985], [18.060164, 44.0269176], [18.0574766, 44.031748], [18.0543413, 44.0349681], [18.051654, 44.0365781], [18.0462792, 44.0404418], [18.0440398, 44.0401199], [18.043144, 44.0372221], [18.0395608, 44.0372221], [18.0364255, 44.0407638], [18.0323945, 44.0443053], [18.0314987, 44.0455931], [18.0279155, 44.0478467], [18.0234366, 44.0501001], [18.0185097, 44.0517097], [18.0135829, 44.0520316], [18.013135, 44.0523535], [18.0082718, 44.0501683], [18.004435, 44.0496355], [18.0032701, 44.0493179], [18.0022605, 44.0486344], [18.0018052, 44.0476969], [18.0004432, 44.0473468], [17.9991395, 44.0471906], [17.9969457, 44.0461685], [17.9954664, 44.0446877], [17.9957763, 44.0424944], [17.9956744, 44.0403011], [17.9936467, 44.0377964], [17.9914297, 44.0355196], [17.9898461, 44.0350642], [17.9882626, 44.0350642], [17.9838287, 44.0362027], [17.9820071, 44.0369783], [17.9784807, 44.0369983], [17.9755554, 44.0362459], [17.9731204, 44.0353339], [17.9714205, 44.0345178], [17.9700428, 44.0338821], [17.9677243, 44.0329542], [17.9645935, 44.0315249], [17.9612988, 44.0301961], [17.959969, 44.0294769], [17.9590625, 44.0281497], [17.957304, 44.0255198], [17.9568346, 44.0242698], [17.9561178, 44.0224483], [17.9554447, 44.0205938], [17.9552966, 44.0193962], [17.9499407, 44.0193517], [17.931245, 44.0211587]]]}}]}