{"type": "FeatureCollection", "features": [{"type": "Feature", "properties": {"name": "Općina Kladanj, Tuzlanski kanton, Federacija Bosne i Hercegovine, Bosna i Hercegovina / Босна и Херцеговина", "source": "OpenStreetMap relation 2528217", "licence": "ODbL 1.0"}, "geometry": {"type": "Polygon", "coordinates": [[[18.5322663, 44.250954], [18.5335331, 44.247778], [18.5373336, 44.245963], [18.5386005, 44.2446017], [18.5360668, 44.2432404], [18.5341665, 44.2405177], [18.5354334, 44.2391563], [18.5398673, 44.2359796], [18.5405007, 44.231895], [18.5360668, 44.2282641], [18.5360668, 44.2259946], [18.5417676, 44.2232711], [18.5468349, 44.2219093], [18.5563362, 44.2182777], [18.5614036, 44.2173698], [18.5671044, 44.2141919], [18.5702715, 44.2110138], [18.5734386, 44.2046572], [18.5797728, 44.2023868], [18.5829399, 44.2019327], [18.5861069, 44.2005704], [18.5867404, 44.1955751], [18.5905409, 44.1933044], [18.5956082, 44.1901252], [18.6006756, 44.1878542], [18.6051095, 44.1869458], [18.6184113, 44.1814951], [18.6222119, 44.1814951], [18.6285461, 44.1819493], [18.6336134, 44.1833121], [18.640581, 44.1837663], [18.6456484, 44.185129], [18.6507157, 44.1855832], [18.6583168, 44.1860374], [18.6633841, 44.1883084], [18.6671847, 44.1864916], [18.672252, 44.1824036], [18.6735188, 44.1769524], [18.6779528, 44.1710465], [18.6823867, 44.1674117], [18.6861872, 44.1642312], [18.6912546, 44.1615048], [18.6956885, 44.1619592], [18.7064567, 44.162868], [18.7140577, 44.1633224], [18.7197585, 44.1660487], [18.7191251, 44.1674117], [18.7191251, 44.1696835], [18.7229256, 44.1733181], [18.7286263, 44.1737724], [18.7349605, 44.1715008], [18.7381276, 44.1719551], [18.743195, 44.1787696], [18.7469955, 44.1814951], [18.7526963, 44.1814951], [18.7590305, 44.1796781], [18.7634644, 44.174681], [18.7691652, 44.1737724], [18.7761328, 44.1764982], [18.7780331, 44.1796781], [18.7837338, 44.1837663], [18.7862675, 44.1869458], [18.7862675, 44.1933044], [18.7881678, 44.198754], [18.790068, 44.2019327], [18.7938686, 44.2060194], [18.7964022, 44.2082896], [18.8008362, 44.2105598], [18.802103, 44.2128299], [18.806537, 44.2146459], [18.8119061, 44.2209983], [18.8069936, 44.2229146], [18.8033063, 44.226151], [18.7932705, 44.2357393], [18.7914659, 44.2370483], [18.7830878, 44.2431252], [18.7756563, 44.2473841], [18.7697744, 44.2544514], [18.7697181, 44.2553267], [18.7692368, 44.2628087], [18.7686359, 44.2659112], [18.7664539, 44.2746066], [18.7648361, 44.2776413], [18.7610463, 44.2847495], [18.7574096, 44.2893223], [18.7505157, 44.2972446], [18.7490294, 44.302156], [18.7477645, 44.3066369], [18.7474799, 44.3122262], [18.7470824, 44.3157568], [18.7465628, 44.3203717], [18.7459936, 44.325168], [18.7468905, 44.3324908], [18.7474482, 44.3370438], [18.7541208, 44.3464975], [18.7610779, 44.3502062], [18.7639873, 44.3511786], [18.7816964, 44.3559497], [18.7905924, 44.3572063], [18.7972235, 44.358143], [18.8016824, 44.3604039], [18.8058883, 44.3622353], [18.812403, 44.370778], [18.8143544, 44.3745319], [18.8073695, 44.3749162], [18.8055779, 44.3739558], [18.8019947, 44.3729953], [18.7993074, 44.3713945], [18.7979637, 44.370434], [18.7952763, 44.3685129], [18.7916931, 44.3672322], [18.7876621, 44.3640302], [18.7854226, 44.3633898], [18.7831831, 44.3643504], [18.7791521, 44.3649908], [18.7769126, 44.3659514], [18.7742252, 44.3675524], [18.7724336, 44.3691533], [18.7706421, 44.3681928], [18.766611, 44.365311], [18.7648194, 44.3633898], [18.7589968, 44.3665918], [18.7563094, 44.3665918], [18.7545178, 44.3643504], [18.7531741, 44.3624292], [18.7522784, 44.3605079], [18.7513826, 44.3573055], [18.7513826, 44.354103], [18.7500389, 44.35058], [18.7469036, 44.3480178], [18.7433204, 44.3457757], [18.7392894, 44.3435335], [18.7370499, 44.3428928], [18.7352583, 44.3406506], [18.7316752, 44.3444944], [18.7294357, 44.3457757], [18.7222694, 44.3496192], [18.7168946, 44.3521814], [18.7128636, 44.3544233], [18.7101762, 44.355384], [18.7079367, 44.3534625], [18.7074888, 44.3525017], [18.7070409, 44.3502598], [18.7052494, 44.3480178], [18.7034578, 44.3470569], [18.7012183, 44.3444944], [18.6971872, 44.3448147], [18.6949478, 44.346096], [18.6904688, 44.3489786], [18.6873335, 44.35058], [18.6824067, 44.3518612], [18.6765841, 44.352822], [18.6743446, 44.3534625], [18.6707614, 44.3550638], [18.6662825, 44.3550638], [18.6591161, 44.3521814], [18.6541893, 44.3496192], [18.6506061, 44.3464163], [18.6479188, 44.3435335], [18.6447835, 44.3403302], [18.6416482, 44.3371268], [18.640886, 44.3359002], [18.6398566, 44.3342435], [18.6376172, 44.3329621], [18.6313466, 44.3329621], [18.6264198, 44.3320009], [18.6223887, 44.3310398], [18.617014, 44.328797], [18.6129829, 44.3265542], [18.6107435, 44.3230296], [18.6099049, 44.3219139], [18.6084468, 44.3210151], [18.6069077, 44.3207765], [18.6026273, 44.3208175], [18.5995796, 44.3226436], [18.5944239, 44.3227162], [18.5905882, 44.3223887], [18.5911523, 44.3247776], [18.5917108, 44.3282427], [18.5878667, 44.3311105], [18.5846777, 44.3315181], [18.5800739, 44.3327975], [18.5735369, 44.3339695], [18.5693585, 44.3362547], [18.568009, 44.341457], [18.5619824, 44.3329112], [18.5621893, 44.3284766], [18.5642474, 44.3258708], [18.5662458, 44.3240335], [18.5692562, 44.3216626], [18.5706907, 44.3204661], [18.5699821, 44.3190383], [18.5687407, 44.3186103], [18.5654355, 44.317219], [18.5654551, 44.3146126], [18.5635133, 44.3130528], [18.5579743, 44.3121096], [18.5576595, 44.3077098], [18.5539064, 44.3066407], [18.5530077, 44.3065068], [18.5523131, 44.3060543], [18.5513832, 44.3055593], [18.5513208, 44.3046849], [18.5509012, 44.3032304], [18.5497078, 44.3023092], [18.5478537, 44.3010858], [18.5469239, 44.3002297], [18.5386005, 44.2881467], [18.5367002, 44.2867864], [18.5328997, 44.2813449], [18.5335331, 44.279531], [18.5348, 44.2740888], [18.5335331, 44.2695533], [18.5335331, 44.2668318], [18.5354334, 44.2622958], [18.5386005, 44.2573057], [18.5354334, 44.2550373], [18.5322663, 44.250954]]]}}]}