{"type": "FeatureCollection", "features": [{"type": "Feature", "properties": {"name": "Općina Ključ, Unsko-sanski kanton, Federacija Bosne i Hercegovine, Bosna i Hercegovina / Босна и Херцеговина", "source": "OpenStreetMap relation 2528218", "licence": "ODbL 1.0"}, "geometry": {"type": "Polygon", "coordinates": [[[16.5212105, 44.6278698], [16.5217718, 44.6250736], [16.5234556, 44.6222772], [16.5273845, 44.6190812], [16.5279458, 44.6170836], [16.5307522, 44.6142869], [16.532436, 44.6110904], [16.5346811, 44.6082934], [16.5369262, 44.6054962], [16.5391713, 44.6026989], [16.5524374, 44.5882956], [16.5642042, 44.585423], [16.5874174, 44.5662254], [16.5981739, 44.5585912], [16.6080727, 44.5563254], [16.6081736, 44.5567505], [16.6084126, 44.5571195], [16.6105269, 44.5562982], [16.6106778, 44.5565575], [16.6128925, 44.5559381], [16.613102, 44.556315], [16.6143196, 44.5559659], [16.6145956, 44.5563567], [16.6184997, 44.5548901], [16.6207278, 44.5543017], [16.6215362, 44.5543877], [16.6423327, 44.5507126], [16.6436699, 44.5503106], [16.6436021, 44.5499828], [16.6520339, 44.5414402], [16.6521197, 44.5391384], [16.6520367, 44.5384323], [16.6527672, 44.537751], [16.6530673, 44.5367629], [16.6542372, 44.5354856], [16.653899, 44.5344962], [16.6542202, 44.533648], [16.6539063, 44.5326408], [16.6542608, 44.5315562], [16.6547124, 44.5311482], [16.6551297, 44.5309168], [16.655581, 44.5307823], [16.6559253, 44.5288474], [16.6558228, 44.5277354], [16.6559331, 44.5274467], [16.6560236, 44.527103], [16.6561845, 44.526762], [16.6562681, 44.5266618], [16.6562829, 44.5265647], [16.6561582, 44.5263215], [16.6558603, 44.5257291], [16.6547379, 44.5207958], [16.6605446, 44.5194598], [16.6837354, 44.5162556], [16.6967832, 44.5145329], [16.71277, 44.5129823], [16.7179436, 44.5115829], [16.7247228, 44.5101198], [16.7274046, 44.509748], [16.7398869, 44.5080842], [16.7505909, 44.5045218], [16.7588581, 44.5024323], [16.7657627, 44.5006397], [16.7785497, 44.4986623], [16.7839515, 44.4981847], [16.7857641, 44.4980099], [16.7875767, 44.4979205], [16.7900669, 44.4975051], [16.7921841, 44.4991349], [16.7916766, 44.5009594], [16.7925601, 44.5031733], [16.7943457, 44.5045164], [16.7962073, 44.5044865], [16.7995523, 44.503564], [16.8012471, 44.5026415], [16.8021837, 44.5013373], [16.8047236, 44.5008042], [16.8144686, 44.5008042], [16.8157184, 44.5007967], [16.8194831, 44.5007741], [16.8227476, 44.5008667], [16.8236982, 44.500882], [16.8244147, 44.5009163], [16.8253742, 44.500826], [16.8271855, 44.5008743], [16.8295772, 44.5010651], [16.8317896, 44.5018954], [16.8336022, 44.502801], [16.8355431, 44.5048118], [16.8363488, 44.5064062], [16.8362454, 44.5097389], [16.8361561, 44.5113171], [16.834825, 44.5174569], [16.834881, 44.518187], [16.8342347, 44.5206221], [16.8354173, 44.5210115], [16.8360848, 44.5212312], [16.8368616, 44.521487], [16.8442704, 44.523016], [16.8574802, 44.525701], [16.8683818, 44.528025], [16.8715603, 44.5281023], [16.8728959, 44.528238], [16.8938205, 44.5296905], [16.89594, 44.5335409], [16.9010005, 44.5424293], [16.893002, 44.5533322], [16.8921093, 44.5543247], [16.8876567, 44.559275], [16.8824591, 44.5653074], [16.8820672, 44.5690826], [16.881111, 44.575228], [16.8803132, 44.5839038], [16.8803054, 44.584523], [16.8841102, 44.5922762], [16.8851058, 44.5950978], [16.8856475, 44.5977478], [16.8842653, 44.6032436], [16.8823822, 44.6073174], [16.8794508, 44.6097363], [16.8728174, 44.6154477], [16.8664097, 44.6180393], [16.8601863, 44.6199218], [16.8523076, 44.6225274], [16.8534934, 44.6263961], [16.8538592, 44.6282734], [16.8535915, 44.6316604], [16.8538295, 44.6398143], [16.854506, 44.6430432], [16.8542318, 44.6430659], [16.8540292, 44.6431131], [16.8536229, 44.6433263], [16.8536151, 44.6434898], [16.853513, 44.6438177], [16.8534489, 44.6439424], [16.8530586, 44.6440182], [16.8526145, 44.6441966], [16.8522906, 44.6443994], [16.8521578, 44.6446585], [16.852168, 44.6451373], [16.8520753, 44.6453555], [16.8518145, 44.6455232], [16.8515002, 44.6456844], [16.8510284, 44.6458304], [16.8506705, 44.6458448], [16.850337, 44.645794], [16.8498178, 44.6459971], [16.8492919, 44.6460968], [16.8488879, 44.6461659], [16.848532, 44.6461397], [16.8482653, 44.6460643], [16.8477039, 44.645617], [16.8473233, 44.6455149], [16.8468786, 44.6454129], [16.8463046, 44.6453792], [16.8459461, 44.6454691], [16.8456511, 44.6456927], [16.8452642, 44.6459757], [16.8449045, 44.6460383], [16.8445676, 44.6460148], [16.8442651, 44.6460029], [16.8440931, 44.6460399], [16.843531, 44.6462668], [16.843161, 44.6464274], [16.842832, 44.6464311], [16.8418125, 44.6461852], [16.8413978, 44.6461488], [16.8410661, 44.6462171], [16.8406418, 44.6463371], [16.8403476, 44.6464348], [16.840256, 44.6465311], [16.8402027, 44.6466413], [16.8398879, 44.6463828], [16.8398049, 44.6462036], [16.8396904, 44.6461018], [16.8320806, 44.6440597], [16.8314945, 44.644247], [16.8141063, 44.6447033], [16.797711, 44.6347677], [16.797066, 44.634454], [16.7957433, 44.6353645], [16.7945165, 44.6362613], [16.7940904, 44.636836], [16.7924517, 44.6400345], [16.7911841, 44.6422482], [16.7900615, 44.6438456], [16.7861326, 44.6470403], [16.7827649, 44.6482382], [16.7805198, 44.6490368], [16.7771522, 44.650634], [16.7765909, 44.653429], [16.7760296, 44.6566231], [16.7743458, 44.6582201], [16.7732233, 44.6606155], [16.7737845, 44.6638093], [16.7732233, 44.6682003], [16.7704169, 44.6709945], [16.7687331, 44.6733894], [16.7698556, 44.678977], [16.7692943, 44.6805734], [16.7653654, 44.6821697], [16.762559, 44.6829679], [16.7614365, 44.6813716], [16.7603139, 44.6797752], [16.7603139, 44.6741876], [16.7569463, 44.6693978], [16.7547012, 44.6650069], [16.7530173, 44.6630108], [16.7507722, 44.6606155], [16.7490884, 44.6590186], [16.7485271, 44.6566231], [16.7479659, 44.6550261], [16.7479659, 44.6522312], [16.750211, 44.6470403], [16.750211, 44.6418489], [16.7490884, 44.6398521], [16.7468433, 44.6382546], [16.7440369, 44.6342606], [16.7417918, 44.6322636], [16.7367403, 44.6350595], [16.730005, 44.6374558], [16.7277599, 44.6390533], [16.723831, 44.6406508], [16.7221472, 44.6434463], [16.7199021, 44.6446443], [16.713728, 44.644245], [16.7114829, 44.6458423], [16.7086766, 44.6474396], [16.7058702, 44.6486375], [16.7019412, 44.6490368], [16.6963285, 44.6490368], [16.6918383, 44.6498354], [16.6839804, 44.6494361], [16.6822966, 44.6490368], [16.6761226, 44.6478389], [16.6716324, 44.6470403], [16.6682647, 44.645443], [16.6643358, 44.6450436], [16.658723, 44.645443], [16.6559166, 44.644245], [16.6531103, 44.6450436], [16.6514264, 44.6474396], [16.6474975, 44.6502347], [16.6452524, 44.653429], [16.6418848, 44.6558246], [16.6379558, 44.6562239], [16.6345882, 44.6586194], [16.6312205, 44.6586194], [16.6267303, 44.6574216], [16.6228014, 44.6586194], [16.6177499, 44.6590186], [16.613821, 44.6602163], [16.6104533, 44.6626116], [16.6070857, 44.6650069], [16.6042793, 44.665406], [16.6009116, 44.6666036], [16.5969827, 44.6678012], [16.593615, 44.6685995], [16.5896861, 44.6693978], [16.5851959, 44.6701962], [16.5801444, 44.6725911], [16.5683576, 44.6682003], [16.5633062, 44.6658052], [16.5599385, 44.661414], [16.5554483, 44.6554254], [16.5537645, 44.6526305], [16.5520806, 44.6510333], [16.5481517, 44.6474396], [16.5464679, 44.6446443], [16.542539, 44.6406508], [16.5402939, 44.6394527], [16.5363649, 44.6374558], [16.5335585, 44.636657], [16.5301909, 44.6362577], [16.5251394, 44.6346601], [16.5228943, 44.6334618], [16.5212105, 44.6322636], [16.5212105, 44.6278698]]]}}]}