{"type": "FeatureCollection", "features": [{"type": "Feature", "properties": {"name": "Grad Konjic, Hercegovačko-neretvanska županija (kanton), Federacija Bosne i Hercegovine, 88400, Bosna i Hercegovina / Босна и Херцеговина", "source": "OpenStreetMap relation 2528219", "licence": "ODbL 1.0"}, "geometry": {"type": "Polygon", "coordinates": [[[17.7075255, 43.7835658], [17.7078903, 43.7825976], [17.7082121, 43.7822568], [17.7090919, 43.7821716], [17.7093494, 43.7812266], [17.7097356, 43.7809942], [17.7100146, 43.7803048], [17.711066, 43.779871], [17.7112055, 43.779321], [17.7115703, 43.7789259], [17.7115488, 43.7783682], [17.711699, 43.7778104], [17.7122354, 43.7774773], [17.712332, 43.7772217], [17.7121174, 43.7769351], [17.7120101, 43.7767956], [17.7120638, 43.7764935], [17.7123642, 43.7762379], [17.7127197, 43.7755647], [17.7135551, 43.7752075], [17.7142095, 43.7751068], [17.7150357, 43.7745336], [17.715733, 43.7742779], [17.7160442, 43.7733638], [17.7168354, 43.7724908], [17.7166021, 43.7720855], [17.716409, 43.771365], [17.7163017, 43.770505], [17.7157603, 43.7693066], [17.715874, 43.7673076], [17.7159476, 43.7669566], [17.7163339, 43.7664917], [17.7173316, 43.7659571], [17.7177924, 43.7652575], [17.7197456, 43.7654767], [17.7210653, 43.765252], [17.7216875, 43.7656239], [17.7226317, 43.7657944], [17.7247682, 43.7658014], [17.7258181, 43.7665072], [17.7266094, 43.7668753], [17.7281769, 43.7670379], [17.7283609, 43.7668946], [17.7295027, 43.7668552], [17.7300453, 43.7672742], [17.7302062, 43.7678243], [17.7310002, 43.7679096], [17.7313864, 43.768049], [17.7331245, 43.7682272], [17.7340143, 43.768583], [17.7340364, 43.7690252], [17.7341437, 43.7694514], [17.7355385, 43.7699549], [17.7361822, 43.770598], [17.736448, 43.7707356], [17.738843, 43.7706755], [17.7428728, 43.7711041], [17.7433383, 43.7714502], [17.7446687, 43.7715819], [17.7450979, 43.7717524], [17.745944, 43.7717981], [17.7468145, 43.7714889], [17.7489924, 43.7713572], [17.7498293, 43.7710318], [17.7507165, 43.770897], [17.7507895, 43.7709486], [17.7508593, 43.7709912], [17.7510416, 43.7710222], [17.7512455, 43.770966], [17.7514923, 43.770474], [17.7526585, 43.7696884], [17.7533912, 43.7688625], [17.753579, 43.768665], [17.7537569, 43.7681329], [17.7537399, 43.7679173], [17.7536756, 43.767805], [17.753284, 43.767375], [17.7533698, 43.7671115], [17.7537024, 43.7667784], [17.7539706, 43.7663677], [17.75455, 43.7660733], [17.7550864, 43.7660113], [17.7556443, 43.7653915], [17.7559774, 43.7652778], [17.7561807, 43.7651745], [17.7569103, 43.7639038], [17.7572309, 43.7627478], [17.7581119, 43.7617653], [17.7585929, 43.7604804], [17.7589917, 43.7598591], [17.7593179, 43.7587635], [17.7594387, 43.7580955], [17.7595603, 43.7575847], [17.7595177, 43.7570856], [17.759099, 43.756527], [17.7586774, 43.7560669], [17.7582407, 43.7557985], [17.7576828, 43.755504], [17.7572751, 43.7551166], [17.7568683, 43.7544762], [17.7560091, 43.7540781], [17.7554512, 43.7535202], [17.7556014, 43.7525747], [17.7559662, 43.7521252], [17.7561218, 43.7516644], [17.756288, 43.7504202], [17.7569532, 43.7491027], [17.7574038, 43.7486222], [17.7574467, 43.7479556], [17.7586269, 43.7470101], [17.7589181, 43.7467254], [17.7589702, 43.745987], [17.759335, 43.7446849], [17.7611375, 43.7431812], [17.7615237, 43.7424991], [17.761352, 43.7418015], [17.7617741, 43.7410438], [17.7620881, 43.737071], [17.7621874, 43.7330693], [17.7628051, 43.7320444], [17.7636023, 43.729505], [17.7651191, 43.7259035], [17.7678194, 43.7242297], [17.769475, 43.723754], [17.7731752, 43.7258009], [17.7804708, 43.7218001], [17.7867789, 43.718334], [17.7892634, 43.7169901], [17.7906818, 43.7151935], [17.7928692, 43.7132785], [17.7928646, 43.71209], [17.7952318, 43.7102476], [17.7975345, 43.7082549], [17.7995187, 43.708659], [17.8063591, 43.7074704], [17.8107252, 43.7067733], [17.8115258, 43.7060418], [17.8119921, 43.7027383], [17.8171917, 43.70255], [17.8186655, 43.7016835], [17.8190561, 43.6998173], [17.8217124, 43.6986584], [17.8241189, 43.6965545], [17.8255105, 43.6970139], [17.8274631, 43.6966106], [17.8275919, 43.6974638], [17.8301406, 43.6981892], [17.8308226, 43.6968763], [17.8316903, 43.6956487], [17.8361644, 43.6960623], [17.8432831, 43.6977542], [17.8429127, 43.6957495], [17.8434276, 43.6935698], [17.8423418, 43.6915671], [17.8413489, 43.690272], [17.8397316, 43.6887564], [17.839037, 43.6878997], [17.8386462, 43.6854097], [17.8378692, 43.6842851], [17.8375789, 43.6830054], [17.8373441, 43.682388], [17.8375124, 43.6819494], [17.8385782, 43.6812497], [17.8385782, 43.6809393], [17.8380418, 43.6805048], [17.8380418, 43.6800703], [17.8370976, 43.679822], [17.8371191, 43.679372], [17.8376555, 43.6792013], [17.8397768, 43.679064], [17.8396725, 43.6783943], [17.8399914, 43.6773528], [17.839179, 43.6770131], [17.8388142, 43.6764854], [17.8389001, 43.6758957], [17.83977, 43.6751941], [17.8396725, 43.6742661], [17.8393702, 43.673304], [17.8385782, 43.6731797], [17.8380632, 43.6725434], [17.8381705, 43.6719692], [17.8393721, 43.669967], [17.8401348, 43.6695121], [17.8402519, 43.6693306], [17.8404879, 43.6682907], [17.8402126, 43.665956], [17.8408313, 43.664938], [17.8417677, 43.6639496], [17.8426337, 43.6637272], [17.843771, 43.6630598], [17.8445741, 43.6628949], [17.8447097, 43.6627803], [17.8446829, 43.6626096], [17.8442859, 43.6622526], [17.8439855, 43.6610418], [17.8429341, 43.6609021], [17.8420114, 43.6612746], [17.8413248, 43.6613057], [17.8411645, 43.6607317], [17.8401527, 43.6605463], [17.8389534, 43.659592], [17.8383673, 43.65819], [17.837162, 43.6560586], [17.8369771, 43.6551244], [17.8368401, 43.6546769], [17.8327417, 43.6510284], [17.8315563, 43.6504439], [17.8317332, 43.649895], [17.8320122, 43.6485753], [17.8337717, 43.6471779], [17.8346944, 43.6467742], [17.8353362, 43.6462011], [17.8355312, 43.6456873], [17.8413658, 43.6428563], [17.8417754, 43.6417433], [17.8420196, 43.640675], [17.8440716, 43.6369358], [17.8443969, 43.6332953], [17.8444827, 43.6299898], [17.8446078, 43.6292417], [17.8451084, 43.6284604], [17.8443503, 43.6273468], [17.8444361, 43.6262285], [17.845097, 43.6249306], [17.844007, 43.6241627], [17.8441483, 43.6228321], [17.8451228, 43.6226405], [17.8451783, 43.6216573], [17.8446565, 43.6203762], [17.8448724, 43.6167183], [17.8448724, 43.6125828], [17.8450801, 43.6097095], [17.8451739, 43.6064991], [17.8453456, 43.6038643], [17.8454732, 43.6007657], [17.8489414, 43.5976194], [17.8503857, 43.5962553], [17.8529595, 43.5937803], [17.8544039, 43.5911703], [17.8569607, 43.5866124], [17.8588545, 43.5827416], [17.8599477, 43.5806629], [17.8615886, 43.5776457], [17.8630297, 43.5734829], [17.8638552, 43.5702501], [17.8645982, 43.5672659], [17.8654204, 43.5636801], [17.8684395, 43.5578639], [17.8717732, 43.5579099], [17.8819882, 43.5623937], [17.8844908, 43.5634093], [17.8869358, 43.5639845], [17.8944188, 43.5594845], [17.89966, 43.5564376], [17.9017154, 43.5552435], [17.9042609, 43.5536835], [17.9074851, 43.5519868], [17.9130843, 43.5487267], [17.9158263, 43.5471699], [17.9173882, 43.5462662], [17.918435, 43.5457039], [17.9194852, 43.5452144], [17.9197562, 43.5377657], [17.9214084, 43.536771], [17.9254989, 43.5345737], [17.9303506, 43.5319873], [17.9313376, 43.5305046], [17.9336143, 43.5259839], [17.9351399, 43.5234643], [17.9503523, 43.5203165], [17.951023, 43.5195418], [17.9533505, 43.5190726], [17.9556083, 43.5186958], [17.9564237, 43.5191471], [17.9568743, 43.5194271], [17.957797, 43.5191315], [17.9580331, 43.5186491], [17.9583549, 43.518089], [17.9591703, 43.5177311], [17.9596853, 43.5177311], [17.9599857, 43.5179956], [17.9622602, 43.518618], [17.9626279, 43.5186796], [17.9628628, 43.5185404], [17.9639209, 43.5182268], [17.9654963, 43.5183668], [17.9663568, 43.5188409], [17.9711866, 43.5185558], [17.9760419, 43.5179384], [17.979885, 43.5132399], [17.9885245, 43.5111653], [17.9928713, 43.5112981], [17.9946364, 43.5115446], [17.9962332, 43.5115552], [17.9982094, 43.5113972], [17.9999994, 43.5111408], [18.0017396, 43.510887], [18.0046634, 43.5105421], [18.0038514, 43.5091964], [18.0034912, 43.5083905], [18.0021948, 43.5064665], [18.0004037, 43.5029237], [17.9978156, 43.498122], [18.0050036, 43.4951109], [18.0103251, 43.4926883], [18.0124268, 43.4916593], [18.0143285, 43.4907982], [18.0209927, 43.4878282], [18.0241029, 43.4865728], [18.0271554, 43.4853201], [18.0316637, 43.4835641], [18.0335112, 43.4827652], [18.034994, 43.4820728], [18.0354921, 43.4795751], [18.0363979, 43.4739977], [18.0365809, 43.4727241], [18.0371055, 43.4716311], [18.0380953, 43.4720651], [18.0432768, 43.4727787], [18.0526251, 43.4732972], [18.0620671, 43.4739012], [18.0664247, 43.474359], [18.0738206, 43.4746563], [18.0764373, 43.474776], [18.0773183, 43.4748163], [18.0859438, 43.475251], [18.0862171, 43.4752648], [18.095921, 43.475792], [18.1007587, 43.4761492], [18.1025597, 43.4753089], [18.1036286, 43.4748087], [18.11083, 43.4742042], [18.1170032, 43.473624], [18.119062, 43.4733686], [18.1220974, 43.472992], [18.1295424, 43.4712956], [18.1345598, 43.4700115], [18.1426481, 43.4656952], [18.1521353, 43.4615602], [18.1595945, 43.4619561], [18.1667964, 43.4625588], [18.1759977, 43.4673258], [18.1798998, 43.4689748], [18.1848391, 43.4708708], [18.19654, 43.4713529], [18.2034432, 43.4711818], [18.2077777, 43.4709646], [18.2103217, 43.4708376], [18.2117572, 43.4707657], [18.2208098, 43.4697531], [18.224155, 43.4707367], [18.2257085, 43.4712495], [18.2397926, 43.4753342], [18.2418441, 43.4754131], [18.257824, 43.4758745], [18.264148, 43.4725332], [18.2693885, 43.4712957], [18.2723136, 43.472043], [18.2744157, 43.4729515], [18.2745312, 43.4729896], [18.2801444, 43.4728863], [18.2868801, 43.4712455], [18.2941812, 43.4698771], [18.2984912, 43.4708414], [18.301083, 43.4714606], [18.3094079, 43.4743063], [18.314938, 43.4752873], [18.3176774, 43.4759299], [18.3219149, 43.4762512], [18.3237378, 43.4762166], [18.3242044, 43.4762024], [18.3256939, 43.4761794], [18.3279906, 43.4759528], [18.3294057, 43.4741743], [18.3318091, 43.4708553], [18.3358371, 43.4684886], [18.3401577, 43.470359], [18.3425136, 43.474008], [18.3433912, 43.4762311], [18.3437627, 43.4802583], [18.3432563, 43.4838045], [18.3430394, 43.4853235], [18.3429104, 43.485683], [18.3411499, 43.490589], [18.3407546, 43.4929405], [18.3412329, 43.4948045], [18.3413001, 43.4965709], [18.3407664, 43.4984849], [18.3384984, 43.5010014], [18.3379387, 43.5014035], [18.3363994, 43.5025096], [18.3350515, 43.5035217], [18.3354048, 43.5056225], [18.3359992, 43.5080285], [18.3381969, 43.5214999], [18.3392286, 43.5284201], [18.3393946, 43.530362], [18.3401626, 43.5349376], [18.3396874, 43.538651], [18.3379071, 43.5531394], [18.3359214, 43.5686514], [18.3372608, 43.5709288], [18.339195, 43.572962], [18.3422576, 43.5753967], [18.3459746, 43.5783514], [18.3574055, 43.5819179], [18.3679706, 43.5846292], [18.3812072, 43.5878322], [18.3847593, 43.5921783], [18.3859137, 43.5970906], [18.3859268, 43.5986512], [18.3859079, 43.6009721], [18.3808136, 43.5991031], [18.3795261, 43.5981086], [18.3784247, 43.5969993], [18.3770799, 43.5958708], [18.3748054, 43.5949073], [18.37296, 43.5942546], [18.3708572, 43.5934154], [18.3679815, 43.592587], [18.3637059, 43.5913184], [18.3629357, 43.5909776], [18.356469, 43.5894919], [18.3528038, 43.5924327], [18.346446, 43.5961051], [18.347518, 43.6001144], [18.3474898, 43.6027314], [18.3474994, 43.6052373], [18.3445142, 43.6111222], [18.3449001, 43.6119713], [18.3457143, 43.614511], [18.3466482, 43.6174811], [18.3473461, 43.6198789], [18.3472889, 43.6204524], [18.3472148, 43.6229611], [18.3471963, 43.6256807], [18.346219, 43.6260175], [18.3437043, 43.6268435], [18.3395023, 43.6281331], [18.3305686, 43.6309674], [18.3258626, 43.6285247], [18.3257629, 43.627987], [18.3247536, 43.6281702], [18.3221998, 43.6279665], [18.3210329, 43.6280979], [18.3200693, 43.6280396], [18.320078, 43.6288053], [18.3185324, 43.6292932], [18.3170005, 43.6287288], [18.3169232, 43.6279943], [18.3152555, 43.6284118], [18.3139371, 43.6286317], [18.3137968, 43.6292733], [18.3133999, 43.6293615], [18.3131266, 43.6300766], [18.3118765, 43.6305143], [18.3108367, 43.6297344], [18.3104107, 43.6302178], [18.3093633, 43.6306216], [18.3091018, 43.6313334], [18.3055687, 43.6327869], [18.3052148, 43.6337699], [18.3040511, 43.6340174], [18.3038969, 43.6334517], [18.3028112, 43.6334464], [18.3023068, 43.6322909], [18.3015703, 43.6322301], [18.3010665, 43.631301], [18.2994447, 43.6312944], [18.2990745, 43.6306656], [18.2996699, 43.6303471], [18.2997366, 43.6298374], [18.2990571, 43.6296739], [18.2990792, 43.6274877], [18.2960402, 43.6259052], [18.2960789, 43.6249721], [18.2949767, 43.6235995], [18.2949986, 43.6219743], [18.2939131, 43.6203968], [18.2939941, 43.6193449], [18.2931306, 43.6182681], [18.2926288, 43.6160473], [18.2928868, 43.6137856], [18.2925446, 43.6125865], [18.290193, 43.6114523], [18.2867426, 43.6109499], [18.286816, 43.6099174], [18.2863028, 43.6087936], [18.2841352, 43.6071947], [18.284508, 43.6060195], [18.2842216, 43.6046209], [18.283099, 43.6042745], [18.2827131, 43.6026622], [18.2832779, 43.6006031], [18.2801596, 43.5973928], [18.2799508, 43.5954727], [18.2718885, 43.5921486], [18.2703361, 43.5917234], [18.2642545, 43.5869307], [18.2639792, 43.5871801], [18.2632315, 43.5878574], [18.2633513, 43.5892442], [18.2623839, 43.5908972], [18.2636835, 43.5918627], [18.2627953, 43.5943152], [18.2627415, 43.5950988], [18.2629997, 43.5954345], [18.2628851, 43.5965576], [18.2617053, 43.5965404], [18.2607986, 43.5971958], [18.2615572, 43.5982748], [18.2605932, 43.5985103], [18.2607333, 43.600302], [18.2599209, 43.6013479], [18.2585287, 43.6019495], [18.2587869, 43.6026636], [18.2574537, 43.6038402], [18.2567593, 43.6035862], [18.2558104, 43.6043723], [18.2515458, 43.601963], [18.2460441, 43.607762], [18.2424993, 43.6090131], [18.2360689, 43.6114725], [18.2278737, 43.6215647], [18.2253369, 43.6142417], [18.2152622, 43.6088376], [18.2136973, 43.6108762], [18.2133362, 43.6119686], [18.2131863, 43.6136423], [18.2100794, 43.615605], [18.2087983, 43.6165539], [18.2086241, 43.6185111], [18.2087578, 43.6189493], [18.2068177, 43.6201558], [18.2058635, 43.6206087], [18.2041181, 43.6212551], [18.2031212, 43.622334], [18.2026613, 43.6229279], [18.2006508, 43.6235326], [18.198641, 43.6249186], [18.2020561, 43.6263878], [18.2037791, 43.6272106], [18.2040559, 43.6284559], [18.2047896, 43.6291202], [18.2053818, 43.6302406], [18.2070653, 43.6310376], [18.2079824, 43.6319692], [18.2107888, 43.632457], [18.2123193, 43.6334086], [18.2130339, 43.6334621], [18.2141159, 43.6342466], [18.2145036, 43.6349468], [18.2159363, 43.6363874], [18.2157019, 43.6382099], [18.2163205, 43.6385855], [18.2159716, 43.6401102], [18.217925, 43.6431523], [18.2196512, 43.6439195], [18.2199648, 43.6444793], [18.2180113, 43.6453719], [18.215864, 43.6468136], [18.2141229, 43.6472733], [18.2130629, 43.6484196], [18.2105279, 43.6498331], [18.2095269, 43.6511758], [18.2071637, 43.6535589], [18.2043406, 43.6564174], [18.201187, 43.6595856], [18.1986908, 43.6620111], [18.1962721, 43.6645033], [18.1949927, 43.6657469], [18.1939882, 43.6667393], [18.1879288, 43.6696654], [18.1832448, 43.6719452], [18.1797793, 43.6736386], [18.1765429, 43.6751903], [18.1733031, 43.6767862], [18.1705117, 43.6782283], [18.1675485, 43.6796142], [18.1673987, 43.6815049], [18.1669387, 43.6835904], [18.1666876, 43.6860404], [18.166455, 43.6886171], [18.1663589, 43.6901138], [18.1659951, 43.6911071], [18.1660021, 43.6920856], [18.1643014, 43.693219], [18.1619198, 43.6945767], [18.1598517, 43.6955565], [18.1559801, 43.6972919], [18.1530557, 43.6984666], [18.1497673, 43.700342], [18.1451943, 43.7026976], [18.1421721, 43.7036117], [18.13946, 43.7045537], [18.1361479, 43.7055384], [18.1361716, 43.7037766], [18.1361531, 43.7014382], [18.1360605, 43.6985831], [18.1339688, 43.6962884], [18.1322867, 43.6948346], [18.1297314, 43.6921288], [18.1279348, 43.6905858], [18.1268122, 43.6904309], [18.1250156, 43.6900443], [18.1231159, 43.6896639], [18.1214691, 43.6894786], [18.1200567, 43.6892384], [18.1166238, 43.6887471], [18.1111458, 43.6954348], [18.0973863, 43.698534], [18.0888862, 43.6951487], [18.087167, 43.6947881], [18.085581, 43.6936668], [18.081942, 43.6926431], [18.0792704, 43.6900104], [18.0776642, 43.6899703], [18.07742, 43.6905845], [18.0763952, 43.6907929], [18.0739581, 43.6908172], [18.0709764, 43.6903087], [18.0679321, 43.6900233], [18.0641495, 43.6919697], [18.06213, 43.6928592], [18.0555832, 43.7004675], [18.059484, 43.7038563], [18.0611783, 43.7052405], [18.0623836, 43.7063468], [18.0589957, 43.7070316], [18.0567523, 43.7073106], [18.0445639, 43.7112837], [18.0348461, 43.7184401], [18.0367018, 43.7214236], [18.0439816, 43.7212115], [18.0482206, 43.7209301], [18.0509883, 43.7208313], [18.0535418, 43.7208996], [18.0563649, 43.7210663], [18.0580673, 43.7212746], [18.0642924, 43.7239739], [18.0643733, 43.7263515], [18.0616815, 43.7289106], [18.0611, 43.7307997], [18.0605625, 43.732457], [18.0594822, 43.7345809], [18.0604382, 43.7374942], [18.0604822, 43.7396255], [18.0593953, 43.7403452], [18.0593781, 43.7417971], [18.0597038, 43.7420071], [18.059702, 43.7425776], [18.0590017, 43.7426474], [18.0588569, 43.7434842], [18.0571834, 43.7434195], [18.0573454, 43.741378], [18.0551593, 43.7416301], [18.0502189, 43.7427136], [18.0503574, 43.7415954], [18.0496793, 43.7414081], [18.0496453, 43.7406935], [18.0465489, 43.74064], [18.0445321, 43.741811], [18.041213, 43.7431516], [18.0388445, 43.743645], [18.037191, 43.7456154], [18.0369883, 43.746807], [18.0360031, 43.7473377], [18.0359976, 43.749256], [18.034061, 43.7493655], [18.0348822, 43.7509713], [18.0342654, 43.7520183], [18.0285715, 43.7566179], [18.0218494, 43.7607851], [18.0217768, 43.7608563], [18.018866, 43.7637092], [18.018347, 43.7650785], [18.0183505, 43.7671027], [18.0162419, 43.7716096], [18.0147829, 43.7728956], [18.0149662, 43.7748945], [18.0151905, 43.7765661], [18.013934, 43.7776168], [18.0111638, 43.7825317], [18.0110837, 43.7842883], [18.0105349, 43.7864675], [18.010794, 43.7869164], [18.0107165, 43.7882694], [18.0090529, 43.7899399], [18.0070774, 43.7904945], [18.0052968, 43.7936391], [18.0009554, 43.8013058], [18.0012286, 43.8018101], [18.0013689, 43.8022747], [18.0024914, 43.8021482], [18.0048537, 43.8025345], [18.0067794, 43.8028903], [18.0095378, 43.8026665], [18.0106511, 43.8031209], [18.0133088, 43.8031186], [18.0123471, 43.8039577], [18.0112247, 43.8071977], [18.0095409, 43.8092229], [18.0050507, 43.8112481], [18.0011218, 43.8116532], [17.9977541, 43.8124632], [17.9943275, 43.8136241], [17.9915801, 43.8144883], [17.9870899, 43.8136783], [17.9848448, 43.8120582], [17.9842835, 43.8076028], [17.9825997, 43.8059825], [17.9786708, 43.8027419], [17.9769869, 43.8011215], [17.9741806, 43.7986909], [17.9702516, 43.7978806], [17.9674452, 43.7970704], [17.9646389, 43.795855], [17.9607099, 43.795855], [17.9579036, 43.7962601], [17.9545359, 43.7986909], [17.9483619, 43.7986909], [17.9444329, 43.7999062], [17.9410653, 43.8027419], [17.9388202, 43.8051724], [17.9371364, 43.8076028], [17.9337687, 43.8124632], [17.9326462, 43.8152983], [17.9315236, 43.8173233], [17.9298398, 43.821778], [17.9275947, 43.8266373], [17.9253496, 43.8298766], [17.9247883, 43.832306], [17.9225432, 43.835545], [17.9214206, 43.838379], [17.9197368, 43.8416177], [17.9197368, 43.8468802], [17.9191755, 43.8484993], [17.9174917, 43.8529517], [17.9169304, 43.8537612], [17.9124402, 43.8557848], [17.9101951, 43.856999], [17.9073887, 43.8590226], [17.9034598, 43.8590226], [17.9000922, 43.8594273], [17.8961632, 43.8602367], [17.8950407, 43.8602367], [17.8944794, 43.8622601], [17.8922343, 43.8634742], [17.8894279, 43.8654975], [17.8894279, 43.8667115], [17.8911118, 43.8683301], [17.8927956, 43.8703533], [17.8939181, 43.8723764], [17.8927956, 43.8739948], [17.8922343, 43.8739948], [17.8883054, 43.8760178], [17.8860603, 43.8772316], [17.8838152, 43.8784453], [17.8826926, 43.8804681], [17.8826926, 43.8828954], [17.8804475, 43.8853227], [17.8742735, 43.8849181], [17.8703446, 43.8824909], [17.8669769, 43.8824909], [17.8624867, 43.8792544], [17.8596803, 43.876827], [17.8568739, 43.8756132], [17.8557514, 43.876827], [17.8506999, 43.8776361], [17.8490161, 43.8784453], [17.846771, 43.8804681], [17.846771, 43.8816818], [17.8495774, 43.8841091], [17.8501386, 43.8869408], [17.8484548, 43.8873453], [17.8471876, 43.8881063], [17.8450871, 43.8893678], [17.8422808, 43.8885588], [17.8383518, 43.8865362], [17.836668, 43.8857272], [17.8344229, 43.8853227], [17.8282489, 43.8833], [17.8237587, 43.8808727], [17.8231974, 43.8792544], [17.8220748, 43.8780407], [17.8198297, 43.8752086], [17.8209523, 43.8715671], [17.8231974, 43.869544], [17.8248812, 43.8691394], [17.8248812, 43.8671161], [17.8226361, 43.8663068], [17.8209523, 43.8663068], [17.8187072, 43.8650929], [17.8170234, 43.8638788], [17.8125332, 43.8626648], [17.8108493, 43.8622601], [17.8074817, 43.8618554], [17.7883359, 43.8660432], [17.7889728, 43.8611321], [17.7891344, 43.8590031], [17.7889681, 43.8588074], [17.7883458, 43.8587455], [17.7876377, 43.8583277], [17.7866292, 43.8576934], [17.7862859, 43.8570745], [17.7863931, 43.8563782], [17.7868008, 43.8558986], [17.7880454, 43.8556665], [17.7887964, 43.8558676], [17.7895903, 43.8555117], [17.7899551, 43.8552642], [17.7898264, 43.8547226], [17.7891826, 43.8541656], [17.7883672, 43.8539335], [17.7879757, 43.8536325], [17.787981, 43.8531753], [17.7877879, 43.8528968], [17.7874856, 43.8525347], [17.787466, 43.8521386], [17.78723, 43.8517362], [17.7866721, 43.8514732], [17.7858152, 43.8508954], [17.7853203, 43.8502662], [17.7853632, 43.8499258], [17.7854919, 43.8496008], [17.7853203, 43.8492449], [17.7851701, 43.8488271], [17.7853203, 43.848564], [17.7853417, 43.84827], [17.7849897, 43.8478682], [17.784934, 43.8475736], [17.7852344, 43.8474343], [17.785964, 43.8473724], [17.7854275, 43.8471867], [17.7851915, 43.8469701], [17.7848267, 43.8464904], [17.7846551, 43.8458713], [17.7843976, 43.8448035], [17.7840757, 43.8442309], [17.7831885, 43.8435106], [17.7826381, 43.8429464], [17.7823516, 43.8422555], [17.7818656, 43.8418321], [17.7817368, 43.8414607], [17.7817368, 43.8409964], [17.7819085, 43.8405166], [17.7823376, 43.8402071], [17.7823376, 43.8399904], [17.7819514, 43.8396499], [17.7818441, 43.8394332], [17.7816939, 43.8390463], [17.7813961, 43.8388384], [17.7808571, 43.838582], [17.7804923, 43.8383653], [17.7800631, 43.837901], [17.7801275, 43.8370033], [17.7792289, 43.8369747], [17.7789259, 43.8368795], [17.7783251, 43.8364461], [17.7781105, 43.8360282], [17.7781963, 43.8354864], [17.778368, 43.8351459], [17.7781963, 43.8348364], [17.7777242, 43.8343565], [17.7775311, 43.8338612], [17.7773237, 43.8333586], [17.777338, 43.8327777], [17.7775311, 43.8324062], [17.7780032, 43.8321121], [17.7786255, 43.8320038], [17.7789902, 43.8318799], [17.7794379, 43.8314091], [17.7795267, 43.8310131], [17.7794838, 43.8304868], [17.7796554, 43.8300534], [17.7799129, 43.8296974], [17.7805567, 43.8292639], [17.7808903, 43.8289846], [17.7806362, 43.8288893], [17.7797627, 43.8286447], [17.7789044, 43.8281494], [17.7785182, 43.8279946], [17.7782178, 43.8276231], [17.7776885, 43.8272647], [17.7768445, 43.82688], [17.7762437, 43.8266478], [17.7754717, 43.8259392], [17.7747845, 43.8246972], [17.7747501, 43.8233335], [17.7746719, 43.8232846], [17.7746129, 43.8229169], [17.7746826, 43.822557], [17.7748758, 43.8224834], [17.7749511, 43.8223387], [17.7744198, 43.8220809], [17.7736044, 43.8213378], [17.7731108, 43.8211056], [17.77251, 43.8209817], [17.772274, 43.8208733], [17.7721023, 43.8204863], [17.7721452, 43.8201457], [17.7722311, 43.819898], [17.7721238, 43.8196657], [17.7710301, 43.8187844], [17.7685524, 43.8169429], [17.7683687, 43.8168673], [17.7678269, 43.8168479], [17.7675962, 43.8167395], [17.7674353, 43.816546], [17.7674031, 43.8162247], [17.7673023, 43.8159992], [17.7668291, 43.8160699], [17.7665019, 43.8160699], [17.7661639, 43.8160389], [17.7659869, 43.8159692], [17.7650642, 43.8152299], [17.764973, 43.815106], [17.7649645, 43.8147556], [17.7642435, 43.8140338], [17.7633583, 43.8133951], [17.7629721, 43.8131358], [17.7627799, 43.8129726], [17.7616149, 43.812439], [17.7608156, 43.8121525], [17.7598447, 43.8117886], [17.7593258, 43.8114613], [17.7591419, 43.8111499], [17.7590561, 43.8105305], [17.7589702, 43.8101899], [17.7589917, 43.8098028], [17.7590346, 43.8095163], [17.7590132, 43.8089356], [17.7593458, 43.8080297], [17.7592346, 43.8072416], [17.7594852, 43.8064425], [17.7590024, 43.8059005], [17.7589166, 43.8047855], [17.7581549, 43.8040267], [17.7578437, 43.8035621], [17.7580129, 43.8027786], [17.7576077, 43.8022147], [17.7574789, 43.8011616], [17.7571034, 43.8002866], [17.7565026, 43.7997058], [17.7560627, 43.7992412], [17.7560563, 43.7986705], [17.7559769, 43.798219], [17.7554941, 43.797948], [17.7552152, 43.7972278], [17.7546039, 43.796671], [17.7544105, 43.7964999], [17.7541852, 43.7961359], [17.754271, 43.7958726], [17.7545822, 43.7956558], [17.7544356, 43.7944676], [17.754432, 43.7935106], [17.7542391, 43.7925609], [17.7528772, 43.7913275], [17.7527904, 43.7910865], [17.7522433, 43.7904979], [17.7514226, 43.7898414], [17.7511844, 43.7893588], [17.7502595, 43.7886258], [17.7497277, 43.7880347], [17.7492119, 43.787448], [17.7489388, 43.787578], [17.7486384, 43.787578], [17.748338, 43.7875431], [17.7480812, 43.7874015], [17.7468627, 43.7875962], [17.7445614, 43.7874231], [17.7422867, 43.787376], [17.7411969, 43.7865729], [17.7399695, 43.7865556], [17.7392126, 43.7862476], [17.736783, 43.7861451], [17.7354305, 43.7859329], [17.7347553, 43.7861684], [17.7344656, 43.7866176], [17.7340042, 43.7867493], [17.733636, 43.7870017], [17.7326524, 43.7870901], [17.7315418, 43.7870222], [17.7315473, 43.7858276], [17.7307641, 43.785479], [17.7291334, 43.785084], [17.727803, 43.7852002], [17.7269125, 43.785541], [17.7261362, 43.7860022], [17.7247023, 43.7858663], [17.7238655, 43.7857346], [17.7231789, 43.7859128], [17.7225607, 43.786049], [17.7216124, 43.7860832], [17.7206898, 43.7861761], [17.7201962, 43.7865014], [17.7198851, 43.7870126], [17.7193032, 43.7873943], [17.7173102, 43.7872682], [17.7152073, 43.7872527], [17.7142968, 43.7874469], [17.7132654, 43.7873611], [17.7128899, 43.7878491], [17.7122284, 43.7882357], [17.7116346, 43.7882983], [17.7110445, 43.7882363], [17.7107978, 43.787942], [17.7107656, 43.7873921], [17.7100146, 43.7868654], [17.7097571, 43.7860754], [17.7089846, 43.7854635], [17.708652, 43.784658], [17.7075255, 43.7835658]]]}}]}