{"type": "FeatureCollection", "features": [{"type": "Feature", "properties": {"name": "Opština Kostajnica, Република Српска / Republika Srpska, 79224, Bosna i Hercegovina / Босна и Херцеговина", "source": "OpenStreetMap relation 2528163", "licence": "ODbL 1.0"}, "geometry": {"type": "Polygon", "coordinates": [[[16.4735759, 45.1801526], [16.4738115, 45.1787595], [16.4744196, 45.1770503], [16.4749897, 45.1753892], [16.4754381, 45.1731601], [16.475429, 45.1729345], [16.4753188, 45.1724871], [16.4752558, 45.1723023], [16.475244, 45.1722277], [16.4752369, 45.1721473], [16.4752702, 45.1718933], [16.4753145, 45.1715286], [16.4752822, 45.171268], [16.4752394, 45.170986], [16.4751829, 45.1707475], [16.4751109, 45.1704953], [16.4757727, 45.1705336], [16.4760489, 45.1704556], [16.4764091, 45.1705242], [16.4764888, 45.1705207], [16.4768976, 45.1706144], [16.4770666, 45.1706522], [16.4772276, 45.170689], [16.4772353, 45.170658], [16.4772701, 45.1706879], [16.4773595, 45.1707354], [16.4776345, 45.1707569], [16.4777849, 45.1708566], [16.4779136, 45.1708371], [16.4780011, 45.1708351], [16.4780178, 45.170786], [16.4780832, 45.1707924], [16.4780663, 45.1708457], [16.4781865, 45.1708615], [16.4783797, 45.1708321], [16.478409, 45.1707454], [16.4784681, 45.1707183], [16.478545, 45.1707136], [16.478637, 45.1707409], [16.4787267, 45.1708588], [16.4788066, 45.170898], [16.4789108, 45.170898], [16.4789398, 45.1708724], [16.4791433, 45.1708588], [16.4792499, 45.1708383], [16.4793517, 45.1708451], [16.4794582, 45.1708656], [16.479686, 45.1711115], [16.4797925, 45.1711218], [16.4798701, 45.1710705], [16.479967, 45.1710637], [16.4802528, 45.1711422], [16.4803594, 45.1711422], [16.480873, 45.1710637], [16.481091, 45.1710774], [16.481183, 45.1711115], [16.4813768, 45.1712755], [16.4815561, 45.1713813], [16.4817208, 45.1715589], [16.4818032, 45.1716068], [16.4819001, 45.1716273], [16.4820745, 45.171699], [16.482152, 45.1717502], [16.4822731, 45.1718698], [16.4824524, 45.1719278], [16.4827625, 45.1719927], [16.4828933, 45.1721054], [16.4829902, 45.1721328], [16.4830919, 45.1721054], [16.4833099, 45.1721123], [16.4839204, 45.1722216], [16.4840657, 45.172324], [16.484371, 45.172324], [16.4849168, 45.1724524], [16.4851397, 45.1724865], [16.4853432, 45.1724797], [16.4855854, 45.1724933], [16.4857695, 45.1725412], [16.4859827, 45.1725685], [16.4863994, 45.172548], [16.4870389, 45.172548], [16.4874652, 45.1725753], [16.48763, 45.1726505], [16.4877559, 45.1727597], [16.4880854, 45.1729237], [16.4882792, 45.1729783], [16.4886668, 45.172992], [16.4888702, 45.173033], [16.489035, 45.1731013], [16.4893547, 45.1732857], [16.489597, 45.1735112], [16.4897423, 45.1736136], [16.489907, 45.1737024], [16.4901008, 45.1737366], [16.4903043, 45.1737297], [16.4905078, 45.1736819], [16.4907113, 45.1736888], [16.490876, 45.1737776], [16.4910408, 45.173921], [16.4913565, 45.1740603], [16.4917855, 45.1743657], [16.4920729, 45.1744303], [16.4927311, 45.1744039], [16.4931934, 45.1744186], [16.4935683, 45.1745302], [16.4938932, 45.1746182], [16.4940474, 45.1746212], [16.494189, 45.1745683], [16.4942681, 45.1745037], [16.4943306, 45.1744391], [16.4944139, 45.1745713], [16.4948472, 45.1745908], [16.4950195, 45.1744216], [16.4951609, 45.1743344], [16.4952537, 45.174325], [16.4955232, 45.1743603], [16.4958899, 45.1744704], [16.4961049, 45.174325], [16.4970371, 45.1739274], [16.4973611, 45.1738568], [16.4974878, 45.1737883], [16.4977197, 45.1735747], [16.4977671, 45.1735475], [16.4979004, 45.1733522], [16.4980566, 45.1732546], [16.4982566, 45.1730799], [16.49862, 45.1727319], [16.4986512, 45.172671], [16.4987887, 45.1725153], [16.4990376, 45.1723663], [16.4992917, 45.1722466], [16.4994364, 45.1721196], [16.4995312, 45.171873], [16.4996051, 45.1716637], [16.4997228, 45.1715228], [16.4999425, 45.1714259], [16.500256, 45.1713818], [16.5007777, 45.1713649], [16.5011235, 45.1712776], [16.501339, 45.1710933], [16.5014421, 45.1709824], [16.50164, 45.1706058], [16.5017545, 45.170318], [16.5018285, 45.1700978], [16.5019409, 45.1698621], [16.5020284, 45.1697549], [16.5021117, 45.1696837], [16.5022523, 45.1696441], [16.5024366, 45.1696301], [16.5030562, 45.1697322], [16.5034863, 45.1696852], [16.5043163, 45.1694517], [16.5046506, 45.1692498], [16.5051327, 45.1689884], [16.5056242, 45.1691426], [16.5056951, 45.1689635], [16.5057648, 45.1688042], [16.5058586, 45.1685978], [16.5058481, 45.1685127], [16.5058513, 45.1684202], [16.5061064, 45.1681551], [16.5062085, 45.1680222], [16.5063636, 45.1677227], [16.5067927, 45.1673739], [16.5071748, 45.1671632], [16.5077924, 45.166976], [16.5078955, 45.1670032], [16.5083026, 45.1670773], [16.5084713, 45.1671463], [16.5087036, 45.1673159], [16.5087286, 45.1673681], [16.5089085, 45.1675647], [16.5089065, 45.1677534], [16.5091574, 45.1677783], [16.5093126, 45.1679604], [16.509449, 45.1679876], [16.5095042, 45.1681021], [16.5096489, 45.168119], [16.5097198, 45.1681814], [16.5098301, 45.1682203], [16.5100665, 45.1683752], [16.5101634, 45.1683818], [16.5105102, 45.1685903], [16.5110933, 45.1690529], [16.511387, 45.1690389], [16.5117088, 45.1690463], [16.5123086, 45.1684596], [16.5124336, 45.1680507], [16.512672, 45.1679318], [16.5127887, 45.1677746], [16.5130782, 45.1674406], [16.5133437, 45.167086], [16.5139425, 45.1665683], [16.514359, 45.16613], [16.514533, 45.1659545], [16.5146465, 45.1655808], [16.5148381, 45.1652812], [16.5148943, 45.1650426], [16.5149693, 45.1648143], [16.5150641, 45.1645742], [16.5154639, 45.1642577], [16.5155389, 45.1640822], [16.5157753, 45.1639236], [16.5158722, 45.1638935], [16.5161148, 45.1638517], [16.516498, 45.1638972], [16.5169677, 45.1639655], [16.5172843, 45.1639192], [16.5174977, 45.1638018], [16.5174217, 45.16366], [16.5172874, 45.163536], [16.5173155, 45.1631329], [16.5173394, 45.162906], [16.5174405, 45.1626629], [16.5174988, 45.1625858], [16.5177477, 45.1622855], [16.5179164, 45.1621071], [16.5180986, 45.1619969], [16.518436, 45.1618574], [16.5187578, 45.1617473], [16.5192847, 45.1616783], [16.5197419, 45.1615828], [16.5198825, 45.1615035], [16.5200553, 45.1612091], [16.5202445, 45.160883], [16.5206136, 45.1604589], [16.5206834, 45.1602724], [16.5208156, 45.1600896], [16.5210031, 45.1598788], [16.5210603, 45.1597966], [16.5210843, 45.1597327], [16.5210874, 45.1596005], [16.5211332, 45.1594155], [16.5212353, 45.1592547], [16.5214665, 45.1590527], [16.5214894, 45.1588435], [16.5215123, 45.1587179], [16.5215779, 45.1586055], [16.5220017, 45.1583955], [16.5221475, 45.1580019], [16.5221048, 45.1578294], [16.5220194, 45.1575569], [16.5220246, 45.1573484], [16.5220173, 45.157236], [16.521959, 45.1570436], [16.5219444, 45.1568006], [16.5220715, 45.1564576], [16.5221184, 45.1561213], [16.5221777, 45.1559274], [16.5224276, 45.1553069], [16.5224141, 45.1551005], [16.5224828, 45.1544881], [16.5225922, 45.1542641], [16.5225838, 45.1539916], [16.5225276, 45.1535929], [16.5226193, 45.1534813], [16.5228733, 45.1533638], [16.523191, 45.1532888], [16.5233732, 45.1531985], [16.5234607, 45.1531427], [16.5236544, 45.1525802], [16.5237554, 45.1523767], [16.5238293, 45.1520749], [16.5239376, 45.151859], [16.5242313, 45.1514668], [16.5243, 45.1513309], [16.5243563, 45.1511304], [16.5244593, 45.1509784], [16.5244666, 45.1508117], [16.5245031, 45.1506435], [16.5245177, 45.1504673], [16.5244656, 45.1502866], [16.5244521, 45.1501159], [16.5245114, 45.1499209], [16.5245472, 45.1499472], [16.5246018, 45.149921], [16.5247845, 45.1502146], [16.5249178, 45.1503285], [16.5251813, 45.1505488], [16.5254604, 45.1507699], [16.5256291, 45.1508734], [16.5257926, 45.1509623], [16.5260342, 45.1510401], [16.5261602, 45.1510445], [16.5262852, 45.1510196], [16.5263549, 45.1509814], [16.5264486, 45.1509145], [16.5266309, 45.1507574], [16.5268767, 45.1506083], [16.527086, 45.1505525], [16.5273578, 45.1504474], [16.5274994, 45.1504394], [16.5277097, 45.15041], [16.5278816, 45.1503556], [16.5280909, 45.1503182], [16.528371, 45.1502947], [16.5285616, 45.1503028], [16.5288198, 45.1503402], [16.5290052, 45.1503512], [16.5293103, 45.1504533], [16.5295967, 45.1504944], [16.5298602, 45.1505224], [16.5301486, 45.150443], [16.53046, 45.150313], [16.5308995, 45.1503152], [16.5311629, 45.1503916], [16.5315347, 45.150526], [16.5318356, 45.1504805], [16.5319648, 45.1504754], [16.5321293, 45.1505378], [16.5324667, 45.1506193], [16.5326323, 45.1506744], [16.5328406, 45.1508191], [16.5331103, 45.1509344], [16.5333487, 45.1509961], [16.5335227, 45.150988], [16.5337205, 45.1509175], [16.5339371, 45.1508859], [16.5342558, 45.1509065], [16.5344922, 45.1509439], [16.5347525, 45.1509454], [16.534941, 45.1509248], [16.5352034, 45.1508521], [16.5354471, 45.15075], [16.5357064, 45.1506648], [16.5360344, 45.1506252], [16.5363187, 45.150482], [16.5367748, 45.1502932], [16.5372518, 45.1502727], [16.5373601, 45.1503718], [16.5374861, 45.1503843], [16.5376267, 45.1504254], [16.5377943, 45.1504379], [16.5380172, 45.1503835], [16.538264, 45.1504283], [16.5385368, 45.1504408], [16.5387951, 45.1504438], [16.5393116, 45.1505268], [16.5394512, 45.1505253], [16.5394855, 45.1504636], [16.5396282, 45.1501713], [16.5397209, 45.1501353], [16.5397875, 45.1501368], [16.5400499, 45.1503108], [16.5401343, 45.1503079], [16.5401947, 45.1502741], [16.5402468, 45.1502007], [16.5402988, 45.1500802], [16.5403384, 45.150009], [16.5404207, 45.1499715], [16.5405488, 45.1499715], [16.5406154, 45.150034], [16.5406529, 45.1501192], [16.5407039, 45.1499591], [16.5406893, 45.1498944], [16.5406092, 45.1497909], [16.5406591, 45.149738], [16.5406581, 45.1495478], [16.5408664, 45.1491666], [16.5408393, 45.148831], [16.5407789, 45.1486907], [16.5404394, 45.1483095], [16.5404373, 45.14825], [16.5402707, 45.1481068], [16.5402613, 45.1479878], [16.5402921, 45.147811], [16.5404019, 45.1477285], [16.5404282, 45.1476131], [16.540485, 45.1475231], [16.5404879, 45.1474345], [16.5405014, 45.1468379], [16.5403233, 45.1465639], [16.5402744, 45.1463671], [16.5402723, 45.1460366], [16.540291, 45.1458111], [16.5403171, 45.1455783], [16.5403077, 45.145438], [16.5402744, 45.1452411], [16.5402119, 45.145092], [16.5402025, 45.1449679], [16.5402869, 45.1448166], [16.5403441, 45.144691], [16.5403602, 45.1445358], [16.5403425, 45.1443717], [16.5402586, 45.1442543], [16.5400568, 45.1441899], [16.5397638, 45.1440684], [16.5395326, 45.1439229], [16.5393853, 45.1437245], [16.5392336, 45.1434794], [16.5391217, 45.1430691], [16.5389317, 45.1426847], [16.5388315, 45.1424313], [16.5389494, 45.1424261], [16.5386607, 45.1418932], [16.5384766, 45.1414683], [16.5384324, 45.1412855], [16.5383441, 45.1412117], [16.5381939, 45.1412169], [16.5380805, 45.1412855], [16.5379759, 45.141325], [16.537864, 45.1413156], [16.5376725, 45.1410757], [16.5376887, 45.1409926], [16.5377771, 45.1408108], [16.5378286, 45.1405594], [16.5378757, 45.1403298], [16.5379126, 45.1399205], [16.5378743, 45.1397096], [16.5378463, 45.1394832], [16.5378522, 45.1393294], [16.5376961, 45.1390323], [16.5375886, 45.1388588], [16.5373456, 45.1384786], [16.5372233, 45.1379415], [16.537104, 45.137847], [16.5371585, 45.1376558], [16.5372381, 45.137499], [16.5372793, 45.1374418], [16.5373367, 45.1374273], [16.5374442, 45.1374158], [16.5375297, 45.1374221], [16.5376357, 45.1374429], [16.5380142, 45.1375727], [16.5382292, 45.1376527], [16.5384089, 45.1376995], [16.5385414, 45.1377826], [16.5388389, 45.1378033], [16.5393072, 45.1379041], [16.5395355, 45.1378875], [16.5399508, 45.1376891], [16.5401202, 45.1376797], [16.5403543, 45.1377202], [16.5406253, 45.1377919], [16.540777, 45.1377961], [16.5408389, 45.137741], [16.5408786, 45.1376288], [16.5410745, 45.1372891], [16.5410907, 45.1371603], [16.541207, 45.136993], [16.5413543, 45.1368185], [16.5413514, 45.1367292], [16.5412188, 45.1365931], [16.5409802, 45.136405], [16.5407019, 45.1362492], [16.5404397, 45.1361453], [16.5402056, 45.1361027], [16.5399405, 45.1361432], [16.5398109, 45.1361079], [16.5397373, 45.136058], [16.5397785, 45.1358721], [16.539833, 45.1354586], [16.539805, 45.1351552], [16.5397284, 45.1348664], [16.5396474, 45.134643], [16.5394648, 45.1344342], [16.539294, 45.1342981], [16.5389744, 45.1341599], [16.5387137, 45.1340893], [16.5383087, 45.1338639], [16.5382233, 45.133762], [16.5382263, 45.1335958], [16.5383455, 45.1334098], [16.5385414, 45.1333132], [16.5387373, 45.1328966], [16.5389818, 45.1326524], [16.5391364, 45.1324945], [16.5393647, 45.1322192], [16.5395222, 45.1319719], [16.5396518, 45.1318223], [16.5397859, 45.1316872], [16.53978, 45.1315054], [16.5398212, 45.1313652], [16.539858, 45.1311293], [16.5397667, 45.1309797], [16.53978, 45.1308613], [16.5396165, 45.1307033], [16.5394486, 45.13056], [16.5390083, 45.1302659], [16.5388654, 45.1302254], [16.538537, 45.1301672], [16.5383529, 45.1302264], [16.5377874, 45.1300145], [16.5373721, 45.1298462], [16.5372837, 45.129761], [16.5371998, 45.1295833], [16.5372528, 45.129469], [16.5373029, 45.1293329], [16.5373971, 45.1291656], [16.5375223, 45.1289703], [16.5376269, 45.1288851], [16.5377314, 45.1287552], [16.5378449, 45.1286182], [16.5380909, 45.1279951], [16.5380088, 45.1277358], [16.537998, 45.1276504], [16.5380477, 45.1275757], [16.5381594, 45.1272617], [16.5381157, 45.127125], [16.5380324, 45.1269222], [16.5378949, 45.1266827], [16.5378283, 45.1263947], [16.5377367, 45.1262448], [16.5375804, 45.1259524], [16.5373826, 45.1257305], [16.5373347, 45.1255953], [16.5373034, 45.1254631], [16.5373347, 45.1253235], [16.5374076, 45.1252324], [16.5374742, 45.1252338], [16.53757, 45.1252118], [16.537645, 45.1252706], [16.53772, 45.1253778], [16.5378033, 45.1254175], [16.5379699, 45.125419], [16.5384864, 45.125297], [16.5388141, 45.1252498], [16.5390171, 45.125184], [16.5391319, 45.1250626], [16.5392397, 45.12506], [16.5392879, 45.1250857], [16.539364, 45.1250845], [16.539479, 45.1249428], [16.539663, 45.1247355], [16.5397135, 45.1246224], [16.5397739, 45.1245897], [16.5397838, 45.1245221], [16.5397846, 45.1244177], [16.5398963, 45.1242179], [16.5399947, 45.1241275], [16.5399239, 45.1240056], [16.5399893, 45.123653], [16.5398564, 45.1234404], [16.5394077, 45.1232765], [16.5392849, 45.1232853], [16.539001, 45.1232839], [16.5387303, 45.1231649], [16.538443, 45.1230233], [16.5383162, 45.1228554], [16.5382022, 45.1226614], [16.5381521, 45.1223844], [16.5382046, 45.122152], [16.5383616, 45.1220563], [16.5417641, 45.1228513], [16.5437701, 45.1240585], [16.5464359, 45.1259139], [16.5479387, 45.1263764], [16.5498206, 45.127628], [16.5528649, 45.1303064], [16.5529869, 45.130241], [16.5531437, 45.1301644], [16.5532733, 45.1301028], [16.5533126, 45.1300191], [16.5533209, 45.1298314], [16.553393, 45.129713], [16.5536706, 45.129564], [16.5540663, 45.1294149], [16.554398, 45.1294463], [16.554555, 45.1294015], [16.5546621, 45.1293218], [16.5547462, 45.1292906], [16.5551249, 45.1292024], [16.5553779, 45.1292083], [16.5554664, 45.1292171], [16.5556549, 45.1292465], [16.5558579, 45.1292494], [16.555934, 45.1292259], [16.5562121, 45.1291914], [16.5564745, 45.129184], [16.5566817, 45.1291524], [16.556916, 45.1291282], [16.5571337, 45.1290959], [16.5573367, 45.129043], [16.5574934, 45.1289816], [16.5576303, 45.1289199], [16.5577325, 45.1288137], [16.5579148, 45.1286018], [16.5579314, 45.1284941], [16.5578054, 45.1283156], [16.5577637, 45.1281635], [16.5578251, 45.1280357], [16.5578538, 45.1279565], [16.5578137, 45.1279123], [16.5576741, 45.1279034], [16.5575888, 45.127863], [16.5574357, 45.1275001], [16.5572983, 45.1272503], [16.5573055, 45.1270644], [16.5572526, 45.1268959], [16.557037, 45.1265313], [16.5569816, 45.1263877], [16.5569842, 45.1262843], [16.5570326, 45.1259531], [16.5570929, 45.1258647], [16.5574421, 45.125686], [16.5575893, 45.1255582], [16.5577336, 45.1252766], [16.5577209, 45.1251569], [16.5575743, 45.1249421], [16.5574383, 45.1246466], [16.5575186, 45.1242822], [16.5574391, 45.1238292], [16.5574538, 45.1236795], [16.557399, 45.1234444], [16.5572755, 45.1231326], [16.5573808, 45.122798], [16.5579163, 45.1222829], [16.5582175, 45.1221255], [16.5583936, 45.1219095], [16.5586283, 45.1215838], [16.5587593, 45.1214573], [16.5589505, 45.1212075], [16.5591525, 45.1209989], [16.5594178, 45.1208046], [16.5596802, 45.1206086], [16.5600586, 45.1203905], [16.560293, 45.1202552], [16.5605452, 45.1200822], [16.5605997, 45.1200327], [16.5606511, 45.1199416], [16.5607166, 45.1199562], [16.561029, 45.1200032], [16.5614715, 45.1201117], [16.5616666, 45.1201817], [16.561901, 45.1202122], [16.5620548, 45.1201867], [16.5621629, 45.1201366], [16.5623629, 45.1199477], [16.5624804, 45.1198614], [16.5627709, 45.1197888], [16.5633702, 45.1196618], [16.5637353, 45.1195742], [16.5641495, 45.1195429], [16.5644527, 45.1194789], [16.5645346, 45.1194815], [16.5652895, 45.1195558], [16.5654515, 45.1196218], [16.5657278, 45.1196748], [16.5661882, 45.1197358], [16.5663526, 45.1197178], [16.5665041, 45.1197178], [16.5666861, 45.1197797], [16.5667195, 45.1198398], [16.5668805, 45.1204382], [16.566994, 45.1208519], [16.5670833, 45.1211938], [16.567174, 45.1215267], [16.5672788, 45.1219265], [16.5674332, 45.1224924], [16.5676146, 45.1231701], [16.567772, 45.1237483], [16.5678853, 45.1241654], [16.5681377, 45.1245032], [16.5686396, 45.1251754], [16.56887, 45.1254843], [16.5691445, 45.1258491], [16.5700642, 45.1260632], [16.5710089, 45.1262831], [16.5720097, 45.1265142], [16.5729805, 45.126739], [16.5740775, 45.1269941], [16.5746976, 45.1266252], [16.5751113, 45.1263764], [16.5754329, 45.1260434], [16.5763185, 45.1255706], [16.5759759, 45.1249627], [16.5759498, 45.1247188], [16.5766191, 45.1243916], [16.5770999, 45.1239667], [16.5770969, 45.1239328], [16.5770779, 45.1239003], [16.577167, 45.1238692], [16.5774285, 45.1238508], [16.5775638, 45.1238452], [16.5777661, 45.123802], [16.5779945, 45.1238473], [16.5781578, 45.1238437], [16.5783422, 45.1238063], [16.5785125, 45.1237589], [16.5786898, 45.1236861], [16.578823, 45.123578], [16.5790044, 45.1234854], [16.5792709, 45.1233595], [16.5795093, 45.1233115], [16.5797978, 45.1232698], [16.5803859, 45.1232175], [16.5807415, 45.1231743], [16.5809088, 45.1231277], [16.5809719, 45.1231772], [16.5811392, 45.1233652], [16.5813907, 45.1236416], [16.581539, 45.1238013], [16.5817343, 45.1241081], [16.5818836, 45.1242813], [16.5820749, 45.1244304], [16.5821661, 45.1244587], [16.5822853, 45.1244573], [16.5824185, 45.1244276], [16.5825889, 45.1244481], [16.5827712, 45.1244948], [16.582685, 45.1245782], [16.5825478, 45.1247542], [16.5824867, 45.1248807], [16.5823614, 45.1249867], [16.582094, 45.1250419], [16.5816652, 45.1250786], [16.5814638, 45.1251323], [16.5813206, 45.1251132], [16.5811983, 45.1250574], [16.5809889, 45.1249793], [16.5809719, 45.1249698], [16.5809459, 45.1249535], [16.5809329, 45.124945], [16.5809198, 45.1249365], [16.5809058, 45.1249288], [16.5808928, 45.1249189], [16.5808637, 45.1249026], [16.5808487, 45.1248962], [16.5808317, 45.1248899], [16.5808126, 45.1248878], [16.5807946, 45.1248871], [16.5807776, 45.1248892], [16.5807616, 45.1248948], [16.5807515, 45.1249047], [16.5807505, 45.1249167], [16.5807535, 45.1249288], [16.5807595, 45.1249401], [16.5807706, 45.12495], [16.5807826, 45.1249592], [16.5807926, 45.124969], [16.5808016, 45.1249804], [16.5808026, 45.1249924], [16.5808026, 45.1250051], [16.5807956, 45.1250178], [16.5807866, 45.1250291], [16.5807746, 45.1250404], [16.5807646, 45.1250503], [16.5807525, 45.1250602], [16.5807205, 45.1250722], [16.5807044, 45.1250765], [16.5806874, 45.1250836], [16.5806724, 45.1250906], [16.5806574, 45.1250991], [16.5806473, 45.125109], [16.5806383, 45.1251196], [16.5806293, 45.1251316], [16.5806223, 45.1251429], [16.5806133, 45.1251684], [16.5806133, 45.1251804], [16.5806033, 45.125314], [16.5806604, 45.1255048], [16.5806924, 45.1256285], [16.5806904, 45.1257946], [16.5806584, 45.1259515], [16.5806503, 45.125977], [16.5806453, 45.1259897], [16.5806393, 45.1260024], [16.5806313, 45.1260145], [16.5806213, 45.1260244], [16.5806083, 45.1260335], [16.5805922, 45.1260371], [16.5805742, 45.1260399], [16.5805572, 45.1260399], [16.5805391, 45.1260378], [16.5805231, 45.1260328], [16.5805091, 45.1260272], [16.5804951, 45.1260194], [16.580462, 45.126006], [16.580445, 45.1259996], [16.5804289, 45.1259947], [16.5804129, 45.1259911], [16.5803959, 45.1259876], [16.5803738, 45.1259848], [16.5803378, 45.1259805], [16.5803187, 45.1259784], [16.5802967, 45.1259777], [16.5802566, 45.1259777], [16.5802376, 45.1259805], [16.5802206, 45.1259841], [16.5802015, 45.1259897], [16.5801665, 45.1260017], [16.5801524, 45.1260095], [16.5801204, 45.1260307], [16.5801064, 45.1260413], [16.5798579, 45.1262823], [16.5796025, 45.1263431], [16.5793841, 45.1264202], [16.5789883, 45.1266485], [16.5788501, 45.126792], [16.5790054, 45.1268619], [16.5790174, 45.1268711], [16.5790284, 45.126881], [16.5790374, 45.1268916], [16.5790474, 45.1269015], [16.5790615, 45.1269079], [16.5790775, 45.1269107], [16.5790945, 45.1269142], [16.5791096, 45.1269178], [16.5791236, 45.1269256], [16.5791336, 45.1269347], [16.5791396, 45.1269468], [16.5791406, 45.1269595], [16.5791416, 45.1269722], [16.5791396, 45.1269856], [16.5791406, 45.1269984], [16.5791486, 45.1270104], [16.5791727, 45.1270287], [16.5791847, 45.1270365], [16.5792017, 45.1270408], [16.5792198, 45.1270408], [16.5792368, 45.1270386], [16.5792528, 45.1270379], [16.5792699, 45.1270344], [16.5792849, 45.1270309], [16.5793049, 45.127028], [16.5793239, 45.1270252], [16.579341, 45.1270231], [16.5794472, 45.1270323], [16.5794872, 45.1270379], [16.5795043, 45.1270415], [16.5795213, 45.127045], [16.5795373, 45.1270485], [16.5795544, 45.1270528], [16.5795694, 45.1270563], [16.5795854, 45.1270598], [16.5796035, 45.1270676], [16.5796175, 45.1270747], [16.5796325, 45.1270839], [16.5796455, 45.1270917], [16.5796796, 45.1271192], [16.5796896, 45.1271291], [16.5797036, 45.1271369], [16.5797177, 45.1271433], [16.5797357, 45.1271461], [16.5797698, 45.1271496], [16.5797868, 45.1271496], [16.5799549, 45.1271762], [16.5799776, 45.1271782], [16.5800031, 45.1271802], [16.5800286, 45.1271842], [16.5800527, 45.1271882], [16.5800768, 45.1271912], [16.5801235, 45.1271872], [16.580149, 45.1271862], [16.5801745, 45.1271862], [16.5801986, 45.1271832], [16.5802227, 45.1271832], [16.5802765, 45.1271812], [16.5803289, 45.1271812], [16.5803544, 45.1271832], [16.5804012, 45.1271892], [16.5804253, 45.1271942], [16.5804479, 45.1272012], [16.5804692, 45.1272072], [16.5804919, 45.1272152], [16.5805188, 45.1272232], [16.5805386, 45.1272312], [16.5805585, 45.1272402], [16.5805811, 45.1272511], [16.5806024, 45.1272661], [16.5806194, 45.1272771], [16.5806392, 45.1272921], [16.5806534, 45.1273091], [16.5806647, 45.1273231], [16.580676, 45.1273401], [16.5806831, 45.1273561], [16.580693, 45.1273721], [16.5807015, 45.1273881], [16.5807143, 45.1274031], [16.5807285, 45.1274181], [16.5807455, 45.1274291], [16.5807667, 45.1274401], [16.5808716, 45.1274821], [16.5808914, 45.127493], [16.5809311, 45.127517], [16.5809509, 45.12753], [16.5809722, 45.127542], [16.5809892, 45.127555], [16.5810062, 45.12757], [16.5810189, 45.127585], [16.5810317, 45.127601], [16.5810416, 45.127616], [16.5810515, 45.127632], [16.58106, 45.12765], [16.5810671, 45.127668], [16.5810727, 45.127685], [16.5810742, 45.127704], [16.5810812, 45.127722], [16.5810912, 45.1277379], [16.5811039, 45.1277529], [16.5811195, 45.1277659], [16.5811379, 45.1277799], [16.5811563, 45.1277909], [16.5811833, 45.1278089], [16.5812017, 45.1278249], [16.5812158, 45.1278379], [16.58123, 45.1278529], [16.581247, 45.1278689], [16.5812583, 45.1278829], [16.5812683, 45.1278979], [16.5812796, 45.1279119], [16.5812966, 45.1279439], [16.5813023, 45.1279608], [16.5813051, 45.1279788], [16.5813051, 45.1279958], [16.5813008, 45.1280138], [16.5812923, 45.1280308], [16.5812697, 45.1280678], [16.581264, 45.1280858], [16.581264, 45.1281218], [16.5812725, 45.1281598], [16.581281, 45.1281788], [16.5812923, 45.1281957], [16.5813037, 45.1282107], [16.5813193, 45.1282277], [16.5813377, 45.1282437], [16.5813731, 45.1282707], [16.5813915, 45.1282857], [16.5814071, 45.1283017], [16.5814213, 45.1283167], [16.5814482, 45.1283487], [16.5814652, 45.1283627], [16.5819143, 45.1286336], [16.5818661, 45.1287165], [16.5822543, 45.1291043], [16.5826376, 45.1287673], [16.5827758, 45.1286521], [16.5832236, 45.1283284], [16.5833018, 45.1283291], [16.5838748, 45.1281262], [16.5837185, 45.1279022], [16.5835632, 45.1277149], [16.5839269, 45.1274251], [16.5842345, 45.1272873], [16.5844268, 45.1271636], [16.5845921, 45.1270922], [16.5847464, 45.1269989], [16.5849788, 45.1269176], [16.5854236, 45.126808], [16.58617, 45.1267607], [16.5865667, 45.1268052], [16.5867022, 45.1268298], [16.5871801, 45.1268524], [16.5873905, 45.1269054], [16.5877421, 45.126822], [16.5878774, 45.1267563], [16.5879916, 45.1267548], [16.5883242, 45.1266835], [16.5887569, 45.1266488], [16.5892428, 45.1266354], [16.5896165, 45.1266432], [16.5896676, 45.1266877], [16.5897227, 45.1267018], [16.589892, 45.1268383], [16.5900543, 45.1269973], [16.5903478, 45.1272079], [16.5908207, 45.1275698], [16.5910852, 45.1277529], [16.5914158, 45.1279359], [16.5915951, 45.1280328], [16.5916692, 45.1280575], [16.5917604, 45.1280681], [16.5919006, 45.1280837], [16.5920369, 45.1281077], [16.5921391, 45.1281402], [16.5921942, 45.1281734], [16.5922262, 45.128201], [16.5924226, 45.12863], [16.5925328, 45.1289601], [16.5925979, 45.1292697], [16.5926069, 45.1293962], [16.592633, 45.1295029], [16.592677, 45.1295658], [16.5928263, 45.1296867], [16.5928644, 45.1300188], [16.5931228, 45.1303539], [16.5933843, 45.1306585], [16.593772, 45.1312345], [16.5940676, 45.1316918], [16.594338, 45.1321681], [16.5946596, 45.1325575], [16.5949632, 45.1328303], [16.5952357, 45.1329731], [16.5954771, 45.1330339], [16.5957766, 45.1330947], [16.5958989, 45.13313], [16.5960371, 45.133207], [16.5960802, 45.1333109], [16.5963296, 45.1334961], [16.5964879, 45.1335724], [16.5967364, 45.1336537], [16.5967234, 45.1337378], [16.5970199, 45.1337449], [16.597606, 45.1337208], [16.5979005, 45.1337223], [16.5981069, 45.1337336], [16.5982852, 45.1337717], [16.5984134, 45.1338198], [16.5985156, 45.1338848], [16.5986298, 45.1339767], [16.5987901, 45.1341166], [16.5989464, 45.1342523], [16.5991568, 45.1344007], [16.5994653, 45.1345816], [16.5996216, 45.1347046], [16.5997017, 45.1347838], [16.5997599, 45.1349293], [16.599818, 45.1348968], [16.5998801, 45.134935], [16.5997879, 45.1350071], [16.5997558, 45.135099], [16.5997478, 45.135205], [16.5997859, 45.1353647], [16.599848, 45.1354891], [16.5999762, 45.1356431], [16.6002107, 45.1359385], [16.6003409, 45.1361406], [16.6004932, 45.1364078], [16.6007096, 45.136812], [16.6008458, 45.1370396], [16.6009761, 45.1372233], [16.6011323, 45.1373788], [16.6013587, 45.1375738], [16.6015972, 45.137783], [16.6017454, 45.1379342], [16.6018917, 45.1381335], [16.602062, 45.1384218], [16.6023065, 45.1387893], [16.6024327, 45.1390027], [16.6024768, 45.1391356], [16.6024928, 45.1393094], [16.6024968, 45.1395864], [16.6024908, 45.1399355], [16.6024567, 45.1401376], [16.6024046, 45.1402479], [16.6023185, 45.1403652], [16.6021662, 45.140498], [16.6017735, 45.1407482], [16.6014409, 45.1409771], [16.6010161, 45.1412979], [16.600391, 45.1418081], [16.6000985, 45.1420399], [16.5997959, 45.1422024], [16.5995815, 45.1423367], [16.5994092, 45.1425133], [16.5991868, 45.1428101], [16.5990125, 45.1429825], [16.5988562, 45.1430956], [16.5986098, 45.1432412], [16.5983553, 45.1433966], [16.5980708, 45.1436015], [16.5979225, 45.1437754], [16.597648, 45.1440651], [16.5974537, 45.1443025], [16.5973515, 45.144506], [16.5972593, 45.1447123], [16.5972132, 45.1449045], [16.5972012, 45.1450868], [16.5972253, 45.1453087], [16.5972914, 45.145563], [16.5973635, 45.145799], [16.5974978, 45.1460803], [16.5977382, 45.1465296], [16.5979786, 45.1470652], [16.5980848, 45.1472546], [16.598197, 45.147403], [16.5983593, 45.1475358], [16.5986058, 45.1477506], [16.598716, 45.1478693], [16.5988141, 45.1480078], [16.5988642, 45.1481491], [16.5988843, 45.1483639], [16.5989043, 45.1485349], [16.5989384, 45.1486663], [16.5989804, 45.1488344], [16.5989965, 45.1490026], [16.5989504, 45.1491778], [16.5988282, 45.1493983], [16.598742, 45.1495848], [16.5987039, 45.1497572], [16.5987059, 45.1499677], [16.5986999, 45.150126], [16.5986338, 45.1503365], [16.5985216, 45.1505542], [16.5983794, 45.1507944], [16.5982191, 45.1510134], [16.5980207, 45.1512027], [16.5978624, 45.1513186], [16.5977442, 45.1513949], [16.5985777, 45.1514656], [16.5992149, 45.1515617], [16.5994713, 45.151799], [16.5996036, 45.1520449], [16.5997378, 45.152035], [16.5997819, 45.1522003], [16.5999622, 45.1523063], [16.6000243, 45.1525423], [16.6000364, 45.1527514], [16.6000223, 45.1528588], [16.6000183, 45.1530736], [16.6000484, 45.1532643], [16.6001405, 45.1533774], [16.6002127, 45.153424], [16.6006374, 45.1534296], [16.6010281, 45.1534226], [16.6013107, 45.1533929], [16.6014569, 45.1534466], [16.6016553, 45.153465], [16.60203, 45.1534466], [16.6022704, 45.1534494], [16.6024127, 45.1534678], [16.6025749, 45.1535074], [16.602625, 45.1535427], [16.6026691, 45.1535709], [16.6026892, 45.1535893], [16.6027172, 45.1536048], [16.6027513, 45.1536147], [16.6027853, 45.1536218], [16.6028214, 45.1536275], [16.6028935, 45.1536275], [16.6029296, 45.1536204], [16.6029596, 45.1536119], [16.6029897, 45.1536006], [16.6030157, 45.1535851], [16.6030378, 45.1535695], [16.6030578, 45.1535512], [16.6030698, 45.1535314], [16.6030839, 45.1535102], [16.6030919, 45.1534847], [16.6030979, 45.1534579], [16.6031019, 45.1534339], [16.6031019, 45.1534113], [16.6031039, 45.1533872], [16.6031039, 45.1533406], [16.6031059, 45.1533166], [16.6031159, 45.153294], [16.603138, 45.153277], [16.603174, 45.15327], [16.6032422, 45.1532558], [16.6032722, 45.1532502], [16.6032983, 45.1532346], [16.6033123, 45.1532135], [16.6033183, 45.1531894], [16.6033117, 45.1531458], [16.6033117, 45.1531288], [16.6033188, 45.1531118], [16.603333, 45.1530968], [16.60335, 45.1530838], [16.603367, 45.1530728], [16.6033854, 45.1530608], [16.6034038, 45.1530498], [16.6034237, 45.1530409], [16.6034435, 45.1530329], [16.6034605, 45.1530229], [16.603469, 45.1530069], [16.603469, 45.1529899], [16.6034662, 45.1529719], [16.6034591, 45.1529549], [16.6034492, 45.1529389], [16.6034463, 45.152922], [16.6034506, 45.152906], [16.6034605, 45.152892], [16.6034761, 45.152879], [16.6034945, 45.152869], [16.6035158, 45.152864], [16.6035413, 45.152859], [16.6035639, 45.152853], [16.6035838, 45.152843], [16.6035923, 45.152829], [16.603588, 45.152812], [16.6035781, 45.1527981], [16.6035738, 45.1527801], [16.6035781, 45.1527621], [16.6035923, 45.1527491], [16.603639, 45.1527471], [16.6036631, 45.1527491], [16.6036886, 45.1527491], [16.6037042, 45.1527371], [16.6036971, 45.1527221], [16.6036744, 45.1527141], [16.603656, 45.1527031], [16.6036503, 45.1526852], [16.6036574, 45.1526682], [16.6036773, 45.1526582], [16.6036999, 45.1526532], [16.6037254, 45.1526492], [16.6037509, 45.1526462], [16.6037764, 45.1526502], [16.6038034, 45.1526502], [16.603826, 45.1526462], [16.6038459, 45.1526372], [16.6038501, 45.1526212], [16.6038501, 45.1526042], [16.6038558, 45.1525882], [16.6038742, 45.1525782], [16.6039124, 45.1525633], [16.6039337, 45.1525583], [16.6039564, 45.1525543], [16.6039805, 45.1525493], [16.604006, 45.1525453], [16.6040315, 45.1525433], [16.6040527, 45.1525343], [16.6040683, 45.1525223], [16.6040796, 45.1525073], [16.6040853, 45.1524903], [16.6040867, 45.1524733], [16.6040839, 45.1524564], [16.6040796, 45.1524404], [16.6040853, 45.1524244], [16.6041037, 45.1524124], [16.6041235, 45.1524034], [16.6041434, 45.1523934], [16.6041632, 45.1523844], [16.6041831, 45.1523774], [16.6042057, 45.1523724], [16.6042284, 45.1523684], [16.6042525, 45.1523654], [16.6042992, 45.1523654], [16.6043205, 45.1523744], [16.6043361, 45.1523864], [16.6043545, 45.1523954], [16.6043772, 45.1523974], [16.6043998, 45.1523934], [16.6044154, 45.1523814], [16.6044197, 45.1523644], [16.6044182, 45.1523474], [16.6044282, 45.1523325], [16.6044466, 45.1523245], [16.6044664, 45.1523165], [16.6044891, 45.1523135], [16.6045132, 45.1523135], [16.6045358, 45.1523195], [16.60455, 45.1523335], [16.6045684, 45.1523445], [16.6045911, 45.1523484], [16.6046152, 45.1523484], [16.6046364, 45.1523425], [16.6046534, 45.1523305], [16.6046563, 45.1523145], [16.6046449, 45.1522995], [16.6046378, 45.1522825], [16.6046463, 45.1522665], [16.604669, 45.1522565], [16.6046945, 45.1522535], [16.6047186, 45.1522535], [16.604737, 45.1522635], [16.6047611, 45.1522675], [16.6047852, 45.1522655], [16.6048064, 45.1522605], [16.604822, 45.1522495], [16.604839, 45.1522375], [16.60489, 45.1522855], [16.6048943, 45.1524054], [16.6048178, 45.1524404], [16.6048348, 45.1525723], [16.605145, 45.1527881], [16.6053068, 45.1529605], [16.6053589, 45.1529902], [16.6054581, 45.1530149], [16.6058238, 45.1530813], [16.6060071, 45.1533145], [16.6067735, 45.1531265], [16.6069618, 45.1530432], [16.6071401, 45.1529994], [16.6073555, 45.1529683], [16.6075549, 45.1529669], [16.6076992, 45.1529605], [16.6078324, 45.1529351], [16.6080217, 45.1528757], [16.6080378, 45.153111], [16.6082091, 45.1534762], [16.6082692, 45.1536677], [16.6082682, 45.1539588], [16.6081129, 45.1544053], [16.6086088, 45.1546977], [16.6091438, 45.155034], [16.6095345, 45.1553293], [16.609821, 45.1555187], [16.6103059, 45.1559595], [16.610406, 45.155987], [16.6105403, 45.1560499], [16.6105478, 45.1559651], [16.6107915, 45.1556634], [16.6108893, 45.1553867], [16.6112165, 45.1551409], [16.6118215, 45.1549241], [16.6119518, 45.1548981], [16.6122125, 45.1549131], [16.6125416, 45.1547124], [16.6127991, 45.1545683], [16.6129023, 45.1545351], [16.6129934, 45.1546855], [16.6130836, 45.1548332], [16.6131156, 45.154913], [16.6131277, 45.1549936], [16.6131146, 45.1551673], [16.6131282, 45.1552708], [16.6131813, 45.1552807], [16.6132609, 45.1554287], [16.6131737, 45.1554602], [16.6132138, 45.1556495], [16.6132509, 45.1558226], [16.6132504, 45.155889], [16.6132779, 45.1559522], [16.6132694, 45.1560635], [16.6133851, 45.1562292], [16.6134377, 45.1563436], [16.6134993, 45.1564464], [16.6135234, 45.1564842], [16.6135434, 45.1566128], [16.6136867, 45.1567576], [16.6136556, 45.1569243], [16.613876, 45.157262], [16.6141064, 45.1574937], [16.6142872, 45.1576429], [16.6143913, 45.1578364], [16.6144555, 45.1578633], [16.6144655, 45.1579113], [16.6143633, 45.1581571], [16.6145737, 45.158249], [16.6146899, 45.1583889], [16.6149343, 45.1584863], [16.6150646, 45.1584948], [16.6152249, 45.1585542], [16.6154272, 45.1585725], [16.615846, 45.1585739], [16.6161946, 45.1585429], [16.6164771, 45.158468], [16.6168703, 45.1584813], [16.6172457, 45.1584918], [16.617364, 45.1584933], [16.6173648, 45.1584798], [16.6175489, 45.1584903], [16.6179591, 45.1585193], [16.6185595, 45.1585625], [16.6191531, 45.1586355], [16.6188981, 45.1593668], [16.619292, 45.1593368], [16.6193302, 45.1593917], [16.6195626, 45.1593927], [16.6197638, 45.1593478], [16.6202115, 45.1593328], [16.6202908, 45.1587663], [16.6206606, 45.1587933], [16.6209992, 45.1588592], [16.6213789, 45.1589841], [16.6214639, 45.159125], [16.6216821, 45.15912], [16.6219329, 45.1590581], [16.622399, 45.159066], [16.6224797, 45.1590291], [16.6224925, 45.159148], [16.6224982, 45.1592928], [16.6225534, 45.1593917], [16.6225747, 45.1594946], [16.6226469, 45.1596625], [16.6226597, 45.1597564], [16.6226611, 45.1598533], [16.6226469, 45.1599112], [16.6227914, 45.1600251], [16.6228198, 45.1600641], [16.6222587, 45.1603257], [16.6222179, 45.1603594], [16.6221525, 45.1608083], [16.6222403, 45.1611889], [16.6220618, 45.1612938], [16.6226781, 45.1617973], [16.6229203, 45.1620231], [16.6230252, 45.1622039], [16.6230762, 45.1623837], [16.6230677, 45.1627294], [16.6230365, 45.1629262], [16.6231924, 45.1629641], [16.6230224, 45.1631369], [16.6227568, 45.1631787], [16.6226322, 45.1632126], [16.6225401, 45.1633135], [16.6224381, 45.1633685], [16.6224126, 45.1634184], [16.6223885, 45.1634923], [16.6223176, 45.1635732], [16.6222893, 45.1636452], [16.6222723, 45.163786], [16.622414, 45.1638639], [16.6225316, 45.1639219], [16.6231535, 45.1641077], [16.6239186, 45.1644663], [16.6235403, 45.1648289], [16.623213, 45.1652165], [16.6228617, 45.165672], [16.6224933, 45.1660576], [16.6225061, 45.1661545], [16.6223332, 45.1661774], [16.6223318, 45.1664441], [16.6219493, 45.1667988], [16.6224678, 45.1671134], [16.6225472, 45.1672343], [16.6227894, 45.1673881], [16.6229849, 45.1675779], [16.62306, 45.1676518], [16.6230572, 45.1676888], [16.6228546, 45.1678276], [16.6225684, 45.1679495], [16.622346, 45.1680444], [16.6219734, 45.1681263], [16.6218104, 45.1682172], [16.6216617, 45.168394], [16.6215356, 45.1686557], [16.6212168, 45.1688744], [16.6204078, 45.1694428], [16.620524, 45.1695327], [16.6203639, 45.1696086], [16.6202817, 45.1702918], [16.6203228, 45.1708501], [16.6203426, 45.1708871], [16.6201259, 45.170945], [16.6197929, 45.1708501], [16.619545, 45.1707902], [16.6193282, 45.1707802], [16.6191951, 45.1707912], [16.6190151, 45.1708561], [16.6189046, 45.1708951], [16.6188196, 45.1710179], [16.6183875, 45.17094], [16.6181254, 45.1708661], [16.6178066, 45.1706074], [16.6166179, 45.1706853], [16.6163629, 45.1707333], [16.6160427, 45.170938], [16.6156234, 45.1712307], [16.6156092, 45.1712676], [16.6152848, 45.1713865], [16.6150566, 45.1714664], [16.6148682, 45.1715023], [16.6147053, 45.1715263], [16.614514, 45.1715443], [16.6142973, 45.1715463], [16.6141088, 45.1715403], [16.6139912, 45.1715413], [16.6138736, 45.1715673], [16.6136611, 45.1716382], [16.6134642, 45.1717421], [16.6133083, 45.1718669], [16.6132432, 45.1719468], [16.6131908, 45.1719428], [16.612753, 45.1721016], [16.6125957, 45.1721326], [16.6123492, 45.1721276], [16.6120247, 45.1721795], [16.6117881, 45.1723713], [16.611604, 45.1724842], [16.6114807, 45.172594], [16.6112328, 45.1727079], [16.610931, 45.1729876], [16.6108729, 45.1730225], [16.6107709, 45.1730485], [16.610642, 45.1730385], [16.6105896, 45.1730315], [16.6100767, 45.1729256], [16.6095029, 45.1728787], [16.6089546, 45.1728697], [16.6085565, 45.1728527], [16.608402, 45.1728437], [16.607083, 45.1734889], [16.6062925, 45.1737576], [16.6058178, 45.1740183], [16.6056918, 45.1740542], [16.605254, 45.1739124], [16.6043869, 45.1740982], [16.6040653, 45.174211], [16.6036813, 45.1746255], [16.6036218, 45.1744717], [16.6035666, 45.1743219], [16.6034979, 45.1741989], [16.6034448, 45.1741396], [16.6033716, 45.1740838], [16.6033065, 45.1740414], [16.6032554, 45.1740089], [16.6032033, 45.1740414], [16.6031502, 45.1740421], [16.6030981, 45.1740563], [16.603026, 45.174088], [16.6028848, 45.1741587], [16.6024941, 45.1743861], [16.6021114, 45.1746502], [16.6020172, 45.174742], [16.601914, 45.1748239], [16.6018419, 45.1748578], [16.6017116, 45.1748981], [16.6014792, 45.1749581], [16.6010234, 45.1750513], [16.6006637, 45.1751142], [16.6003712, 45.1751551], [16.6001398, 45.1751672], [16.6000119, 45.1751963], [16.5999274, 45.1751664], [16.5997431, 45.1751424], [16.5996188, 45.1751121], [16.5994215, 45.1750513], [16.599175, 45.174944], [16.5988975, 45.1748261], [16.5987673, 45.1747957], [16.5986872, 45.1747943], [16.5986491, 45.1746975], [16.5985259, 45.1747625], [16.5984187, 45.1747724], [16.5982564, 45.174771], [16.5981322, 45.1747667], [16.598018, 45.1747809], [16.5979098, 45.1748133], [16.5978036, 45.1748797], [16.5976132, 45.1750633], [16.5973638, 45.175384], [16.5971093, 45.1757173], [16.5968789, 45.1759786], [16.5967136, 45.1761594], [16.5963289, 45.1764885], [16.5959642, 45.1768275], [16.5958691, 45.1769178], [16.5959432, 45.1769574], [16.5959061, 45.1770097], [16.5959873, 45.1771488], [16.5959983, 45.1773006], [16.5959692, 45.177456], [16.5961055, 45.1777851], [16.5962508, 45.177874], [16.5962017, 45.1779079], [16.5964191, 45.1780478], [16.5965363, 45.1781283], [16.5968729, 45.1784241], [16.5970652, 45.1786141], [16.5971674, 45.1787681], [16.5972245, 45.1789036], [16.5972375, 45.1790357], [16.5971834, 45.1793662], [16.5971183, 45.1796105], [16.5971073, 45.1797369], [16.5971414, 45.1798556], [16.5972205, 45.180138], [16.5972045, 45.1803075], [16.5971414, 45.1804579], [16.5969099, 45.180835], [16.5967467, 45.1810468], [16.5965934, 45.1813046], [16.5964471, 45.1815786], [16.5963323, 45.181964], [16.5962317, 45.1823445], [16.5961169, 45.182735], [16.5960617, 45.182719], [16.5960447, 45.182742], [16.5960957, 45.1827799], [16.5961297, 45.1828189], [16.5961509, 45.1828808], [16.5961892, 45.1829636], [16.5963479, 45.1831813], [16.5964881, 45.183414], [16.5965845, 45.1836856], [16.5968126, 45.1837096], [16.5972022, 45.1837995], [16.597341, 45.1838614], [16.5974388, 45.1838814], [16.5976414, 45.1838904], [16.5980593, 45.1839113], [16.5983979, 45.1839503], [16.5985481, 45.1839802], [16.5986388, 45.1840112], [16.598677, 45.1840451], [16.5988215, 45.1840501], [16.5988839, 45.1842758], [16.5990185, 45.1845744], [16.5990071, 45.1847302], [16.5990057, 45.1850537], [16.5990525, 45.1852045], [16.5991177, 45.1853333], [16.5991332, 45.185528], [16.5990341, 45.1857427], [16.5989774, 45.1859624], [16.5990043, 45.1861371], [16.5994293, 45.1863428], [16.599785, 45.1863179], [16.5999422, 45.1864916], [16.6000456, 45.1867023], [16.6005387, 45.18694], [16.6007144, 45.1871287], [16.6009311, 45.1872335], [16.6016253, 45.187615], [16.6019002, 45.1877298], [16.6023153, 45.1878386], [16.6025576, 45.1879405], [16.603232, 45.1881452], [16.603419, 45.1881971], [16.6035379, 45.1882255], [16.6035734, 45.1883589], [16.6034048, 45.1886055], [16.6031895, 45.1889081], [16.6031271, 45.188965], [16.6029614, 45.1891667], [16.6028062, 45.1893821], [16.6029132, 45.1893744], [16.6032518, 45.1893963], [16.603436, 45.1894143], [16.603521, 45.1894962], [16.6035649, 45.189601], [16.603572, 45.1896639], [16.6036868, 45.1898167], [16.6031484, 45.1896939], [16.603103, 45.190249], [16.6030464, 45.1908042], [16.6029869, 45.1912425], [16.6035649, 45.1916998], [16.6036868, 45.1918246], [16.6037491, 45.1920023], [16.6038525, 45.1921531], [16.6038709, 45.1922789], [16.6038058, 45.1925784], [16.6036273, 45.1929169], [16.6036273, 45.1929928], [16.6036627, 45.1931276], [16.6038029, 45.1931915], [16.6039106, 45.1932664], [16.6039856, 45.1932823], [16.6039896, 45.1935505], [16.6039936, 45.1936014], [16.6039815, 45.1936522], [16.6039615, 45.1936974], [16.6039415, 45.1937454], [16.6039174, 45.1937934], [16.6038974, 45.1938442], [16.6038934, 45.1938922], [16.6038934, 45.1939911], [16.6038894, 45.1940419], [16.6038533, 45.1940871], [16.6038132, 45.1941266], [16.6037892, 45.1941746], [16.6037812, 45.1942255], [16.6037291, 45.1942565], [16.603705, 45.1943017], [16.6037131, 45.1943977], [16.603677, 45.1944457], [16.6036209, 45.1944711], [16.6035688, 45.194505], [16.6035568, 45.1945559], [16.6035247, 45.194601], [16.6034606, 45.194618], [16.6034045, 45.1946519], [16.6032482, 45.1949004], [16.6032202, 45.1949484], [16.6031961, 45.1949936], [16.6031881, 45.1950444], [16.6031881, 45.1950952], [16.6032081, 45.1951404], [16.6032242, 45.1951912], [16.6032242, 45.1952392], [16.6031961, 45.1952844], [16.603152, 45.1953211], [16.603104, 45.195355], [16.6030839, 45.1954087], [16.6030799, 45.1954567], [16.6031, 45.1955019], [16.603124, 45.1955442], [16.603124, 45.1955951], [16.603104, 45.1956459], [16.6030679, 45.1956882], [16.6030238, 45.1957306], [16.6029918, 45.195773], [16.6029797, 45.1958238], [16.6029757, 45.1958746], [16.6029717, 45.1959226], [16.6029477, 45.1959678], [16.6029156, 45.1960102], [16.6028996, 45.1960553], [16.6028996, 45.1961118], [16.6028956, 45.1961598], [16.6028996, 45.1962107], [16.6029036, 45.1962615], [16.6028715, 45.1963067], [16.6028275, 45.1963518], [16.6027994, 45.1963942], [16.6027754, 45.1964422], [16.6027674, 45.196493], [16.6027674, 45.196541], [16.6027754, 45.196589], [16.6027754, 45.1966851], [16.6027674, 45.1967359], [16.6027473, 45.1967867], [16.6027233, 45.1968319], [16.6026952, 45.1968771], [16.6026551, 45.1969194], [16.6026111, 45.1969674], [16.602579, 45.1970126], [16.602555, 45.1970606], [16.6025389, 45.1971115], [16.6025349, 45.1971623], [16.6025389, 45.1972131], [16.602547, 45.1972611], [16.602559, 45.1973119], [16.602559, 45.1973628], [16.6025349, 45.1974136], [16.6025109, 45.1974588], [16.6024989, 45.1975096], [16.6025029, 45.1975604], [16.6025269, 45.1976056], [16.602547, 45.1976508], [16.602563, 45.1977016], [16.602563, 45.1977496], [16.6025429, 45.1978005], [16.6024949, 45.19784], [16.6024307, 45.1978626], [16.6023706, 45.1978908], [16.6023306, 45.1979332], [16.6023065, 45.1979812], [16.6022985, 45.198032], [16.6022985, 45.1981619], [16.6022865, 45.1982099], [16.6022624, 45.1982579], [16.6022184, 45.1982974], [16.6021582, 45.1983257], [16.6020901, 45.1983398], [16.60203, 45.1983708], [16.602006, 45.1984189], [16.6019899, 45.1984725], [16.6019739, 45.1985262], [16.6019579, 45.198577], [16.6019579, 45.198625], [16.6019659, 45.1986758], [16.6019659, 45.1987238], [16.6019378, 45.198769], [16.6018978, 45.1988113], [16.6018497, 45.1988452], [16.6018056, 45.1988848], [16.6017736, 45.1989271], [16.6017695, 45.1989779], [16.6017717, 45.1990118], [16.6017717, 45.1990298], [16.6017816, 45.1990457], [16.601793, 45.1990607], [16.6018071, 45.1990767], [16.6018227, 45.1990897], [16.6018369, 45.1991036], [16.6018425, 45.1991216], [16.6018468, 45.1991396], [16.6018468, 45.1991585], [16.601844, 45.1991755], [16.6018326, 45.1991915], [16.601817, 45.1992055], [16.6018015, 45.1992204], [16.6017816, 45.1992324], [16.6017604, 45.1992424], [16.6017377, 45.1992504], [16.6017136, 45.1992594], [16.6016881, 45.1992654], [16.6016654, 45.1992724], [16.6016442, 45.1992803], [16.6016229, 45.1992913], [16.6016088, 45.1993063], [16.6016045, 45.1993233], [16.6016074, 45.1993402], [16.6016229, 45.1993522], [16.6016456, 45.1993582], [16.6016669, 45.1993642], [16.6016796, 45.1993782], [16.6016824, 45.1993951], [16.6016739, 45.1994121], [16.6016499, 45.1994201], [16.6016272, 45.1994281], [16.601613, 45.1994431], [16.6016074, 45.19946], [16.6016074, 45.199478], [16.6016159, 45.199494], [16.6016286, 45.199508], [16.6016683, 45.1995489], [16.6016796, 45.1995659], [16.6016938, 45.1995798], [16.6017094, 45.1995928], [16.6017264, 45.1996068], [16.6017434, 45.1996218], [16.6017519, 45.1996377], [16.6017519, 45.1996547], [16.6017419, 45.1996707], [16.6017278, 45.1996847], [16.6017108, 45.1996966], [16.6016909, 45.1997076], [16.6016768, 45.1997216], [16.6016626, 45.1997525], [16.6016541, 45.1997695], [16.601647, 45.1997875], [16.6016456, 45.1998045], [16.6016399, 45.1998224], [16.60163, 45.1998394], [16.601613, 45.1998544], [16.6015974, 45.1998693], [16.601579, 45.1998843], [16.6015663, 45.1998993], [16.6015564, 45.1999153], [16.6015464, 45.1999322], [16.6015422, 45.1999502], [16.6015394, 45.1999672], [16.6015394, 45.1999842], [16.601545, 45.2000021], [16.6015578, 45.2000181], [16.6015734, 45.2000331], [16.6015904, 45.200046], [16.6016017, 45.200061], [16.6016088, 45.200078], [16.6016116, 45.200096], [16.6016116, 45.2001129], [16.6016045, 45.2001309], [16.6015932, 45.2001459], [16.6015762, 45.2001589], [16.6015564, 45.2001698], [16.6014954, 45.2001948], [16.6014685, 45.2001948], [16.601443, 45.2001968], [16.6014189, 45.2002018], [16.6013963, 45.2002098], [16.6013736, 45.2002188], [16.6013552, 45.2002317], [16.601341, 45.2002467], [16.6013368, 45.2002637], [16.6013368, 45.2002816], [16.6013453, 45.2002986], [16.6013594, 45.2003136], [16.6013736, 45.2003266], [16.6013821, 45.2003415], [16.6013849, 45.2003585], [16.6013793, 45.2003765], [16.6013608, 45.2003905], [16.6013368, 45.2003984], [16.6013155, 45.2004104], [16.6012999, 45.2004244], [16.6012857, 45.2004384], [16.6012702, 45.2004534], [16.6012546, 45.2004663], [16.6012319, 45.2004983], [16.6012277, 45.2005153], [16.6012277, 45.2005712], [16.6012305, 45.2005891], [16.6012333, 45.2006091], [16.6012347, 45.2006291], [16.6012376, 45.200647], [16.6012404, 45.200666], [16.6012404, 45.200683], [16.6012333, 45.2006989], [16.601222, 45.2007139], [16.6011866, 45.2007508], [16.6011781, 45.2007678], [16.6011639, 45.2008018], [16.6011597, 45.2008187], [16.6011526, 45.2008347], [16.6011455, 45.2008547], [16.601137, 45.2008746], [16.6011299, 45.2008906], [16.60112, 45.2009056], [16.6011044, 45.2009196], [16.6010817, 45.2009275], [16.6010576, 45.2009345], [16.6010279, 45.2009445], [16.6010038, 45.2009565], [16.6009811, 45.2009685], [16.6009641, 45.2009835], [16.6009528, 45.2009994], [16.60095, 45.2010194], [16.60095, 45.2010374], [16.6009599, 45.2010533], [16.6009741, 45.2010673], [16.6009797, 45.2010843], [16.6009811, 45.2011012], [16.6009797, 45.2011192], [16.6009698, 45.2011362], [16.6009571, 45.2011512], [16.6009358, 45.2011671], [16.6009174, 45.2011791], [16.6009032, 45.2011931], [16.6008976, 45.2012111], [16.6008933, 45.20123], [16.6008905, 45.201248], [16.6008777, 45.201265], [16.6008579, 45.2012789], [16.6008409, 45.2012929], [16.6008352, 45.2013099], [16.6008295, 45.2013478], [16.600821, 45.2013638], [16.6008012, 45.2013748], [16.6007757, 45.2013848], [16.6007545, 45.2013918], [16.600685, 45.2014666], [16.6006737, 45.2014816], [16.6006609, 45.2014976], [16.6006496, 45.2015145], [16.6006411, 45.2015315], [16.6006312, 45.2015505], [16.6006199, 45.2015674], [16.6006085, 45.2015854], [16.6005929, 45.2016064], [16.6005674, 45.2016383], [16.6005547, 45.2016533], [16.6005391, 45.2016683], [16.6005221, 45.2016823], [16.6005065, 45.2016962], [16.6004924, 45.2017112], [16.6004853, 45.2017282], [16.6004796, 45.2017461], [16.6004711, 45.2017621], [16.6004498, 45.2017711], [16.6004229, 45.2017731], [16.6003988, 45.2017831], [16.6003804, 45.2017941], [16.6003493, 45.201828], [16.6003209, 45.2019079], [16.6002869, 45.2019398], [16.6002472, 45.2019598], [16.6002047, 45.2019777], [16.6001962, 45.2020137], [16.6001764, 45.2020476], [16.6001396, 45.2020696], [16.6000971, 45.2020856], [16.6000461, 45.2020816], [16.6000007, 45.2020955], [16.5999667, 45.2021235], [16.5999554, 45.2021574], [16.5999554, 45.2021914], [16.5999356, 45.2022233], [16.5998902, 45.2022433], [16.5998477, 45.2022672], [16.5998165, 45.2022992], [16.5998109, 45.2023371], [16.599808, 45.2023731], [16.5998024, 45.202409], [16.5997882, 45.2024429], [16.5997627, 45.2024709], [16.5997117, 45.2024789], [16.5996664, 45.2024928], [16.5996267, 45.2025148], [16.5995559, 45.2025647], [16.5995304, 45.2025927], [16.5995077, 45.2026226], [16.5994935, 45.2026586], [16.599485, 45.2026945], [16.5994794, 45.2027324], [16.5994709, 45.2027664], [16.599451, 45.2028023], [16.5994284, 45.2028363], [16.5993887, 45.2028582], [16.599298, 45.2028902], [16.5992555, 45.2029141], [16.5992243, 45.2029441], [16.5991988, 45.202972], [16.5991592, 45.202998], [16.5991167, 45.2030219], [16.5990883, 45.2030499], [16.5990827, 45.2030878], [16.5990628, 45.2031297], [16.5990458, 45.2031677], [16.5990288, 45.2032395], [16.5990458, 45.2032715], [16.599094, 45.2032775], [16.5991422, 45.2032775], [16.5991818, 45.2032935], [16.5991875, 45.2033294], [16.599162, 45.2033673], [16.5991393, 45.2033993], [16.5991535, 45.2034312], [16.5991563, 45.2035231], [16.5991563, 45.203559], [16.5991705, 45.2035909], [16.5992017, 45.2036189], [16.5992272, 45.2036488], [16.59923, 45.2036828], [16.5992158, 45.2037167], [16.5992158, 45.2037507], [16.5992413, 45.2037786], [16.5992782, 45.2038006], [16.5993292, 45.2038085], [16.5993688, 45.2038265], [16.5993802, 45.2038585], [16.5993802, 45.2038964], [16.5993773, 45.2039303], [16.5993745, 45.2039703], [16.5993745, 45.2040821], [16.5993802, 45.20412], [16.5993915, 45.2041639], [16.5994029, 45.2041999], [16.5994227, 45.2042358], [16.599451, 45.2042677], [16.5994822, 45.2042937], [16.5995219, 45.2043196], [16.5995559, 45.2043456], [16.5995814, 45.2043755], [16.5996069, 45.2044075], [16.5996295, 45.2044354], [16.5996607, 45.2044714], [16.5996947, 45.2045073], [16.5997287, 45.2045333], [16.5997627, 45.2045632], [16.5997939, 45.2045952], [16.5998194, 45.2046231], [16.5998562, 45.2046471], [16.5999345, 45.2047547], [16.5999545, 45.2048027], [16.5999786, 45.2048479], [16.6000307, 45.2048874], [16.6000908, 45.2049072], [16.6001309, 45.2049467], [16.6001509, 45.2049975], [16.6001589, 45.2050455], [16.600183, 45.2050879], [16.6002471, 45.2051133], [16.6003072, 45.2051387], [16.6003633, 45.2051669], [16.6004234, 45.2052008], [16.6004595, 45.2052403], [16.6004835, 45.2052855], [16.6004995, 45.2053307], [16.6005316, 45.2053758], [16.6005877, 45.2053984], [16.6006358, 45.205438], [16.6006598, 45.2054831], [16.6006678, 45.2055368], [16.6006678, 45.2056949], [16.6006879, 45.2057401], [16.6007319, 45.2057852], [16.600784, 45.2058304], [16.6008321, 45.2058643], [16.6008762, 45.2059038], [16.6009163, 45.2059433], [16.6009764, 45.2059688], [16.6010165, 45.2060111], [16.6010445, 45.2060563], [16.6010686, 45.2061014], [16.6010806, 45.2061494], [16.6011126, 45.2061946], [16.6011567, 45.2062313], [16.6012008, 45.2062737], [16.6012449, 45.2063132], [16.601293, 45.2063584], [16.6013451, 45.2064035], [16.6013931, 45.2064374], [16.6014252, 45.2064854], [16.6014372, 45.2065362], [16.6014412, 45.2065871], [16.6014452, 45.2066351], [16.6014372, 45.2066859], [16.6014172, 45.2067311], [16.601407, 45.2068226], [16.6014155, 45.2068565], [16.6014381, 45.2068884], [16.6014721, 45.2069164], [16.6015175, 45.2069364], [16.60156, 45.2069503], [16.6015997, 45.2069683], [16.6016393, 45.2069883], [16.6016762, 45.2070102], [16.6017102, 45.2070402], [16.6017385, 45.2070721], [16.6017697, 45.20711], [16.6017952, 45.20714], [16.601815, 45.2071739], [16.6018348, 45.2072059], [16.6018575, 45.2072398], [16.601883, 45.2072737], [16.601917, 45.2072997], [16.6019595, 45.2073177], [16.6020049, 45.2073316], [16.602053, 45.2073456], [16.6020955, 45.2073616], [16.6021437, 45.2073756], [16.6021834, 45.2073935], [16.602223, 45.2074135], [16.6022599, 45.2074374], [16.6022854, 45.2074654], [16.6023052, 45.2074953], [16.6023222, 45.2075293], [16.6023364, 45.2075652], [16.6023619, 45.2075952], [16.6023902, 45.2076211], [16.6024271, 45.2076451], [16.6024667, 45.207665], [16.6025092, 45.207679], [16.6025546, 45.207695], [16.6025942, 45.2077189], [16.6026282, 45.2077449], [16.6026537, 45.2077768], [16.6027047, 45.2078846], [16.6027047, 45.2079206], [16.6027104, 45.2079545], [16.6027302, 45.2079864], [16.6027727, 45.2080004], [16.6028181, 45.2080064], [16.6028634, 45.2080204], [16.6028861, 45.2080503], [16.6029003, 45.2080843], [16.6029314, 45.2081082], [16.6029768, 45.2081222], [16.6030278, 45.2081242], [16.6030674, 45.2081082], [16.6030986, 45.2080863], [16.6031411, 45.2080743], [16.6031893, 45.2080803], [16.603212, 45.2081082], [16.6032233, 45.2081422], [16.6032375, 45.2081761], [16.6032715, 45.208202], [16.6033451, 45.208248], [16.6033876, 45.2082639], [16.6034301, 45.2082819], [16.6034755, 45.2083019], [16.6035151, 45.2083198], [16.6035548, 45.2083438], [16.6035945, 45.2083657], [16.6036398, 45.2083857], [16.6036965, 45.2083997], [16.6037418, 45.2084137], [16.6037843, 45.2084256], [16.6038297, 45.2084376], [16.603841, 45.2084716], [16.6038438, 45.2085055], [16.6038552, 45.2085374], [16.6038863, 45.2085654], [16.6039288, 45.2085833], [16.6039742, 45.2085933], [16.6040252, 45.2085953], [16.6040734, 45.2085973], [16.6041215, 45.2086073], [16.604164, 45.2086213], [16.6042037, 45.2086353], [16.6042434, 45.2086532], [16.6042887, 45.2086732], [16.6043369, 45.2086911], [16.6043879, 45.2087011], [16.6044389, 45.2087071], [16.6044899, 45.2087091], [16.6045381, 45.2087091], [16.6045891, 45.2087111], [16.6046344, 45.2087131], [16.6046797, 45.2087231], [16.6047222, 45.2087371], [16.6047704, 45.2087411], [16.6048214, 45.2087371], [16.6048696, 45.2087351], [16.6049092, 45.208751], [16.6049376, 45.208779], [16.6049829, 45.208787], [16.6050793, 45.208779], [16.6051246, 45.208781], [16.6052606, 45.2088229], [16.6053088, 45.2088389], [16.6053541, 45.2088528], [16.6053966, 45.2088688], [16.6054391, 45.2088828], [16.6054816, 45.2088948], [16.605527, 45.2089087], [16.6055723, 45.2089207], [16.6056176, 45.2089307], [16.6056601, 45.2089447], [16.6057055, 45.2089626], [16.605748, 45.2089766], [16.6057933, 45.2089966], [16.6058302, 45.2090146], [16.6058698, 45.2090325], [16.6059095, 45.2090585], [16.6059435, 45.2090824], [16.6059747, 45.2091144], [16.6060058, 45.2091483], [16.6060257, 45.2091782], [16.6060483, 45.2092082], [16.606071, 45.2092421], [16.6060993, 45.2092681], [16.6061305, 45.2093], [16.6061673, 45.209324], [16.606207, 45.2093399], [16.6062524, 45.2093579], [16.606292, 45.2093759], [16.6063345, 45.2093899], [16.6066916, 45.2095655], [16.6067397, 45.2095875], [16.6067794, 45.2096035], [16.6068191, 45.2096234], [16.6068616, 45.2096434], [16.6069097, 45.2096673], [16.6069522, 45.2096873], [16.607825, 45.2101265], [16.6085305, 45.2105058], [16.6086212, 45.2105996], [16.6086524, 45.2106275], [16.6086835, 45.2106535], [16.6087204, 45.2106755], [16.6087572, 45.2106954], [16.6088026, 45.2107234], [16.6088422, 45.2107473], [16.6088847, 45.2107653], [16.6089272, 45.2107852], [16.6089697, 45.2108032], [16.6090207, 45.2108212], [16.6090632, 45.2108351], [16.6091114, 45.2108511], [16.6091567, 45.2108611], [16.6092049, 45.2108751], [16.6092531, 45.2108851], [16.6092956, 45.210895], [16.6093523, 45.210909], [16.6094004, 45.210925], [16.6094911, 45.2109609], [16.6095393, 45.2109789], [16.6095789, 45.2109988], [16.6096158, 45.2110168], [16.6096725, 45.2110408], [16.6097121, 45.2110587], [16.6097631, 45.2110847], [16.6098056, 45.2111046], [16.6098453, 45.2111266], [16.6098906, 45.2111466], [16.6099303, 45.2111645], [16.6099671, 45.2111825], [16.6100096, 45.2112005], [16.6100493, 45.2112224], [16.6100833, 45.2112484], [16.6101145, 45.2112763], [16.6101372, 45.2113043], [16.6101655, 45.2113342], [16.6101882, 45.2113642], [16.6102108, 45.2113921], [16.6102335, 45.211424], [16.6102533, 45.211456], [16.6102788, 45.2114879], [16.6103072, 45.2115199], [16.6103298, 45.2115478], [16.6103638, 45.2115797], [16.6103978, 45.2116097], [16.610429, 45.2116336], [16.6104687, 45.2116596], [16.6105055, 45.2116815], [16.6105849, 45.2117255], [16.6106217, 45.2117514], [16.6106444, 45.2117814], [16.6106614, 45.2118153], [16.6106642, 45.2118532], [16.6106642, 45.2118892], [16.6106529, 45.2119231], [16.6106359, 45.211959], [16.6106245, 45.2119969], [16.6106245, 45.2120409], [16.6106359, 45.2120748], [16.6106614, 45.2121027], [16.6106897, 45.2121327], [16.6107265, 45.2121507], [16.610769, 45.2121686], [16.6108087, 45.2121886], [16.6108399, 45.2122145], [16.6108682, 45.2122465], [16.6108909, 45.2122784], [16.6109164, 45.2123064], [16.6109532, 45.2123263], [16.6109957, 45.2123383], [16.6111827, 45.2123383], [16.6112366, 45.2123483], [16.6113216, 45.2123842], [16.6113669, 45.2124002], [16.6114123, 45.2124201], [16.6114604, 45.2124261], [16.6115086, 45.2124261], [16.6115624, 45.2124241], [16.6116106, 45.2124221], [16.6116588, 45.2124281], [16.6117013, 45.2124401], [16.6117466, 45.2124541], [16.6117976, 45.2124661], [16.6118515, 45.21247], [16.6119081, 45.21247], [16.6119648, 45.2124661], [16.6120215, 45.2124601], [16.6120696, 45.2124601], [16.612115, 45.212468], [16.6121631, 45.2124601], [16.6121943, 45.2124381], [16.6122255, 45.2124142], [16.6122737, 45.2124022], [16.6123218, 45.2124042], [16.6123643, 45.2124161], [16.6124012, 45.2124361], [16.6124295, 45.21247], [16.6124437, 45.212504], [16.6124522, 45.2125399], [16.6124663, 45.2125719], [16.6124981, 45.2125983], [16.6125121, 45.2126223], [16.6125322, 45.2126421], [16.6125562, 45.212659], [16.6125823, 45.2126717], [16.6126103, 45.2126844], [16.6126384, 45.2126972], [16.6126704, 45.212707], [16.6127005, 45.2127141], [16.6127726, 45.2127226], [16.6128067, 45.212724], [16.6128407, 45.2127226], [16.6128708, 45.2127169], [16.6129028, 45.212707], [16.6129349, 45.2127014], [16.612969, 45.2127], [16.6130391, 45.2127], [16.6130712, 45.2127014], [16.6131052, 45.2127], [16.6131333, 45.2126901], [16.6131593, 45.2126746], [16.6131874, 45.2126647], [16.6132214, 45.2126605], [16.6132535, 45.2126619], [16.6132855, 45.2126619], [16.6133236, 45.212652], [16.6133537, 45.2126393], [16.6133797, 45.2126266], [16.6133977, 45.2126068], [16.6134178, 45.2125871], [16.6134378, 45.2125673], [16.6134599, 45.2125475], [16.6134879, 45.212532], [16.613516, 45.2125235], [16.613548, 45.2125179], [16.6135801, 45.2125165], [16.6136121, 45.2125165], [16.6136482, 45.2125207], [16.6136843, 45.2125306], [16.6137163, 45.2125376], [16.6137484, 45.2125489], [16.6137764, 45.2125602], [16.6138005, 45.2125786], [16.6138145, 45.2126012], [16.6138205, 45.2126266], [16.6138225, 45.2126534], [16.6138245, 45.2126774], [16.6138446, 45.2126986], [16.6138706, 45.2127155], [16.6138966, 45.212731], [16.6139167, 45.2127494], [16.6139307, 45.212772], [16.6139387, 45.2127945], [16.6139427, 45.2128185], [16.6139548, 45.2128411], [16.6139728, 45.2128609], [16.6140008, 45.2128792], [16.6140269, 45.2128962], [16.6140509, 45.2129131], [16.614075, 45.2129315], [16.614089, 45.2129526], [16.614103, 45.2129738], [16.6141271, 45.2129922], [16.6141591, 45.2129978], [16.6142055, 45.2130015], [16.6142296, 45.2130035], [16.6142509, 45.2130115], [16.6142905, 45.2130315], [16.6143118, 45.2130374], [16.6143373, 45.2130404], [16.6143614, 45.2130414], [16.6143869, 45.2130384], [16.6144081, 45.2130315], [16.614428, 45.2130235], [16.6144464, 45.2130155], [16.6144676, 45.2130065], [16.6144875, 45.2129945], [16.6145016, 45.2129815], [16.6145087, 45.2129656], [16.6145116, 45.2129306], [16.6145116, 45.2129117], [16.6145144, 45.2128787], [16.6145215, 45.2128628], [16.6145385, 45.2128308], [16.6145527, 45.2128139], [16.6145697, 45.2128019], [16.6145923, 45.2127919], [16.6146136, 45.2127859], [16.6146377, 45.2127859], [16.6146632, 45.2127869], [16.614683, 45.2127939], [16.6147, 45.2128049], [16.6147113, 45.2128189], [16.6147241, 45.2128338], [16.6147397, 45.2128478], [16.6147595, 45.2128598], [16.6147836, 45.2128638], [16.6148077, 45.2128638], [16.6148332, 45.2128618], [16.6148558, 45.2128568], [16.6148813, 45.2128508], [16.6149026, 45.2128448], [16.6149253, 45.2128418], [16.6149494, 45.2128408], [16.6149692, 45.2128488], [16.6149947, 45.2128588], [16.6150174, 45.2128638], [16.61504, 45.2128658], [16.6150641, 45.2128648], [16.615091, 45.2128658], [16.6151094, 45.2128777], [16.6151222, 45.2128927], [16.6151279, 45.2129097], [16.6151321, 45.2129277], [16.6151449, 45.2129416], [16.6151661, 45.2129486], [16.6151888, 45.2129546], [16.6152058, 45.2129666], [16.6152129, 45.2129845], [16.6152171, 45.2130025], [16.61522, 45.2130205], [16.61522, 45.2130544], [16.6152214, 45.2130714], [16.6152242, 45.2130913], [16.6152327, 45.2131073], [16.6152455, 45.2131213], [16.6152653, 45.2131313], [16.6152851, 45.2131392], [16.615312, 45.2131442], [16.6153375, 45.2131432], [16.6153588, 45.2131382], [16.6153815, 45.2131333], [16.6154056, 45.2131323], [16.6154325, 45.2131343], [16.6154537, 45.2131392], [16.6154764, 45.2131462], [16.6154962, 45.2131572], [16.6155132, 45.2131692], [16.6155302, 45.2131832], [16.6155486, 45.2131951], [16.6155671, 45.2132041], [16.6156152, 45.2132181], [16.6156436, 45.2132251], [16.6156662, 45.2132311], [16.615696, 45.2132401], [16.6157201, 45.213248], [16.6157456, 45.213255], [16.615764, 45.213265], [16.6157796, 45.213279], [16.6157952, 45.2132939], [16.6158164, 45.2133079], [16.6158334, 45.2133189], [16.6158533, 45.2133299], [16.6158745, 45.2133389], [16.6158986, 45.2133439], [16.6159269, 45.2133508], [16.6159496, 45.2133568], [16.6159737, 45.2133628], [16.6159992, 45.2133688], [16.6160204, 45.2133748], [16.6160431, 45.2133808], [16.6160743, 45.2133868], [16.6160955, 45.2133948], [16.6161182, 45.2134017], [16.6161409, 45.2134097], [16.6161649, 45.2134177], [16.6161862, 45.2134267], [16.6162074, 45.2134337], [16.6162344, 45.2134467], [16.6162585, 45.2134546], [16.616284, 45.2134666], [16.6163038, 45.2134736], [16.6163236, 45.2134826], [16.6163463, 45.2134956], [16.6163619, 45.2135095], [16.6163746, 45.2135255], [16.616386, 45.2135435], [16.616393, 45.2135604], [16.6164015, 45.2135774], [16.6164058, 45.2135964], [16.6164143, 45.2136123], [16.6164285, 45.2136283], [16.6164483, 45.2136383], [16.6164738, 45.2136463], [16.6164965, 45.2136493], [16.6165248, 45.2136453], [16.6165404, 45.2136323], [16.6165531, 45.2136173], [16.6165631, 45.2136024], [16.6165758, 45.2135854], [16.61659, 45.2135714], [16.6166027, 45.2135564], [16.6166197, 45.2135455], [16.616641, 45.2135365], [16.6166665, 45.2135345], [16.6166906, 45.2135405], [16.6167104, 45.2135485], [16.6167246, 45.2135634], [16.6167359, 45.2135784], [16.6167487, 45.2135934], [16.6167685, 45.2136043], [16.6167897, 45.2136133], [16.6168138, 45.2136163], [16.6168365, 45.2136173], [16.6168592, 45.2136123], [16.616879, 45.2136033], [16.6169102, 45.2135864], [16.6169328, 45.2135794], [16.6169782, 45.2135644], [16.6169994, 45.2135594], [16.6170221, 45.2135554], [16.6170476, 45.2135524], [16.6170703, 45.2135505], [16.6170915, 45.2135425], [16.6171071, 45.2135285], [16.6171213, 45.2135145], [16.6171397, 45.2135025], [16.6171609, 45.2134956], [16.6171836, 45.2134916], [16.6172091, 45.2134926], [16.6172289, 45.2135025], [16.6172474, 45.2135155], [16.6172601, 45.2135295], [16.61727, 45.2135445], [16.6172799, 45.2135604], [16.6172913, 45.2135754], [16.6173055, 45.2135914], [16.617321, 45.2136053], [16.6173409, 45.2136153], [16.6173635, 45.2136213], [16.6173876, 45.2136223], [16.6174103, 45.2136133], [16.6174216, 45.2135984], [16.6174358, 45.2135854], [16.6174585, 45.2135804], [16.6175038, 45.2135804], [16.6175463, 45.2135954], [16.6175718, 45.2135994], [16.6175973, 45.2135964], [16.6176186, 45.2135904], [16.6176441, 45.2135874], [16.6176936, 45.2135874], [16.6177149, 45.2135824], [16.6177319, 45.2135694], [16.6177461, 45.2135554], [16.617756, 45.2135385], [16.6177602, 45.2135195], [16.6177617, 45.2135035], [16.6177617, 45.2134696], [16.6177574, 45.2134526], [16.6177546, 45.2134357], [16.6177532, 45.2134197], [16.6177631, 45.2134037], [16.6177829, 45.2133918], [16.6177985, 45.2133788], [16.6178127, 45.2133628], [16.6178226, 45.2133478], [16.6178311, 45.2133319], [16.6178311, 45.2132979], [16.6178297, 45.213279], [16.6178424, 45.213266], [16.617858, 45.213252], [16.6178807, 45.213255], [16.6179062, 45.213241], [16.6179288, 45.2132311], [16.6179444, 45.2132191], [16.6179699, 45.2131911], [16.6179912, 45.2131802], [16.6180167, 45.2131752], [16.6180379, 45.2131702], [16.618062, 45.2131632], [16.6180861, 45.2131592], [16.6181088, 45.2131542], [16.6181343, 45.2131502], [16.6181555, 45.2131442], [16.6181782, 45.2131382], [16.6181994, 45.2131293], [16.6182221, 45.2131173], [16.6182419, 45.2131073], [16.6182632, 45.2130943], [16.6182802, 45.2130844], [16.6182972, 45.2130724], [16.6183085, 45.2130584], [16.618317, 45.2130434], [16.6183312, 45.2130285], [16.6183411, 45.2130135], [16.6183496, 45.2129975], [16.618361, 45.2129825], [16.618378, 45.2129526], [16.6183879, 45.2129356], [16.6183992, 45.2129177], [16.6184105, 45.2129007], [16.6184233, 45.2128867], [16.6184375, 45.2128728], [16.6184559, 45.2128548], [16.6184729, 45.2128408], [16.6184927, 45.2128248], [16.618548, 45.2127859], [16.6185664, 45.2127749], [16.6185777, 45.212762], [16.6185919, 45.21275], [16.6186018, 45.212735], [16.6186117, 45.2127191], [16.6186287, 45.2127071], [16.61865, 45.2127011], [16.6186741, 45.2126931], [16.6186967, 45.2126881], [16.618718, 45.2126841], [16.6187421, 45.2126821], [16.6187647, 45.2126801], [16.6187945, 45.2126791], [16.6188242, 45.2126791], [16.6188781, 45.2126811], [16.6189022, 45.2126831], [16.6189305, 45.2126861], [16.6189631, 45.2126861], [16.6189942, 45.2126871], [16.6190183, 45.2126871], [16.6190778, 45.2126891], [16.6191005, 45.2126901], [16.619126, 45.2126971], [16.6191473, 45.2127041], [16.6191728, 45.2127101], [16.6192039, 45.2127131], [16.619228, 45.2127141], [16.6192507, 45.2127141], [16.6192748, 45.2127191], [16.619296, 45.212724], [16.6193173, 45.212731], [16.6193371, 45.21274], [16.6193598, 45.212745], [16.6193853, 45.212746], [16.6194122, 45.212742], [16.6194349, 45.212735], [16.6194561, 45.212727], [16.6194731, 45.2127161], [16.6194859, 45.2127011], [16.6194944, 45.2126871], [16.6195029, 45.2126721], [16.6195128, 45.2126562], [16.619527, 45.2126422], [16.6195468, 45.2126312], [16.6195709, 45.2126272], [16.619595, 45.2126272], [16.619619, 45.2126332], [16.6196403, 45.2126412], [16.6196601, 45.2126502], [16.6196786, 45.2126612], [16.6196941, 45.2126741], [16.6197069, 45.2126891], [16.6197253, 45.2126991], [16.6197466, 45.2127091], [16.619765, 45.212721], [16.6197848, 45.212733], [16.6198032, 45.212743], [16.6198188, 45.212757], [16.6198401, 45.212767], [16.6198656, 45.212771], [16.6198897, 45.212772], [16.6199123, 45.212771], [16.6199364, 45.212767], [16.6199577, 45.21276], [16.6199789, 45.212751], [16.6199973, 45.212742], [16.6200172, 45.212731], [16.6200356, 45.2127191], [16.620054, 45.2127061], [16.620071, 45.2126931], [16.6200781, 45.2126781], [16.6200809, 45.2126612], [16.6200852, 45.2126422], [16.6200894, 45.2126252], [16.6200965, 45.2126103], [16.6201107, 45.2125963], [16.6201291, 45.2125803], [16.6201475, 45.2125703], [16.6201683, 45.2125629], [16.620191, 45.2125544], [16.6202023, 45.2125474], [16.6202094, 45.2125394], [16.6202151, 45.2125319], [16.6202201, 45.2125244], [16.6202236, 45.2125164], [16.620225, 45.212498], [16.620225, 45.2124895], [16.6202236, 45.2124725], [16.6202236, 45.212464], [16.6202264, 45.2124561], [16.6202335, 45.2124491], [16.6202434, 45.2124441], [16.6202533, 45.2124401], [16.6202661, 45.2124376], [16.6202789, 45.2124376], [16.6202916, 45.2124386], [16.6203044, 45.2124401], [16.6203157, 45.2124406], [16.6203299, 45.2124406], [16.6203419, 45.2124386], [16.6203546, 45.2124336], [16.6203844, 45.2124196], [16.6203943, 45.2124146], [16.6204042, 45.2124101], [16.620412, 45.2124042], [16.6204198, 45.2123977], [16.620429, 45.2123917], [16.6204382, 45.2123862], [16.6204496, 45.2123827], [16.6204602, 45.2123802], [16.620473, 45.2123792], [16.620485, 45.2123807], [16.6204914, 45.2123882], [16.6204942, 45.2123972], [16.6204928, 45.2124057], [16.6204843, 45.2124126], [16.6204715, 45.2124171], [16.6204595, 45.2124206], [16.6204467, 45.2124246], [16.6204375, 45.2124311], [16.620429, 45.2124381], [16.6204241, 45.2124456], [16.6204227, 45.2124546], [16.6204234, 45.212464], [16.6204276, 45.2124725], [16.620434, 45.2124795], [16.6204425, 45.2124855], [16.6204531, 45.21249], [16.6204652, 45.212493], [16.62049, 45.212496], [16.620502, 45.212496], [16.6205247, 45.21249], [16.6205353, 45.2124875], [16.620548, 45.212484], [16.6205594, 45.212481], [16.6205828, 45.2124755], [16.6205948, 45.212473], [16.6206097, 45.212471], [16.620633, 45.212468], [16.6206451, 45.212468], [16.6206578, 45.212466], [16.6206692, 45.212463], [16.6206798, 45.212459], [16.6206897, 45.2124531], [16.6206982, 45.2124466], [16.6207039, 45.2124401], [16.6207096, 45.2124316], [16.6207124, 45.2124236], [16.6207138, 45.2124156], [16.6207131, 45.2124076], [16.6207088, 45.2123997], [16.6206989, 45.2123927], [16.6206883, 45.2123882], [16.6206784, 45.2123842], [16.6206692, 45.2123777], [16.6206614, 45.2123697], [16.6206564, 45.2123622], [16.6206529, 45.2123538], [16.6206515, 45.2123448], [16.6206515, 45.2123268], [16.6206536, 45.2123178], [16.62066, 45.2123098], [16.6206699, 45.2123018], [16.6206883, 45.2122889], [16.6206989, 45.2122819], [16.6207081, 45.2122764], [16.6207393, 45.2122654], [16.6207478, 45.2122599], [16.6207584, 45.2122564], [16.6207705, 45.2122529], [16.6207825, 45.2122499], [16.6208038, 45.212245], [16.6208158, 45.2122435], [16.6208271, 45.2122425], [16.6208519, 45.2122425], [16.620864, 45.212243], [16.6208874, 45.212246], [16.6209001, 45.212248], [16.6209122, 45.2122499], [16.6209242, 45.2122524], [16.6209369, 45.2122554], [16.620949, 45.2122579], [16.6209632, 45.2122604], [16.6209773, 45.2122634], [16.6209894, 45.2122664], [16.6210028, 45.2122689], [16.6210149, 45.2122719], [16.6210283, 45.2122739], [16.6210418, 45.2122764], [16.6210701, 45.2122809], [16.6210815, 45.2122829], [16.621097, 45.2122839], [16.6211091, 45.2122864], [16.6211218, 45.2122884], [16.6211346, 45.2122884], [16.6211473, 45.2122889], [16.6211594, 45.2122879], [16.6211714, 45.2122859], [16.621182, 45.2122824], [16.621192, 45.2122769], [16.6211998, 45.2122699], [16.621204, 45.2122624], [16.6212061, 45.2122544], [16.6212068, 45.212246], [16.6212068, 45.2122365], [16.6212047, 45.2122275], [16.6212012, 45.212219], [16.6211962, 45.2122115], [16.6211898, 45.2122045], [16.6211743, 45.2121916], [16.6211679, 45.2121851], [16.6211636, 45.2121771], [16.6211615, 45.2121691], [16.6211615, 45.2121601], [16.6211622, 45.2121511], [16.6211672, 45.2121437], [16.621175, 45.2121367], [16.6211856, 45.2121337], [16.6211976, 45.2121322], [16.6212203, 45.2121312], [16.6212316, 45.2121312], [16.6212437, 45.2121337], [16.6212649, 45.2121397], [16.6212763, 45.2121432], [16.621289, 45.2121466], [16.6213003, 45.2121501], [16.6213117, 45.2121531], [16.6213237, 45.2121546], [16.6213358, 45.2121556], [16.6213584, 45.2121556], [16.6213705, 45.2121551], [16.6213825, 45.2121536], [16.6213946, 45.2121516], [16.6214101, 45.2121496], [16.6214222, 45.2121476], [16.6214342, 45.2121446], [16.6214463, 45.2121427], [16.6214689, 45.2121397], [16.6214923, 45.2121397], [16.6215065, 45.2121412], [16.6215185, 45.2121437], [16.6215433, 45.2121516], [16.6215532, 45.2121556], [16.6215646, 45.2121586], [16.6215759, 45.2121626], [16.6215858, 45.2121666], [16.6216064, 45.2121766], [16.6216163, 45.2121816], [16.6216283, 45.2121861], [16.6216397, 45.2121916], [16.6216503, 45.2121966], [16.6216609, 45.212201], [16.6216723, 45.2122045], [16.6216864, 45.2122085], [16.6216992, 45.212211], [16.6217119, 45.212212], [16.6217247, 45.212214], [16.6217388, 45.212215], [16.6217686, 45.212216], [16.6217821, 45.212216], [16.6217962, 45.212215], [16.6218231, 45.212214], [16.6218359, 45.212213], [16.6218756, 45.212213], [16.6218869, 45.2122145], [16.6219011, 45.212217], [16.6219138, 45.2122195], [16.621928, 45.212223], [16.6219421, 45.212226], [16.6219577, 45.2122275], [16.6219698, 45.212228], [16.6219847, 45.212227], [16.6219981, 45.212225], [16.6220094, 45.212223], [16.6220307, 45.212217], [16.6220427, 45.2122135], [16.622085, 45.2121963], [16.6220957, 45.2121933], [16.6221112, 45.2121888], [16.6221233, 45.2121853], [16.6221353, 45.2121828], [16.6221452, 45.2121788], [16.6221559, 45.2121753], [16.6221693, 45.2121713], [16.6221807, 45.2121668], [16.6221934, 45.2121629], [16.6222069, 45.2121599], [16.6222196, 45.2121574], [16.6222324, 45.2121554], [16.6222451, 45.2121529], [16.6222565, 45.2121509], [16.6222742, 45.2121479], [16.6222869, 45.2121469], [16.622299, 45.2121454], [16.6223124, 45.2121439], [16.6223238, 45.2121429], [16.6223386, 45.2121419], [16.6223535, 45.2121399], [16.6223648, 45.2121384], [16.6223783, 45.2121374], [16.6224052, 45.2121374], [16.6224187, 45.2121369], [16.6224477, 45.2121369], [16.6224612, 45.2121379], [16.6224754, 45.2121384], [16.6224888, 45.2121399], [16.622503, 45.2121404], [16.6225143, 45.2121424], [16.6225405, 45.2121459], [16.622554, 45.2121474], [16.6225653, 45.2121489], [16.6225795, 45.2121519], [16.6225908, 45.2121544], [16.6226036, 45.2121574], [16.6226262, 45.2121648], [16.6226369, 45.2121698], [16.6226482, 45.2121758], [16.6226581, 45.2121818], [16.6226687, 45.2121878], [16.6226843, 45.2122008], [16.6226907, 45.2122083], [16.6226971, 45.2122153], [16.6227035, 45.2122222], [16.6227105, 45.2122297], [16.6227162, 45.2122372], [16.6227226, 45.2122447], [16.6227275, 45.2122522], [16.62273, 45.2122562], [16.6227443, 45.212271], [16.6227599, 45.212285], [16.6227755, 45.212298], [16.6227911, 45.212313], [16.6228052, 45.2123279], [16.6228152, 45.2123449], [16.6228222, 45.2123609], [16.6228293, 45.2123768], [16.6228364, 45.2123958], [16.6228378, 45.2124118], [16.6228378, 45.2124287], [16.6228449, 45.2124467], [16.6228577, 45.2124627], [16.6228775, 45.2124746], [16.6228987, 45.2124826], [16.6229242, 45.2124846], [16.6229526, 45.2124846], [16.6229781, 45.2124806], [16.6229993, 45.2124736], [16.6230503, 45.2124697], [16.6230928, 45.2124836], [16.6231325, 45.2125076], [16.6232062, 45.2125535], [16.6232572, 45.2126134], [16.6232657, 45.2126453], [16.6232657, 45.2126812], [16.6232629, 45.2127152], [16.6232629, 45.2127491], [16.6232714, 45.2127811], [16.6233082, 45.212805], [16.6233564, 45.212811], [16.6234102, 45.212809], [16.6234584, 45.212797], [16.6234952, 45.2127731], [16.6235349, 45.2127491], [16.6235774, 45.2127252], [16.6236227, 45.2127012], [16.6236681, 45.2126852], [16.6237134, 45.2126693], [16.6237559, 45.2126453], [16.6238012, 45.2126234], [16.6238437, 45.2126094], [16.6238947, 45.2126094], [16.6239457, 45.2126114], [16.6239939, 45.2126194], [16.6240421, 45.2126333], [16.6240903, 45.2126493], [16.6241328, 45.2126653], [16.6241809, 45.2126773], [16.6242291, 45.2126852], [16.6242801, 45.2126852], [16.6243283, 45.2126832], [16.6243793, 45.2126733], [16.6244303, 45.2126613], [16.6244756, 45.2126433], [16.624521, 45.2126254], [16.6245635, 45.2126094], [16.6246482, 45.2125967], [16.624725, 45.2126034], [16.624764, 45.2126097], [16.6248185, 45.2126273], [16.6249904, 45.2126415], [16.6250426, 45.2126424], [16.6253285, 45.2126673], [16.6258924, 45.212825], [16.6259349, 45.2128389], [16.6259859, 45.2128429], [16.6260341, 45.2128429], [16.6260879, 45.212835], [16.6261389, 45.212833], [16.6261899, 45.2128429], [16.6262211, 45.2128689], [16.6262353, 45.2129008], [16.6262721, 45.2129288], [16.6263174, 45.2129447], [16.6263571, 45.2129627], [16.6263939, 45.2129827], [16.6264279, 45.2130106], [16.6264648, 45.2130306], [16.6265073, 45.2130445], [16.6265611, 45.2130545], [16.6266121, 45.2130525], [16.6266603, 45.2130565], [16.6267113, 45.2130645], [16.6267566, 45.2130825], [16.6268105, 45.2130885], [16.6269125, 45.2130885], [16.6269635, 45.2130905], [16.6270145, 45.2130945], [16.6270655, 45.2130964], [16.6271193, 45.2131024], [16.6271703, 45.2131064], [16.6272213, 45.2131104], [16.6272723, 45.2131144], [16.6273262, 45.2131184], [16.6274905, 45.2131184], [16.6275387, 45.2131164], [16.6275925, 45.2131164], [16.6276435, 45.2131184], [16.6276917, 45.2131264], [16.6277342, 45.2131424], [16.6277795, 45.2131623], [16.6278305, 45.2131783], [16.6278816, 45.2131823], [16.6279238, 45.2131804], [16.6279503, 45.2131822], [16.6281236, 45.2132326], [16.6281827, 45.2132122], [16.6282298, 45.2131832], [16.6282939, 45.2132122], [16.6285504, 45.2133773], [16.6286726, 45.213359], [16.6287488, 45.2133914], [16.6288041, 45.2133744], [16.629177, 45.2138005], [16.6290288, 45.2138463], [16.628763, 45.2139401], [16.6283612, 45.2140546], [16.627818, 45.2142999], [16.6272456, 45.2146833], [16.6267753, 45.2150515], [16.6265805, 45.2152124], [16.6262136, 45.2155825], [16.625952, 45.2158555], [16.625522, 45.2163552], [16.6252774, 45.2166903], [16.6250839, 45.2170065], [16.6249254, 45.2175725], [16.6248447, 45.2177637], [16.6245814, 45.218129], [16.6242132, 45.2185909], [16.623845, 45.2190017], [16.6234822, 45.2193841], [16.6231597, 45.2196529], [16.6228023, 45.2200126], [16.6223723, 45.2205464], [16.6218617, 45.2211408], [16.6211952, 45.2216822], [16.6207706, 45.2220797], [16.6204696, 45.2223901], [16.6196849, 45.2229921], [16.6190399, 45.223488], [16.6185078, 45.2237719], [16.6179488, 45.2241126], [16.6167933, 45.2245518], [16.6157505, 45.2249114], [16.6141112, 45.2253922], [16.6130524, 45.2257556], [16.612101, 45.2261001], [16.6105585, 45.2267171], [16.6092255, 45.2273114], [16.6079409, 45.228008], [16.6070648, 45.2285531], [16.6050977, 45.2293934], [16.6028349, 45.2302602], [16.6014965, 45.2306085], [16.6005721, 45.2307712], [16.5996261, 45.2310211], [16.5984544, 45.2313239], [16.5978685, 45.231392], [16.5968634, 45.2313542], [16.5961163, 45.2312633], [16.5955036, 45.2310968], [16.59495, 45.2309264], [16.593724, 45.2303727], [16.589517, 45.2272405], [16.590194, 45.2267387], [16.5896931, 45.2262065], [16.588032, 45.2251846], [16.5862549, 45.2243025], [16.5849445, 45.2237987], [16.5840623, 45.2235164], [16.5837925, 45.2233142], [16.5829293, 45.2229539], [16.5823085, 45.2227671], [16.5820392, 45.2227314], [16.5807785, 45.2223371], [16.5799581, 45.2221681], [16.5793954, 45.2219836], [16.5790781, 45.2219416], [16.5785552, 45.2219265], [16.5765653, 45.2221446], [16.5763373, 45.2221899], [16.5757607, 45.2223558], [16.5752594, 45.2224447], [16.5747995, 45.2224285], [16.5742621, 45.2223321], [16.5737032, 45.2222092], [16.5724485, 45.2220801], [16.5717659, 45.222066], [16.5711706, 45.2221727], [16.5708818, 45.2222109], [16.5692234, 45.2223335], [16.5682578, 45.2222426], [16.5671759, 45.2222553], [16.56545, 45.2222178], [16.5647854, 45.2221466], [16.5641285, 45.2220031], [16.5634699, 45.2217367], [16.5625647, 45.2215222], [16.5618447, 45.2213877], [16.5615607, 45.2213042], [16.561184, 45.2211935], [16.5605063, 45.220926], [16.5601197, 45.2205319], [16.5596047, 45.2201561], [16.5583619, 45.2196727], [16.5580606, 45.2195968], [16.5577086, 45.2195691], [16.5574267, 45.2195898], [16.5567016, 45.219434], [16.5565451, 45.2192046], [16.5561424, 45.2190346], [16.555292, 45.2191869], [16.5548345, 45.2193247], [16.554309, 45.2192501], [16.5541338, 45.2190708], [16.5538993, 45.2189245], [16.5526894, 45.2187358], [16.5514973, 45.2189422], [16.5505204, 45.2193575], [16.5493246, 45.2195301], [16.5478413, 45.2195699], [16.545035, 45.2205076], [16.5442787, 45.2205519], [16.5437432, 45.2206963], [16.5433733, 45.2210248], [16.5431268, 45.2212005], [16.54277, 45.2213348], [16.5422591, 45.221786], [16.541689, 45.2219657], [16.5408192, 45.2225383], [16.5401745, 45.2236342], [16.5401954, 45.2239308], [16.5399504, 45.2243702], [16.5409604, 45.2255453], [16.538583, 45.2263955], [16.5374736, 45.2266367], [16.5353863, 45.2269745], [16.5342307, 45.2270086], [16.5333169, 45.2269897], [16.5316776, 45.2268534], [16.5299577, 45.226649], [16.5279475, 45.2261266], [16.525416, 45.2252597], [16.5225243, 45.2243398], [16.5196519, 45.2234736], [16.519042, 45.2232554], [16.51837, 45.2229254], [16.51782, 45.2221935], [16.5174729, 45.2219105], [16.5170307, 45.2217358], [16.5163325, 45.2214815], [16.5158004, 45.2213528], [16.5150641, 45.2211294], [16.5138494, 45.2209326], [16.513027, 45.2205956], [16.5123552, 45.22027], [16.512081, 45.220077], [16.5115919, 45.2193955], [16.5110007, 45.2189487], [16.5102805, 45.2185588], [16.509571, 45.2183733], [16.5086573, 45.2182105], [16.508367, 45.2181272], [16.5079854, 45.2179644], [16.5074587, 45.2175857], [16.5072061, 45.2174494], [16.5064644, 45.2169345], [16.505986, 45.2164915], [16.5056743, 45.2162227], [16.5051368, 45.2158593], [16.5037017, 45.215049], [16.5032825, 45.2148597], [16.5025622, 45.2144735], [16.5017453, 45.2139131], [16.501498, 45.2136935], [16.5013851, 45.2135648], [16.5012454, 45.2134587], [16.501154, 45.2133603], [16.5009982, 45.2130612], [16.5003962, 45.2125916], [16.499676, 45.2121146], [16.4993105, 45.2120085], [16.4982553, 45.2119297], [16.4971783, 45.2117892], [16.4970649, 45.2117763], [16.4951295, 45.2113503], [16.4949934, 45.21133], [16.4943249, 45.2110242], [16.4933884, 45.2103955], [16.493012, 45.2098062], [16.4921455, 45.2089761], [16.4914842, 45.2082264], [16.4912105, 45.2077926], [16.4910281, 45.2073963], [16.4907468, 45.2068983], [16.4905416, 45.2061967], [16.4902832, 45.2053184], [16.4901007, 45.2037546], [16.4900247, 45.2023567], [16.4900551, 45.2018372], [16.4898651, 45.2008624], [16.4897295, 45.2003481], [16.4894698, 45.1993628], [16.4891962, 45.1987897], [16.4889226, 45.1983772], [16.4881929, 45.1975899], [16.4879344, 45.1972096], [16.4865206, 45.195292], [16.4861862, 45.194601], [16.4860189, 45.1940332], [16.4858289, 45.1929726], [16.4856541, 45.1923833], [16.4851904, 45.191687], [16.4847039, 45.1910495], [16.4842479, 45.1904924], [16.4840578, 45.1903424], [16.4837347, 45.1900873], [16.4832132, 45.1898218], [16.482302, 45.189467], [16.4819067, 45.1892335], [16.4814658, 45.1888531], [16.4803333, 45.1880014], [16.4798012, 45.1876156], [16.4789043, 45.1871121], [16.4774828, 45.185596], [16.4751265, 45.1837316], [16.4746932, 45.1832762], [16.4743284, 45.1826225], [16.4739939, 45.1818564], [16.4736823, 45.1808813], [16.4735759, 45.1801526]]]}}]}