{"type": "FeatureCollection", "features": [{"type": "Feature", "properties": {"name": "Općina Kreševo, Srednjobosanski kanton / Županija Središnja Bosna, Federacija Bosne i Hercegovine, 71260, Bosna i Hercegovina / Босна и Херцеговина", "source": "OpenStreetMap relation 2528221", "licence": "ODbL 1.0"}, "geometry": {"type": "Polygon", "coordinates": [[[17.9225432, 43.835545], [17.9247883, 43.832306], [17.9253496, 43.8298766], [17.9275947, 43.8266373], [17.9298398, 43.821778], [17.9315236, 43.8173233], [17.9326462, 43.8152983], [17.9337687, 43.8124632], [17.9371364, 43.8076028], [17.9388202, 43.8051724], [17.9410653, 43.8027419], [17.9444329, 43.7999062], [17.9483619, 43.7986909], [17.9545359, 43.7986909], [17.9579036, 43.7962601], [17.9607099, 43.795855], [17.9646389, 43.795855], [17.9674452, 43.7970704], [17.9702516, 43.7978806], [17.9741806, 43.7986909], [17.9769869, 43.8011215], [17.9786708, 43.8027419], [17.9825997, 43.8059825], [17.9842835, 43.8076028], [17.9848448, 43.8120582], [17.9870899, 43.8136783], [17.9915801, 43.8144883], [17.9943275, 43.8136241], [17.9977541, 43.8124632], [18.0011218, 43.8116532], [18.0050507, 43.8112481], [18.0095409, 43.8092229], [18.0112247, 43.8071977], [18.0123471, 43.8039577], [18.0133088, 43.8031186], [18.0142143, 43.8038604], [18.0157043, 43.8037485], [18.0160313, 43.804159], [18.0172126, 43.8042344], [18.0175349, 43.8051281], [18.0183786, 43.8052734], [18.0188373, 43.8056251], [18.0196518, 43.8054563], [18.020874, 43.8056303], [18.0218121, 43.8060477], [18.0226635, 43.8060424], [18.0226022, 43.805558], [18.0248178, 43.8043403], [18.0258518, 43.8045081], [18.0282629, 43.8045988], [18.0291048, 43.8050865], [18.0292305, 43.8063723], [18.0310601, 43.8070692], [18.0308645, 43.8079913], [18.0322491, 43.8088719], [18.0334105, 43.808066], [18.0349705, 43.808246], [18.0357922, 43.8099647], [18.0352274, 43.8103138], [18.0353714, 43.8109426], [18.0356782, 43.8117886], [18.0382056, 43.8122003], [18.0408291, 43.8127799], [18.0445289, 43.8135686], [18.0465137, 43.813939], [18.0484802, 43.8144192], [18.0512698, 43.8151345], [18.053825, 43.8151186], [18.0549568, 43.8151106], [18.0589483, 43.8150826], [18.0646861, 43.8151695], [18.0695027, 43.8151123], [18.0716795, 43.8141307], [18.0762155, 43.8141908], [18.0801236, 43.815483], [18.0837199, 43.8163902], [18.0848443, 43.8175146], [18.082422, 43.8187429], [18.0800704, 43.81996], [18.0799738, 43.8206267], [18.0799722, 43.822148], [18.0819317, 43.8222185], [18.0832918, 43.8235832], [18.0847693, 43.8241718], [18.0858369, 43.8241776], [18.0872676, 43.8251524], [18.088132, 43.8253596], [18.0901984, 43.8254649], [18.0898817, 43.8270643], [18.0908318, 43.8279782], [18.0930488, 43.8304915], [18.0936822, 43.8330046], [18.0958992, 43.8350607], [18.0990663, 43.8352892], [18.1009665, 43.8357461], [18.1035002, 43.8378021], [18.1079341, 43.8398581], [18.1111012, 43.8407718], [18.114585, 43.8430561], [18.1130015, 43.8439698], [18.1098344, 43.8451119], [18.1123681, 43.8462539], [18.1136349, 43.8483096], [18.1183856, 43.8517356], [18.1206025, 43.8540194], [18.1215527, 43.8551613], [18.1225028, 43.8565316], [18.1221861, 43.8604138], [18.1199691, 43.8617839], [18.1174354, 43.8613272], [18.114585, 43.8620122], [18.1114179, 43.8626973], [18.1085676, 43.863839], [18.1088843, 43.8652091], [18.1098344, 43.8663508], [18.1111012, 43.8709173], [18.1126848, 43.8734287], [18.114585, 43.8761683], [18.114585, 43.8786795], [18.1155352, 43.8809624], [18.1177521, 43.8827886], [18.1199691, 43.8841582], [18.1221861, 43.8878103], [18.1244031, 43.8896363], [18.1275701, 43.8916905], [18.1275701, 43.892147], [18.1250365, 43.8944293], [18.1250365, 43.8969397], [18.1218694, 43.8978526], [18.1171187, 43.9003629], [18.1139516, 43.9026449], [18.1114179, 43.9060677], [18.1088843, 43.909034], [18.1073007, 43.9101749], [18.1035002, 43.9124565], [18.1006498, 43.9145099], [18.097166, 43.9158787], [18.0952658, 43.916335], [18.0905151, 43.9172476], [18.0863979, 43.9177039], [18.0806971, 43.917932], [18.0791136, 43.9183883], [18.0765799, 43.9188446], [18.0727794, 43.919529], [18.0683454, 43.9199852], [18.0670786, 43.9202133], [18.0623279, 43.9236352], [18.0607444, 43.9254601], [18.0607365, 43.925462], [18.0588441, 43.9256882], [18.055677, 43.9254601], [18.0534601, 43.9240914], [18.0528266, 43.923407], [18.0477593, 43.9220383], [18.0433253, 43.9218102], [18.0411084, 43.9224946], [18.0373079, 43.9231789], [18.0233502, 43.9254855], [18.0211401, 43.9275255], [18.0192411, 43.9287309], [18.0179429, 43.9283291], [18.0163979, 43.9275641], [18.0149281, 43.9266523], [18.0138123, 43.9258023], [18.0130505, 43.9250914], [18.0126214, 43.9245891], [18.0121386, 43.9241255], [18.0119455, 43.92394], [18.0113661, 43.9233836], [18.0108189, 43.9225567], [18.0106473, 43.9220544], [18.0105507, 43.9216758], [18.0103683, 43.9210962], [18.0097461, 43.9206016], [18.0093706, 43.9203002], [18.0091989, 43.9200452], [18.0089736, 43.9199447], [18.0135994, 43.9133545], [18.0123325, 43.9119856], [18.0104323, 43.9092476], [18.0094821, 43.9058249], [18.008532, 43.9049122], [18.008532, 43.9035431], [18.0078986, 43.9017175], [18.0044148, 43.9003483], [18.0031479, 43.8998919], [18.0006143, 43.8987508], [17.9980806, 43.8971534], [17.9942801, 43.8962405], [17.9901628, 43.8944147], [17.9873125, 43.8935018], [17.9857289, 43.8928171], [17.9844621, 43.8912194], [17.9838287, 43.8900782], [17.9822451, 43.8882522], [17.9816117, 43.8877957], [17.981295, 43.8864262], [17.9816117, 43.8859697], [17.9835119, 43.8836871], [17.9879459, 43.8804912], [17.9907963, 43.8779801], [17.9917464, 43.8770669], [17.9949135, 43.8750122], [17.9958636, 43.8734141], [17.998714, 43.8718159], [18.0018811, 43.8718159], [18.0037814, 43.8715876], [18.0059983, 43.8699894], [18.0059983, 43.8677061], [18.0056816, 43.8661078], [18.0037814, 43.8649661], [18.000931, 43.8635961], [17.9990307, 43.862911], [17.9977639, 43.8619976], [17.9949135, 43.8624543], [17.9930132, 43.8631394], [17.9876292, 43.8633677], [17.9863623, 43.8638244], [17.9838287, 43.8651945], [17.9816117, 43.8656511], [17.9793947, 43.8651945], [17.9778112, 43.8638244], [17.9749608, 43.8631394], [17.9717937, 43.8640528], [17.9702101, 43.8663362], [17.9689433, 43.8681628], [17.9664096, 43.8693044], [17.9638759, 43.8683911], [17.9610255, 43.8674778], [17.9584919, 43.8674778], [17.957225, 43.8667928], [17.9569083, 43.8651945], [17.9540579, 43.8663362], [17.9508908, 43.8677061], [17.9489906, 43.8688478], [17.9464569, 43.8706744], [17.9442399, 43.8695328], [17.9413895, 43.8647378], [17.939806, 43.8624543], [17.9366389, 43.8594857], [17.9353721, 43.8574304], [17.9341052, 43.8544616], [17.9341052, 43.8524061], [17.9353721, 43.8498938], [17.9372723, 43.8473814], [17.9382224, 43.8457825], [17.9360055, 43.8446404], [17.9337885, 43.8434983], [17.9312548, 43.8418994], [17.9303047, 43.8405288], [17.9293546, 43.8382444], [17.9284044, 43.8368737], [17.9261875, 43.8359599], [17.9225432, 43.835545]]]}}]}