{"type": "FeatureCollection", "features": [{"type": "Feature", "properties": {"name": "Općina Kupres, Hercegbosanska županija, Federacija Bosne i Hercegovine, 80320, Bosna i Hercegovina / Босна и Херцеговина", "source": "OpenStreetMap relation 2528224", "licence": "ODbL 1.0"}, "geometry": {"type": "Polygon", "coordinates": [[[17.0694122, 43.899774], [17.0717935, 43.8969141], [17.0728913, 43.895332], [17.073381, 43.8946262], [17.0814228, 43.8910888], [17.0857143, 43.8884908], [17.0910895, 43.8826837], [17.0966816, 43.8766418], [17.1056358, 43.882318], [17.1058363, 43.8824536], [17.1061099, 43.8826044], [17.1062037, 43.8827939], [17.1062547, 43.8829234], [17.1062896, 43.8830046], [17.1067214, 43.8831573], [17.1076012, 43.8833216], [17.1082476, 43.8835034], [17.1083602, 43.8835633], [17.1085453, 43.8837489], [17.1085507, 43.8838861], [17.1084729, 43.8840872], [17.1084579, 43.8844169], [17.1088162, 43.8847155], [17.1091086, 43.8847986], [17.1101761, 43.8850112], [17.1105248, 43.8851311], [17.1106347, 43.88522], [17.1106803, 43.8853031], [17.1108493, 43.8856666], [17.1110639, 43.8858038], [17.1124265, 43.8865017], [17.1129951, 43.8866563], [17.1133706, 43.8866931], [17.1136308, 43.886695], [17.1138802, 43.8867143], [17.1142155, 43.8868883], [17.1144488, 43.887043], [17.114642, 43.8872575], [17.1148539, 43.8877485], [17.1151409, 43.8880366], [17.1152776, 43.8881467], [17.1160681, 43.8886274], [17.1163425, 43.8886822], [17.1167234, 43.888688], [17.1168709, 43.8886377], [17.1170184, 43.8885082], [17.1172705, 43.8881216], [17.117402, 43.8875011], [17.1174341, 43.8870236], [17.1175307, 43.8868632], [17.1176782, 43.8867839], [17.1178982, 43.8867762], [17.1180671, 43.8868284], [17.1181905, 43.8868748], [17.1183836, 43.8868767], [17.1184963, 43.8868419], [17.1187323, 43.8868052], [17.1189013, 43.886811], [17.1190113, 43.8867549], [17.1190274, 43.8866892], [17.1189684, 43.8865887], [17.1186492, 43.88603], [17.1186948, 43.8859295], [17.1187323, 43.8858406], [17.1187404, 43.8856511], [17.1187136, 43.8854597], [17.1183971, 43.8847193], [17.1184427, 43.884613], [17.1185338, 43.8845241], [17.1186787, 43.8844526], [17.1188208, 43.8844004], [17.1190461, 43.8843462], [17.1191239, 43.8843385], [17.1192822, 43.8843288], [17.1194029, 43.8843617], [17.1195826, 43.884468], [17.1198347, 43.8845608], [17.1199554, 43.8845376], [17.1201727, 43.8844738], [17.120406, 43.8844506], [17.1205884, 43.8844719], [17.1207359, 43.8845318], [17.1208781, 43.8845879], [17.121031, 43.8845859], [17.1211785, 43.8845337], [17.1212751, 43.884439], [17.1212804, 43.8843346], [17.1212885, 43.8838243], [17.1214226, 43.8837237], [17.1215486, 43.8836986], [17.121731, 43.8837005], [17.1227905, 43.8839461], [17.1230802, 43.8840659], [17.1232679, 43.8841548], [17.1234396, 43.8841993], [17.1236461, 43.8841858], [17.1238339, 43.8841432], [17.1244132, 43.8838765], [17.1246734, 43.8837179], [17.1248585, 43.883428], [17.1249041, 43.8832346], [17.1249711, 43.8829118], [17.1250436, 43.8828364], [17.1252716, 43.8826566], [17.1253842, 43.8826373], [17.1255251, 43.8826414], [17.1256927, 43.882703], [17.1261594, 43.8828229], [17.1267924, 43.8828673], [17.1270579, 43.8827997], [17.1272001, 43.8827262], [17.1273825, 43.882502], [17.1275058, 43.8821327], [17.1275085, 43.8819896], [17.1275085, 43.8818852], [17.1275917, 43.8815856], [17.1276453, 43.8815295], [17.1277124, 43.8814928], [17.1285975, 43.8813671], [17.1287906, 43.8813729], [17.1289837, 43.8814039], [17.129252, 43.8814657], [17.1296221, 43.8816436], [17.1299842, 43.8817538], [17.1302444, 43.8817654], [17.1309283, 43.8817905], [17.13099, 43.8817441], [17.1310204, 43.8816416], [17.1312314, 43.8810153], [17.1313682, 43.8808529], [17.131556, 43.8808007], [17.131741, 43.8807987], [17.1319422, 43.8808026], [17.1321031, 43.8807465], [17.1324679, 43.880561], [17.1328166, 43.8804817], [17.1332216, 43.8804314], [17.1336052, 43.8803986], [17.1340129, 43.8803077], [17.1342945, 43.8801395], [17.1343723, 43.8798843], [17.1344233, 43.8797973], [17.1346647, 43.8795672], [17.1348068, 43.8794609], [17.1349624, 43.8793932], [17.1352413, 43.879312], [17.1354586, 43.8792656], [17.1366763, 43.8791767], [17.1368694, 43.8792212], [17.1370411, 43.879256], [17.1372905, 43.8792946], [17.1375293, 43.8792966], [17.1377411, 43.8792482], [17.13824, 43.8789756], [17.1384008, 43.8789143], [17.1387457, 43.8789372], [17.1390756, 43.8789994], [17.1393446, 43.8789701], [17.139842, 43.8788677], [17.1400754, 43.8787725], [17.14025, 43.8785687], [17.1405748, 43.8784443], [17.1408946, 43.8783748], [17.1413361, 43.8781809], [17.1417269, 43.8780456], [17.142138, 43.8780236], [17.1425796, 43.8778407], [17.1430922, 43.8775663], [17.1434373, 43.8775115], [17.1437317, 43.8776102], [17.1439854, 43.8778188], [17.1442899, 43.8780712], [17.1445285, 43.8780931], [17.1449396, 43.8781188], [17.1451527, 43.8782505], [17.1455385, 43.8783492], [17.1458684, 43.8782614], [17.1463353, 43.8780566], [17.1467565, 43.8780749], [17.1471879, 43.8782431], [17.1477919, 43.8786419], [17.1484821, 43.8789199], [17.1495124, 43.8792894], [17.1501823, 43.8796004], [17.1504513, 43.8798491], [17.1505985, 43.8799333], [17.150969, 43.8799808], [17.1513091, 43.8801162], [17.1517405, 43.8803979], [17.1518826, 43.8805661], [17.1519993, 43.8808368], [17.1520805, 43.8809027], [17.1524459, 43.8808185], [17.1528215, 43.8807929], [17.1532072, 43.8807673], [17.1535422, 43.8806649], [17.153796, 43.8807234], [17.1539178, 43.8808588], [17.1539381, 43.8812283], [17.1542883, 43.8814441], [17.1545166, 43.8815099], [17.1548009, 43.8814917], [17.1549937, 43.8813344], [17.1552069, 43.881071], [17.1555418, 43.8809173], [17.1560951, 43.8808881], [17.1568389, 43.8808893], [17.1572449, 43.8808857], [17.1574936, 43.8810101], [17.1576763, 43.8812222], [17.157788, 43.8814417], [17.1580367, 43.8814966], [17.1585493, 43.8814966], [17.1589147, 43.881599], [17.1597166, 43.8821258], [17.1598739, 43.8822941], [17.1600465, 43.8825392], [17.1604271, 43.8826013], [17.1608839, 43.8825172], [17.1613813, 43.8823672], [17.1617518, 43.8823307], [17.1620715, 43.8823928], [17.1622086, 43.8825684], [17.1622263, 43.8827577], [17.1622086, 43.8828913], [17.1624344, 43.883001], [17.1627161, 43.8831546], [17.1627668, 43.8832479], [17.1627389, 43.8833869], [17.1625308, 43.8834601], [17.1623228, 43.8836046], [17.1623202, 43.8840015], [17.1624116, 43.8841551], [17.1627009, 43.8843526], [17.162777, 43.8845264], [17.1629191, 43.8847349], [17.1633378, 43.8849983], [17.1636195, 43.8852744], [17.1637438, 43.8855506], [17.163858, 43.8856329], [17.1641143, 43.885675], [17.1645381, 43.8857371], [17.1648147, 43.8858579], [17.1652106, 43.8860023], [17.1654706, 43.8860692], [17.1658932, 43.8861779], [17.1662383, 43.8862291], [17.1663585, 43.8862131], [17.1665403, 43.8861889], [17.1667738, 43.8860901], [17.167091, 43.8860682], [17.1672762, 43.8860938], [17.1675579, 43.8861432], [17.1678066, 43.8861724], [17.1680147, 43.8861468], [17.1683598, 43.8860956], [17.1686491, 43.8860974], [17.1688978, 43.8861231], [17.169116, 43.8860645], [17.1691896, 43.8860027], [17.1692683, 43.8859365], [17.1695449, 43.88592], [17.1697022, 43.8859182], [17.1699306, 43.8860097], [17.1699793, 43.886017], [17.1701615, 43.8860444], [17.1704178, 43.8859182], [17.1709203, 43.8857938], [17.1713796, 43.8856622], [17.171405, 43.8854244], [17.1713085, 43.8851007], [17.1714101, 43.8849781], [17.1717806, 43.8848245], [17.1720242, 43.8845758], [17.1721206, 43.884252], [17.1722652, 43.8841588], [17.1725926, 43.8839905], [17.1727372, 43.8837765], [17.1727372, 43.8834674], [17.1727195, 43.8831565], [17.1728108, 43.8828693], [17.1730164, 43.8827504], [17.1732752, 43.8826004], [17.1737295, 43.8823334], [17.1741025, 43.8820206], [17.1814186, 43.8787124], [17.1830999, 43.8786965], [17.1848342, 43.8786853], [17.1851211, 43.8785833], [17.186336, 43.8781515], [17.1867557, 43.8791738], [17.1868783, 43.8794724], [17.187166, 43.8801731], [17.1874593, 43.8808873], [17.1878248, 43.8817776], [17.1880081, 43.882224], [17.1899804, 43.8832902], [17.1906233, 43.8836377], [17.19127, 43.8839873], [17.1915333, 43.8841297], [17.1953658, 43.8835535], [17.1985084, 43.883081], [17.2014618, 43.8826489], [17.2034854, 43.8817913], [17.2042985, 43.8814462], [17.2053623, 43.8822656], [17.2068965, 43.8862639], [17.2089672, 43.8858], [17.209273, 43.8856376], [17.2093481, 43.88551], [17.2099864, 43.8843694], [17.2101313, 43.8841452], [17.2102064, 43.8839325], [17.2101849, 43.8837315], [17.2101688, 43.8835382], [17.2102815, 43.8834376], [17.2103888, 43.8833642], [17.2105658, 43.8830703], [17.2107804, 43.882761], [17.2108287, 43.8825174], [17.2108179, 43.8820457], [17.2126633, 43.8807736], [17.2126901, 43.8806151], [17.2127706, 43.8804488], [17.2129154, 43.8800312], [17.212894, 43.8781095], [17.2132534, 43.8779509], [17.2137201, 43.8778272], [17.2145784, 43.8776532], [17.2152758, 43.8775952], [17.2156727, 43.8774908], [17.2162199, 43.87705], [17.2167295, 43.8767638], [17.2170728, 43.8766324], [17.2172552, 43.8765318], [17.2174376, 43.8763655], [17.2177219, 43.8761258], [17.2180116, 43.8759557], [17.2181725, 43.8758551], [17.2186017, 43.8755651], [17.2186822, 43.8753756], [17.2186071, 43.8749812], [17.2181833, 43.8743431], [17.218076, 43.8741421], [17.2184354, 43.8739255], [17.2188646, 43.8737515], [17.2201467, 43.8732372], [17.2206294, 43.8731289], [17.2212517, 43.873125], [17.2216755, 43.8731444], [17.2222495, 43.8731444], [17.2226465, 43.8731212], [17.2228771, 43.8731869], [17.2233492, 43.8734305], [17.2294217, 43.8707777], [17.2309023, 43.870155], [17.2315139, 43.8700506], [17.2319806, 43.8700545], [17.2328657, 43.869865], [17.2332197, 43.8696755], [17.2335094, 43.8694241], [17.2339868, 43.8691302], [17.2342014, 43.869049], [17.235167, 43.8685153], [17.2354567, 43.8684495], [17.2357196, 43.8684031], [17.2360361, 43.8683026], [17.2362238, 43.8681556], [17.2363096, 43.867939], [17.2364008, 43.8676799], [17.2364867, 43.8675523], [17.2368997, 43.8668832], [17.2372591, 43.8667904], [17.2376668, 43.8667014], [17.2379619, 43.8665816], [17.2382194, 43.8665622], [17.2386378, 43.8666589], [17.239759, 43.8671888], [17.240231, 43.8672545], [17.2406012, 43.8673048], [17.2410035, 43.8673667], [17.2416043, 43.8673009], [17.2419423, 43.8671462], [17.2426182, 43.8668794], [17.2432029, 43.8666241], [17.2436106, 43.8663843], [17.2448981, 43.8661716], [17.2453219, 43.8663766], [17.2465235, 43.866392], [17.2476447, 43.8661871], [17.2487873, 43.8658854], [17.2492915, 43.8645472], [17.2424841, 43.856092], [17.24889, 43.8553371], [17.2491789, 43.8534306], [17.2481489, 43.8506144], [17.2484332, 43.8488735], [17.248798, 43.847148], [17.2494149, 43.8444244], [17.2505414, 43.8381022], [17.2516465, 43.8344726], [17.2520864, 43.8337297], [17.2523653, 43.8332885], [17.2525048, 43.833126], [17.252816, 43.832948], [17.2534382, 43.8326616], [17.2541034, 43.8325146], [17.2545969, 43.8323288], [17.2550154, 43.8321199], [17.2564638, 43.8314852], [17.2570753, 43.8313846], [17.2566783, 43.8304094], [17.2566891, 43.8296974], [17.2557127, 43.8289775], [17.2618711, 43.8249527], [17.2606051, 43.8228859], [17.2616136, 43.8209275], [17.2631478, 43.8203702], [17.2638667, 43.8198515], [17.2645426, 43.8194258], [17.2655404, 43.8187445], [17.2659588, 43.8182801], [17.2660017, 43.8180478], [17.266109, 43.816786], [17.2663665, 43.8164376], [17.2670102, 43.8160428], [17.2672784, 43.8158338], [17.267214, 43.8155164], [17.266978, 43.8153383], [17.2668815, 43.8150673], [17.2671068, 43.8148583], [17.2671389, 43.8146106], [17.2666025, 43.8137667], [17.2665381, 43.813457], [17.2670317, 43.8129693], [17.2674179, 43.8126132], [17.2676217, 43.8122725], [17.2673857, 43.8120093], [17.2669995, 43.8116919], [17.2666622, 43.8112285], [17.2677934, 43.8096711], [17.2675359, 43.8092685], [17.2672892, 43.8088659], [17.2670102, 43.8086336], [17.2671497, 43.8081614], [17.2674286, 43.8077665], [17.267493, 43.8074877], [17.2674179, 43.8071548], [17.2672462, 43.8066902], [17.2656906, 43.8040809], [17.2640276, 43.8038718], [17.2631907, 43.8032601], [17.262311, 43.8025864], [17.2668278, 43.8008751], [17.2677934, 43.8005344], [17.2692203, 43.7996671], [17.270938, 43.7983998], [17.2740727, 43.7967131], [17.2763178, 43.7954977], [17.280808, 43.793472], [17.2841756, 43.791041], [17.2858595, 43.7902307], [17.2903497, 43.7890151], [17.2942786, 43.7890151], [17.2987688, 43.7877996], [17.3026977, 43.786584], [17.3099943, 43.7829371], [17.3122394, 43.7817214], [17.3139233, 43.7813162], [17.3167296, 43.7833423], [17.3167296, 43.7837476], [17.3223424, 43.784558], [17.3273939, 43.784558], [17.3324454, 43.7837476], [17.3352517, 43.7833423], [17.341987, 43.7817214], [17.3470385, 43.7784795], [17.3477274, 43.774824], [17.3521363, 43.7730455], [17.358264, 43.769158], [17.3639978, 43.7629827], [17.3693848, 43.7638341], [17.3754573, 43.7730616], [17.377646, 43.7744019], [17.3815727, 43.7763308], [17.3864812, 43.7785347], [17.3921299, 43.7814899], [17.3874628, 43.7862148], [17.3842013, 43.791497], [17.3834932, 43.7958803], [17.3828065, 43.8008906], [17.382313, 43.8040112], [17.3817336, 43.806729], [17.3809934, 43.8102363], [17.3804247, 43.8136583], [17.3799527, 43.8177459], [17.3792767, 43.8225221], [17.3781288, 43.8288382], [17.3780626, 43.8294756], [17.3779464, 43.8295658], [17.3789107, 43.8319435], [17.3798664, 43.8342997], [17.3799527, 43.8345345], [17.3816693, 43.8387445], [17.3817384, 43.8391433], [17.3817551, 43.8392398], [17.3810685, 43.8389147], [17.380178, 43.8386826], [17.3794377, 43.8385665], [17.3790897, 43.8385508], [17.3789013, 43.8385423], [17.378751, 43.8385355], [17.3785794, 43.8387368], [17.3784721, 43.8389921], [17.3785686, 43.8393249], [17.3786875, 43.8393725], [17.3788583, 43.839441], [17.3792292, 43.8395782], [17.3793621, 43.8396274], [17.3795967, 43.8397142], [17.3799172, 43.8398328], [17.3811468, 43.8402878], [17.3813259, 43.8403541], [17.3815942, 43.8405089], [17.3817382, 43.84066], [17.3818302, 43.8407565], [17.3820233, 43.8409345], [17.3822808, 43.8412131], [17.3828709, 43.8414684], [17.3836112, 43.841778], [17.3839223, 43.8419637], [17.3841209, 43.8422024], [17.3843729, 43.8425053], [17.3854458, 43.843403], [17.385478, 43.8435732], [17.3854351, 43.8437899], [17.3852849, 43.8441226], [17.3853278, 43.8444863], [17.3854673, 43.8446952], [17.3858642, 43.8448035], [17.3861217, 43.8449505], [17.3866119, 43.8452833], [17.3866689, 43.845322], [17.3880958, 43.8450821], [17.3900476, 43.8467571], [17.392559, 43.8489122], [17.3932911, 43.8496539], [17.395606, 43.8519993], [17.3964322, 43.852448], [17.3971403, 43.8526801], [17.3979932, 43.8529045], [17.3986155, 43.8532913], [17.3992538, 43.8535273], [17.39986, 43.8536201], [17.4016947, 43.8537517], [17.4021721, 43.8538522], [17.4024135, 43.8539412], [17.4027353, 43.8543783], [17.4029124, 43.8545988], [17.4031645, 43.8550553], [17.4035829, 43.8549973], [17.4038243, 43.8550127], [17.4045968, 43.8551326], [17.4051332, 43.8551558], [17.4053961, 43.8551597], [17.4056214, 43.8550514], [17.4058628, 43.8547652], [17.4072736, 43.8550089], [17.4078584, 43.854564], [17.408132, 43.8549663], [17.4083304, 43.8551094], [17.4087006, 43.8551636], [17.408883, 43.8551172], [17.4093282, 43.8550205], [17.4095696, 43.8550359], [17.4107006, 43.8552228], [17.410813, 43.855119], [17.411088, 43.8549303], [17.411384, 43.855041], [17.4198489, 43.8564252], [17.4246115, 43.8610039], [17.4269928, 43.8632932], [17.4301678, 43.8690159], [17.4325491, 43.871877], [17.4333429, 43.8730215], [17.4373117, 43.8741659], [17.4412805, 43.874738], [17.4436618, 43.874738], [17.448413, 43.8775913], [17.4484244, 43.8775989], [17.4493779, 43.8815851], [17.4516357, 43.8844704], [17.4519002, 43.8847561], [17.4520504, 43.8850151], [17.4523508, 43.8853128], [17.4525386, 43.8855293], [17.4528712, 43.8857033], [17.4531662, 43.8857806], [17.4535257, 43.8857265], [17.4540889, 43.8856221], [17.4543089, 43.8856414], [17.4548614, 43.8857342], [17.4551296, 43.8858154], [17.4553442, 43.8860049], [17.4557304, 43.886318], [17.456122, 43.8868168], [17.4561757, 43.8869212], [17.4562937, 43.8870062], [17.4565458, 43.8870835], [17.4570662, 43.8872227], [17.4569213, 43.8878336], [17.4565887, 43.8890553], [17.45646, 43.8892138], [17.4563312, 43.8893684], [17.4562561, 43.8895849], [17.4562776, 43.8897898], [17.4561167, 43.8903774], [17.4559504, 43.8905205], [17.4554837, 43.890853], [17.4548936, 43.8912511], [17.4542767, 43.8968758], [17.4489391, 43.8984568], [17.4484885, 43.8985727], [17.447893, 43.8987196], [17.4475497, 43.8988046], [17.4471635, 43.8988819], [17.4464929, 43.8988472], [17.4449265, 43.9003547], [17.4442184, 43.9009228], [17.4437517, 43.9014331], [17.4435103, 43.9017925], [17.4432903, 43.9021945], [17.4431294, 43.9026313], [17.4428666, 43.903385], [17.4425125, 43.9044711], [17.4422121, 43.90536], [17.4419761, 43.9056538], [17.4406564, 43.906249], [17.4400127, 43.9063649], [17.4395621, 43.9063031], [17.4387681, 43.9058084], [17.4382532, 43.9054992], [17.4365365, 43.9047957], [17.4350774, 43.9036671], [17.4347019, 43.9032729], [17.4342728, 43.9024612], [17.4340582, 43.9014253], [17.4339187, 43.9007605], [17.43379, 43.9004204], [17.4334788, 43.9000879], [17.4329209, 43.8993613], [17.4325561, 43.8990443], [17.4317837, 43.8986578], [17.4307966, 43.8983872], [17.4302709, 43.8984181], [17.4295306, 43.8985186], [17.4294341, 43.8988046], [17.4296486, 43.8993381], [17.429831, 43.9003276], [17.4303675, 43.9020051], [17.4299812, 43.9029173], [17.429497, 43.9043411], [17.4295735, 43.9054605], [17.429972, 43.9071398], [17.4300027, 43.9072693], [17.43011, 43.9078799], [17.4301827, 43.9085926], [17.4301963, 43.9087257], [17.4302517, 43.909269], [17.4302684, 43.9094327], [17.4302709, 43.9094568], [17.4300027, 43.9103302], [17.4300778, 43.910879], [17.4302602, 43.911505], [17.4305676, 43.9123223], [17.4307108, 43.9127031], [17.4308062, 43.9129013], [17.4312687, 43.9138624], [17.4313549, 43.9140176], [17.4317622, 43.9147512], [17.4318326, 43.9150046], [17.4321377, 43.9161037], [17.4321805, 43.9164344], [17.4321956, 43.9165514], [17.4322557, 43.9170157], [17.4320855, 43.9174913], [17.4319875, 43.9177653], [17.4316897, 43.9184472], [17.4313867, 43.919141], [17.4311399, 43.9198983], [17.4310861, 43.9202607], [17.4310756, 43.9203311], [17.4313438, 43.9209725], [17.4314296, 43.9217917], [17.4314216, 43.9219659], [17.4314003, 43.9224277], [17.4313441, 43.9224981], [17.4310129, 43.9226951], [17.4308401, 43.9228922], [17.4302786, 43.9232033], [17.4302066, 43.9233277], [17.4300482, 43.9235974], [17.4298467, 43.9239085], [17.4297603, 43.9241885], [17.4295731, 43.9243233], [17.4292707, 43.9244788], [17.4289252, 43.9247277], [17.4287236, 43.924904], [17.4286516, 43.9251011], [17.428594, 43.925267], [17.4284069, 43.9254329], [17.4283061, 43.9256092], [17.4282485, 43.9258788], [17.4281333, 43.9260136], [17.4278309, 43.9263144], [17.4277111, 43.9267286], [17.4272973, 43.9273322], [17.4271389, 43.9274567], [17.4264726, 43.9277428], [17.4259127, 43.9279041], [17.4255258, 43.9280654], [17.4253934, 43.9281754], [17.4252204, 43.9284027], [17.4250778, 43.9286227], [17.4249251, 43.9287767], [17.4246604, 43.928894], [17.4245779, 43.9289883], [17.4244568, 43.9291726], [17.4244059, 43.9293119], [17.4243244, 43.9294293], [17.4242328, 43.9294586], [17.4240394, 43.9294586], [17.4238867, 43.9294586], [17.4236729, 43.9295246], [17.4234399, 43.9295697], [17.4234081, 43.9295759], [17.4233003, 43.9295537], [17.4231943, 43.9295319], [17.4229704, 43.9295319], [17.4225631, 43.9295686], [17.422105, 43.9295906], [17.4217181, 43.9295832], [17.4212396, 43.9295612], [17.4210054, 43.9295539], [17.4208731, 43.9295686], [17.4207815, 43.9296272], [17.4207204, 43.9297225], [17.4206898, 43.9298179], [17.4206593, 43.9299865], [17.4206389, 43.9300818], [17.4206084, 43.9302431], [17.420476, 43.9304484], [17.4203437, 43.9305438], [17.4201706, 43.9306391], [17.4200586, 43.9307491], [17.4199059, 43.9308884], [17.4197532, 43.9309617], [17.4195801, 43.9310497], [17.4194172, 43.9311377], [17.4193052, 43.931255], [17.4190139, 43.9314761], [17.4187692, 43.9316109], [17.4186396, 43.9317353], [17.4184668, 43.9318753], [17.4182509, 43.9319531], [17.4180133, 43.932036], [17.4178405, 43.9321138], [17.4177469, 43.9322227], [17.4176677, 43.9324093], [17.4176821, 43.932596], [17.4177397, 43.9327619], [17.4177109, 43.9329018], [17.4176389, 43.9330833], [17.4175237, 43.9332388], [17.4173726, 43.9334514], [17.4170414, 43.9339802], [17.416883, 43.934229], [17.4167391, 43.9345349], [17.4166527, 43.9347526], [17.4166671, 43.9349341], [17.4167823, 43.935157], [17.4168974, 43.9353488], [17.416955, 43.9355562], [17.4168749, 43.9357299], [17.416768, 43.9358802], [17.4166764, 43.9360745], [17.4165797, 43.9362981], [17.4163812, 43.936595], [17.4162793, 43.9368149], [17.4161979, 43.9369945], [17.4161724, 43.9371558], [17.4160961, 43.9372695], [17.4159586, 43.9373831], [17.4158365, 43.9375187], [17.4156583, 43.937625], [17.4155209, 43.9377313], [17.4154292, 43.9378926], [17.4153623, 43.9381254], [17.4151824, 43.9382291], [17.4149808, 43.9382913], [17.4147504, 43.9383898], [17.4146064, 43.9384572], [17.4144841, 43.9385816], [17.4143977, 43.9387216], [17.4141961, 43.9389134], [17.4139297, 43.9390637], [17.4136697, 43.9392153], [17.4134508, 43.9393582], [17.4132268, 43.9394609], [17.4130486, 43.9395159], [17.4129163, 43.9395452], [17.4127941, 43.9395818], [17.4126974, 43.9396148], [17.412621, 43.9396698], [17.4125498, 43.9397578], [17.4124785, 43.9398678], [17.4123869, 43.9399704], [17.4122901, 43.9400144], [17.4120102, 43.9400694], [17.4117505, 43.9400877], [17.4115927, 43.9400694], [17.41144, 43.9400987], [17.4112924, 43.9401317], [17.4111804, 43.9401537], [17.4109666, 43.9401317], [17.410819, 43.9401023], [17.4107019, 43.940106], [17.4105696, 43.9401097], [17.4104423, 43.9400913], [17.4102794, 43.9400694], [17.4100961, 43.9400767], [17.4098823, 43.9401133], [17.4096533, 43.9401573], [17.408961, 43.9404469], [17.4085588, 43.9406668], [17.4080701, 43.9408648], [17.4077545, 43.9409747], [17.4077089, 43.9409809], [17.4074679, 43.9410134], [17.4074287, 43.9410187], [17.4070622, 43.9411507], [17.4068688, 43.941246], [17.4067161, 43.9413926], [17.4065137, 43.9416938], [17.4063121, 43.9418545], [17.4062473, 43.9420049], [17.4060385, 43.9423159], [17.4058802, 43.9424455], [17.405585, 43.942601], [17.4053186, 43.9427357], [17.4051746, 43.9428809], [17.4050379, 43.9429638], [17.4048507, 43.9430416], [17.4045771, 43.9431245], [17.4044044, 43.9432074], [17.4042892, 43.9433163], [17.404174, 43.9434252], [17.4040588, 43.9435081], [17.4038716, 43.9436273], [17.4037852, 43.9437724], [17.4037924, 43.9439435], [17.4038428, 43.9440575], [17.4039522, 43.9441827], [17.4040026, 43.9443641], [17.4040242, 43.9445507], [17.4039738, 43.9447788], [17.4038802, 43.944955], [17.4037578, 43.9451209], [17.4036067, 43.9452919], [17.4034051, 43.9454889], [17.4032035, 43.945634], [17.4028796, 43.9458621], [17.402714, 43.945971], [17.402642, 43.9460643], [17.4026204, 43.9462198], [17.40257, 43.9464167], [17.402462, 43.9465307], [17.402282, 43.9467018], [17.4021812, 43.946878], [17.4021713, 43.9470717], [17.4021916, 43.9472256], [17.4022069, 43.9473135], [17.4021662, 43.9474198], [17.4020695, 43.9475188], [17.4019677, 43.9476177], [17.401932, 43.947702], [17.4019218, 43.947812], [17.4019473, 43.9480099], [17.4020237, 43.9481895], [17.4022375, 43.9484644], [17.4022985, 43.9485853], [17.4023138, 43.9487392], [17.4019931, 43.9496078], [17.401988, 43.9497068], [17.402044, 43.9498497], [17.3913574, 43.9522471], [17.3884392, 43.9495745], [17.3813796, 43.9430395], [17.3762727, 43.931783], [17.3650288, 43.9286459], [17.3643851, 43.9367741], [17.3639238, 43.936805], [17.3616171, 43.9367895], [17.3598254, 43.9367895], [17.3587096, 43.9366505], [17.3579907, 43.9365732], [17.3575294, 43.9367432], [17.3571217, 43.9369981], [17.3565423, 43.9371836], [17.3559201, 43.9374849], [17.3554051, 43.9374076], [17.3550939, 43.9378094], [17.3544288, 43.9383424], [17.3540318, 43.9387133], [17.3538279, 43.9391614], [17.3544502, 43.9393699], [17.3547614, 43.9394163], [17.3553193, 43.9391845], [17.3555553, 43.9395476], [17.3555446, 43.9398026], [17.3555231, 43.9401502], [17.3553085, 43.9405751], [17.3553085, 43.9407451], [17.3553193, 43.9409923], [17.3540854, 43.9409537], [17.3537528, 43.9416721], [17.3523903, 43.9430626], [17.347337, 43.941676], [17.3472619, 43.9417339], [17.3470849, 43.9418382], [17.3459691, 43.942321], [17.3455185, 43.9425026], [17.3451161, 43.9426996], [17.3447567, 43.9429931], [17.3447567, 43.9432326], [17.3447621, 43.9434103], [17.3447084, 43.9436227], [17.3444241, 43.9439433], [17.3440754, 43.9440978], [17.3430401, 43.9442407], [17.3424607, 43.944457], [17.3419887, 43.944654], [17.3418653, 43.9447544], [17.3416454, 43.9449475], [17.3412967, 43.9450827], [17.3407656, 43.9450402], [17.3406476, 43.9450673], [17.3405403, 43.9451716], [17.3404115, 43.9453183], [17.3401433, 43.9454535], [17.3399502, 43.9456157], [17.339623, 43.945832], [17.3426659, 43.9478693], [17.3420825, 43.9482474], [17.341987, 43.9483734], [17.3419838, 43.9485452], [17.3420156, 43.9488851], [17.3421853, 43.9494731], [17.3422225, 43.9497366], [17.3422278, 43.9499008], [17.3422066, 43.9500574], [17.3421694, 43.9502903], [17.3420634, 43.9504774], [17.3419626, 43.9505728], [17.3418565, 43.9505957], [17.3417663, 43.9505652], [17.3415595, 43.9505423], [17.3414746, 43.9505499], [17.3413633, 43.9505957], [17.3412943, 43.9506798], [17.3411829, 43.9508439], [17.3409549, 43.9510425], [17.3407215, 43.9512487], [17.3405718, 43.9514437], [17.3405081, 43.9515517], [17.3405081, 43.9516759], [17.3405006, 43.9517892], [17.3404668, 43.9518432], [17.340417, 43.9519651], [17.3399502, 43.9522547], [17.3398108, 43.9524787], [17.3396713, 43.9527607], [17.3395425, 43.9532472], [17.3394192, 43.9534597], [17.3393065, 43.9536334], [17.3393065, 43.9537995], [17.3394567, 43.9540544], [17.3396606, 43.9542243], [17.3399181, 43.9542706], [17.3405296, 43.9543363], [17.3408407, 43.9543363], [17.3415542, 43.954626], [17.3422408, 43.9551975], [17.3429704, 43.9556918], [17.3434317, 43.9561938], [17.343775, 43.9567654], [17.3438823, 43.9570666], [17.3441076, 43.9581092], [17.3440325, 43.9585108], [17.3437321, 43.9589356], [17.3432279, 43.9594685], [17.34267, 43.9599936], [17.3421979, 43.9602021], [17.3415327, 43.9603411], [17.341007, 43.9604184], [17.3405027, 43.9606964], [17.3407173, 43.9611211], [17.3409909, 43.9615575], [17.3410231, 43.9617196], [17.340771, 43.9619706], [17.3400629, 43.9623066], [17.3399287, 43.9623992], [17.3399448, 43.9625575], [17.340286, 43.9627176], [17.3407763, 43.9629282], [17.3413181, 43.963156], [17.3416454, 43.9633954], [17.3416775, 43.9638318], [17.3416078, 43.9641561], [17.3415327, 43.9643878], [17.3415863, 43.9648202], [17.3413396, 43.9649438], [17.3407066, 43.9648357], [17.3401809, 43.9646272], [17.3394728, 43.964465], [17.3388719, 43.9643028], [17.3380244, 43.9642951], [17.3370695, 43.964797], [17.3368335, 43.9649592], [17.3365867, 43.9652372], [17.3363936, 43.9657083], [17.3363399, 43.966882], [17.336576, 43.9692449], [17.3369622, 43.9698317], [17.337724, 43.9700402], [17.3384321, 43.9701483], [17.3401379, 43.9707738], [17.341243, 43.9712216], [17.341876, 43.971654], [17.3412537, 43.9730979], [17.3351168, 43.9735148], [17.328422, 43.9802782], [17.3261475, 43.9836595], [17.3233795, 43.9876737], [17.3211908, 43.9911781], [17.3203969, 43.9927836], [17.3179936, 43.9968126], [17.3168993, 43.9993287], [17.3167631, 44.0057284], [17.3166864, 44.0061449], [17.3166847, 44.0073315], [17.3132676, 44.0164133], [17.3140561, 44.017995], [17.3157487, 44.0227124], [17.3159498, 44.0231149], [17.3150486, 44.0230098], [17.314657, 44.0230175], [17.3142707, 44.0230098], [17.313332, 44.0229365], [17.3117602, 44.0229172], [17.3113525, 44.0228709], [17.3105425, 44.022597], [17.310065, 44.022408], [17.3090404, 44.0221881], [17.3080319, 44.0220801], [17.3076457, 44.0219991], [17.3068893, 44.0216481], [17.3061329, 44.0212508], [17.3059505, 44.0211158], [17.305634, 44.0209692], [17.305398, 44.021054], [17.3048723, 44.0210733], [17.304647, 44.0211119], [17.3044646, 44.0212353], [17.3042232, 44.0214475], [17.304143, 44.0214888], [17.303617, 44.02176], [17.3028445, 44.0218101], [17.3016107, 44.0217252], [17.3009026, 44.0216404], [17.3001677, 44.0215671], [17.3000014, 44.021733], [17.3000926, 44.021949], [17.3001569, 44.0222306], [17.3002374, 44.0225199], [17.3010513, 44.0232491], [17.301482, 44.0230946], [17.3032147, 44.0255093], [17.3033541, 44.0257407], [17.3035097, 44.0260454], [17.3037565, 44.0263424], [17.3039764, 44.0267937], [17.3040569, 44.0270444], [17.3040569, 44.0272411], [17.3039134, 44.0274371], [17.3038959, 44.027461], [17.3034936, 44.0278659], [17.3030913, 44.0280897], [17.3028982, 44.0281051], [17.3026943, 44.0280781], [17.3024207, 44.0280357], [17.3022276, 44.0281167], [17.3019808, 44.0281437], [17.3017394, 44.0281475], [17.3015785, 44.0280974], [17.3013747, 44.0280318], [17.3011601, 44.0280048], [17.3009133, 44.0280318], [17.3007095, 44.0281205], [17.3000443, 44.0283018], [17.2998512, 44.0282902], [17.2996473, 44.0282709], [17.2994649, 44.0282285], [17.2988695, 44.0279315], [17.2986388, 44.0278775], [17.2983599, 44.0278582], [17.2981077, 44.0278582], [17.2978556, 44.0278119], [17.2974694, 44.0276962], [17.2962838, 44.0273414], [17.2957474, 44.0272025], [17.295506, 44.0272064], [17.2951734, 44.0272681], [17.2949803, 44.0273607], [17.2948462, 44.0276538], [17.2955284, 44.0299439], [17.296772, 44.0341178], [17.2941542, 44.0399449], [17.2925126, 44.0400529], [17.2916704, 44.0401416], [17.2910481, 44.0402149], [17.2902489, 44.0401995], [17.2877168, 44.0398794], [17.286762, 44.0398292], [17.2855871, 44.0399218], [17.2852277, 44.0400684], [17.2845573, 44.0401724], [17.2840798, 44.040157], [17.2829103, 44.0401918], [17.2823685, 44.0402882], [17.2814673, 44.0404346], [17.2805822, 44.0405079], [17.2820843, 44.0424051], [17.2825241, 44.0422278], [17.2827735, 44.0422625], [17.2831812, 44.0424128], [17.2835835, 44.042623], [17.2839403, 44.0427773], [17.2845492, 44.042997], [17.2850882, 44.0433538], [17.2854048, 44.0436622], [17.2853995, 44.0441307], [17.2851848, 44.0446687], [17.2850561, 44.0452509], [17.2847799, 44.045754], [17.2842139, 44.0464655], [17.2838277, 44.0469629], [17.2836855, 44.047333], [17.2831625, 44.0479654], [17.2815906, 44.0484069], [17.2807404, 44.0485958], [17.280043, 44.0490835], [17.2798124, 44.0497486], [17.2797159, 44.0502903], [17.2804748, 44.0513756], [17.2815573, 44.0521841], [17.2821352, 44.0527193], [17.2830414, 44.0534964], [17.2833504, 44.0542044], [17.283705, 44.0552499], [17.2838204, 44.05578], [17.2837354, 44.0560221], [17.270093, 44.0591853], [17.2704552, 44.0603376], [17.2695932, 44.0614654], [17.2694474, 44.0620624], [17.2695855, 44.0626164], [17.2693351, 44.0629575], [17.2676968, 44.0635751], [17.2669458, 44.0640993], [17.2661948, 44.0650476], [17.2661948, 44.0655718], [17.2664308, 44.0668824], [17.2662163, 44.0686939], [17.266109, 44.0692721], [17.2661626, 44.0702511], [17.2660124, 44.0713148], [17.2656652, 44.0718706], [17.2649985, 44.0723632], [17.2642616, 44.0728028], [17.2640426, 44.0731085], [17.264003, 44.0736181], [17.2638665, 44.0739732], [17.2608668, 44.0734263], [17.2517473, 44.0725598], [17.2455767, 44.0715766], [17.2429573, 44.0712293], [17.2366023, 44.0703845], [17.2340365, 44.0700395], [17.228968, 44.0693579], [17.2266532, 44.0690466], [17.2155158, 44.0676429], [17.2137449, 44.0673748], [17.2068878, 44.0665618], [17.1971979, 44.065413], [17.1955665, 44.0652407], [17.191423, 44.0648876], [17.1713472, 44.0627012], [17.1708847, 44.0626494], [17.1668726, 44.0630409], [17.1589882, 44.0639191], [17.1527573, 44.064155], [17.1511161, 44.0644495], [17.144388, 44.0654079], [17.1398744, 44.0664657], [17.1337236, 44.0680572], [17.1334837, 44.0681193], [17.1325953, 44.0683492], [17.1243726, 44.0713323], [17.1208109, 44.0725276], [17.1067815, 44.077034], [17.0970455, 44.0801508], [17.0932636, 44.0814425], [17.0876862, 44.0832324], [17.0857323, 44.0840093], [17.0798846, 44.087454], [17.0726986, 44.0914456], [17.0723247, 44.0910142], [17.0738268, 44.0900741], [17.0758009, 44.0882632], [17.0762622, 44.087454], [17.0769299, 44.0864678], [17.0777844, 44.0856343], [17.0782245, 44.0849765], [17.0782395, 44.0844309], [17.0782363, 44.0840323], [17.0795774, 44.0824062], [17.0806074, 44.081805], [17.0811653, 44.0810343], [17.0840299, 44.0792463], [17.084856, 44.0786142], [17.0842874, 44.0781364], [17.0842037, 44.0769139], [17.0831287, 44.0758549], [17.0822811, 44.0763868], [17.0815194, 44.0750841], [17.0809099, 44.0753323], [17.0805108, 44.0723169], [17.0794809, 44.0715846], [17.0798113, 44.071136], [17.0796525, 44.0708061], [17.0801031, 44.070413], [17.0809615, 44.0700198], [17.0811954, 44.0698487], [17.0814443, 44.0694802], [17.0813155, 44.0691873], [17.0808113, 44.0679539], [17.0814013, 44.0677689], [17.0826888, 44.067052], [17.0837295, 44.0666434], [17.0844376, 44.0660806], [17.0845985, 44.0659573], [17.0846457, 44.0653822], [17.085005, 44.0641476], [17.0848474, 44.0638789], [17.0851242, 44.061694], [17.0850384, 44.0615552], [17.0845663, 44.0609338], [17.085298, 44.0604388], [17.0856114, 44.0603402], [17.0854354, 44.0595892], [17.0854987, 44.0587727], [17.0854075, 44.0585237], [17.0852101, 44.058425], [17.0849097, 44.0582245], [17.0847702, 44.0579316], [17.0848153, 44.0576725], [17.0824141, 44.0570849], [17.0858764, 44.0535531], [17.0873258, 44.0523815], [17.0852188, 44.0496303], [17.084766, 44.0493867], [17.0844161, 44.0489457], [17.0832038, 44.0476531], [17.0824313, 44.0469744], [17.0840342, 44.0458763], [17.0864954, 44.0438466], [17.0850706, 44.0425247], [17.0844376, 44.0421391], [17.0841372, 44.0420388], [17.0839548, 44.0418152], [17.0838368, 44.0416532], [17.0832038, 44.0413524], [17.0828926, 44.0412985], [17.082442, 44.0414141], [17.0806847, 44.0426342], [17.0801568, 44.0420157], [17.0800752, 44.0399118], [17.0778866, 44.0381363], [17.0791097, 44.037291], [17.0800688, 44.0366817], [17.0800452, 44.0365028], [17.0798135, 44.0363392], [17.079189, 44.0360492], [17.0802147, 44.0352239], [17.079792, 44.0347118], [17.0792427, 44.0342722], [17.0786869, 44.0340824], [17.0787106, 44.0327403], [17.0780325, 44.0324286], [17.0776784, 44.0321741], [17.0780969, 44.0311559], [17.0784938, 44.0310479], [17.0790324, 44.0309199], [17.0790968, 44.0299741], [17.0801439, 44.0292691], [17.0796697, 44.0285302], [17.0827017, 44.0279223], [17.0841887, 44.0272172], [17.0836973, 44.0265584], [17.0847723, 44.0253365], [17.087137, 44.025304], [17.0885016, 44.02309], [17.0884727, 44.0215385], [17.0891647, 44.0184378], [17.0889072, 44.0161363], [17.0879373, 44.0154458], [17.0878043, 44.0146495], [17.0856904, 44.0137502], [17.0854121, 44.0132536], [17.0853407, 44.0101623], [17.0852487, 44.0061832], [17.0861435, 44.0044376], [17.085047, 44.0018075], [17.0854311, 44.0005311], [17.0850384, 44.0002285], [17.0854804, 43.9997732], [17.0865061, 43.9994722], [17.0880467, 43.996845], [17.0889459, 43.9960516], [17.090529, 43.9951071], [17.0960579, 43.988255], [17.0959461, 43.9860882], [17.0955276, 43.9854646], [17.0942412, 43.9846602], [17.086663, 43.9745189], [17.0856673, 43.9703556], [17.0861651, 43.9699479], [17.0853669, 43.9689843], [17.0875384, 43.9617192], [17.0901159, 43.9574401], [17.0905123, 43.9567863], [17.0884511, 43.9534803], [17.0878457, 43.9523541], [17.0857073, 43.9503399], [17.0802664, 43.9420296], [17.080704, 43.9419618], [17.0810795, 43.9419695], [17.08175, 43.9420661], [17.0823723, 43.9420545], [17.0828766, 43.9420352], [17.0831233, 43.9419464], [17.0834935, 43.9417532], [17.0844161, 43.9414558], [17.0847487, 43.9413476], [17.0853388, 43.9411198], [17.0860255, 43.9407644], [17.086637, 43.9405828], [17.0872807, 43.9404824], [17.0880961, 43.9403395], [17.08911, 43.9400189], [17.0899522, 43.9397253], [17.0930904, 43.9371527], [17.0952415, 43.9360285], [17.0952147, 43.9354723], [17.0952523, 43.9351671], [17.0956922, 43.9346649], [17.0957565, 43.9344099], [17.0956224, 43.9335291], [17.0954561, 43.9327565], [17.0953917, 43.9318718], [17.0954829, 43.9312575], [17.0957351, 43.9305737], [17.0965612, 43.9295809], [17.0977529, 43.9275134], [17.0952212, 43.9235604], [17.0932906, 43.9205458], [17.0844937, 43.9163582], [17.0797311, 43.9117837], [17.076556, 43.9094963], [17.0712871, 43.9038021], [17.0702059, 43.9026336], [17.0694122, 43.899774]]]}}]}