{"type": "FeatureCollection", "features": [{"type": "Feature", "properties": {"name": "Grad Livno, Hercegbosanska županija, Federacija Bosne i Hercegovine, Bosna i Hercegovina / Босна и Херцеговина", "source": "OpenStreetMap relation 2528226", "licence": "ODbL 1.0"}, "geometry": {"type": "Polygon", "coordinates": [[[16.5460946, 43.9679768], [16.5463729, 43.9673056], [16.5466038, 43.9661097], [16.5468833, 43.9652687], [16.5474469, 43.9632661], [16.5478632, 43.9615563], [16.5498241, 43.9546733], [16.5501921, 43.9535514], [16.5537406, 43.952657], [16.5608884, 43.950024], [16.5641457, 43.9493067], [16.5675406, 43.9483941], [16.5703816, 43.9476959], [16.5740804, 43.9466749], [16.5765267, 43.9460784], [16.5778627, 43.9456825], [16.5793647, 43.9452721], [16.584913, 43.9438352], [16.5871894, 43.9432298], [16.5879572, 43.9427775], [16.5880317, 43.9425252], [16.5882563, 43.9417652], [16.5888945, 43.9406021], [16.5895556, 43.9391533], [16.5899621, 43.9384606], [16.5902637, 43.937843], [16.5908808, 43.9373637], [16.5923024, 43.9370191], [16.5994988, 43.9346953], [16.5999471, 43.9337759], [16.6012261, 43.9305729], [16.6031775, 43.9254841], [16.6035894, 43.925016], [16.6047702, 43.9245347], [16.6077819, 43.9231765], [16.608386, 43.9227809], [16.6084867, 43.9221347], [16.6091916, 43.9194907], [16.6099147, 43.9170114], [16.6104365, 43.9164707], [16.6124321, 43.9147892], [16.6134482, 43.9138726], [16.6155696, 43.9121268], [16.6175766, 43.9104368], [16.619627, 43.909197], [16.6231955, 43.9065943], [16.6259317, 43.9021162], [16.626711, 43.9016472], [16.6298527, 43.8995902], [16.630317, 43.8992842], [16.6320345, 43.89815], [16.634843, 43.8959567], [16.6360574, 43.8950838], [16.6396508, 43.8935137], [16.6419851, 43.8909307], [16.644937, 43.8887765], [16.6468622, 43.887181], [16.6496991, 43.8857747], [16.6515084, 43.8852739], [16.6561176, 43.8840698], [16.6563249, 43.884006], [16.6572422, 43.8835884], [16.6580468, 43.882502], [16.6594255, 43.8811951], [16.6596454, 43.8809089], [16.6606151, 43.8796412], [16.6635379, 43.8771949], [16.6686524, 43.8777064], [16.6733723, 43.8739019], [16.6785383, 43.8701503], [16.6786874, 43.8700948], [16.6815302, 43.868048], [16.6844666, 43.8659512], [16.6912716, 43.8636721], [16.6972128, 43.8613563], [16.7029394, 43.8592696], [16.7039911, 43.8588828], [16.7049827, 43.8585416], [16.7058324, 43.8582103], [16.7074821, 43.8567906], [16.7099738, 43.8549713], [16.711013, 43.8534094], [16.7131287, 43.8500513], [16.7145403, 43.8476592], [16.7150263, 43.8465911], [16.7150647, 43.8453587], [16.7152187, 43.8436764], [16.7161204, 43.8429633], [16.7173765, 43.8417218], [16.7183477, 43.840242], [16.7183422, 43.8398317], [16.7183391, 43.8395958], [16.7183303, 43.8389421], [16.7183087, 43.8373206], [16.7182946, 43.8362681], [16.7182426, 43.8355898], [16.7182249, 43.8353587], [16.7185459, 43.8348748], [16.718922, 43.8343078], [16.7199576, 43.8327468], [16.7178447, 43.8297869], [16.7183236, 43.8288817], [16.7197264, 43.8267447], [16.7201336, 43.8257381], [16.7183844, 43.8199284], [16.7181883, 43.8141943], [16.7186277, 43.8088013], [16.7191177, 43.8073916], [16.7194398, 43.8066443], [16.723119, 43.8042779], [16.7262836, 43.79971], [16.7263694, 43.7988913], [16.7260167, 43.7979831], [16.7246702, 43.7960952], [16.7313736, 43.7889217], [16.7383222, 43.7828524], [16.7458619, 43.7762284], [16.7464417, 43.7754826], [16.7467475, 43.7751223], [16.747064, 43.7748783], [16.7480457, 43.7742585], [16.7487162, 43.7740223], [16.7487055, 43.7739719], [16.7488857, 43.7739528], [16.7501765, 43.7721289], [16.752895, 43.7694671], [16.7568225, 43.7702866], [16.7604223, 43.7699012], [16.7783058, 43.7680163], [16.7966973, 43.7637399], [16.7998218, 43.762978], [16.800058, 43.7629156], [16.80154, 43.7621778], [16.8030719, 43.7610714], [16.8032091, 43.7609858], [16.8033293, 43.7609108], [16.8039068, 43.7605506], [16.8041697, 43.7603866], [16.804285, 43.7603146], [16.8059559, 43.7592723], [16.8076996, 43.7581846], [16.8078083, 43.7580925], [16.8097421, 43.7564532], [16.8105871, 43.7557369], [16.8116716, 43.7548176], [16.8122346, 43.7543403], [16.8131827, 43.7528112], [16.8137676, 43.7518865], [16.8143881, 43.7508934], [16.8147744, 43.7502751], [16.8149785, 43.7499483], [16.8153262, 43.7493918], [16.8153906, 43.7492887], [16.8154475, 43.749127], [16.8155771, 43.7487585], [16.8156613, 43.748519], [16.8157921, 43.7481473], [16.8158805, 43.7478959], [16.8161065, 43.7472532], [16.8162413, 43.7468702], [16.8164521, 43.7462708], [16.8166656, 43.7456636], [16.8180746, 43.7416575], [16.818279, 43.7410762], [16.81858, 43.7402314], [16.8188246, 43.739545], [16.8188699, 43.7394179], [16.8192413, 43.7388501], [16.8200537, 43.7376082], [16.8201352, 43.7374836], [16.8203223, 43.7371975], [16.8203725, 43.7371208], [16.8204863, 43.7369469], [16.8207503, 43.7365433], [16.8211544, 43.7359256], [16.8212915, 43.735716], [16.8218575, 43.7348507], [16.8219761, 43.7346694], [16.8222085, 43.7343141], [16.8227492, 43.7334875], [16.822854, 43.7333273], [16.8230663, 43.7330026], [16.8233117, 43.7326275], [16.8250501, 43.7311748], [16.8320684, 43.7274102], [16.8455877, 43.7212505], [16.8495912, 43.7187707], [16.8548784, 43.7164486], [16.8622654, 43.7131574], [16.8672111, 43.7108625], [16.872434, 43.706359], [16.8760274, 43.7003928], [16.8757997, 43.6990576], [16.8774231, 43.6946211], [16.8802625, 43.6931198], [16.8829179, 43.6918708], [16.8846337, 43.6873458], [16.8854348, 43.685667], [16.8924102, 43.6824604], [16.8978953, 43.6799015], [16.9058731, 43.6760487], [16.9443941, 43.6703162], [16.9533902, 43.6687369], [16.9607365, 43.6721012], [16.9665932, 43.6716078], [16.9747245, 43.6695402], [16.9776642, 43.6692724], [16.979515, 43.6689455], [16.9796947, 43.6690017], [16.9798502, 43.6690415], [16.9800407, 43.6690842], [16.9801453, 43.6690997], [16.9802687, 43.6691036], [16.9804001, 43.6691026], [16.9805208, 43.6691153], [16.9806227, 43.6691482], [16.9807112, 43.6692103], [16.9808373, 43.6693073], [16.980966, 43.6694043], [16.9810545, 43.6695266], [16.9811001, 43.6696197], [16.9811082, 43.6697322], [16.9811296, 43.6698564], [16.9811726, 43.6699844], [16.9812235, 43.6700873], [16.9868325, 43.6726409], [17.0082675, 43.6555686], [17.0101975, 43.661346], [17.0112081, 43.6611229], [17.0192932, 43.6742582], [17.0222531, 43.6732626], [17.0334944, 43.6937579], [17.0338914, 43.6936376], [17.0342535, 43.6935057], [17.0346558, 43.6934941], [17.0351896, 43.6935077], [17.035651, 43.6935375], [17.0357193, 43.6934795], [17.0360211, 43.6932633], [17.0362792, 43.6931036], [17.0367853, 43.6927867], [17.0368257, 43.6928211], [17.0375043, 43.6924992], [17.0378342, 43.6924429], [17.03814, 43.6923091], [17.0385665, 43.6924274], [17.039355, 43.6922509], [17.0406666, 43.6918902], [17.0422196, 43.6914209], [17.0422706, 43.6915469], [17.0409778, 43.6919406], [17.0409349, 43.6920182], [17.0406935, 43.6920958], [17.0404896, 43.6921559], [17.0403099, 43.6922703], [17.0401517, 43.6923324], [17.0401382, 43.6923983], [17.0402804, 43.6925089], [17.0403931, 43.6925962], [17.0404816, 43.692858], [17.0405647, 43.6929685], [17.040672, 43.6930888], [17.0408168, 43.6932808], [17.040967, 43.6934165], [17.0410395, 43.6934941], [17.041069, 43.6936512], [17.0411038, 43.6938781], [17.0411789, 43.6941069], [17.0412433, 43.6942078], [17.0414203, 43.694489], [17.0416564, 43.694745], [17.0418119, 43.694871], [17.0422304, 43.6951716], [17.042343, 43.6952918], [17.0424449, 43.6954431], [17.04252, 43.6954877], [17.0429009, 43.6955982], [17.0430136, 43.6953966], [17.0508175, 43.6973232], [17.0573097, 43.7092028], [17.0722979, 43.7138093], [17.0829267, 43.7156916], [17.0895445, 43.716884], [17.0961562, 43.7211333], [17.1114206, 43.7216877], [17.1074295, 43.7240409], [17.1118283, 43.7294216], [17.1130085, 43.7381428], [17.116549, 43.7437548], [17.1164553, 43.7455009], [17.1259634, 43.7490717], [17.1279859, 43.7498312], [17.1332645, 43.7520477], [17.1368434, 43.7537448], [17.1434462, 43.7568757], [17.1453023, 43.7606804], [17.1487462, 43.76433], [17.1495294, 43.767282], [17.1488964, 43.7677236], [17.1493578, 43.7686224], [17.1669745, 43.7828067], [17.1680912, 43.7863891], [17.1664074, 43.7859839], [17.1630397, 43.7855787], [17.1607946, 43.7855787], [17.1578438, 43.7858154], [17.1557431, 43.7859839], [17.1532561, 43.7884975], [17.1529368, 43.7888202], [17.1520381, 43.7892527], [17.1512529, 43.7896306], [17.1503763, 43.790738], [17.1499115, 43.7913251], [17.1490078, 43.7924667], [17.1456402, 43.7936822], [17.1439133, 43.79389], [17.1434436, 43.7939465], [17.1422725, 43.7940874], [17.1403246, 43.7952926], [17.139572, 43.7957582], [17.1383436, 43.7965182], [17.1378584, 43.7975687], [17.137221, 43.7989489], [17.137221, 43.8001683], [17.137221, 43.8011728], [17.137221, 43.8021897], [17.1370678, 43.8032954], [17.1369861, 43.8038854], [17.1369635, 43.8040487], [17.1368474, 43.8048865], [17.136706, 43.805907], [17.1366598, 43.8062405], [17.1363705, 43.8062721], [17.1315049, 43.8080785], [17.1333933, 43.8142545], [17.1334147, 43.8155551], [17.1293485, 43.8193561], [17.126441, 43.8206605], [17.1264517, 43.8209391], [17.1266127, 43.8215197], [17.1267521, 43.8217713], [17.1268111, 43.8220499], [17.1268594, 43.8222512], [17.1269399, 43.8223634], [17.1272188, 43.8225415], [17.1274334, 43.8227273], [17.1274763, 43.8229711], [17.1273851, 43.8232227], [17.1272242, 43.8234278], [17.1271652, 43.8237413], [17.1271813, 43.8241128], [17.1272886, 43.8243605], [17.1274334, 43.8248095], [17.1275622, 43.8248327], [17.127648, 43.8248327], [17.1280235, 43.8245966], [17.1283185, 43.8243334], [17.1284366, 43.824287], [17.1285492, 43.8243218], [17.1286918, 43.8245079], [17.1288979, 43.8248443], [17.1293056, 43.8252584], [17.1295255, 43.8253358], [17.1297777, 43.8254132], [17.1309739, 43.8258235], [17.131387, 43.8259937], [17.1316338, 43.826315], [17.1317464, 43.8266671], [17.1319395, 43.8271664], [17.1323097, 43.8275418], [17.1323579, 43.8276501], [17.1324384, 43.8283854], [17.132417, 43.8287995], [17.1326423, 43.829202], [17.1330607, 43.8294613], [17.1339136, 43.8297786], [17.1342409, 43.8300843], [17.1344715, 43.8305139], [17.1347719, 43.8307345], [17.1355659, 43.8310789], [17.13651, 43.831462], [17.1369821, 43.8314813], [17.1380442, 43.8313266], [17.1383983, 43.8313304], [17.1405762, 43.8319418], [17.1405977, 43.8320734], [17.1468043, 43.8347512], [17.1488455, 43.838019], [17.1488549, 43.8381313], [17.1488589, 43.8381796], [17.1471262, 43.8404857], [17.1455812, 43.844788], [17.1420193, 43.8483628], [17.1355176, 43.8537478], [17.130239, 43.8618978], [17.1288818, 43.8630388], [17.1306681, 43.8685385], [17.1327444, 43.8727623], [17.133801, 43.8749116], [17.1367252, 43.8774548], [17.1384008, 43.8789143], [17.13824, 43.8789756], [17.1377411, 43.8792482], [17.1375293, 43.8792966], [17.1372905, 43.8792946], [17.1370411, 43.879256], [17.1368694, 43.8792212], [17.1366763, 43.8791767], [17.1354586, 43.8792656], [17.1352413, 43.879312], [17.1349624, 43.8793932], [17.1348068, 43.8794609], [17.1346647, 43.8795672], [17.1344233, 43.8797973], [17.1343723, 43.8798843], [17.1342945, 43.8801395], [17.1340129, 43.8803077], [17.1336052, 43.8803986], [17.1332216, 43.8804314], [17.1328166, 43.8804817], [17.1324679, 43.880561], [17.1321031, 43.8807465], [17.1319422, 43.8808026], [17.131741, 43.8807987], [17.131556, 43.8808007], [17.1313682, 43.8808529], [17.1312314, 43.8810153], [17.1310204, 43.8816416], [17.13099, 43.8817441], [17.1309283, 43.8817905], [17.1302444, 43.8817654], [17.1299842, 43.8817538], [17.1296221, 43.8816436], [17.129252, 43.8814657], [17.1289837, 43.8814039], [17.1287906, 43.8813729], [17.1285975, 43.8813671], [17.1277124, 43.8814928], [17.1276453, 43.8815295], [17.1275917, 43.8815856], [17.1275085, 43.8818852], [17.1275085, 43.8819896], [17.1275058, 43.8821327], [17.1273825, 43.882502], [17.1272001, 43.8827262], [17.1270579, 43.8827997], [17.1267924, 43.8828673], [17.1261594, 43.8828229], [17.1256927, 43.882703], [17.1255251, 43.8826414], [17.1253842, 43.8826373], [17.1252716, 43.8826566], [17.1250436, 43.8828364], [17.1249711, 43.8829118], [17.1249041, 43.8832346], [17.1248585, 43.883428], [17.1246734, 43.8837179], [17.1244132, 43.8838765], [17.1238339, 43.8841432], [17.1236461, 43.8841858], [17.1234396, 43.8841993], [17.1232679, 43.8841548], [17.1230802, 43.8840659], [17.1227905, 43.8839461], [17.121731, 43.8837005], [17.1215486, 43.8836986], [17.1214226, 43.8837237], [17.1212885, 43.8838243], [17.1212804, 43.8843346], [17.1212751, 43.884439], [17.1211785, 43.8845337], [17.121031, 43.8845859], [17.1208781, 43.8845879], [17.1207359, 43.8845318], [17.1205884, 43.8844719], [17.120406, 43.8844506], [17.1201727, 43.8844738], [17.1199554, 43.8845376], [17.1198347, 43.8845608], [17.1195826, 43.884468], [17.1194029, 43.8843617], [17.1192822, 43.8843288], [17.1191239, 43.8843385], [17.1190461, 43.8843462], [17.1188208, 43.8844004], [17.1186787, 43.8844526], [17.1185338, 43.8845241], [17.1184427, 43.884613], [17.1183971, 43.8847193], [17.1187136, 43.8854597], [17.1187404, 43.8856511], [17.1187323, 43.8858406], [17.1186948, 43.8859295], [17.1186492, 43.88603], [17.1189684, 43.8865887], [17.1190274, 43.8866892], [17.1190113, 43.8867549], [17.1189013, 43.886811], [17.1187323, 43.8868052], [17.1184963, 43.8868419], [17.1183836, 43.8868767], [17.1181905, 43.8868748], [17.1180671, 43.8868284], [17.1178982, 43.8867762], [17.1176782, 43.8867839], [17.1175307, 43.8868632], [17.1174341, 43.8870236], [17.117402, 43.8875011], [17.1172705, 43.8881216], [17.1170184, 43.8885082], [17.1168709, 43.8886377], [17.1167234, 43.888688], [17.1163425, 43.8886822], [17.1160681, 43.8886274], [17.1152776, 43.8881467], [17.1151409, 43.8880366], [17.1148539, 43.8877485], [17.114642, 43.8872575], [17.1144488, 43.887043], [17.1142155, 43.8868883], [17.1138802, 43.8867143], [17.1136308, 43.886695], [17.1133706, 43.8866931], [17.1129951, 43.8866563], [17.1124265, 43.8865017], [17.1110639, 43.8858038], [17.1108493, 43.8856666], [17.1106803, 43.8853031], [17.1106347, 43.88522], [17.1105248, 43.8851311], [17.1101761, 43.8850112], [17.1091086, 43.8847986], [17.1088162, 43.8847155], [17.1084579, 43.8844169], [17.1084729, 43.8840872], [17.1085507, 43.8838861], [17.1085453, 43.8837489], [17.1083602, 43.8835633], [17.1082476, 43.8835034], [17.1076012, 43.8833216], [17.1067214, 43.8831573], [17.1062896, 43.8830046], [17.1062547, 43.8829234], [17.1062037, 43.8827939], [17.1061099, 43.8826044], [17.1058363, 43.8824536], [17.1056358, 43.882318], [17.0966816, 43.8766418], [17.0910895, 43.8826837], [17.0857143, 43.8884908], [17.0814228, 43.8910888], [17.073381, 43.8946262], [17.0709997, 43.8934822], [17.0662371, 43.89005], [17.0641222, 43.8885258], [17.0630621, 43.8877618], [17.059887, 43.8860456], [17.0582427, 43.8856354], [17.0527431, 43.8843293], [17.0472852, 43.8826434], [17.0471868, 43.882613], [17.0400429, 43.8791802], [17.0360741, 43.8774637], [17.0257552, 43.8717418], [17.0182026, 43.8714013], [17.0156029, 43.8762462], [17.0146425, 43.8780359], [17.0125664, 43.8787842], [17.0118072, 43.8790578], [17.0109433, 43.8793692], [17.0098799, 43.8797524], [17.0089969, 43.8793886], [17.0085841, 43.8792186], [17.0070473, 43.8785856], [17.0043236, 43.8774637], [17.0040137, 43.8773892], [16.999561, 43.8763194], [16.995776, 43.8759296], [16.9944602, 43.8757941], [16.9940046, 43.8757472], [16.9929206, 43.8811603], [16.9888759, 43.8824169], [16.9858289, 43.8830007], [16.9831185, 43.8831026], [16.9787532, 43.8831438], [16.9740593, 43.8845937], [16.9710293, 43.8856204], [16.9640332, 43.887532], [16.9606666, 43.8883339], [16.9574915, 43.8923381], [16.9566977, 43.8934822], [16.9555789, 43.8950125], [16.9513804, 43.9011167], [16.9513412, 43.901173], [16.9504489, 43.9028643], [16.9487601, 43.9060651], [16.9453911, 43.9090992], [16.9427146, 43.9115094], [16.94241, 43.9117837], [16.9422032, 43.9128263], [16.9416162, 43.9157864], [16.9410872, 43.9171837], [16.9408027, 43.917935], [16.9392349, 43.9220758], [16.938969, 43.9229377], [16.9382554, 43.9252505], [16.937831, 43.9266262], [16.9377763, 43.9268035], [16.9376474, 43.9272212], [16.9376474, 43.9279608], [16.9376474, 43.9310721], [16.9376474, 43.9312229], [16.9368536, 43.9346527], [16.9344724, 43.9409401], [16.9334021, 43.9428667], [16.9312973, 43.9466553], [16.9292759, 43.9486001], [16.9287566, 43.9490998], [16.9224751, 43.9481842], [16.9160485, 43.9507718], [16.9130749, 43.951946], [16.9121664, 43.9523047], [16.9111833, 43.9526999], [16.9096341, 43.9533046], [16.8938076, 43.9595534], [16.893239, 43.9596693], [16.8918764, 43.9601712], [16.8915975, 43.9604415], [16.8913078, 43.9609204], [16.8910289, 43.9614841], [16.890619, 43.9619128], [16.8904602, 43.9620788], [16.8885183, 43.9630286], [16.8868603, 43.9636703], [16.8856537, 43.9631059], [16.8828213, 43.9617853], [16.8818879, 43.9615459], [16.8794846, 43.9611211], [16.8780792, 43.961152], [16.8770277, 43.9609821], [16.874088, 43.9605265], [16.8735301, 43.9606578], [16.8727255, 43.9609512], [16.8722963, 43.961013], [16.8718362, 43.9609208], [16.8614728, 43.9588443], [16.8612349, 43.9587966], [16.8596826, 43.958493], [16.8593498, 43.9584277], [16.8561846, 43.9578083], [16.8561065, 43.9577926], [16.8558812, 43.9577848], [16.8554628, 43.9580629], [16.8551195, 43.9582946], [16.8548416, 43.9586603], [16.854801, 43.9592761], [16.8547761, 43.9596538], [16.8546045, 43.9604261], [16.8539126, 43.9620813], [16.8538749, 43.9621714], [16.8533492, 43.9631445], [16.8530984, 43.9635399], [16.8528986, 43.9638549], [16.8521583, 43.9648125], [16.8514043, 43.9654037], [16.8512785, 43.965492], [16.850721, 43.965755], [16.8506563, 43.9657855], [16.8506033, 43.9658103], [16.8503941, 43.965908], [16.8498301, 43.9661716], [16.8485749, 43.9666967], [16.8437428, 43.9695183], [16.8435477, 43.9696322], [16.8379426, 43.9729049], [16.8376851, 43.9747193], [16.8376529, 43.9750668], [16.8376422, 43.9754296], [16.8373847, 43.976194], [16.8346488, 43.9786492], [16.8340695, 43.9791433], [16.8331146, 43.9800466], [16.8329429, 43.9811737], [16.8320632, 43.9823163], [16.8306899, 43.9840301], [16.8334365, 43.9889975], [16.8333024, 43.9890554], [16.832664, 43.989341], [16.832031, 43.9896228], [16.8315268, 43.9898042], [16.8308991, 43.9900164], [16.8304592, 43.9901322], [16.8300784, 43.9902789], [16.8298101, 43.9905722], [16.8295044, 43.990881], [16.8294088, 43.9909319], [16.8292147, 43.9910353], [16.8290698, 43.9913595], [16.8278199, 43.9923359], [16.8276536, 43.9925984], [16.8271011, 43.9929882], [16.826393, 43.9932853], [16.8255132, 43.9934667], [16.8252718, 43.9934127], [16.8249232, 43.9932274], [16.8245637, 43.9930924], [16.8241668, 43.9930306], [16.8238342, 43.9930229], [16.8233621, 43.9931387], [16.8230402, 43.9934011], [16.8229115, 43.9937407], [16.822536, 43.993787], [16.8222034, 43.9939337], [16.8217635, 43.9942116], [16.8212807, 43.9947364], [16.8203795, 43.9953307], [16.8199611, 43.9955546], [16.8192744, 43.9958787], [16.8184698, 43.996172], [16.8177509, 43.9965734], [16.8172681, 43.9969978], [16.8171823, 43.9974378], [16.8168497, 43.9978391], [16.8162703, 43.9984797], [16.8150043, 43.9994753], [16.8138993, 43.9998843], [16.8128586, 44.0001467], [16.8075678, 43.9996691], [16.7992651, 43.9989196], [16.7986107, 43.998773], [16.7982566, 43.9984488], [16.7977095, 43.9976539], [16.7940447, 43.9963682], [16.7933535, 43.9961257], [16.7928748, 43.9966886], [16.7925167, 43.9971522], [16.791594, 43.9975921], [16.7906928, 43.9978082], [16.7897808, 43.9980321], [16.7884505, 43.9981633], [16.7878067, 43.9983022], [16.7872381, 43.9985337], [16.7867553, 43.9989351], [16.7858648, 43.9995216], [16.7850065, 44.0000696], [16.783483, 44.0005172], [16.7814644, 44.0009645], [16.7812192, 44.0010188], [16.7787194, 44.001698], [16.7763483, 44.0027089], [16.7734864, 44.004668], [16.7728888, 44.0050772], [16.7681301, 44.0083346], [16.7650225, 44.0112569], [16.7645439, 44.0115316], [16.7573154, 44.0156804], [16.7571477, 44.0157466], [16.7543862, 44.0168375], [16.7539128, 44.0169986], [16.7418159, 44.0211162], [16.7407179, 44.0214899], [16.7398488, 44.0217137], [16.7395699, 44.0216597], [16.7391622, 44.0216597], [16.738615, 44.0218448], [16.7373812, 44.0220608], [16.736877, 44.0221611], [16.7357826, 44.0223077], [16.7347312, 44.0226472], [16.733315, 44.0227552], [16.7318559, 44.0233106], [16.7315018, 44.0234418], [16.7309224, 44.0236964], [16.7304397, 44.0238815], [16.7300534, 44.0239509], [16.7295492, 44.0242287], [16.7294311, 44.0242981], [16.7293668, 44.024545], [16.7294955, 44.0249307], [16.7296672, 44.0257484], [16.7295384, 44.0263116], [16.7296135, 44.0265661], [16.7296886, 44.0268593], [16.729517, 44.0272527], [16.7290234, 44.0280241], [16.7288196, 44.0282015], [16.7285299, 44.0284638], [16.7282832, 44.0290038], [16.7272854, 44.031449], [16.7269099, 44.0316187], [16.7264593, 44.0317499], [16.7254293, 44.0322358], [16.7248499, 44.03266], [16.7243779, 44.0333157], [16.7240667, 44.0335394], [16.7234766, 44.0337939], [16.7228114, 44.033925], [16.7222321, 44.0340639], [16.7207301, 44.0342336], [16.7205584, 44.0339019], [16.7202473, 44.0336319], [16.719507, 44.0328452], [16.7190564, 44.0323824], [16.7184663, 44.031989], [16.7183053, 44.0319813], [16.7168462, 44.0323824], [16.7161381, 44.0325212], [16.7150867, 44.032714], [16.7146468, 44.0328683], [16.7140245, 44.0331151], [16.7131126, 44.0335394], [16.7125332, 44.0340484], [16.712265, 44.0342644], [16.7122865, 44.034465], [16.7123079, 44.0346655], [16.7124581, 44.0348815], [16.712501, 44.0351591], [16.7123937, 44.0354368], [16.712029, 44.0357299], [16.7117393, 44.0359073], [16.7116535, 44.0360847], [16.711514, 44.0363315], [16.7112028, 44.036586], [16.7105055, 44.0369563], [16.7104518, 44.0371028], [16.7105377, 44.037365], [16.7107737, 44.0375887], [16.7112887, 44.0379358], [16.7122435, 44.0386762], [16.7122114, 44.0388767], [16.7119539, 44.0390773], [16.7115247, 44.0393009], [16.7110312, 44.0395092], [16.709041, 44.0399372], [16.7069435, 44.040319], [16.7063963, 44.0405735], [16.705817, 44.0409437], [16.7055917, 44.0411442], [16.7052913, 44.0415144], [16.705066, 44.0424476], [16.705302, 44.0425633], [16.7057633, 44.0428255], [16.7061496, 44.0432651], [16.7062247, 44.0434579], [16.7063749, 44.0437509], [16.7066431, 44.0439977], [16.7074585, 44.0443216], [16.7075443, 44.0443756], [16.7077482, 44.0445298], [16.7082202, 44.0447072], [16.7089283, 44.0448229], [16.7090356, 44.0449463], [16.7093897, 44.0450542], [16.709851, 44.0451159], [16.710484, 44.0452702], [16.7107093, 44.0454707], [16.7108059, 44.045756], [16.7109883, 44.0460259], [16.7116749, 44.0465811], [16.7132635, 44.0498546], [16.7121041, 44.0495346], [16.7116427, 44.0495423], [16.7111707, 44.0495732], [16.7104733, 44.0497428], [16.7093575, 44.0500898], [16.7090249, 44.0501978], [16.7086172, 44.0502363], [16.7084885, 44.050059], [16.7082417, 44.0498431], [16.7078018, 44.0498508], [16.7076087, 44.049897], [16.7072332, 44.0499742], [16.7069757, 44.0499202], [16.7066324, 44.0499819], [16.7063963, 44.0500359], [16.7061174, 44.0499125], [16.7060959, 44.0497197], [16.7061281, 44.0495038], [16.7054415, 44.0490642], [16.7051391, 44.0488349], [16.699605, 44.0490411], [16.6958821, 44.0490719], [16.6957855, 44.0491876], [16.6955173, 44.0491028], [16.6948843, 44.050005], [16.694758, 44.0502612], [16.6946423, 44.0504959], [16.6945839, 44.0506142], [16.6944981, 44.0512928], [16.6947448, 44.0521024], [16.6912098, 44.0523847], [16.6902165, 44.052464], [16.6892863, 44.0525383], [16.6890042, 44.0525608], [16.6887634, 44.05258], [16.688482, 44.0526025], [16.6838336, 44.0529737], [16.6826628, 44.051134], [16.6825529, 44.0509614], [16.6824379, 44.0507806], [16.6819982, 44.0500897], [16.6814732, 44.0492647], [16.6812372, 44.0490488], [16.6809797, 44.0487635], [16.6798424, 44.0480301], [16.6794133, 44.0477533], [16.6789734, 44.04768], [16.6785175, 44.0476415], [16.6783255, 44.0476331], [16.6779213, 44.0476153], [16.6778147, 44.0476106], [16.6776967, 44.0476106], [16.6775017, 44.0475355], [16.6770959, 44.0473793], [16.676597, 44.0471055], [16.676227, 44.0469545], [16.6761625, 44.0469282], [16.6750681, 44.0467354], [16.6746655, 44.0466218], [16.672225, 44.0459334], [16.6714998, 44.0457293], [16.6691565, 44.0450697], [16.6674367, 44.0445371], [16.6597102, 44.0423], [16.6564107, 44.0413447], [16.6539463, 44.0261496], [16.6539124, 44.0259181], [16.6538445, 44.0256159], [16.6538164, 44.0254909], [16.65169, 44.0160353], [16.6479242, 44.0127252], [16.6484392, 44.0123934], [16.6499197, 44.0115292], [16.6507137, 44.0107653], [16.6511965, 44.009523], [16.6516685, 44.0085275], [16.6522264, 44.0079411], [16.6519207, 44.0077173], [16.6509015, 44.0064917], [16.6505202, 44.0060286], [16.649991, 44.005386], [16.649909, 44.0052865], [16.6497544, 44.005078], [16.6483641, 44.0032029], [16.6479027, 44.003334], [16.6448021, 43.9986804], [16.6370451, 43.9921816], [16.636455, 43.9916953], [16.6357791, 43.9914869], [16.6346955, 43.9913016], [16.630522, 43.9879825], [16.6307044, 43.9878898], [16.6299426, 43.9872877], [16.6297495, 43.9869249], [16.6296726, 43.9867714], [16.6295993, 43.9866084], [16.6293311, 43.9862996], [16.6291916, 43.9861684], [16.6291377, 43.9861335], [16.6288698, 43.98596], [16.6285694, 43.9856049], [16.6282046, 43.9853038], [16.6275501, 43.9847866], [16.6272175, 43.9846322], [16.6268635, 43.9845936], [16.6260159, 43.9842153], [16.6249215, 43.9833507], [16.624428, 43.9829339], [16.6238594, 43.982324], [16.6178405, 43.9810347], [16.6124224, 43.9776378], [16.6058457, 43.9750745], [16.6038716, 43.9745958], [16.6030562, 43.9708896], [16.5999983, 43.970972], [16.595982, 43.9710802], [16.5945483, 43.9711188], [16.5945192, 43.9713202], [16.5944239, 43.9714708], [16.5940067, 43.9716857], [16.5936993, 43.9717718], [16.5934903, 43.971974], [16.593361, 43.9720992], [16.5931721, 43.9725744], [16.5929773, 43.9729994], [16.5927978, 43.9732002], [16.592744, 43.9734355], [16.5928445, 43.9739945], [16.5928435, 43.9742174], [16.5928414, 43.9747198], [16.5925305, 43.9752446], [16.5923508, 43.9758282], [16.5922152, 43.976052], [16.5917299, 43.976214], [16.5909772, 43.976295], [16.5907803, 43.9762596], [16.5905692, 43.9761178], [16.5905059, 43.9759862], [16.5902615, 43.9758112], [16.589901, 43.9758647], [16.5896759, 43.9759204], [16.5893523, 43.9761077], [16.5890569, 43.9761988], [16.5889021, 43.976295], [16.5887544, 43.9764469], [16.5885223, 43.9765532], [16.5877908, 43.9767607], [16.5876255, 43.9768127], [16.5872903, 43.9770638], [16.5871493, 43.9772566], [16.5872416, 43.9773363], [16.5875316, 43.977908], [16.5876892, 43.97821], [16.5876365, 43.9785006], [16.5872672, 43.9788018], [16.5848891, 43.9798371], [16.5844372, 43.9799396], [16.5829407, 43.9801345], [16.5825574, 43.9801521], [16.5820298, 43.9800509], [16.581868, 43.97998], [16.5817655, 43.9797518], [16.577134, 43.9803518], [16.5755454, 43.9805576], [16.5752305, 43.9805984], [16.5739606, 43.9807629], [16.5736771, 43.9807996], [16.5734175, 43.9804997], [16.5708689, 43.9775561], [16.5702386, 43.9768282], [16.5685704, 43.9749013], [16.5662815, 43.9722575], [16.5646124, 43.9703294], [16.5640811, 43.9697156], [16.5629361, 43.9683929], [16.5627725, 43.968204], [16.5623949, 43.9677678], [16.5620239, 43.9677643], [16.5611279, 43.9677557], [16.5575766, 43.9677219], [16.5569876, 43.9677163], [16.5567235, 43.9677137], [16.553687, 43.9676848], [16.553114, 43.9676793], [16.5506664, 43.967656], [16.5460946, 43.9679768]]]}}]}