{"type": "FeatureCollection", "features": [{"type": "Feature", "properties": {"name": "Grad Ljubuški, Županija Zapadnohercegovačka, Federacija Bosne i Hercegovine, Bosna i Hercegovina / Босна и Херцеговина", "source": "OpenStreetMap relation 2528228", "licence": "ODbL 1.0"}, "geometry": {"type": "Polygon", "coordinates": [[[17.3301304, 43.2776899], [17.33059, 43.276761], [17.3308207, 43.275882], [17.3307926, 43.2747343], [17.3307873, 43.2742432], [17.3313033, 43.2735834], [17.3321527, 43.2726263], [17.3326517, 43.2715719], [17.3327138, 43.2709399], [17.3326476, 43.2706273], [17.3324441, 43.2704981], [17.3319691, 43.2701487], [17.3322205, 43.2693788], [17.3325313, 43.2688743], [17.3333655, 43.2681018], [17.3329596, 43.2672942], [17.3321226, 43.2663074], [17.3319391, 43.2660261], [17.3322237, 43.2654055], [17.3348338, 43.2622387], [17.3360679, 43.2609888], [17.3373859, 43.2592492], [17.3386305, 43.2577406], [17.3392614, 43.2571877], [17.3403284, 43.2565803], [17.3407868, 43.256277], [17.3411791, 43.2558131], [17.3412424, 43.2540674], [17.3419925, 43.2534146], [17.3422426, 43.2531594], [17.3426252, 43.2531614], [17.3477831, 43.2524268], [17.3511095, 43.2520761], [17.353205, 43.2515861], [17.3537003, 43.2515842], [17.3549456, 43.2512412], [17.3568475, 43.2503179], [17.3582995, 43.2500231], [17.3587437, 43.2494857], [17.3591879, 43.2495705], [17.3692293, 43.2492679], [17.3707154, 43.2498854], [17.3733615, 43.2498692], [17.3760408, 43.2495714], [17.3768857, 43.2491306], [17.3784283, 43.2486778], [17.3806028, 43.2478287], [17.3814918, 43.2477692], [17.3839308, 43.2478249], [17.39307, 43.2460661], [17.3971889, 43.2453664], [17.4033611, 43.2415182], [17.4099019, 43.2374734], [17.416609, 43.233327], [17.4204355, 43.2310176], [17.4222942, 43.2297314], [17.4274387, 43.219104], [17.4275536, 43.2188665], [17.4283227, 43.2181312], [17.4286069, 43.2178735], [17.4288049, 43.2176197], [17.4289437, 43.2174418], [17.4294593, 43.2170777], [17.4294373, 43.2170537], [17.4290435, 43.2164937], [17.4293369, 43.2162691], [17.4296941, 43.2153313], [17.4295701, 43.2145979], [17.4298164, 43.2116857], [17.4299236, 43.2106083], [17.4303317, 43.2101951], [17.4310911, 43.2099482], [17.4317078, 43.2095013], [17.4315389, 43.2089954], [17.4313279, 43.2076028], [17.4311472, 43.2065355], [17.4314971, 43.2063837], [17.4318681, 43.2060726], [17.4319057, 43.205607], [17.4321905, 43.2053804], [17.4324503, 43.2050821], [17.432276, 43.204219], [17.4320615, 43.2036725], [17.4318262, 43.2029493], [17.4316375, 43.2018961], [17.431352, 43.19907], [17.4310523, 43.1987841], [17.4304849, 43.1979022], [17.4303311, 43.1970344], [17.4302235, 43.19644], [17.4295016, 43.1948143], [17.4290152, 43.1944257], [17.4290375, 43.1941245], [17.4289705, 43.1935003], [17.4285486, 43.1922855], [17.4283582, 43.1916924], [17.4275849, 43.1904617], [17.4271849, 43.1896606], [17.4270988, 43.188705], [17.4270721, 43.1885438], [17.4271798, 43.1880466], [17.4273968, 43.1873354], [17.4277892, 43.1859048], [17.4283619, 43.1850006], [17.428877, 43.1838862], [17.4297849, 43.181343], [17.4302945, 43.1806602], [17.4307161, 43.1799452], [17.4310699, 43.1793453], [17.4315524, 43.1785418], [17.4322391, 43.1784573], [17.4330276, 43.178473], [17.4336231, 43.1785668], [17.4350608, 43.179005], [17.4373031, 43.1799829], [17.4377644, 43.1802489], [17.4380863, 43.180288], [17.4384833, 43.1802489], [17.4391377, 43.1801003], [17.4400389, 43.1798186], [17.440672, 43.1796309], [17.4413264, 43.1793179], [17.4416268, 43.1790597], [17.4418307, 43.1789189], [17.4421525, 43.1788407], [17.4426246, 43.1788563], [17.4429679, 43.1788563], [17.4433434, 43.1788015], [17.4437082, 43.1787077], [17.4440301, 43.1785825], [17.4444378, 43.1783947], [17.4447275, 43.1782852], [17.4453497, 43.1781444], [17.4458325, 43.1780192], [17.4463629, 43.1779731], [17.4467659, 43.1778001], [17.4470083, 43.1777517], [17.4472147, 43.1777619], [17.4474934, 43.177843], [17.4477738, 43.1778792], [17.4480481, 43.1778396], [17.4482552, 43.1777535], [17.4487997, 43.1775208], [17.4490157, 43.1774803], [17.4494219, 43.1774769], [17.4497022, 43.1774579], [17.4499537, 43.1774021], [17.4503195, 43.1772693], [17.450849, 43.1769776], [17.4512077, 43.1766539], [17.4515671, 43.1762275], [17.4518782, 43.1760123], [17.452361, 43.1758363], [17.4529225, 43.1757001], [17.4532085, 43.1756152], [17.453458, 43.175513], [17.4539602, 43.1751979], [17.4542708, 43.1750343], [17.4549634, 43.1747591], [17.4554302, 43.1745207], [17.4559874, 43.1740602], [17.4562506, 43.1737994], [17.4564738, 43.1734971], [17.4566311, 43.1731995], [17.4568207, 43.1729969], [17.457425, 43.1726166], [17.4576235, 43.1724171], [17.4579722, 43.1718185], [17.4581546, 43.1716698], [17.4583638, 43.171572], [17.4585765, 43.1715398], [17.4595816, 43.1715315], [17.459869, 43.1715035], [17.4601267, 43.1714366], [17.4603599, 43.1713272], [17.4609602, 43.1707661], [17.4612606, 43.1706018], [17.4623871, 43.1702027], [17.4626936, 43.1700753], [17.4631835, 43.1696447], [17.4635507, 43.1691876], [17.465218, 43.1682208], [17.4714082, 43.1646188], [17.4726601, 43.1640318], [17.4730887, 43.1633952], [17.4732945, 43.1629146], [17.4736847, 43.1624714], [17.4745299, 43.1620775], [17.4751826, 43.1615433], [17.4759438, 43.1611627], [17.476365, 43.1609374], [17.4780402, 43.1603319], [17.4844363, 43.1585082], [17.4862299, 43.1580287], [17.4870746, 43.1577132], [17.4893955, 43.1566141], [17.4916784, 43.1550401], [17.4939104, 43.1539568], [17.4947255, 43.1540045], [17.4955207, 43.1537514], [17.4963555, 43.1533342], [17.4976248, 43.1530187], [17.498965, 43.1522937], [17.5003846, 43.1519548], [17.5002023, 43.1513142], [17.5006401, 43.1507457], [17.5012177, 43.1503116], [17.5017997, 43.1504994], [17.5021116, 43.150648], [17.5024669, 43.1509818], [17.5030651, 43.150447], [17.5038286, 43.1502239], [17.5047982, 43.149293], [17.5055192, 43.1495914], [17.5069405, 43.148321], [17.5087646, 43.1471095], [17.5105874, 43.1466344], [17.5121785, 43.1460257], [17.5150593, 43.1452127], [17.5165948, 43.1447695], [17.5188632, 43.144151], [17.5206933, 43.1437833], [17.5225342, 43.1430794], [17.5239817, 43.1426022], [17.5253942, 43.1420217], [17.5292123, 43.1402839], [17.5306919, 43.1394638], [17.531136, 43.1391408], [17.5323859, 43.1384107], [17.5341548, 43.1373074], [17.5372884, 43.1365663], [17.5393279, 43.1358683], [17.5411285, 43.1353703], [17.5416901, 43.1351985], [17.5426214, 43.1348617], [17.5433181, 43.134596], [17.5444021, 43.1342559], [17.5449971, 43.1338034], [17.5452444, 43.1334949], [17.5454955, 43.1332239], [17.5461239, 43.1327592], [17.5468327, 43.1322958], [17.5474599, 43.1318381], [17.5485152, 43.1314811], [17.5492457, 43.1313971], [17.5508035, 43.131157], [17.5516587, 43.1311334], [17.5525496, 43.1311023], [17.5541533, 43.1305959], [17.5556259, 43.12995], [17.5566848, 43.1293162], [17.5579879, 43.1283827], [17.5587232, 43.1278504], [17.5591373, 43.1275067], [17.5596371, 43.1270642], [17.5604391, 43.126352], [17.5612838, 43.1257977], [17.5623875, 43.124948], [17.5631597, 43.1244691], [17.5640018, 43.1242257], [17.5647169, 43.1240839], [17.5654049, 43.1237726], [17.5658218, 43.1235311], [17.5661404, 43.1232105], [17.5662224, 43.1231384], [17.5664104, 43.1229936], [17.5666244, 43.1229079], [17.5679809, 43.1224492], [17.5699366, 43.1218296], [17.571549, 43.1215512], [17.5742056, 43.120701], [17.5761967, 43.1200966], [17.5784044, 43.1194453], [17.5796294, 43.1191597], [17.5805579, 43.1187661], [17.582538, 43.1177142], [17.5831466, 43.1173795], [17.5852181, 43.1166428], [17.5864126, 43.1161707], [17.5869892, 43.1157077], [17.5880399, 43.1152303], [17.5889877, 43.1147147], [17.5904104, 43.1137897], [17.5914223, 43.1133503], [17.5920899, 43.1129447], [17.5936545, 43.1122675], [17.5966816, 43.1105945], [17.5980649, 43.109612], [17.5992969, 43.1088989], [17.6004342, 43.1083584], [17.6007512, 43.1085546], [17.6012433, 43.1086422], [17.6014444, 43.1084441], [17.6024097, 43.1079815], [17.6020029, 43.1073779], [17.6024161, 43.107249], [17.6066812, 43.1050681], [17.6108138, 43.1029423], [17.6118269, 43.1025466], [17.6134235, 43.1017248], [17.6166004, 43.0999848], [17.6183175, 43.0990165], [17.618999, 43.0987403], [17.6194834, 43.0983244], [17.6197621, 43.098235], [17.6205289, 43.0980066], [17.6212185, 43.0977684], [17.6239346, 43.0966073], [17.6246745, 43.0962807], [17.6253762, 43.0960098], [17.6261037, 43.095727], [17.627068, 43.0954909], [17.6278279, 43.0953586], [17.6270592, 43.1002152], [17.6274133, 43.1035131], [17.6313615, 43.1042494], [17.6314044, 43.1044923], [17.6312435, 43.1049074], [17.6308143, 43.1053226], [17.6302457, 43.1058082], [17.6293552, 43.1063017], [17.6290226, 43.106521], [17.6285505, 43.1067404], [17.6281428, 43.1069362], [17.62766, 43.1073043], [17.6271343, 43.1075941], [17.6269627, 43.1079153], [17.6269841, 43.1082129], [17.627188, 43.1086046], [17.6272738, 43.1088552], [17.6273596, 43.1090902], [17.6274347, 43.1093252], [17.6264584, 43.1098421], [17.6254821, 43.110594], [17.6252568, 43.1109857], [17.6246989, 43.1116044], [17.6244306, 43.1118629], [17.6242375, 43.1120509], [17.6235509, 43.1123093], [17.621609, 43.1132335], [17.6212764, 43.1133745], [17.6228213, 43.1149252], [17.6250529, 43.116891], [17.6264477, 43.1183398], [17.6270163, 43.1187862], [17.6279873, 43.1194206], [17.6294893, 43.1202037], [17.6313937, 43.1212648], [17.6322788, 43.1219069], [17.6324344, 43.1218404], [17.6326704, 43.1218169], [17.6332337, 43.1218443], [17.6331693, 43.1220362], [17.6340705, 43.1226274], [17.6344299, 43.1230307], [17.6347089, 43.1232186], [17.6348215, 43.1232891], [17.6353902, 43.1237981], [17.6357764, 43.1241661], [17.6373804, 43.1255287], [17.6381689, 43.1262295], [17.6387536, 43.1269577], [17.6396227, 43.1276977], [17.6401699, 43.1282536], [17.6407063, 43.1290014], [17.6411569, 43.1295456], [17.6414949, 43.1299645], [17.6417416, 43.1303912], [17.6419079, 43.1306848], [17.6420689, 43.1307984], [17.6420313, 43.1310881], [17.6417524, 43.1314091], [17.6414949, 43.1316323], [17.6410764, 43.1317497], [17.6409423, 43.1317693], [17.6405615, 43.1323252], [17.6405561, 43.1325992], [17.640717, 43.1331003], [17.6479644, 43.1409959], [17.6485062, 43.1409803], [17.6489299, 43.1409842], [17.6493741, 43.140977], [17.6497185, 43.1408433], [17.650314, 43.1404127], [17.650947, 43.1398842], [17.6522505, 43.1391288], [17.6530069, 43.1387256], [17.6542354, 43.1380523], [17.655158, 43.1377235], [17.6556569, 43.1373986], [17.6560163, 43.1372498], [17.6562738, 43.1372303], [17.6568747, 43.1373673], [17.6571965, 43.1374612], [17.657395, 43.1377391], [17.6576493, 43.138163], [17.6572302, 43.1383906], [17.6566033, 43.1389215], [17.6555673, 43.1397753], [17.6550509, 43.1400591], [17.6546184, 43.1402548], [17.6542195, 43.1403331], [17.6537031, 43.1403331], [17.6528281, 43.1403282], [17.6521977, 43.1404187], [17.6513381, 43.1407602], [17.6508774, 43.1410865], [17.6506052, 43.1412578], [17.650404, 43.1415245], [17.650166, 43.1419477], [17.6498604, 43.1422795], [17.6494183, 43.1425544], [17.6491338, 43.1426811], [17.6489628, 43.1429135], [17.6488321, 43.1432316], [17.6488086, 43.1437135], [17.6487684, 43.1439434], [17.6486309, 43.1440853], [17.6482856, 43.1441661], [17.6479201, 43.144144], [17.6476787, 43.1440388], [17.6472127, 43.1437135], [17.6468573, 43.1434835], [17.6465388, 43.1434175], [17.6460392, 43.1434297], [17.645362, 43.1435325], [17.6446847, 43.1436744], [17.6441282, 43.1437991], [17.6435448, 43.1439655], [17.6428124, 43.1443323], [17.6420159, 43.1448412], [17.6415868, 43.1452473], [17.6412817, 43.1457317], [17.6409632, 43.1463139], [17.6407452, 43.1465976], [17.640705, 43.1468007], [17.6408291, 43.1471382], [17.6413043, 43.147727], [17.6417121, 43.1480626], [17.6419753, 43.1481404], [17.6422811, 43.1481888], [17.6430018, 43.1480989], [17.6439556, 43.1479619], [17.6446447, 43.1478758], [17.6452422, 43.147746], [17.645631, 43.1477495], [17.6459819, 43.1478342], [17.6463541, 43.1480141], [17.6465959, 43.1482355], [17.6467026, 43.1484431], [17.6466528, 43.1486247], [17.6464489, 43.148808], [17.6460198, 43.1490381], [17.6454627, 43.1492993], [17.6449079, 43.1495829], [17.6438426, 43.1502724], [17.6433716, 43.1506311], [17.6427956, 43.1509511], [17.6419255, 43.1512728], [17.6408089, 43.1516221], [17.6405007, 43.1517138], [17.6401213, 43.1517536], [17.6395879, 43.1519179], [17.6393627, 43.1520666], [17.639275, 43.1522673], [17.6391796, 43.1531502], [17.6391092, 43.1536174], [17.6391025, 43.1538791], [17.6391629, 43.154109], [17.6391394, 43.1542484], [17.639516, 43.1544178], [17.6401908, 43.1548263], [17.6407925, 43.1552765], [17.6410784, 43.1555813], [17.6411514, 43.1560124], [17.6409974, 43.1564907], [17.6410925, 43.1565062], [17.6408994, 43.1568388], [17.6407814, 43.1569914], [17.6406179, 43.1571554], [17.6405264, 43.1573648], [17.6405007, 43.1574906], [17.6405106, 43.1576168], [17.6405526, 43.1577904], [17.6406742, 43.1581776], [17.64083, 43.1584903], [17.6410603, 43.1590758], [17.6412053, 43.1592134], [17.6414008, 43.159329], [17.6414471, 43.1594181], [17.6414962, 43.1595014], [17.6415162, 43.1595353], [17.6417959, 43.1600096], [17.6419236, 43.1602263], [17.6429488, 43.161965], [17.6404657, 43.1638316], [17.6389253, 43.1649896], [17.6377273, 43.1651554], [17.6375091, 43.1651856], [17.6367235, 43.1652944], [17.6361048, 43.16538], [17.633435, 43.1657495], [17.633622, 43.1658587], [17.6338997, 43.1660516], [17.6340594, 43.1661077], [17.6343508, 43.166147], [17.6344825, 43.1661976], [17.6345809, 43.1662737], [17.6346212, 43.1663627], [17.6346283, 43.1664786], [17.6346768, 43.1665331], [17.6348049, 43.1667229], [17.6349642, 43.1669832], [17.6350527, 43.167082], [17.6351546, 43.1671745], [17.6351751, 43.1672485], [17.6351381, 43.1673354], [17.6350693, 43.1674123], [17.6350265, 43.1674741], [17.635048, 43.1675454], [17.6351849, 43.1677178], [17.6354103, 43.1678784], [17.6355817, 43.1679446], [17.6357866, 43.1679671], [17.6359767, 43.1679351], [17.6360781, 43.1679181], [17.6362487, 43.1679261], [17.6366447, 43.1680452], [17.6368996, 43.1681963], [17.6372899, 43.1684834], [17.6376021, 43.168651], [17.6378243, 43.1686973], [17.6380194, 43.1687322], [17.6381152, 43.1687774], [17.6382272, 43.1689088], [17.6383789, 43.1691328], [17.6384299, 43.169272], [17.6384125, 43.1693472], [17.6383789, 43.1694578], [17.6384038, 43.1696238], [17.6383531, 43.1699455], [17.6383231, 43.1701272], [17.638354, 43.1702541], [17.6384284, 43.1703547], [17.6385745, 43.1704979], [17.6390433, 43.1707456], [17.6396648, 43.17112], [17.6401245, 43.1714288], [17.6406241, 43.1718174], [17.6411309, 43.1721911], [17.6414316, 43.1724337], [17.6415092, 43.1726363], [17.6415837, 43.1729008], [17.6415579, 43.1732473], [17.6416073, 43.173534], [17.6417385, 43.173798], [17.6420881, 43.1742703], [17.6422462, 43.1745392], [17.6423953, 43.1750175], [17.6425122, 43.1753417], [17.6426885, 43.1756318], [17.642607, 43.1757506], [17.6423762, 43.17582], [17.6421613, 43.1758695], [17.6421388, 43.1759988], [17.6422268, 43.1760874], [17.6424237, 43.1761518], [17.6424971, 43.1763565], [17.6424175, 43.17655], [17.6422186, 43.1767337], [17.6423283, 43.1769907], [17.6427484, 43.1774908], [17.6428884, 43.1778775], [17.6428221, 43.1782039], [17.6424905, 43.1784336], [17.6422584, 43.1787238], [17.6424553, 43.1790335], [17.6426563, 43.1793887], [17.6427959, 43.1796638], [17.6427004, 43.1798495], [17.6424033, 43.1800275], [17.6423141, 43.1802307], [17.6424933, 43.1804185], [17.6429791, 43.1807443], [17.6432207, 43.1811106], [17.6433451, 43.1813913], [17.6435634, 43.1816306], [17.6436389, 43.1818371], [17.6436797, 43.1821021], [17.6439133, 43.1824598], [17.6442059, 43.1826444], [17.6445444, 43.182774], [17.644694, 43.1830099], [17.6447288, 43.1832962], [17.6446924, 43.1836386], [17.6447213, 43.1838806], [17.644946, 43.1841668], [17.6450216, 43.1845008], [17.6450123, 43.1849089], [17.6449501, 43.1853364], [17.6448396, 43.1856286], [17.6447818, 43.1858156], [17.6447833, 43.1859582], [17.644892, 43.1861676], [17.6450666, 43.1863473], [17.6453169, 43.1865213], [17.6457274, 43.1862477], [17.6460707, 43.1863338], [17.6459527, 43.1865372], [17.6463497, 43.1868579], [17.6474655, 43.186193], [17.6476371, 43.1865763], [17.6492143, 43.1857158], [17.6529586, 43.1828056], [17.6586287, 43.1787768], [17.6590526, 43.1790425], [17.6620245, 43.1805994], [17.6627111, 43.1808732], [17.6646048, 43.1823714], [17.6646195, 43.1824819], [17.6646131, 43.1825291], [17.6646805, 43.1825559], [17.6648004, 43.1825931], [17.6649037, 43.1826356], [17.6649491, 43.1826648], [17.6650839, 43.1827694], [17.6651922, 43.1828257], [17.6652637, 43.1828548], [17.6650661, 43.1829582], [17.6653773, 43.1832867], [17.6654644, 43.183597], [17.6658118, 43.1836231], [17.6660907, 43.1839204], [17.6661757, 43.1839981], [17.6663132, 43.1841912], [17.6663466, 43.184252], [17.6663846, 43.184337], [17.6663934, 43.1845087], [17.6662976, 43.1846669], [17.6662446, 43.1847908], [17.6662725, 43.1848892], [17.6663939, 43.1851452], [17.6663931, 43.1852253], [17.6663642, 43.1852805], [17.6662288, 43.1854162], [17.6660772, 43.1856048], [17.6657861, 43.1859267], [17.6657313, 43.186022], [17.6656615, 43.1862024], [17.6655332, 43.1864229], [17.6653698, 43.18667], [17.6653256, 43.1867072], [17.6653303, 43.1867377], [17.6653528, 43.1867785], [17.6656709, 43.1869828], [17.665715, 43.1870226], [17.6653388, 43.1871789], [17.6649911, 43.1872502], [17.664475, 43.1873888], [17.6643446, 43.1874601], [17.6638666, 43.1876423], [17.6636112, 43.1877295], [17.6635285, 43.1877803], [17.6633016, 43.1879196], [17.6630036, 43.1882226], [17.6629723, 43.188248], [17.6630527, 43.1882862], [17.6631689, 43.1883761], [17.6633027, 43.1884749], [17.6634523, 43.1885904], [17.6636002, 43.1887676], [17.6636988, 43.1888805], [17.6637393, 43.1889562], [17.6637438, 43.1890018], [17.6637481, 43.1890448], [17.6637734, 43.1890849], [17.6638264, 43.1891469], [17.6638766, 43.1892208], [17.6639044, 43.1892624], [17.6639413, 43.1893174], [17.6638716, 43.1893278], [17.6629364, 43.1894667], [17.6629863, 43.1896547], [17.6629955, 43.1896896], [17.6625663, 43.1896857], [17.6621532, 43.1897952], [17.6621289, 43.1897642], [17.662046, 43.1896583], [17.6617234, 43.1897688], [17.6616919, 43.1897796], [17.6618314, 43.1900651], [17.6617992, 43.1901081], [17.6614954, 43.1902422], [17.6614431, 43.1902653], [17.6613372, 43.190312], [17.6612145, 43.1903662], [17.6611177, 43.1903911], [17.6610433, 43.1904103], [17.6609802, 43.1904265], [17.6608497, 43.1904601], [17.6605204, 43.1905448], [17.6603937, 43.1905774], [17.6600885, 43.1907172], [17.6597923, 43.1908529], [17.6597446, 43.1908747], [17.6595387, 43.1909441], [17.6595137, 43.1909525], [17.6594657, 43.1909686], [17.6592511, 43.1909607], [17.6588756, 43.1908551], [17.6584786, 43.19073], [17.6584297, 43.1906787], [17.658165, 43.1907689], [17.6580936, 43.1908031], [17.6575935, 43.1910429], [17.6574431, 43.1911015], [17.6573628, 43.1911328], [17.6564079, 43.1916139], [17.6563904, 43.1916222], [17.6557402, 43.1919312], [17.6556838, 43.191958], [17.6554779, 43.1917614], [17.6553576, 43.1916681], [17.6551033, 43.1914707], [17.6548737, 43.1916256], [17.6547492, 43.191503], [17.6546087, 43.1914448], [17.654393, 43.1913349], [17.6542984, 43.1913069], [17.6541826, 43.1912472], [17.6533444, 43.1923201], [17.6538096, 43.1927861], [17.6533547, 43.1931442], [17.652787, 43.1928458], [17.6522691, 43.1930979], [17.6506895, 43.1938666], [17.6504749, 43.1941169], [17.6502496, 43.1943828], [17.6499546, 43.1945275], [17.6488066, 43.1958298], [17.6486671, 43.1959237], [17.6377909, 43.2027829], [17.6378202, 43.2054886], [17.6380563, 43.2064818], [17.6386946, 43.2076665], [17.6389468, 43.2079676], [17.6391345, 43.2081631], [17.6396422, 43.2085094], [17.6401213, 43.2087158], [17.6404765, 43.2088048], [17.6406826, 43.2088348], [17.640892, 43.2088416], [17.6412616, 43.208851], [17.6412307, 43.2089161], [17.6411623, 43.2089683], [17.6404941, 43.2091854], [17.6399318, 43.2093386], [17.6398407, 43.2093664], [17.6396571, 43.2094146], [17.6394433, 43.2094707], [17.6391804, 43.2095456], [17.6389891, 43.2096015], [17.638021, 43.20991], [17.6373431, 43.2100977], [17.6369714, 43.2101987], [17.636767, 43.210262], [17.6365625, 43.2103154], [17.6364025, 43.210359], [17.6362745, 43.2103974], [17.6360649, 43.2104689], [17.6358388, 43.2105449], [17.6356983, 43.2105788], [17.6355466, 43.2106156], [17.6354732, 43.2106363], [17.6353865, 43.2106751], [17.6352864, 43.2107187], [17.6350995, 43.2108188], [17.6350004, 43.210861], [17.6349178, 43.2108956], [17.6348507, 43.2109151], [17.6346338, 43.2109678], [17.6345182, 43.2109866], [17.6343768, 43.2110047], [17.6342436, 43.2110197], [17.6341352, 43.2110446], [17.6338853, 43.2111116], [17.6330469, 43.2112651], [17.6329013, 43.2113027], [17.6328105, 43.2113328], [17.632733, 43.2113667], [17.6326991, 43.2113799], [17.6326618, 43.2113945], [17.6325441, 43.2114306], [17.6324222, 43.2114509], [17.6322963, 43.2114487], [17.6322448, 43.2114456], [17.6321435, 43.2114396], [17.6319731, 43.2114073], [17.6318379, 43.2113892], [17.6316954, 43.2113772], [17.6315353, 43.2113734], [17.6314114, 43.2113734], [17.6310893, 43.2113516], [17.6308797, 43.2113456], [17.6300227, 43.2113493], [17.6299122, 43.2113721], [17.6297171, 43.2113388], [17.6295323, 43.211314], [17.629358, 43.2112817], [17.6293413, 43.2112786], [17.6288705, 43.21118], [17.6286966, 43.2111508], [17.6285927, 43.2111334], [17.6284169, 43.2111139], [17.6283749, 43.2111093], [17.6282407, 43.211107], [17.628093, 43.2111146], [17.6279041, 43.2111319], [17.6278248, 43.2111423], [17.6277089, 43.2111575], [17.6276628, 43.2111589], [17.6276061, 43.2111605], [17.6275334, 43.2111627], [17.6273754, 43.2111627], [17.6272804, 43.2111567], [17.6271225, 43.2111258], [17.6268138, 43.2110491], [17.6265381, 43.2110107], [17.6263853, 43.2109957], [17.6259511, 43.2109507], [17.6258979, 43.2109452], [17.6253507, 43.2108707], [17.6250895, 43.2108233], [17.6248696, 43.2107759], [17.624791, 43.210755], [17.6246682, 43.2107225], [17.6243027, 43.2106194], [17.623994, 43.2105426], [17.6237555, 43.210493], [17.6231753, 43.2103914], [17.6229811, 43.2103462], [17.6227354, 43.2102642], [17.6225599, 43.2102002], [17.6224081, 43.2101574], [17.622246, 43.2101114], [17.6221376, 43.2100798], [17.6219609, 43.2100234], [17.6219242, 43.2100806], [17.621863, 43.2101641], [17.6217945, 43.2102486], [17.6217412, 43.2103127], [17.6215907, 43.2105201], [17.6215021, 43.2106576], [17.6214358, 43.2107747], [17.621399, 43.2108729], [17.6213819, 43.2109278], [17.6213717, 43.2109606], [17.6212521, 43.2113622], [17.6211642, 43.2116095], [17.6210835, 43.2117917], [17.6210389, 43.2119014], [17.6210245, 43.2119575], [17.6210158, 43.2119917], [17.6210057, 43.2121377], [17.6210993, 43.2122254], [17.6213407, 43.2124209], [17.6213193, 43.2128197], [17.6212925, 43.2133475], [17.6213, 43.2135634], [17.6213461, 43.2142194], [17.621566, 43.2151616], [17.6230861, 43.2179334], [17.6224592, 43.2181308], [17.6220703, 43.2181503], [17.6216224, 43.2181738], [17.6211905, 43.2182148], [17.6208499, 43.2183184], [17.6206112, 43.2184201], [17.6205602, 43.21851], [17.6204717, 43.2185803], [17.6196831, 43.2189126], [17.6183259, 43.2193681], [17.6171994, 43.2197355], [17.6162124, 43.2199857], [17.6157135, 43.2201577], [17.6148176, 43.2205174], [17.6143509, 43.2207167], [17.6142544, 43.2208926], [17.6140827, 43.2211624], [17.6139218, 43.2212796], [17.6134765, 43.2212757], [17.6133799, 43.2212406], [17.6132244, 43.2212054], [17.6127309, 43.2212992], [17.6123446, 43.2214595], [17.6117009, 43.2212523], [17.6104563, 43.2208536], [17.6096356, 43.2206385], [17.6089758, 43.2204783], [17.6083535, 43.2203571], [17.6075649, 43.2200717], [17.6070982, 43.2203454], [17.6063418, 43.2208887], [17.6060414, 43.2211506], [17.6057625, 43.2212992], [17.6052529, 43.2215416], [17.6048881, 43.2217605], [17.6040029, 43.2223038], [17.6033002, 43.2226439], [17.6027584, 43.2228589], [17.6019376, 43.2231716], [17.6019591, 43.2233045], [17.6018465, 43.2233475], [17.6017392, 43.2235352], [17.6014119, 43.2236954], [17.6007038, 43.2239339], [17.6000333, 43.2242192], [17.599749, 43.2245202], [17.5994378, 43.2247235], [17.5990462, 43.2248759], [17.5984669, 43.225259], [17.5978178, 43.225517], [17.5972009, 43.225775], [17.596423, 43.2260955], [17.5956505, 43.2264707], [17.5947171, 43.2269085], [17.5937462, 43.2272877], [17.5926948, 43.2275926], [17.591874, 43.227745], [17.5913376, 43.2278896], [17.5905436, 43.228175], [17.5888592, 43.2288942], [17.5879633, 43.2293632], [17.5868261, 43.2298791], [17.584632, 43.2306804], [17.5842941, 43.2309618], [17.5800669, 43.2377036], [17.5795627, 43.2379498], [17.5787634, 43.2382898], [17.5779051, 43.2385321], [17.5772828, 43.2390753], [17.5767088, 43.2395599], [17.5763386, 43.239724], [17.575947, 43.2396967], [17.5756413, 43.2395912], [17.5752389, 43.2395599], [17.5747937, 43.2397318], [17.5743109, 43.2398921], [17.5736135, 43.240021], [17.5729588, 43.2401169], [17.5714999, 43.2406971], [17.5706854, 43.2409107], [17.5699112, 43.2411573], [17.5693111, 43.2415154], [17.5689036, 43.241846], [17.5681257, 43.2423501], [17.5669724, 43.2429793], [17.5665325, 43.2431434], [17.5653684, 43.2435928], [17.564612, 43.2439367], [17.5645262, 43.2439835], [17.566967, 43.2467189], [17.5687158, 43.2487429], [17.5691879, 43.2493681], [17.5694883, 43.2498526], [17.5696331, 43.2501574], [17.5697994, 43.2507122], [17.5704753, 43.2530721], [17.5704753, 43.2533417], [17.5704646, 43.2540919], [17.5704539, 43.2543106], [17.5706041, 43.2544318], [17.570368, 43.2548928], [17.5706363, 43.2550491], [17.5709528, 43.2548225], [17.5713658, 43.254549], [17.5715804, 43.2543497], [17.5720042, 43.2541231], [17.5725514, 43.2539082], [17.5729537, 43.2538652], [17.5740373, 43.2536543], [17.5749761, 43.2534198], [17.5768322, 43.2528494], [17.5775349, 43.2525954], [17.5777978, 43.2523415], [17.5779641, 43.252193], [17.5786561, 43.2518453], [17.5791174, 43.2515952], [17.5794876, 43.2512748], [17.5798845, 43.2510091], [17.58026, 43.2508607], [17.5806034, 43.2511889], [17.5811237, 43.251521], [17.5813919, 43.2516226], [17.5826257, 43.2520367], [17.5829315, 43.2521188], [17.583704, 43.2523571], [17.5840098, 43.2525134], [17.5842404, 43.2526853], [17.5844067, 43.2531385], [17.5845945, 43.2537871], [17.5847179, 43.2544708], [17.5847822, 43.2552327], [17.5848144, 43.2559125], [17.5847179, 43.256647], [17.5844175, 43.2572877], [17.584117, 43.2579011], [17.5839454, 43.2585809], [17.5839454, 43.2591825], [17.5838596, 43.2609795], [17.5838703, 43.2614874], [17.5838059, 43.2616515], [17.5839025, 43.2616671], [17.5837684, 43.2621398], [17.5835216, 43.2626515], [17.5835538, 43.2632844], [17.5836235, 43.2637336], [17.583645, 43.2640696], [17.5835484, 43.2644407], [17.5833768, 43.2646751], [17.5830924, 43.2649524], [17.5830281, 43.2652766], [17.5830066, 43.2657024], [17.5828081, 43.2662923], [17.5825345, 43.2669876], [17.5822341, 43.2673704], [17.581408, 43.2680422], [17.5805926, 43.268425], [17.5791335, 43.2691281], [17.5786292, 43.2694094], [17.5776797, 43.2699523], [17.5771004, 43.2702335], [17.5763869, 43.2708311], [17.5754428, 43.2717842], [17.5750029, 43.2722607], [17.5748098, 43.2724638], [17.5745737, 43.2727294], [17.5743216, 43.2728856], [17.5741339, 43.2734246], [17.5739193, 43.273698], [17.5722885, 43.2752838], [17.5718379, 43.2756431], [17.5711352, 43.2759048], [17.5705236, 43.2760532], [17.5702178, 43.2760766], [17.569896, 43.2760258], [17.5696975, 43.2761821], [17.5695205, 43.2761391], [17.5692147, 43.2760883], [17.5681525, 43.2763539], [17.5662804, 43.2769554], [17.5657654, 43.2770764], [17.5654596, 43.2771585], [17.5649607, 43.2772131], [17.5611621, 43.2785946], [17.5563995, 43.2791725], [17.5500494, 43.281484], [17.5397305, 43.284951], [17.5341741, 43.2895734], [17.5302053, 43.29304], [17.5254427, 43.2970841], [17.5214739, 43.2999726], [17.5167113, 43.3028609], [17.5129804, 43.303034], [17.5112966, 43.3011959], [17.5101741, 43.3009917], [17.5090515, 43.298745], [17.5076483, 43.2969068], [17.5065258, 43.2958855], [17.504, 43.2952728], [17.5011937, 43.2956813], [17.4997905, 43.2964983], [17.4981066, 43.2967026], [17.4964228, 43.2960898], [17.4950196, 43.2948643], [17.494739, 43.2930259], [17.494739, 43.2909832], [17.4941777, 43.2903704], [17.4913713, 43.2895533], [17.4891262, 43.2875105], [17.4874424, 43.2875105], [17.4864593, 43.2860113], [17.4849578, 43.2864125], [17.4839151, 43.2866911], [17.4838829, 43.2867888], [17.4839097, 43.286863], [17.4838132, 43.2868669], [17.4834537, 43.2869098], [17.4829549, 43.2870465], [17.4814904, 43.2874409], [17.4809915, 43.2875658], [17.480498, 43.2877494], [17.4796557, 43.2878548], [17.4791193, 43.2880383], [17.4785936, 43.2883585], [17.4779069, 43.288382], [17.4773812, 43.2884366], [17.4753427, 43.2889442], [17.4758899, 43.2898619], [17.4764371, 43.2906858], [17.4763566, 43.2907365], [17.4763566, 43.2910801], [17.4747983, 43.2914628], [17.4745059, 43.2915116], [17.4741961, 43.2915623], [17.4739815, 43.2916131], [17.4738783, 43.2915936], [17.4738072, 43.2915994], [17.4737227, 43.2916229], [17.4737066, 43.2917205], [17.4736771, 43.2918122], [17.4735779, 43.2918786], [17.4731755, 43.2919294], [17.4731111, 43.291701], [17.4730253, 43.2915624], [17.4729422, 43.291496], [17.4728132, 43.2914692], [17.4723457, 43.2913984], [17.4721318, 43.2913428], [17.4720058, 43.2912878], [17.4720114, 43.2913886], [17.4721295, 43.2917908], [17.4721751, 43.2920075], [17.4722207, 43.292068], [17.4723172, 43.2921617], [17.4717915, 43.2923218], [17.4713087, 43.2925268], [17.470901, 43.2926869], [17.4704477, 43.2928899], [17.4703029, 43.2929992], [17.4700212, 43.2932316], [17.4663734, 43.294969], [17.4657404, 43.2951604], [17.4654186, 43.2952814], [17.4648499, 43.2955937], [17.4646139, 43.2957772], [17.4645, 43.2959485], [17.464453, 43.2960193], [17.464453, 43.2962184], [17.4644691, 43.2963902], [17.4643832, 43.296523], [17.4639595, 43.2964995], [17.4635732, 43.2965074], [17.4626881, 43.2966713], [17.4623716, 43.2967963], [17.4621302, 43.2968978], [17.4605638, 43.2973858], [17.4604243, 43.29746], [17.4602097, 43.2975225], [17.4567175, 43.2987015], [17.4540353, 43.2995409], [17.4536866, 43.2996229], [17.4532682, 43.299658], [17.4531501, 43.2995761], [17.4529839, 43.2994863], [17.4524824, 43.2996439], [17.4522757, 43.2997088], [17.4522447, 43.2997007], [17.4521416, 43.2996737], [17.4514496, 43.2999977], [17.4511868, 43.3001578], [17.4508756, 43.3004701], [17.4506879, 43.3007199], [17.4505109, 43.301083], [17.4504304, 43.3012158], [17.450366, 43.3012275], [17.4503338, 43.3011416], [17.4494755, 43.3012665], [17.4490532, 43.3013126], [17.4489391, 43.3013251], [17.4483832, 43.3014011], [17.4482256, 43.3014227], [17.4474102, 43.3016218], [17.4473941, 43.3018482], [17.4472868, 43.3018638], [17.4470079, 43.3019185], [17.4457687, 43.302305], [17.4456614, 43.3022035], [17.4447817, 43.3025275], [17.4436176, 43.3031677], [17.4433172, 43.3034683], [17.4432347, 43.3035746], [17.4429685, 43.3039173], [17.4426881, 43.3042089], [17.441681, 43.3052563], [17.4415684, 43.3053773], [17.4414504, 43.3055881], [17.4411339, 43.3062712], [17.4410802, 43.3064781], [17.4408549, 43.3068724], [17.4407476, 43.3070324], [17.4404123, 43.3072881], [17.4401827, 43.3074393], [17.4399322, 43.3076043], [17.4396667, 43.3077507], [17.439206, 43.3080541], [17.4391007, 43.3081235], [17.4387199, 43.3083148], [17.4383658, 43.3085099], [17.43806, 43.3087402], [17.4379749, 43.3088415], [17.4378616, 43.3089764], [17.4380332, 43.3091911], [17.4382746, 43.3095932], [17.4383014, 43.3098235], [17.4381942, 43.3101709], [17.4381351, 43.3105105], [17.4380279, 43.310811], [17.4379367, 43.3112482], [17.4378562, 43.3114434], [17.4376845, 43.3116424], [17.4375182, 43.311861], [17.4372446, 43.312185], [17.4369335, 43.3124114], [17.4352534, 43.3132482], [17.4351847, 43.3133248], [17.4350238, 43.3133833], [17.432701, 43.3139219], [17.430743, 43.3142693], [17.4303192, 43.3136409], [17.4301046, 43.31279], [17.430523, 43.312103], [17.4311453, 43.3111272], [17.4310273, 43.3109398], [17.4307859, 43.3107213], [17.4305499, 43.3104402], [17.4303487, 43.3101338], [17.430279, 43.3100557], [17.4302843, 43.3098937], [17.4301904, 43.3094116], [17.4300724, 43.309156], [17.4299008, 43.3089315], [17.4298122, 43.3088652], [17.4297145, 43.308813], [17.4295601, 43.3087305], [17.4292624, 43.3085978], [17.4291551, 43.3084846], [17.4291041, 43.3084084], [17.4289888, 43.3083304], [17.4287447, 43.3082191], [17.4284658, 43.3081196], [17.4281573, 43.3079322], [17.427806, 43.3076531], [17.4276675, 43.3075015], [17.427602, 43.3073797], [17.427602, 43.3073056], [17.4276544, 43.3072283], [17.427797, 43.3070991], [17.4278397, 43.3070165], [17.4279105, 43.3069678], [17.4279577, 43.3068908], [17.4279777, 43.3067887], [17.4278623, 43.3067494], [17.4277201, 43.3066694], [17.4275807, 43.3065835], [17.4275449, 43.3065489], [17.4275163, 43.3065211], [17.427417, 43.3063591], [17.4272749, 43.3061912], [17.4270979, 43.3059589], [17.4269852, 43.3057716], [17.4267653, 43.3055666], [17.4265641, 43.3053773], [17.4265265, 43.3053636], [17.4264783, 43.3053597], [17.4263898, 43.3053753], [17.4262905, 43.3054124], [17.4261859, 43.3054514], [17.4258694, 43.3049518], [17.4258556, 43.3049225], [17.4256448, 43.3044768], [17.4254993, 43.3041691], [17.4252793, 43.303642], [17.425253, 43.3036104], [17.4252096, 43.3035581], [17.4249762, 43.3033453], [17.4247885, 43.303199], [17.424649, 43.3030799], [17.424531, 43.3029881], [17.424354, 43.302871], [17.424252, 43.3027032], [17.4241796, 43.3024884], [17.4240616, 43.3023011], [17.4238738, 43.3020473], [17.4237505, 43.3019829], [17.4236512, 43.3019399], [17.4233954, 43.3018716], [17.4232274, 43.3018267], [17.4230879, 43.3017779], [17.4229807, 43.3016413], [17.4227983, 43.3014149], [17.4226052, 43.3010674], [17.4223584, 43.3007239], [17.4222618, 43.3006419], [17.4221277, 43.3005677], [17.4218595, 43.3003217], [17.4215054, 43.2999508], [17.4212104, 43.2996502], [17.420851, 43.2992754], [17.4206176, 43.2989729], [17.4209154, 43.298803], [17.4195421, 43.2974053], [17.4180159, 43.296277], [17.4177046, 43.2960232], [17.4174016, 43.2957762], [17.4171905, 43.2956042], [17.4165515, 43.2950833], [17.4164575, 43.2949905], [17.4163932, 43.2948988], [17.4163394, 43.2948302], [17.4162953, 43.2947738], [17.416132, 43.2946823], [17.416074, 43.2947436], [17.4158353, 43.2949798], [17.4157628, 43.2950559], [17.4156824, 43.2951369], [17.4156113, 43.2951701], [17.4154088, 43.2952697], [17.4150655, 43.2953829], [17.4146765, 43.2955196], [17.4144566, 43.2955762], [17.4144217, 43.2955488], [17.4143976, 43.2955039], [17.4143895, 43.2954161], [17.4142581, 43.295338], [17.4139443, 43.295217], [17.4136788, 43.2951408], [17.4136224, 43.2951311], [17.4134937, 43.2951467], [17.4132872, 43.2953146], [17.4132147, 43.2953751], [17.4131155, 43.2954083], [17.4128392, 43.2954317], [17.4126407, 43.2954278], [17.4124691, 43.295377], [17.4122706, 43.2953985], [17.4121499, 43.2953888], [17.4119997, 43.2953888], [17.4118549, 43.29542], [17.4116564, 43.2954864], [17.4114928, 43.2955391], [17.4113318, 43.2955586], [17.4111897, 43.2954961], [17.4109429, 43.2953692], [17.4108785, 43.2952951], [17.4108168, 43.2951076], [17.41079, 43.2949944], [17.4106613, 43.2949085], [17.4105352, 43.2948949], [17.4104065, 43.2947836], [17.4104118, 43.294645], [17.4104011, 43.2944693], [17.4103743, 43.2943365], [17.4103796, 43.2941608], [17.410503, 43.294032], [17.4105272, 43.2937528], [17.4105218, 43.2934951], [17.4104547, 43.2932179], [17.4103984, 43.2929387], [17.4103314, 43.292847], [17.4102294, 43.2927357], [17.4100202, 43.2925444], [17.4098271, 43.2923921], [17.4096903, 43.29223], [17.4096635, 43.2920641], [17.4096984, 43.2919548], [17.4098378, 43.2918122], [17.4099264, 43.2916814], [17.4099505, 43.2915389], [17.4099129, 43.2914647], [17.409811, 43.2913671], [17.4095643, 43.291209], [17.4090493, 43.2910645], [17.4086952, 43.2908849], [17.4086523, 43.2907717], [17.4085933, 43.290592], [17.4085182, 43.2903656], [17.4084163, 43.2902758], [17.408148, 43.2901469], [17.4079174, 43.2900727], [17.4076492, 43.2900181], [17.4073756, 43.2899517], [17.4072415, 43.2898736], [17.4071127, 43.2897447], [17.4068981, 43.2896081], [17.4066353, 43.2895456], [17.4064046, 43.2894909], [17.4061793, 43.2894675], [17.4059808, 43.2894206], [17.4058521, 43.2893191], [17.4046116, 43.2886949], [17.3995918, 43.2851526], [17.3993128, 43.2852854], [17.3991895, 43.2853439], [17.3899868, 43.2878503], [17.36761, 43.2868977], [17.3624754, 43.2876713], [17.3514998, 43.2905608], [17.3449874, 43.2909513], [17.3425627, 43.2888583], [17.3408621, 43.2877767], [17.3407441, 43.2877767], [17.3405939, 43.2877611], [17.340492, 43.287683], [17.3404384, 43.287558], [17.3404598, 43.2874565], [17.3402506, 43.2874838], [17.33958, 43.2874604], [17.3388076, 43.2872652], [17.3375308, 43.2864764], [17.3368066, 43.2857696], [17.3362702, 43.2851448], [17.3358303, 43.2844965], [17.3355621, 43.2839967], [17.3354441, 43.2833601], [17.335369, 43.2828408], [17.3351222, 43.2819504], [17.3341368, 43.2798823], [17.333985, 43.2795681], [17.3335022, 43.2789316], [17.3306376, 43.2778732], [17.3301304, 43.2776899]]]}}]}