{"type": "FeatureCollection", "features": [{"type": "Feature", "properties": {"name": "Општина Љубиње / Opština Ljubinje, Република Српска / Republika Srpska, 88380, Bosna i Hercegovina / Босна и Херцеговина", "source": "OpenStreetMap relation 2528227", "licence": "ODbL 1.0"}, "geometry": {"type": "Polygon", "coordinates": [[[17.9522329, 42.9775431], [17.9543128, 42.9737937], [17.958726, 42.9694075], [17.9596228, 42.9685155], [17.9674955, 42.9623328], [17.9683415, 42.9553029], [17.9695718, 42.9463863], [17.9740543, 42.9394519], [17.9741883, 42.9391227], [17.9743112, 42.9392027], [17.9744382, 42.9392399], [17.9764524, 42.9401195], [17.9769702, 42.9403398], [17.9773785, 42.94049], [17.981114, 42.9415441], [17.983858, 42.9420152], [17.9839188, 42.9420293], [17.9841423, 42.9418564], [17.9843979, 42.941647], [17.9845678, 42.9414903], [17.9847508, 42.9413002], [17.984802, 42.9412729], [17.9850168, 42.9411424], [17.9853366, 42.9409629], [17.985635, 42.9407717], [17.9857683, 42.9407475], [17.9858277, 42.9407015], [17.9859334, 42.9406671], [17.9860584, 42.9405998], [17.986162, 42.9405831], [17.9864363, 42.9404299], [17.9866034, 42.9403394], [17.9867899, 42.9401938], [17.9869108, 42.9401063], [17.9871035, 42.9399637], [17.9873405, 42.9398115], [17.987404, 42.9396689], [17.9876934, 42.9395278], [17.9878758, 42.9394454], [17.9881162, 42.9393579], [17.9883213, 42.9392734], [17.9883766, 42.939327], [17.9885631, 42.9392264], [17.9888615, 42.9391056], [17.9891958, 42.9389761], [17.9893671, 42.9389539], [17.9894949, 42.9388669], [17.9896282, 42.9388224], [17.9897836, 42.9387319], [17.9899618, 42.9385812], [17.9900903, 42.9385351], [17.9903853, 42.9383915], [17.9904391, 42.9383415], [17.9907016, 42.9382535], [17.9908204, 42.9382368], [17.990971, 42.9381989], [17.9912542, 42.9381291], [17.9914573, 42.938035], [17.9917046, 42.9379162], [17.9952511, 42.9375182], [18.0013435, 42.9358787], [18.0022152, 42.9354448], [18.0050099, 42.9351717], [18.0080506, 42.9343706], [18.0087289, 42.9333693], [18.0101132, 42.9338558], [18.0108951, 42.9340591], [18.0111369, 42.9341137], [18.0123457, 42.9342715], [18.0126979, 42.9343201], [18.0129273, 42.9343909], [18.0131994, 42.9345244], [18.0134412, 42.9346791], [18.0137202, 42.9348642], [18.0137575, 42.9349016], [18.0144013, 42.9347054], [18.0157455, 42.933786], [18.0161834, 42.9334856], [18.0174226, 42.932636], [18.0179062, 42.9324671], [18.0189437, 42.9321808], [18.0199867, 42.9318602], [18.0211748, 42.931492], [18.02274, 42.9309944], [18.0230681, 42.9306257], [18.0233172, 42.9303446], [18.0233641, 42.9303275], [18.0234613, 42.9303454], [18.0235697, 42.9303614], [18.0236821, 42.9303682], [18.0237895, 42.9303704], [18.0238242, 42.93038], [18.0238706, 42.9303901], [18.0239268, 42.9303765], [18.0239487, 42.9303518], [18.0239683, 42.9303482], [18.0240923, 42.9303482], [18.0242408, 42.9303632], [18.0243981, 42.9303686], [18.0244342, 42.9303389], [18.0244401, 42.9302996], [18.0244333, 42.9302599], [18.0243615, 42.9302084], [18.0242867, 42.9301766], [18.0242056, 42.9301015], [18.0241509, 42.9300843], [18.0240679, 42.93008], [18.0239868, 42.9300385], [18.0240376, 42.930002], [18.0245671, 42.930002], [18.0249774, 42.9297445], [18.025751, 42.9292753], [18.0260461, 42.9291495], [18.0262922, 42.9290021], [18.0264954, 42.9288161], [18.0266341, 42.9286345], [18.0268647, 42.928583], [18.0268783, 42.9285272], [18.0268783, 42.9284285], [18.0268236, 42.9282425], [18.027527, 42.927852], [18.0277477, 42.9276817], [18.0278044, 42.9276946], [18.0279998, 42.9276302], [18.0281209, 42.927563], [18.0281658, 42.9275058], [18.0282264, 42.927347], [18.0284159, 42.9272898], [18.0286445, 42.9271381], [18.0287305, 42.9271238], [18.0287481, 42.9271067], [18.0290157, 42.926935], [18.0291544, 42.9269193], [18.0296858, 42.9266474], [18.0301723, 42.9264801], [18.0308522, 42.9262068], [18.0314852, 42.9259379], [18.0321026, 42.9256189], [18.0326633, 42.9253785], [18.0330287, 42.9252469], [18.0330462, 42.9252226], [18.0333295, 42.9250681], [18.03373, 42.9249408], [18.0345604, 42.9246246], [18.035127, 42.9243141], [18.0356467, 42.9241139], [18.0356662, 42.9240624], [18.0357834, 42.9240938], [18.0359919, 42.9238782], [18.0364281, 42.9234272], [18.0365082, 42.9234472], [18.0366255, 42.9234229], [18.0367212, 42.9233757], [18.0366763, 42.9232598], [18.0365981, 42.9232297], [18.0383193, 42.9216325], [18.0392298, 42.9202476], [18.0388664, 42.9160354], [18.0390539, 42.9140179], [18.0388976, 42.9133197], [18.0391126, 42.9130163], [18.0450362, 42.9107326], [18.0472635, 42.9124125], [18.0537889, 42.9131709], [18.0538496, 42.9135606], [18.0543535, 42.9134445], [18.0549625, 42.9132778], [18.0551124, 42.9133326], [18.0563396, 42.9131959], [18.0616686, 42.9133724], [18.0621208, 42.9132028], [18.0652984, 42.9128337], [18.0682603, 42.9127507], [18.0703937, 42.913323], [18.0728828, 42.9112511], [18.0729453, 42.9112196], [18.0748209, 42.9095912], [18.0776694, 42.9074733], [18.0773412, 42.9061139], [18.0760244, 42.9038299], [18.0767316, 42.9003093], [18.0754343, 42.8985833], [18.0734415, 42.8938515], [18.0735158, 42.8937627], [18.0771692, 42.8921568], [18.0798498, 42.8899009], [18.0810103, 42.8887128], [18.0812135, 42.8883206], [18.0812017, 42.8882238], [18.0814233, 42.8879868], [18.0840863, 42.8851386], [18.0860093, 42.8825876], [18.0882856, 42.8798069], [18.0882934, 42.8794204], [18.0881684, 42.8788907], [18.0891804, 42.8785327], [18.0897352, 42.8774876], [18.0925603, 42.8749706], [18.0929042, 42.874836], [18.0933184, 42.8742433], [18.0950963, 42.8727685], [18.0955925, 42.8722616], [18.0961746, 42.8708817], [18.0962673, 42.8708806], [18.0981198, 42.8683406], [18.1017264, 42.8681516], [18.1041334, 42.8666795], [18.1051571, 42.8661469], [18.106724, 42.8653106], [18.1088145, 42.8637239], [18.1122101, 42.8623892], [18.1122843, 42.8623119], [18.1126079, 42.8620954], [18.1130463, 42.8618021], [18.1155939, 42.8601351], [18.1185558, 42.8581731], [18.1211542, 42.8560707], [18.1231075, 42.8538224], [18.1234916, 42.8535267], [18.1243343, 42.8528603], [18.1253875, 42.8520055], [18.1261192, 42.8513495], [18.1261397, 42.8513051], [18.126251, 42.8512679], [18.1262715, 42.8512142], [18.1262588, 42.8511347], [18.1263135, 42.8510666], [18.1263936, 42.8510179], [18.1264669, 42.8509621], [18.1270628, 42.8507157], [18.1282214, 42.8500082], [18.1298023, 42.8498708], [18.1298737, 42.8498844], [18.1299172, 42.8499171], [18.1344209, 42.8476254], [18.1363926, 42.843994], [18.1380981, 42.8392671], [18.1383985, 42.8393902], [18.1568329, 42.8457392], [18.1673875, 42.8394671], [18.1756764, 42.8367198], [18.1908535, 42.8352396], [18.1913812, 42.8351881], [18.194965, 42.8359176], [18.2058008, 42.838123], [18.2064118, 42.8382474], [18.2129692, 42.8409461], [18.2153676, 42.8413646], [18.2154889, 42.8414048], [18.2151418, 42.8514102], [18.217244, 42.854355], [18.2173111, 42.8586097], [18.2173143, 42.8588119], [18.2170994, 42.8626271], [18.2165832, 42.864759], [18.2162959, 42.8651327], [18.2160099, 42.8656037], [18.2152253, 42.8656492], [18.2152301, 42.8657529], [18.2155991, 42.8660142], [18.2157087, 42.866117], [18.2157965, 42.8663119], [18.2157595, 42.8664317], [18.2156418, 42.8667979], [18.2152494, 42.8672475], [18.2148847, 42.8675269], [18.2147023, 42.8677132], [18.2146471, 42.8679542], [18.2145559, 42.8681507], [18.2144454, 42.8682722], [18.2142216, 42.8690336], [18.2136386, 42.8702344], [18.213617, 42.8711072], [18.2135623, 42.871647], [18.2134411, 42.8718253], [18.2132389, 42.8720515], [18.2132094, 42.8721239], [18.2128132, 42.8727685], [18.2128941, 42.8730601], [18.2126928, 42.8731983], [18.212548, 42.8733242], [18.2122901, 42.8737955], [18.2117274, 42.8746145], [18.2110788, 42.8754793], [18.2111687, 42.8762782], [18.2113914, 42.8773806], [18.2115731, 42.8781251], [18.2114011, 42.8792075], [18.2113757, 42.8797186], [18.2118583, 42.8806677], [18.212702, 42.8796677], [18.2128139, 42.8795301], [18.2130073, 42.8794066], [18.2131261, 42.8793499], [18.2132574, 42.8792952], [18.2134162, 42.8792699], [18.2135599, 42.8793134], [18.2136911, 42.8794035], [18.2138542, 42.8795564], [18.2140683, 42.8796768], [18.214252, 42.8797933], [18.214404, 42.8798388], [18.2144883, 42.8798773], [18.2145532, 42.8799431], [18.2147576, 42.8800301], [18.2149911, 42.880096], [18.2150588, 42.8801739], [18.2150975, 42.8802994], [18.2151707, 42.8803733], [18.2152812, 42.8803531], [18.215371, 42.880343], [18.2155368, 42.8804098], [18.2160452, 42.8805606], [18.2159402, 42.880678], [18.2161985, 42.8809149], [18.2164445, 42.8808785], [18.2167415, 42.8809007], [18.2215864, 42.8802377], [18.2251506, 42.8802134], [18.2257419, 42.8772047], [18.229063, 42.872665], [18.2364291, 42.8717174], [18.243635, 42.8716809], [18.2458011, 42.8725962], [18.245674, 42.8764758], [18.2503379, 42.8775043], [18.2503103, 42.8772776], [18.2503656, 42.8770467], [18.2505258, 42.8768038], [18.2512608, 42.8771844], [18.2522831, 42.8775853], [18.2585385, 42.8752366], [18.2589806, 42.8754553], [18.2617049, 42.8764798], [18.2671313, 42.882651], [18.264198, 42.8886795], [18.2786268, 42.9087983], [18.262012, 42.9150615], [18.2555208, 42.919632], [18.2511162, 42.9239954], [18.2440307, 42.9287884], [18.243518, 42.9291352], [18.2365628, 42.9315599], [18.2346766, 42.9357497], [18.2334656, 42.9384487], [18.2278179, 42.9439639], [18.217862, 42.9480104], [18.2176423, 42.9480173], [18.2172297, 42.948133], [18.216923, 42.9483762], [18.2147603, 42.949312], [18.2142118, 42.9491877], [18.2137161, 42.9491083], [18.2133437, 42.9490514], [18.2131428, 42.949075], [18.2129753, 42.9491505], [18.2127248, 42.9492917], [18.2125279, 42.949728], [18.2075394, 42.9538489], [18.2008495, 42.9570412], [18.1999385, 42.957551], [18.1996358, 42.9579334], [18.1994081, 42.9581118], [18.1991803, 42.9582157], [18.1988856, 42.9584236], [18.189383, 42.960061], [18.1923992, 42.9664167], [18.1945069, 42.9697409], [18.1945742, 42.969995], [18.1947269, 42.9701734], [18.1950028, 42.9703782], [18.1952399, 42.970538], [18.1955159, 42.9706399], [18.1957811, 42.9707125], [18.1961241, 42.9707566], [18.1963786, 42.9707732], [18.1967537, 42.9707742], [18.2041154, 42.9763576], [18.2027853, 42.9812019], [18.2018267, 42.9842177], [18.1991441, 42.9862023], [18.1964047, 42.9882172], [18.1957601, 42.9886968], [18.1965773, 42.9958888], [18.1907153, 42.9999416], [18.1848424, 43.0039618], [18.1806965, 43.0079149], [18.1757601, 43.0256607], [18.1756301, 43.0258046], [18.1755873, 43.0258438], [18.1755698, 43.0258654], [18.1755404, 43.0259486], [18.1755297, 43.025979], [18.1755685, 43.0260896], [18.1755792, 43.0261445], [18.1755698, 43.0261738], [18.1754319, 43.0262904], [18.1753301, 43.0263433], [18.1752698, 43.0263893], [18.1752309, 43.0264069], [18.1751961, 43.0264363], [18.1751197, 43.0264862], [18.1750608, 43.0265499], [18.1750407, 43.0265861], [18.1750461, 43.0266282], [18.1750635, 43.0266615], [18.1750782, 43.0267007], [18.1750916, 43.0267506], [18.1750876, 43.0267947], [18.1750782, 43.0268358], [18.1750769, 43.0268603], [18.175097, 43.0269886], [18.1750849, 43.0270435], [18.1750782, 43.0270787], [18.1750795, 43.0271169], [18.175105, 43.0271659], [18.1751438, 43.0272276], [18.1751546, 43.0272785], [18.1751371, 43.0273157], [18.1751345, 43.0273451], [18.1751465, 43.0273715], [18.175168, 43.0273931], [18.1751505, 43.0274028], [18.1752001, 43.0274724], [18.1752564, 43.0275037], [18.1752992, 43.027539], [18.1753381, 43.027587], [18.1753957, 43.027632], [18.1754787, 43.0276584], [18.1755283, 43.0276692], [18.1756127, 43.02768], [18.1755819, 43.0278004], [18.1754332, 43.0278396], [18.1751921, 43.0279248], [18.1751505, 43.0279395], [18.1750019, 43.0279787], [18.1749054, 43.0280071], [18.1748183, 43.028012], [18.1747487, 43.028008], [18.1746844, 43.0280227], [18.1745732, 43.0280541], [18.1745102, 43.0280639], [18.1743405, 43.0281218], [18.1742136, 43.0281619], [18.1741719, 43.028209], [18.1741435, 43.0282589], [18.1740715, 43.0284804], [18.1740165, 43.0285511], [18.1738896, 43.0287117], [18.1737646, 43.0288876], [18.1736679, 43.0290496], [18.173541, 43.0292311], [18.1735031, 43.0293335], [18.1734728, 43.0294457], [18.1734672, 43.0295682], [18.1734525, 43.0296103], [18.1734552, 43.0296475], [18.17349, 43.0297376], [18.1735195, 43.029769], [18.1735998, 43.0297983], [18.1736481, 43.0298277], [18.1737887, 43.0299354], [18.1738544, 43.030005], [18.1739548, 43.0300735], [18.1740366, 43.0301156], [18.1741518, 43.0301381], [18.1742107, 43.0301734], [18.1742656, 43.0302194], [18.1743259, 43.030238], [18.1743728, 43.0302341], [18.1744331, 43.0302821], [18.1745188, 43.0303271], [18.1746166, 43.0303565], [18.1749595, 43.0304466], [18.1751538, 43.0305191], [18.1752328, 43.0305621], [18.1754472, 43.0306052], [18.1754914, 43.0306121], [18.175561, 43.0306493], [18.1756119, 43.0306757], [18.1757124, 43.0306992], [18.17577, 43.0307198], [18.1758169, 43.0307149], [18.1758772, 43.0306924], [18.1765255, 43.0319977], [18.1766193, 43.032126], [18.17687, 43.0322973], [18.177115, 43.0324648], [18.1773413, 43.0325695], [18.1773427, 43.032595], [18.1773574, 43.0326263], [18.1773963, 43.0326733], [18.1774298, 43.0327105], [18.1775383, 43.0328163], [18.1775919, 43.0328594], [18.1776213, 43.0328868], [18.1776575, 43.0329436], [18.1777339, 43.033207], [18.1777968, 43.0333059], [18.1779643, 43.03363], [18.1780178, 43.033723], [18.1781022, 43.0338112], [18.1781907, 43.033863], [18.1783005, 43.0339042], [18.1784331, 43.0339522], [18.1785242, 43.0339894], [18.1785577, 43.034005], [18.1787319, 43.0340481], [18.1787921, 43.0340804], [18.1788176, 43.0340883], [18.178843, 43.0341108], [18.1788578, 43.0341402], [18.1788698, 43.0341686], [18.1789194, 43.0341852], [18.1789502, 43.0342097], [18.1789797, 43.03424], [18.1790266, 43.0343007], [18.1790721, 43.0343282], [18.1791203, 43.0343566], [18.1791619, 43.0343918], [18.179257, 43.0344574], [18.1793936, 43.0345612], [18.1794311, 43.0345965], [18.179466, 43.0346151], [18.1794941, 43.0346268], [18.1795182, 43.0346219], [18.1795329, 43.0346464], [18.1795383, 43.0346885], [18.179541, 43.0347893], [18.1795611, 43.0349362], [18.1796053, 43.0350792], [18.1796589, 43.0351722], [18.1796669, 43.0352388], [18.1796428, 43.0352985], [18.179608, 43.035369], [18.1796039, 43.0354591], [18.1796026, 43.0356363], [18.1795664, 43.0357509], [18.1794901, 43.0358968], [18.1794298, 43.0360192], [18.1794043, 43.0360916], [18.1793065, 43.0361592], [18.1792757, 43.0362307], [18.1792208, 43.0362718], [18.179194, 43.0363364], [18.1792021, 43.0363883], [18.1792208, 43.0364715], [18.1792288, 43.0365822], [18.1792315, 43.0366517], [18.1793159, 43.0368397], [18.1794418, 43.0369885], [18.1796106, 43.0371031], [18.1796923, 43.0371628], [18.1797687, 43.0372176], [18.1798826, 43.0372979], [18.1800835, 43.037387], [18.180184, 43.0374203], [18.1802711, 43.0374888], [18.1803059, 43.0375447], [18.1803501, 43.0375828], [18.1803769, 43.0376152], [18.1803367, 43.0376533], [18.1802657, 43.0376788], [18.1802081, 43.0377062], [18.1801679, 43.0377199], [18.1801358, 43.0377121], [18.1801049, 43.0377072], [18.1800755, 43.0377092], [18.1800447, 43.037716], [18.1800219, 43.0377366], [18.1799938, 43.0377738], [18.1799562, 43.0378276], [18.1799469, 43.0378707], [18.1799763, 43.0379206], [18.1799763, 43.0379392], [18.179971, 43.037952], [18.1798209, 43.0379667], [18.179758, 43.0379892], [18.1797312, 43.0380048], [18.1797312, 43.0380225], [18.1797486, 43.0380548], [18.1798116, 43.0381762], [18.1798745, 43.0383857], [18.1799388, 43.0385326], [18.1799536, 43.0385913], [18.1799589, 43.0386315], [18.179975, 43.0386775], [18.179979, 43.0388293], [18.1799589, 43.0389017], [18.1799509, 43.038983], [18.1799844, 43.0390828], [18.1800272, 43.0391377], [18.1800447, 43.0391847], [18.1800554, 43.0392728], [18.1800634, 43.039355], [18.1800982, 43.0394539], [18.1800969, 43.0394931], [18.1801532, 43.0396204], [18.180184, 43.0396928], [18.1802389, 43.0397878], [18.180259, 43.0398837], [18.1802751, 43.0399327], [18.1802778, 43.0399905], [18.1803139, 43.0400306], [18.1803635, 43.0400277], [18.1804452, 43.040057], [18.1806019, 43.040154], [18.180681, 43.0402548], [18.1807922, 43.0403713], [18.1808256, 43.0404252], [18.1808699, 43.0404722], [18.1809676, 43.0405936], [18.1810855, 43.040665], [18.1811204, 43.0406778], [18.1811927, 43.0406553], [18.1812262, 43.0406034], [18.1812691, 43.0405485], [18.1813963, 43.0404722], [18.1814874, 43.0404487], [18.1815517, 43.0404536], [18.1815919, 43.0404839], [18.1816026, 43.0404937], [18.1817473, 43.0405583], [18.1818397, 43.0406327], [18.1818799, 43.0406964], [18.1818839, 43.0407365], [18.1818504, 43.0407855], [18.1818196, 43.040806], [18.1817754, 43.0408393], [18.181762, 43.0408628], [18.1817084, 43.0408824], [18.1815638, 43.0409274], [18.1815276, 43.0409451], [18.1815263, 43.0409637], [18.1815986, 43.0411252], [18.181604, 43.0411849], [18.181624, 43.0412368], [18.1816415, 43.041275], [18.1816709, 43.0413641], [18.1816977, 43.0413964], [18.18175, 43.0414747], [18.1818116, 43.0415354], [18.1818585, 43.0416089], [18.1818987, 43.0416931], [18.1819469, 43.0417626], [18.1819683, 43.0418096], [18.1819777, 43.0419006], [18.1820085, 43.0419838], [18.1820742, 43.0420416], [18.1821425, 43.0421552], [18.1821867, 43.0423343], [18.1822001, 43.0424225], [18.1822269, 43.0425174], [18.1823568, 43.0428777], [18.1824385, 43.0430422], [18.1825564, 43.0432106], [18.1826689, 43.0433476], [18.182752, 43.043423], [18.1831341, 43.0440722], [18.16192, 43.0515302], [18.1579371, 43.0529309], [18.1478888, 43.05369], [18.1482581, 43.0566664], [18.1482742, 43.0574259], [18.1482688, 43.0575179], [18.1481081, 43.0576295], [18.1479286, 43.0585085], [18.1475883, 43.0593502], [18.1474758, 43.0593169], [18.1473043, 43.0593483], [18.1472534, 43.0593365], [18.147157, 43.0593483], [18.1470337, 43.0594246], [18.1470257, 43.0595362], [18.1469721, 43.0596047], [18.146889, 43.0596478], [18.1468274, 43.0596497], [18.1467765, 43.0596575], [18.146656, 43.0597965], [18.146372, 43.0599531], [18.146388, 43.0600451], [18.1463211, 43.0601861], [18.1462166, 43.0602389], [18.1462219, 43.0604582], [18.1462648, 43.0605776], [18.1462273, 43.0606304], [18.146238, 43.0607694], [18.1461978, 43.0608497], [18.1453994, 43.061574], [18.141324, 43.0612407], [18.136542, 43.0608497], [18.1338092, 43.0596164], [18.1336967, 43.0595186], [18.1323678, 43.0586612], [18.1317891, 43.0586651], [18.131339, 43.0585672], [18.1303905, 43.0583323], [18.1301012, 43.0582305], [18.1299511, 43.0581444], [18.1298333, 43.0581639], [18.1296618, 43.0580895], [18.1294582, 43.0580073], [18.1291045, 43.0579643], [18.1286491, 43.0579525], [18.1286008, 43.0579329], [18.1283276, 43.0579368], [18.1269237, 43.0578664], [18.126436, 43.0580895], [18.1263664, 43.0581796], [18.1262806, 43.05816], [18.1247964, 43.0583793], [18.1246571, 43.0583284], [18.1239873, 43.0583871], [18.1236068, 43.0584889], [18.1233175, 43.0586142], [18.1227923, 43.0587042], [18.1216188, 43.059039], [18.1211366, 43.0591016], [18.1205204, 43.059315], [18.1197836, 43.0596928], [18.113166, 43.0588941], [18.1132222, 43.0588119], [18.1132731, 43.0586475], [18.1134232, 43.0584282], [18.1132249, 43.0582755], [18.1128177, 43.0580621], [18.1121398, 43.0578194], [18.1116817, 43.0576589], [18.111537, 43.0576021], [18.1111244, 43.0575434], [18.1107413, 43.0574259], [18.1105859, 43.0573515], [18.110476, 43.0572574], [18.1102222, 43.0569861], [18.1099493, 43.0568006], [18.109777, 43.0567604], [18.1094394, 43.0568466], [18.1092492, 43.0568701], [18.1090375, 43.056829], [18.1086383, 43.0565784], [18.1083382, 43.0563533], [18.108006, 43.056087], [18.1078667, 43.0560361], [18.1074862, 43.0558971], [18.107296, 43.0558736], [18.1069049, 43.0558815], [18.1065458, 43.0559402], [18.1063958, 43.0559324], [18.1062672, 43.0559598], [18.1060234, 43.0559931], [18.1057287, 43.0560302], [18.1053697, 43.0561908], [18.1050884, 43.0562475], [18.1048713, 43.0562475], [18.104665, 43.0562867], [18.1045391, 43.0562475], [18.1043784, 43.0562201], [18.1042766, 43.0562436], [18.1040756, 43.0562573], [18.1035987, 43.0561595], [18.1034889, 43.0562064], [18.1033254, 43.0561555], [18.1027467, 43.0561575], [18.1024601, 43.056136], [18.1018197, 43.0562926], [18.1010401, 43.0565627], [18.1007534, 43.0565921], [18.1006489, 43.0566391], [18.1004909, 43.0566782], [18.1003087, 43.0566821], [18.1001345, 43.0566684], [18.1000541, 43.0566665], [18.0999363, 43.0567507], [18.0997273, 43.056872], [18.099604, 43.0568877], [18.0995156, 43.0569347], [18.0994058, 43.0569719], [18.0992048, 43.0570991], [18.0989503, 43.0572401], [18.0988003, 43.057291], [18.0986208, 43.0574789], [18.0982725, 43.0576668], [18.0981707, 43.0576688], [18.097608, 43.0579291], [18.0975678, 43.0578195], [18.0974392, 43.0577295], [18.0972088, 43.057753], [18.097099, 43.0576707], [18.0970025, 43.0576844], [18.0968605, 43.0576335], [18.0967909, 43.0575024], [18.0966355, 43.0573438], [18.0965096, 43.0573223], [18.096381, 43.0572224], [18.0963595, 43.0571226], [18.0962497, 43.05706], [18.0961452, 43.0569601], [18.0960943, 43.0568642], [18.0960568, 43.0567037], [18.0960836, 43.0564981], [18.0962202, 43.0562671], [18.0962443, 43.056132], [18.0962363, 43.0559656], [18.0961613, 43.055809], [18.0959898, 43.0555154], [18.0959335, 43.0552765], [18.0957808, 43.0550475], [18.095604, 43.0549124], [18.09532, 43.0548615], [18.0952128, 43.0548028], [18.0949771, 43.0547323], [18.0947734, 43.0545914], [18.0944144, 43.0544484], [18.0934847, 43.053587], [18.0933883, 43.053587], [18.0933267, 43.0536105], [18.093182, 43.0536282], [18.0929971, 43.0536223], [18.0927372, 43.053587], [18.0921639, 43.0536047], [18.091971, 43.053591], [18.0915423, 43.0536654], [18.0911297, 43.0537515], [18.0906421, 43.0539238], [18.0903876, 43.0540334], [18.090259, 43.0540412], [18.0901063, 43.0539962], [18.0897419, 43.0537926], [18.0897339, 43.0537339], [18.0891712, 43.0534011], [18.0887345, 43.0531466], [18.0883112, 43.0528548], [18.0880674, 43.0526238], [18.0876816, 43.0521755], [18.0871216, 43.0513943], [18.0870573, 43.0513787], [18.0868537, 43.0511261], [18.086843, 43.0510752], [18.086993, 43.0510184], [18.0869502, 43.0509421], [18.0869073, 43.0509186], [18.0867144, 43.0509871], [18.0865161, 43.050852], [18.0864947, 43.05076], [18.0863929, 43.0506954], [18.0861946, 43.0505681], [18.0860178, 43.0504115], [18.0859267, 43.050296], [18.0858383, 43.0502666], [18.0857553, 43.0501276], [18.0856615, 43.0500121], [18.0855222, 43.0498907], [18.0854445, 43.0498868], [18.0853561, 43.0498359], [18.0852703, 43.0497439], [18.085206, 43.0496049], [18.0850774, 43.0494913], [18.084922, 43.0494639], [18.0848202, 43.0494404], [18.0847559, 43.0493797], [18.0846541, 43.0493367], [18.0845603, 43.0491996], [18.0843695, 43.0490597], [18.0835952, 43.0487798], [18.0836113, 43.0487582], [18.0847848, 43.0486173], [18.0847366, 43.0485037], [18.0843561, 43.047885], [18.0839757, 43.047235], [18.0835095, 43.0466084], [18.0833113, 43.0465693], [18.0829094, 43.0463735], [18.0819984, 43.0457587], [18.0811036, 43.0450851], [18.0808571, 43.0447953], [18.0806803, 43.0446622], [18.0803802, 43.0444664], [18.0791692, 43.0438202], [18.078647, 43.0436099], [18.0782384, 43.0434895], [18.0781392, 43.0434366], [18.0782665, 43.0433446], [18.0784206, 43.0433181], [18.0785733, 43.0433485], [18.0786443, 43.0433563], [18.0787421, 43.0433416], [18.0788064, 43.0433504], [18.0788653, 43.0433328], [18.0790167, 43.0433612], [18.0791069, 43.0433535], [18.0792148, 43.0433923], [18.0794877, 43.0433812], [18.0796506, 43.0433619], [18.0797178, 43.0433794], [18.0800166, 43.0434587], [18.0803014, 43.0434924], [18.0809771, 43.0435292], [18.0822256, 43.0434655], [18.082815, 43.0434342], [18.083174, 43.0433441], [18.0833455, 43.0432071], [18.0834098, 43.0430504], [18.0833669, 43.0428742], [18.0831633, 43.0425609], [18.0829704, 43.0422633], [18.0824238, 43.0415975], [18.0823059, 43.0408104], [18.0824828, 43.0403326], [18.0825739, 43.0399096], [18.0825953, 43.0396237], [18.0824238, 43.0393535], [18.0822845, 43.0390715], [18.0821773, 43.038672], [18.082113, 43.0385976], [18.0820755, 43.0384723], [18.0819952, 43.0384566], [18.0819737, 43.0383], [18.082022, 43.0381472], [18.0821077, 43.0378887], [18.0821506, 43.0374775], [18.082113, 43.0370702], [18.0819201, 43.0365689], [18.0816683, 43.036185], [18.0815451, 43.0360362], [18.0812289, 43.0358365], [18.0810467, 43.0356994], [18.0808377, 43.0355388], [18.0807091, 43.0354213], [18.0805698, 43.0351785], [18.0803608, 43.0350727], [18.0802322, 43.0349278], [18.0799215, 43.0346928], [18.0798357, 43.0345244], [18.079675, 43.0344226], [18.0796, 43.0344656], [18.079541, 43.0344226], [18.0795035, 43.0343168], [18.0795249, 43.0341484], [18.0795196, 43.0340191], [18.0792141, 43.0338037], [18.0788659, 43.0336392], [18.0785283, 43.0335452], [18.0784086, 43.0334937], [18.0783461, 43.0334669], [18.0782657, 43.0333533], [18.0780996, 43.033181], [18.0775263, 43.0328833], [18.0772262, 43.0327619], [18.0769958, 43.0326326], [18.0768189, 43.0325621], [18.0768565, 43.0324838], [18.0748042, 43.0311285], [18.0745952, 43.0313048], [18.0732556, 43.0319668], [18.0718464, 43.032848], [18.069837, 43.0334121], [18.0672756, 43.0341445], [18.066847, 43.0342463], [18.0667987, 43.0342972], [18.0657431, 43.0347085], [18.0655395, 43.0346693], [18.0653948, 43.0347829], [18.0638998, 43.0352607], [18.0636909, 43.0353273], [18.0634176, 43.0354135], [18.0631604, 43.0355231], [18.0625442, 43.0357973], [18.0624156, 43.0358756], [18.0623941, 43.0359266], [18.0623459, 43.0359618], [18.0622709, 43.0359344], [18.0621691, 43.0359305], [18.0619012, 43.0359657], [18.0616332, 43.0360284], [18.0615797, 43.0358952], [18.0609742, 43.0351158], [18.060299, 43.0340544], [18.0597685, 43.0331222], [18.0596292, 43.0328441], [18.0591255, 43.0321508], [18.0589058, 43.0318297], [18.058804, 43.0315437], [18.0586968, 43.0311834], [18.058595, 43.0309366], [18.0584289, 43.0305253], [18.0584075, 43.0304], [18.0584075, 43.0302942], [18.0583861, 43.0301532], [18.0583057, 43.0299691], [18.058295, 43.0297615], [18.0583914, 43.0292876], [18.0584289, 43.029127], [18.0584128, 43.0290486], [18.0582575, 43.0289507], [18.0580163, 43.0287823], [18.0578663, 43.0285943], [18.0578181, 43.0283945], [18.057877, 43.0282535], [18.0580002, 43.0280224], [18.0580217, 43.02785], [18.0579735, 43.0275993], [18.057802, 43.0273329], [18.0574001, 43.0270157], [18.0574805, 43.0269373], [18.0574751, 43.0268511], [18.0574055, 43.026765], [18.0572447, 43.0267101], [18.0571483, 43.0264398], [18.0569554, 43.0260716], [18.0568268, 43.025911], [18.0567035, 43.0258523], [18.0565428, 43.0258562], [18.0557604, 43.0245086], [18.0555407, 43.023972], [18.0554336, 43.023874], [18.0552085, 43.0237291], [18.0549995, 43.0236429], [18.054812, 43.0235998], [18.054812, 43.0235528], [18.0547263, 43.0234431], [18.054737, 43.0233843], [18.0546298, 43.0231963], [18.0538421, 43.0220015], [18.051897, 43.0192944], [18.0515809, 43.0186715], [18.0509004, 43.0173473], [18.0504985, 43.0167714], [18.0498662, 43.0161524], [18.0493571, 43.0155961], [18.0490249, 43.0150515], [18.0485963, 43.0147851], [18.0485855, 43.0147185], [18.048532, 43.0146048], [18.0483391, 43.0143463], [18.0482962, 43.0141386], [18.0481033, 43.0138565], [18.0476264, 43.0134921], [18.0480015, 43.0131356], [18.0480658, 43.0129475], [18.0483015, 43.0123912], [18.048548, 43.011874], [18.0487784, 43.0111099], [18.048907, 43.0110551], [18.0489606, 43.0107847], [18.0492928, 43.0105575], [18.0495072, 43.0104987], [18.0497376, 43.0104595], [18.0498716, 43.0099266], [18.0500805, 43.0092958], [18.0504288, 43.0087315], [18.0506592, 43.0086689], [18.0512219, 43.0080693], [18.051254, 43.0078303], [18.0515005, 43.0073993], [18.0515166, 43.0071054], [18.051672, 43.0066901], [18.0512862, 43.0062865], [18.0504663, 43.0060827], [18.0501502, 43.0060631], [18.0499626, 43.0060318], [18.0497537, 43.0060082], [18.049459, 43.0060357], [18.0492071, 43.0060043], [18.0490142, 43.0060239], [18.0488481, 43.0060474], [18.0484516, 43.0064158], [18.0478032, 43.0061728], [18.0469459, 43.0055968], [18.0467047, 43.0055106], [18.0463404, 43.0055811], [18.0446793, 43.0051697], [18.0426431, 43.0058241], [18.0411213, 43.0067018], [18.0395084, 43.0077167], [18.0374776, 43.0091822], [18.0363148, 43.0106006], [18.0361433, 43.0107259], [18.0351681, 43.0096288], [18.0346323, 43.008853], [18.0338821, 43.007944], [18.0336731, 43.0078186], [18.0332391, 43.0073366], [18.0323014, 43.0077794], [18.0322639, 43.0075913], [18.0321781, 43.0074071], [18.0317816, 43.0069408], [18.0316798, 43.0067724], [18.0316048, 43.0066234], [18.0314708, 43.0064902], [18.0312672, 43.0063962], [18.0310368, 43.0063962], [18.0299865, 43.0052167], [18.0286201, 43.0037002], [18.0284433, 43.0034141], [18.0285719, 43.0033671], [18.0285719, 43.0032848], [18.0283254, 43.0030301], [18.0282075, 43.003085], [18.0262625, 43.0004868], [18.0263589, 43.0004359], [18.0264607, 43.000432], [18.0266, 43.0003771], [18.0267018, 43.0002987], [18.0266429, 43.0001968], [18.0270984, 42.9999617], [18.0271627, 42.9998598], [18.0264286, 42.9987664], [18.026316, 42.9986763], [18.0261392, 42.998449], [18.0258706, 42.9981611], [18.0252872, 42.9975359], [18.0252497, 42.9974105], [18.0247728, 42.9973125], [18.0247514, 42.9971518], [18.0246817, 42.9971244], [18.0245317, 42.9970068], [18.0244352, 42.996901], [18.0243709, 42.9967089], [18.0239315, 42.9963249], [18.0235886, 42.9958428], [18.0227045, 42.9957292], [18.0218739, 42.9949845], [18.0195484, 42.9959917], [18.0193501, 42.9959643], [18.0191411, 42.9959447], [18.0188464, 42.9959721], [18.0183802, 42.9961367], [18.0182141, 42.9963954], [18.0178926, 42.9967246], [18.0171478, 42.9971675], [18.0165423, 42.9975045], [18.0158082, 42.9978847], [18.01434, 42.9984686], [18.0139221, 42.9985548], [18.0133005, 42.9988918], [18.0125878, 42.9992563], [18.0118323, 42.9998206], [18.0112161, 43.0003262], [18.0111357, 43.0002674], [18.0110821, 43.0003183], [18.0110232, 43.0003928], [18.0110017, 43.0005064], [18.0107177, 43.0007298], [18.0096889, 43.0014078], [18.0091156, 43.0018114], [18.0083708, 43.0022346], [18.0083065, 43.0023561], [18.007985, 43.0024893], [18.007567, 43.002603], [18.0066775, 43.0027872], [18.0059113, 43.0031359], [18.0057237, 43.0031359], [18.0054879, 43.003179], [18.0051986, 43.0032143], [18.0048878, 43.0032456], [18.0045663, 43.0033358], [18.0044966, 43.0034377], [18.0044377, 43.0035121], [18.0042287, 43.0035591], [18.0038054, 43.0036649], [18.0034839, 43.0036845], [18.003157, 43.0035748], [18.0029748, 43.0035356], [18.0028838, 43.0035826], [18.0024765, 43.003712], [18.0023372, 43.0036885], [18.0021443, 43.0037825], [18.0021229, 43.004045], [18.0022836, 43.0041038], [18.0012548, 43.004672], [18.0009065, 43.0048131], [18.0006815, 43.0049424], [18.0004457, 43.0050051], [17.9996955, 43.005393], [17.9993526, 43.0055811], [17.9991597, 43.0056634], [17.9988489, 43.005781], [17.998238, 43.0061101], [17.9973325, 43.0065803], [17.9967109, 43.0069369], [17.9962447, 43.0072034], [17.995875, 43.0074542], [17.9954302, 43.0077794], [17.9950766, 43.0080067], [17.9946265, 43.0082457], [17.9942621, 43.0085239], [17.9942192, 43.0086963], [17.9940317, 43.0087315], [17.9937959, 43.0088726], [17.9930082, 43.0095622], [17.9919955, 43.0105065], [17.9916472, 43.0110355], [17.9910256, 43.0117643], [17.9901897, 43.0125087], [17.9891127, 43.0133628], [17.9883464, 43.0123089], [17.9880356, 43.0120111], [17.9875802, 43.0115331], [17.9872212, 43.0110903], [17.9865299, 43.0100951], [17.9865728, 43.0100363], [17.9865728, 43.0099697], [17.9865138, 43.0099384], [17.986412, 43.0099188], [17.9861548, 43.0095897], [17.9851421, 43.0082574], [17.984692, 43.0076148], [17.9843544, 43.0069526], [17.9840597, 43.0070231], [17.9832988, 43.007415], [17.9830952, 43.0074228], [17.9828648, 43.0075404], [17.9823772, 43.0070114], [17.9819378, 43.0066979], [17.9810322, 43.0057731], [17.980566, 43.0053617], [17.9801266, 43.0048797], [17.9795158, 43.0042841], [17.9792479, 43.0039745], [17.978637, 43.0032809], [17.9780476, 43.0026735], [17.9772438, 43.0019368], [17.9769866, 43.0017722], [17.976917, 43.0016899], [17.9766008, 43.0013842], [17.9762364, 43.0010002], [17.9760543, 43.0008709], [17.9759953, 43.0007455], [17.9758881, 43.0006044], [17.975706, 43.0005103], [17.9755613, 43.0003967], [17.9753041, 43.0002948], [17.975213, 43.000236], [17.9748379, 43.0000479], [17.9745217, 42.9998912], [17.9741092, 42.9996599], [17.9738787, 42.9994562], [17.9736376, 42.9992054], [17.9733911, 42.9990172], [17.9728838, 42.9987454], [17.9723087, 42.9984372], [17.9719551, 42.9983001], [17.9714621, 42.998108], [17.9709798, 42.998014], [17.9698331, 42.9979257], [17.9697573, 42.9979542], [17.9696049, 42.9980403], [17.969434, 42.9981448], [17.9692609, 42.9982573], [17.9689981, 42.9983703], [17.9689797, 42.9984313], [17.9687433, 42.9987228], [17.9685228, 42.9988451], [17.9684447, 42.9989575], [17.9683104, 42.9990011], [17.9682724, 42.9990087], [17.9673957, 42.9965797], [17.9664326, 42.9948509], [17.9583232, 42.9851786], [17.9522329, 42.9775431]]]}}]}