{"type": "FeatureCollection", "features": [{"type": "Feature", "properties": {"name": "Grad Lukavac, Tuzlanski kanton, Federacija Bosne i Hercegovine, Bosna i Hercegovina / Босна и Херцеговина", "source": "OpenStreetMap relation 2528230", "licence": "ODbL 1.0"}, "geometry": {"type": "Polygon", "coordinates": [[[18.2799097, 44.5192952], [18.2799269, 44.5188729], [18.280708, 44.518212], [18.2815922, 44.5175463], [18.2813159, 44.5164557], [18.2813412, 44.5160204], [18.281723, 44.5154907], [18.2822657, 44.5152993], [18.28258, 44.5153015], [18.2828574, 44.5151863], [18.2830488, 44.5149181], [18.2833274, 44.5141939], [18.2896141, 44.5114744], [18.2927494, 44.5101968], [18.2976762, 44.509558], [18.3017073, 44.5082803], [18.3034989, 44.5054055], [18.3061863, 44.5018917], [18.3075299, 44.4990165], [18.3102173, 44.4961413], [18.3106652, 44.4926268], [18.311561, 44.4887927], [18.3146963, 44.4862365], [18.3173836, 44.4824019], [18.3196231, 44.4760104], [18.3214147, 44.4734536], [18.3227584, 44.4708967], [18.3241021, 44.4673807], [18.3267894, 44.4657825], [18.3294768, 44.4670611], [18.3312684, 44.4702574], [18.3361952, 44.473134], [18.3388826, 44.4721751], [18.3424658, 44.4702574], [18.3464968, 44.4686593], [18.35008, 44.470577], [18.3536632, 44.470577], [18.3594858, 44.4692985], [18.3684437, 44.4648236], [18.37561, 44.4625859], [18.3791932, 44.4584301], [18.3805369, 44.456512], [18.3827763, 44.4529951], [18.3854637, 44.4501176], [18.3894948, 44.4475597], [18.3948695, 44.4472399], [18.3997964, 44.4450016], [18.4038274, 44.4418039], [18.4069627, 44.4376466], [18.4154727, 44.4322097], [18.4217432, 44.4293312], [18.4228742, 44.4281518], [18.4232401, 44.4277702], [18.4248181, 44.4292677], [18.4255761, 44.429987], [18.4280138, 44.4325296], [18.4280536, 44.435495], [18.4284617, 44.438606], [18.4316252, 44.4417898], [18.4369717, 44.443083], [18.4401809, 44.4445301], [18.4427943, 44.4466004], [18.4443877, 44.4487314], [18.4423464, 44.4510768], [18.4445859, 44.4549134], [18.4454193, 44.4563643], [18.4481691, 44.4587498], [18.4581985, 44.4621508], [18.4612742, 44.4600768], [18.461966, 44.4572199], [18.4627739, 44.4501155], [18.4634033, 44.447851], [18.4652203, 44.4486724], [18.4678141, 44.4501091], [18.4702945, 44.4451956], [18.475196, 44.4418402], [18.479468, 44.4418869], [18.4824305, 44.443083], [18.4828002, 44.4452106], [18.4885761, 44.4443641], [18.493418, 44.4457282], [18.4957199, 44.4437976], [18.5019281, 44.446888], [18.5095307, 44.4517163], [18.5140097, 44.4529951], [18.5113223, 44.4549134], [18.508187, 44.4571513], [18.5077391, 44.4597089], [18.5104265, 44.4635449], [18.512666, 44.4651432], [18.5153533, 44.46802], [18.5180407, 44.470577], [18.5202802, 44.4744124], [18.5243113, 44.4779279], [18.5251154, 44.4783276], [18.5257355, 44.478598], [18.5323734, 44.4814432], [18.5373002, 44.4833605], [18.5399876, 44.4852778], [18.5440186, 44.4894317], [18.5462581, 44.4926268], [18.547875, 44.4952631], [18.5493934, 44.4977386], [18.5525287, 44.5012528], [18.5544297, 44.5017643], [18.5581661, 44.4993774], [18.5605869, 44.4990204], [18.5616381, 44.5007155], [18.56187, 44.5010921], [18.5587386, 44.505294], [18.5647872, 44.5068576], [18.5706524, 44.5087051], [18.5737952, 44.5117204], [18.5735246, 44.514387], [18.5728172, 44.5200252], [18.5722815, 44.5230663], [18.5711315, 44.5274594], [18.5707271, 44.529004], [18.5700278, 44.5332873], [18.5690248, 44.5336492], [18.567514, 44.5341944], [18.5654955, 44.5349227], [18.5631309, 44.5375019], [18.5607756, 44.5403148], [18.5579034, 44.544044], [18.5569355, 44.5444967], [18.5537674, 44.5459783], [18.5548307, 44.5500262], [18.5556106, 44.5533721], [18.5538723, 44.5571305], [18.5516329, 44.5590454], [18.5486668, 44.5603598], [18.5478446, 44.5626461], [18.5478069, 44.5643054], [18.5483018, 44.5660961], [18.5485712, 44.5679471], [18.5494404, 44.5691916], [18.550831, 44.5703982], [18.5528654, 44.5720203], [18.5547994, 44.5739983], [18.5570076, 44.5769143], [18.5566067, 44.5802173], [18.5568008, 44.5838201], [18.555537, 44.5892585], [18.555216, 44.5919073], [18.5552113, 44.5946128], [18.5553429, 44.5966914], [18.5541307, 44.5984701], [18.5528654, 44.6004884], [18.55326, 44.6031522], [18.551553, 44.6056208], [18.5495889, 44.608704], [18.5506544, 44.6118758], [18.5503766, 44.6141631], [18.5512314, 44.6191598], [18.5480048, 44.6204754], [18.542397, 44.6236161], [18.539294, 44.6258854], [18.5380892, 44.6288156], [18.5346961, 44.6318657], [18.5287594, 44.6343753], [18.5261402, 44.6365628], [18.5204822, 44.6385948], [18.5149601, 44.6388879], [18.5096713, 44.6369765], [18.504604, 44.6363021], [18.5006249, 44.6387588], [18.4998313, 44.6391604], [18.4986284, 44.6393287], [18.4981453, 44.6395111], [18.4978495, 44.6396234], [18.4972284, 44.6396374], [18.4947635, 44.6391744], [18.494379, 44.6390551], [18.4928638, 44.6383642], [18.4919798, 44.638126], [18.4917051, 44.6380772], [18.4913189, 44.6382054], [18.4910185, 44.6383093], [18.4907009, 44.6383032], [18.4905293, 44.6381993], [18.4904005, 44.637894], [18.4903233, 44.6374176], [18.4902203, 44.6370511], [18.4900829, 44.636703], [18.4896795, 44.6363366], [18.4893791, 44.6361045], [18.4889929, 44.6360006], [18.4880831, 44.6360556], [18.4873793, 44.6360556], [18.4867355, 44.6360129], [18.4860231, 44.6361655], [18.4851648, 44.636251], [18.4846413, 44.6362083], [18.4837315, 44.6358052], [18.4832251, 44.6356586], [18.4828302, 44.6357258], [18.4816458, 44.6361167], [18.4812166, 44.6360984], [18.4797918, 44.6361045], [18.4789164, 44.6361655], [18.4781611, 44.6361106], [18.477174, 44.6362144], [18.4768221, 44.6363121], [18.4765389, 44.6365015], [18.4762899, 44.6366053], [18.4758436, 44.6366908], [18.4756891, 44.6368618], [18.4757921, 44.6373565], [18.475629, 44.6377046], [18.4749081, 44.6383154], [18.4743673, 44.6385169], [18.4730026, 44.6390849], [18.4721529, 44.6393047], [18.4715864, 44.6394269], [18.4712174, 44.6395429], [18.4708139, 44.639775], [18.4703934, 44.6399033], [18.4697668, 44.6399033], [18.4684794, 44.6399033], [18.4679472, 44.6400681], [18.4676468, 44.6402758], [18.4673035, 44.6403124], [18.4670031, 44.6402697], [18.4667713, 44.6400681], [18.4665283, 44.6399599], [18.4662852, 44.6398883], [18.4659423, 44.6399212], [18.4647654, 44.6401287], [18.4642848, 44.6402203], [18.4638385, 44.6402081], [18.4634179, 44.6401532], [18.4629287, 44.6401715], [18.4622935, 44.6403974], [18.4615983, 44.6405623], [18.4609374, 44.6407333], [18.4603795, 44.6410509], [18.4595984, 44.641515], [18.4585856, 44.6420097], [18.4582681, 44.642425], [18.4578561, 44.6426265], [18.4573497, 44.642712], [18.4567145, 44.6427364], [18.4565343, 44.6428158], [18.4559764, 44.6433532], [18.4556159, 44.6436097], [18.4550923, 44.6437624], [18.4548692, 44.643854], [18.4545516, 44.6441532], [18.4543885, 44.6444463], [18.4536246, 44.6449654], [18.4529122, 44.6454295], [18.4525174, 44.6452524], [18.4520711, 44.6451913], [18.4515132, 44.6452158], [18.4507637, 44.6453309], [18.4499246, 44.6456733], [18.4496905, 44.6456872], [18.4494068, 44.6457493], [18.4494516, 44.6454997], [18.4493679, 44.6452624], [18.4492017, 44.6451003], [18.448239, 44.6446652], [18.4476796, 44.6444477], [18.4473804, 44.6442811], [18.446886, 44.6439016], [18.4463917, 44.643536], [18.446164, 44.6434573], [18.4449997, 44.6432444], [18.444824, 44.6431843], [18.4445703, 44.6430176], [18.4445378, 44.6428788], [18.4446159, 44.6425919], [18.4445248, 44.6424715], [18.4439784, 44.6420504], [18.4428497, 44.6409512], [18.4425664, 44.6408657], [18.4422231, 44.6409145], [18.4420515, 44.641], [18.4415536, 44.6418611], [18.4414249, 44.6420016], [18.4412103, 44.6420565], [18.44097, 44.6420565], [18.4406953, 44.6418245], [18.4405237, 44.6414764], [18.4402404, 44.6413298], [18.4396139, 44.6411893], [18.4390474, 44.641], [18.4385839, 44.6409329], [18.4383264, 44.6406397], [18.4374252, 44.6398824], [18.4369617, 44.639571], [18.436524, 44.6394366], [18.4363781, 44.6393145], [18.4363609, 44.6390091], [18.4362407, 44.638661], [18.4359918, 44.6383923], [18.4357601, 44.638264], [18.4353481, 44.6381663], [18.4349962, 44.6379647], [18.4345584, 44.6375983], [18.434464, 44.637354], [18.4341379, 44.637128], [18.4339662, 44.6369937], [18.4339147, 44.6369021], [18.4339748, 44.6366761], [18.4341808, 44.6364379], [18.4343095, 44.6362302], [18.4342752, 44.6360165], [18.4341894, 44.6358943], [18.433949, 44.6357905], [18.4332109, 44.6355523], [18.4327302, 44.635308], [18.4324041, 44.6350087], [18.4320951, 44.6345567], [18.4317346, 44.6341903], [18.431314, 44.6339032], [18.4309192, 44.6336772], [18.4307218, 44.6334818], [18.430533, 44.633097], [18.4300952, 44.6326694], [18.4297004, 44.6322113], [18.4292455, 44.6319181], [18.4285331, 44.6316127], [18.4278207, 44.631515], [18.4270568, 44.6313379], [18.4266792, 44.6312218], [18.4259496, 44.6307515], [18.4255977, 44.6302079], [18.425263, 44.6296215], [18.4245506, 44.6288702], [18.4242845, 44.6282715], [18.423821, 44.6277523], [18.4231344, 44.627282], [18.4229713, 44.6270621], [18.4228855, 44.6268605], [18.4229455, 44.6266467], [18.4233404, 44.6261824], [18.4238382, 44.6259198], [18.4243875, 44.6253516], [18.4249368, 44.6247774], [18.4255119, 44.6241299], [18.425572, 44.6238733], [18.4254432, 44.6236717], [18.4254432, 44.6232624], [18.4254003, 44.6229631], [18.4250741, 44.6227248], [18.4246107, 44.6225538], [18.4242244, 44.6224316], [18.4236494, 44.6219857], [18.4230743, 44.6213259], [18.4224649, 44.6209166], [18.4219242, 44.6206355], [18.4213862, 44.6205089], [18.4209828, 44.6204233], [18.4202189, 44.6202462], [18.4196867, 44.6200629], [18.4192318, 44.6199957], [18.4186239, 44.619527], [18.4179589, 44.6189048], [18.4174434, 44.6184421], [18.417128, 44.6179531], [18.4166597, 44.617592], [18.4166532, 44.617504], [18.4169068, 44.6173188], [18.4171215, 44.6171799], [18.4169133, 44.6169901], [18.4166206, 44.6168975], [18.4163539, 44.6167215], [18.4156839, 44.6164159], [18.4155083, 44.6162168], [18.4153002, 44.615902], [18.4149684, 44.6156056], [18.4146497, 44.6154899], [18.4141488, 44.6153463], [18.4142464, 44.6150315], [18.4143135, 44.6146829], [18.4146047, 44.6150633], [18.4158145, 44.6150587], [18.4169204, 44.6146605], [18.4181042, 44.6139104], [18.4205006, 44.6127568], [18.4209103, 44.6121036], [18.4209046, 44.6111401], [18.4214935, 44.6101122], [18.4225751, 44.6094954], [18.4243136, 44.6087576], [18.4247496, 44.608161], [18.4245684, 44.607649], [18.4245323, 44.6072806], [18.4244325, 44.6062622], [18.4241041, 44.6055969], [18.4231697, 44.6044842], [18.4211991, 44.6026578], [18.4195626, 44.5999], [18.4169058, 44.5988802], [18.4163573, 44.5984433], [18.4165105, 44.5977915], [18.4172577, 44.5975255], [18.4184906, 44.5973951], [18.4194507, 44.597036], [18.4202502, 44.5964002], [18.4202951, 44.5955994], [18.4201867, 44.5948652], [18.4195292, 44.5939979], [18.4182365, 44.5935749], [18.4164171, 44.5932503], [18.4149601, 44.5926304], [18.4148452, 44.5917875], [18.4148572, 44.5915385], [18.4150093, 44.5903761], [18.4150499, 44.5892994], [18.4149426, 44.588417], [18.4135866, 44.587232], [18.4126127, 44.5865476], [18.4115253, 44.5859674], [18.4100818, 44.5856183], [18.4090223, 44.5851463], [18.407972, 44.5848332], [18.4056756, 44.5840162], [18.4030545, 44.5831556], [18.401633, 44.5827901], [18.4005239, 44.5824174], [18.38411, 44.5814423], [18.3761739, 44.5785679], [18.3690874, 44.5773713], [18.3655736, 44.5766581], [18.3606686, 44.5756382], [18.3553024, 44.574671], [18.3534276, 44.574084], [18.3454915, 44.5752669], [18.3442397, 44.5752886], [18.3419844, 44.5752395], [18.3388295, 44.5748481], [18.3372463, 44.5747924], [18.3361423, 44.5745769], [18.3344727, 44.5744734], [18.3331122, 44.5742658], [18.3301322, 44.5753304], [18.3214663, 44.5780239], [18.3190967, 44.5780093], [18.3163924, 44.5787467], [18.3132555, 44.5791716], [18.3105225, 44.5793931], [18.3091963, 44.5789992], [18.3071513, 44.5787362], [18.3036677, 44.5779902], [18.3009253, 44.5772238], [18.2975255, 44.5760722], [18.2923008, 44.5741721], [18.2905032, 44.5737773], [18.2857296, 44.5732311], [18.2857298, 44.5724845], [18.2853787, 44.5717907], [18.2851861, 44.5712743], [18.2854127, 44.5701367], [18.2858883, 44.5693703], [18.2858996, 44.5689265], [18.2870548, 44.5681197], [18.2880741, 44.5674581], [18.288799, 44.5669982], [18.2888896, 44.5666351], [18.2890481, 44.5662316], [18.2900221, 44.5656265], [18.2905317, 44.5650213], [18.2912566, 44.5645291], [18.2913472, 44.5641983], [18.2910754, 44.5637626], [18.290577, 44.5634963], [18.2905091, 44.56323], [18.290645, 44.5629879], [18.2911999, 44.5629153], [18.292593, 44.5621407], [18.2937029, 44.5618502], [18.2942578, 44.5620519], [18.2949034, 44.5622456], [18.2954243, 44.5622214], [18.2957641, 44.5618825], [18.2957301, 44.5617211], [18.2962773, 44.5615687], [18.2964933, 44.5614795], [18.2969913, 44.5610348], [18.2970394, 44.5609059], [18.2969575, 44.5607538], [18.2965398, 44.5605472], [18.2965251, 44.5603451], [18.2975988, 44.5591872], [18.2980706, 44.5587437], [18.2972817, 44.5580575], [18.2961718, 44.5576136], [18.2948128, 44.5565968], [18.2950053, 44.555467], [18.295832, 44.5554186], [18.2956622, 44.5549344], [18.2961831, 44.5543856], [18.2961605, 44.5536512], [18.295447, 44.5538207], [18.2949034, 44.5540628], [18.2940653, 44.5546438], [18.2936123, 44.5545147], [18.2934764, 44.5543533], [18.2931706, 44.5540951], [18.2928761, 44.5535544], [18.2928535, 44.5530782], [18.2918568, 44.5538368], [18.2912679, 44.5536431], [18.290713, 44.5531912], [18.2903166, 44.552594], [18.2907922, 44.5523115], [18.2914151, 44.5504552], [18.2900787, 44.5501162], [18.2893992, 44.550544], [18.2893086, 44.5489298], [18.288799, 44.5479532], [18.2885158, 44.5461371], [18.2893086, 44.544652], [18.2899881, 44.5442484], [18.290611, 44.5438044], [18.2916756, 44.5432233], [18.2921513, 44.5436269], [18.2925137, 44.5435704], [18.292978, 44.543417], [18.2940313, 44.5427067], [18.2944277, 44.5422304], [18.2950959, 44.5419156], [18.2959793, 44.5412698], [18.2967268, 44.5404223], [18.2978027, 44.5400509], [18.2979839, 44.5397765], [18.2983463, 44.5395504], [18.2990824, 44.5396473], [18.2994335, 44.5395585], [18.2994675, 44.539276], [18.2993316, 44.5389127], [18.2998752, 44.5387351], [18.3002829, 44.5385495], [18.3004075, 44.5380409], [18.3002263, 44.5373709], [18.3001131, 44.5371125], [18.2995015, 44.5371045], [18.2991617, 44.5370157], [18.2990258, 44.536725], [18.2991051, 44.5364021], [18.2994222, 44.5358855], [18.2994335, 44.5356271], [18.299241, 44.5354172], [18.2988106, 44.5351347], [18.2980518, 44.5344162], [18.2979499, 44.5340771], [18.2980179, 44.5333102], [18.2981424, 44.5324302], [18.2991844, 44.5316148], [18.2995581, 44.5306136], [18.3005887, 44.528579], [18.3022875, 44.5262456], [18.3007813, 44.52585], [18.3000451, 44.52585], [18.299241, 44.5261487], [18.2984595, 44.5262699], [18.2976441, 44.5263829], [18.2970552, 44.5270046], [18.2964889, 44.5271984], [18.2957867, 44.527263], [18.2952658, 44.5271984], [18.2948354, 44.5267462], [18.2941219, 44.5264071], [18.2930233, 44.5264556], [18.2920947, 44.5265202], [18.2916077, 44.5267543], [18.2912226, 44.5268835], [18.2907469, 44.5268996], [18.2903166, 44.526722], [18.2899315, 44.5262456], [18.2896823, 44.5253252], [18.2897276, 44.5248569], [18.289218, 44.5244774], [18.2876551, 44.5241463], [18.286783, 44.5241463], [18.2860695, 44.5235407], [18.2852201, 44.5234761], [18.2840423, 44.5232985], [18.2834194, 44.5228624], [18.2827852, 44.5224103], [18.2823095, 44.52174], [18.2817659, 44.5211102], [18.2806822, 44.5204763], [18.280399, 44.5200112], [18.279987, 44.5196624], [18.2799097, 44.5192952]]]}}]}