{"type": "FeatureCollection", "features": [{"type": "Feature", "properties": {"name": "Općina Maglaj, Zeničko-dobojski kanton, Federacija Bosne i Hercegovine, 74250, Bosna i Hercegovina / Босна и Херцеговина", "source": "OpenStreetMap relation 2528231", "licence": "ODbL 1.0"}, "geometry": {"type": "Polygon", "coordinates": [[[17.9401292, 44.4657451], [17.9419433, 44.4660412], [17.9428655, 44.4649147], [17.9438828, 44.4656454], [17.9446842, 44.4655211], [17.9470097, 44.4642319], [17.9462309, 44.463478], [17.9489028, 44.463007], [17.9500937, 44.4627161], [17.951349, 44.4626472], [17.9526579, 44.4628003], [17.9540205, 44.4635354], [17.9545569, 44.4639029], [17.9550505, 44.4640331], [17.9563379, 44.4638034], [17.9574966, 44.4633669], [17.958827, 44.4628309], [17.9600758, 44.4621906], [17.9613773, 44.4631633], [17.9624431, 44.4639022], [17.9633797, 44.4645426], [17.9645234, 44.4652181], [17.9662981, 44.4659358], [17.9669685, 44.4662172], [17.9677375, 44.4663298], [17.9681713, 44.4666746], [17.968615, 44.4672304], [17.9690094, 44.4677159], [17.9683006, 44.4698369], [17.9675603, 44.4701508], [17.966584, 44.4706944], [17.9661441, 44.4710236], [17.9653394, 44.4714676], [17.9639876, 44.4717356], [17.9629898, 44.4718734], [17.9624836, 44.4728292], [17.9622844, 44.4737853], [17.9633585, 44.4775145], [17.9638439, 44.4795096], [17.9643102, 44.4800425], [17.9659884, 44.4815462], [17.9666129, 44.4823351], [17.9671853, 44.4830777], [17.9679789, 44.4830498], [17.9688245, 44.4830684], [17.9700604, 44.4831334], [17.9710491, 44.4835418], [17.9725842, 44.4843864], [17.9759667, 44.4860663], [17.9806241, 44.4910409], [17.9813146, 44.4923191], [17.982012, 44.4941712], [17.982527, 44.494638], [17.9824841, 44.4949977], [17.9817116, 44.4962145], [17.9836965, 44.4974925], [17.9848015, 44.4980435], [17.985456, 44.4986098], [17.9855955, 44.4988777], [17.9865718, 44.499574], [17.9869258, 44.4999949], [17.9873979, 44.5003852], [17.9877627, 44.5005535], [17.9916948, 44.5018039], [17.9906693, 44.5022422], [17.9909727, 44.5029517], [17.9913453, 44.5028564], [17.9914749, 44.5027344], [17.9924335, 44.5025071], [17.9917729, 44.5031964], [17.9920105, 44.5031817], [17.9920649, 44.5036067], [17.9917967, 44.5041117], [17.9923546, 44.5042571], [17.9928696, 44.504479], [17.993685, 44.5048463], [17.9947793, 44.5054737], [17.9955733, 44.5059634], [17.9959488, 44.5062695], [17.9963999, 44.5065758], [17.9980838, 44.50718], [17.9988992, 44.507379], [18.0001172, 44.5076126], [18.0003583, 44.5077615], [18.0003959, 44.507838], [18.0003583, 44.5079987], [18.0004388, 44.5080982], [18.000648, 44.5083354], [18.001045, 44.5085955], [18.0012703, 44.508695], [18.0014151, 44.5087638], [18.0015331, 44.5088442], [18.001678, 44.5090125], [18.0017102, 44.5091005], [18.0017102, 44.509221], [18.001745, 44.5093606], [18.0017906, 44.5094333], [18.0018952, 44.5096112], [18.0019408, 44.5097413], [18.0019543, 44.5098541], [18.0019382, 44.5099421], [18.0019516, 44.5100052], [18.0020347, 44.5100664], [18.0020642, 44.5101315], [18.0020669, 44.5102941], [18.0021018, 44.5104165], [18.0021393, 44.510514], [18.0022627, 44.5105829], [18.0023351, 44.5106307], [18.0023512, 44.510667], [18.0024156, 44.5107512], [18.0025068, 44.5108545], [18.0026194, 44.510952], [18.0027348, 44.5109903], [18.0029199, 44.5109884], [18.0031157, 44.510975], [18.0031827, 44.5110094], [18.0033678, 44.5111644], [18.0034563, 44.5111758], [18.0037352, 44.5112026], [18.0040303, 44.5111548], [18.0044433, 44.5110859], [18.0048618, 44.5109903], [18.0053499, 44.5108794], [18.005425, 44.5108507], [18.0056798, 44.5106996], [18.0059427, 44.5105695], [18.0060629, 44.5105457], [18.0063933, 44.5106058], [18.0065113, 44.5106288], [18.006683, 44.510581], [18.0067286, 44.510514], [18.0069405, 44.5102998], [18.0070719, 44.5101946], [18.0071872, 44.5101257], [18.0073562, 44.5101315], [18.0074903, 44.5102003], [18.0075842, 44.5103897], [18.0077505, 44.5104394], [18.0078632, 44.5104127], [18.0079919, 44.5103859], [18.0080348, 44.509747], [18.0080134, 44.5089436], [18.0077612, 44.5083048], [18.0076861, 44.507796], [18.0076539, 44.5073943], [18.0076529, 44.5073307], [18.0078869, 44.5074147], [18.0082882, 44.5075282], [18.0091166, 44.5078918], [18.0094863, 44.5079839], [18.0097299, 44.5079748], [18.0099612, 44.5079259], [18.0105419, 44.507788], [18.0112741, 44.507624], [18.0115235, 44.5076161], [18.0118382, 44.5077883], [18.0120903, 44.5078227], [18.0122942, 44.5078763], [18.01238, 44.507949], [18.0127072, 44.5083468], [18.0128199, 44.5084922], [18.0129701, 44.5085649], [18.0131149, 44.5086338], [18.0134314, 44.5080676], [18.0136567, 44.5074899], [18.0135548, 44.5072221], [18.0135977, 44.5070614], [18.0139732, 44.5060667], [18.0139424, 44.5060005], [18.0138981, 44.5059367], [18.0133992, 44.5056115], [18.0133778, 44.5053092], [18.0135387, 44.5049802], [18.0138928, 44.5051103], [18.0141127, 44.5051638], [18.0142468, 44.5050835], [18.0144292, 44.5048846], [18.0144614, 44.5047353], [18.0143219, 44.5046474], [18.0143058, 44.504502], [18.01422, 44.5044216], [18.013925, 44.5043298], [18.0133885, 44.5041615], [18.0133188, 44.5039702], [18.0132222, 44.5036297], [18.0131578, 44.5035302], [18.0137104, 44.5033274], [18.013925, 44.5031667], [18.0139571, 44.5031132], [18.0143058, 44.5031629], [18.0144131, 44.5031285], [18.0149174, 44.5027267], [18.0152124, 44.502478], [18.0153304, 44.50226], [18.0153626, 44.502126], [18.0154377, 44.5017664], [18.0155021, 44.5015981], [18.0157006, 44.5011236], [18.0159366, 44.5008596], [18.0160761, 44.500653], [18.0161619, 44.500366], [18.0161941, 44.5001403], [18.0161834, 44.4998457], [18.0173206, 44.4999566], [18.0174011, 44.4994439], [18.0176961, 44.4989006], [18.0177337, 44.4988432], [18.0178692, 44.4989293], [18.0181642, 44.499092], [18.019166, 44.4994612], [18.0196569, 44.4995884], [18.01974, 44.4995779], [18.0199492, 44.4993942], [18.020255, 44.4991952], [18.0204695, 44.4990498], [18.0205715, 44.4989044], [18.0205822, 44.4987284], [18.0208075, 44.4987055], [18.0210006, 44.4986328], [18.0210918, 44.4985103], [18.0212474, 44.4983037], [18.021419, 44.4980971], [18.0216819, 44.4980665], [18.0219072, 44.498055], [18.0221486, 44.4979555], [18.0223739, 44.4978981], [18.0227762, 44.4979173], [18.0230498, 44.497967], [18.0232644, 44.4980129], [18.0236667, 44.4980512], [18.0237472, 44.4980397], [18.0243534, 44.4979249], [18.0246645, 44.4978599], [18.0248952, 44.4979785], [18.0251527, 44.4980856], [18.0253994, 44.4981277], [18.025775, 44.4981621], [18.0259681, 44.498231], [18.0261183, 44.4983037], [18.0265796, 44.4983841], [18.0268693, 44.4984836], [18.0271375, 44.4985945], [18.027336, 44.4986978], [18.0274755, 44.4987667], [18.0276954, 44.4988509], [18.0278671, 44.4988662], [18.0280602, 44.4988356], [18.0283177, 44.4987935], [18.0285215, 44.4987705], [18.0286503, 44.4987552], [18.0290741, 44.498805], [18.0293745, 44.4988585], [18.0295193, 44.4989006], [18.0297285, 44.4988815], [18.029868, 44.4987897], [18.0301255, 44.4986098], [18.0303776, 44.4984415], [18.0306297, 44.4983267], [18.0308497, 44.4982961], [18.0309784, 44.4982693], [18.0316383, 44.4980933], [18.0318206, 44.498032], [18.0318421, 44.4983152], [18.0318475, 44.4988203], [18.0318367, 44.4990307], [18.032062, 44.4995319], [18.0320889, 44.4999566], [18.0320889, 44.5001556], [18.0320757, 44.5010031], [18.0320728, 44.5011925], [18.0320191, 44.5012384], [18.031075, 44.5009553], [18.0309496, 44.5011096], [18.0308275, 44.5012598], [18.0304301, 44.5017489], [18.0303132, 44.5018927], [18.0301309, 44.5020801], [18.0290902, 44.5029257], [18.0288756, 44.5030902], [18.028661, 44.5032088], [18.0285822, 44.5032918], [18.0285484, 44.5033274], [18.0284895, 44.503525], [18.0284572, 44.5036335], [18.0284389, 44.5036711], [18.0284089, 44.503733], [18.0282265, 44.503909], [18.0281634, 44.503939], [18.0279368, 44.5040467], [18.0292565, 44.5043757], [18.0296097, 44.5044767], [18.0298769, 44.5045531], [18.0299749, 44.5045811], [18.0305815, 44.5047545], [18.0312446, 44.5050161], [18.0313106, 44.5050421], [18.0313861, 44.5050797], [18.0316216, 44.5048568], [18.031944, 44.5045517], [18.0322391, 44.5041768], [18.0327004, 44.5033695], [18.0328882, 44.5029946], [18.0333698, 44.5031046], [18.033442, 44.5031246], [18.0333924, 44.5033274], [18.0333012, 44.5035646], [18.0332342, 44.5037052], [18.0331081, 44.5038018], [18.0328305, 44.5039185], [18.0327111, 44.503997], [18.0339986, 44.5042609], [18.0341166, 44.5038898], [18.0347604, 44.5040964], [18.0353719, 44.504238], [18.0356723, 44.504238], [18.0358815, 44.5042533], [18.0357367, 44.5044637], [18.0354845, 44.504831], [18.0355221, 44.505007], [18.0355811, 44.5051944], [18.0355972, 44.5053628], [18.0355328, 44.5055311], [18.035329, 44.505776], [18.0350769, 44.5060093], [18.0349803, 44.5061853], [18.0348891, 44.5064493], [18.0348891, 44.5067515], [18.034814, 44.5069007], [18.0348301, 44.5069543], [18.0348891, 44.5070882], [18.0348945, 44.50718], [18.0346155, 44.5074823], [18.0344921, 44.5075894], [18.0342615, 44.5077194], [18.034122, 44.5078686], [18.0339718, 44.5080102], [18.0343366, 44.5083583], [18.0346423, 44.5087371], [18.0349159, 44.5091541], [18.0350447, 44.5092191], [18.0352539, 44.5091694], [18.035388, 44.5091081], [18.0355328, 44.5090622], [18.0356133, 44.5091311], [18.0356348, 44.509242], [18.035624, 44.5094218], [18.035785, 44.5097929], [18.0358654, 44.5099842], [18.0358869, 44.5100607], [18.0360585, 44.5100798], [18.0363536, 44.5100607], [18.0367666, 44.5099306], [18.0372924, 44.5096935], [18.0377859, 44.509529], [18.0381399, 44.5093453], [18.0383599, 44.5091961], [18.038435, 44.5091617], [18.0384886, 44.5091387], [18.0381963, 44.5096189], [18.0380192, 44.5099306], [18.0382124, 44.5100435], [18.0383518, 44.5101162], [18.0386522, 44.5101315], [18.0388293, 44.5101257], [18.039076, 44.5101066], [18.0393738, 44.5101908], [18.0406612, 44.5110439], [18.0410474, 44.5112083], [18.0417341, 44.5114187], [18.0426621, 44.511633], [18.042925, 44.5115718], [18.0432039, 44.5113499], [18.0433541, 44.5112122], [18.043499, 44.511128], [18.0435902, 44.511063], [18.0437618, 44.5109903], [18.0438101, 44.5108488], [18.0436277, 44.5107378], [18.0435097, 44.510646], [18.0433112, 44.5104968], [18.0432844, 44.5103744], [18.0433166, 44.5103055], [18.0434293, 44.5102099], [18.0435634, 44.5101372], [18.0436921, 44.5100913], [18.0441588, 44.5098924], [18.0443841, 44.5097738], [18.0445665, 44.5096973], [18.0448937, 44.509506], [18.0450332, 44.5093989], [18.0451298, 44.5093377], [18.0452746, 44.509353], [18.0454946, 44.5093721], [18.0457789, 44.5093453], [18.045972, 44.5093606], [18.0461651, 44.5093912], [18.046385, 44.5093989], [18.0465674, 44.5093377], [18.0467981, 44.5092267], [18.0468839, 44.5091502], [18.0469215, 44.5090355], [18.0469751, 44.5089092], [18.0472165, 44.5089934], [18.0474311, 44.5090278], [18.0476618, 44.5090393], [18.0480652, 44.5090764], [18.0486005, 44.5093109], [18.0489385, 44.5094601], [18.0492604, 44.509571], [18.0495393, 44.5096858], [18.0496895, 44.5097853], [18.0499953, 44.5099918], [18.0505156, 44.5102826], [18.0507624, 44.510428], [18.0512613, 44.5107646], [18.051433, 44.5107761], [18.0515778, 44.5106996], [18.0521572, 44.510141], [18.0523771, 44.5098809], [18.0526453, 44.5098197], [18.0528706, 44.5097929], [18.0531281, 44.5098656], [18.0533051, 44.5100951], [18.0532952, 44.5104608], [18.0533051, 44.5107493], [18.0532515, 44.5108641], [18.0527794, 44.5111777], [18.0526829, 44.5112772], [18.0526721, 44.5113728], [18.0527312, 44.5114647], [18.0530691, 44.5115985], [18.0534178, 44.5117707], [18.0534822, 44.511721], [18.0539972, 44.5111739], [18.0544853, 44.5109635], [18.054834, 44.5108335], [18.0553007, 44.5108602], [18.0556548, 44.5110018], [18.0560356, 44.5111089], [18.0566418, 44.5113269], [18.0568349, 44.511392], [18.0570012, 44.5114034], [18.0577952, 44.5113499], [18.0583638, 44.511281], [18.0586481, 44.5111777], [18.0588627, 44.5112619], [18.0586964, 44.5114647], [18.0585086, 44.5117133], [18.0582726, 44.5123636], [18.0585086, 44.5126008], [18.0587393, 44.5128571], [18.0588627, 44.5131057], [18.0589861, 44.5133238], [18.0592114, 44.5134347], [18.0595815, 44.5134997], [18.0599034, 44.5135877], [18.0602145, 44.5137675], [18.0604505, 44.5139358], [18.0605954, 44.5140965], [18.0606866, 44.5142151], [18.0607456, 44.5144025], [18.0610192, 44.5145593], [18.0610919, 44.5148249], [18.0613196, 44.5151522], [18.0617595, 44.5150528], [18.0622476, 44.5149304], [18.0625105, 44.5148845], [18.0631006, 44.5147927], [18.0633795, 44.514785], [18.0639964, 44.5147735], [18.0642325, 44.5146703], [18.0645651, 44.5144561], [18.0648708, 44.5143107], [18.0651444, 44.5141845], [18.0658847, 44.5138325], [18.0662119, 44.5137293], [18.0665284, 44.5136107], [18.0670541, 44.5134538], [18.0674726, 44.5133085], [18.0676871, 44.51332], [18.0677891, 44.5134347], [18.0678964, 44.513515], [18.068127, 44.5135495], [18.0684704, 44.5136413], [18.0685669, 44.5137216], [18.0686367, 44.5140047], [18.0687118, 44.5141615], [18.0687922, 44.514261], [18.0688298, 44.514303], [18.0689317, 44.5148194], [18.0695003, 44.5148998], [18.0698168, 44.5148654], [18.0700743, 44.5148156], [18.0704176, 44.5147353], [18.0705678, 44.5147085], [18.0704927, 44.5148615], [18.0702782, 44.5149801], [18.070128, 44.5150834], [18.0699348, 44.5153091], [18.069731, 44.5154583], [18.0696559, 44.515596], [18.069672, 44.5156763], [18.0696773, 44.5157566], [18.0696183, 44.5159364], [18.0694413, 44.5161583], [18.0692267, 44.516296], [18.0691034, 44.5163533], [18.0690443, 44.5164184], [18.0690283, 44.5164757], [18.0690524, 44.5165656], [18.0690443, 44.5166498], [18.0689853, 44.5168009], [18.0689505, 44.516908], [18.0689424, 44.5170246], [18.0687815, 44.5170648], [18.0689478, 44.5176271], [18.068701, 44.5176118], [18.0684328, 44.5176615], [18.0679822, 44.5177189], [18.068068, 44.5182888], [18.0680197, 44.5184762], [18.0679125, 44.5186407], [18.0678213, 44.5186866], [18.0673546, 44.5187401], [18.067317, 44.5188472], [18.067317, 44.5189888], [18.0675584, 44.5192718], [18.0680251, 44.5194478], [18.0682021, 44.519486], [18.0687225, 44.5197346], [18.069157, 44.520163], [18.0694145, 44.5204193], [18.0695486, 44.5206373], [18.0696076, 44.5207826], [18.0691785, 44.5210351], [18.0688941, 44.521146], [18.0685991, 44.5213296], [18.0685937, 44.5213831], [18.0686259, 44.5218536], [18.0691731, 44.5221978], [18.0693447, 44.5223431], [18.069849, 44.5227027], [18.0710506, 44.5228327], [18.0714959, 44.5225841], [18.071748, 44.5223125], [18.0720591, 44.5219301], [18.0722576, 44.5216279], [18.072601, 44.5213564], [18.0727243, 44.521276], [18.0731642, 44.5208477], [18.0732554, 44.5207406], [18.0732393, 44.5206182], [18.0732125, 44.5204193], [18.0732125, 44.5202892], [18.0732769, 44.5201898], [18.0735022, 44.5199794], [18.0735344, 44.5198188], [18.0736363, 44.5196849], [18.0737543, 44.5195855], [18.0741942, 44.519486], [18.0746341, 44.5194057], [18.0751973, 44.5193674], [18.0755621, 44.5193942], [18.0756909, 44.5194248], [18.0763131, 44.5198914], [18.0772519, 44.5204575], [18.0778044, 44.5206679], [18.0780512, 44.5207367], [18.0792099, 44.5209586], [18.0796122, 44.5209739], [18.0798805, 44.5209356], [18.080036, 44.5206755], [18.0802882, 44.520534], [18.0804223, 44.5204193], [18.0801755, 44.5199641], [18.0807441, 44.5196199], [18.0810231, 44.5194172], [18.0810982, 44.5191877], [18.0810553, 44.5186445], [18.0809426, 44.5183462], [18.08083, 44.5182238], [18.0808139, 44.5181741], [18.0810285, 44.5178872], [18.0811894, 44.5177571], [18.0816185, 44.5176386], [18.0818224, 44.5175238], [18.0826861, 44.517432], [18.0824768, 44.5172675], [18.0823642, 44.5169615], [18.0821764, 44.5165293], [18.0819511, 44.5161391], [18.0817258, 44.5159096], [18.0815756, 44.515879], [18.0813611, 44.5159058], [18.0811304, 44.5159326], [18.0808246, 44.5159517], [18.0806529, 44.5159326], [18.0804813, 44.5158408], [18.0802667, 44.5156189], [18.0800904, 44.5154778], [18.0795479, 44.515332], [18.0792636, 44.5152555], [18.0790704, 44.5151369], [18.0789846, 44.5150222], [18.0789739, 44.5149839], [18.0789202, 44.5148768], [18.0790758, 44.514697], [18.0791455, 44.5146588], [18.0793199, 44.5144006], [18.0793735, 44.5142131], [18.0793789, 44.5140391], [18.079336, 44.5139645], [18.0792582, 44.513909], [18.0790839, 44.5138478], [18.0788612, 44.5137752], [18.0778152, 44.5135189], [18.077327, 44.5133123], [18.0771339, 44.5131478], [18.0770588, 44.5130598], [18.0770266, 44.5130139], [18.0770481, 44.5128456], [18.0772734, 44.5124822], [18.0775952, 44.5120614], [18.0777669, 44.5118166], [18.0778313, 44.5115947], [18.0778742, 44.5114493], [18.0779761, 44.5113728], [18.0781907, 44.511281], [18.0785716, 44.5111127], [18.0789202, 44.5109253], [18.0790865, 44.5108067], [18.0792367, 44.5106728], [18.0794406, 44.5103973], [18.0797464, 44.5103935], [18.0800146, 44.5103935], [18.0802023, 44.510405], [18.0805135, 44.5104471], [18.08061, 44.5104127], [18.0806261, 44.5100339], [18.08061, 44.5098733], [18.0806529, 44.5096935], [18.0809694, 44.5092765], [18.0811948, 44.5091349], [18.0813771, 44.5089934], [18.0815273, 44.5088136], [18.0815595, 44.5086835], [18.0815488, 44.5085573], [18.0814708, 44.5079253], [18.0811948, 44.5071188], [18.0810499, 44.5066291], [18.0809319, 44.5063843], [18.0808032, 44.5062733], [18.080551, 44.5061853], [18.0802238, 44.5060017], [18.0800146, 44.5058525], [18.0796927, 44.5056459], [18.0795532, 44.5054661], [18.0794084, 44.5052939], [18.079316, 44.5051658], [18.0790114, 44.5051524], [18.0788398, 44.5051141], [18.0787861, 44.5050835], [18.0785984, 44.5049419], [18.0780888, 44.5040046], [18.0780083, 44.5036717], [18.0777454, 44.5030405], [18.0775577, 44.502524], [18.0775523, 44.5022255], [18.0776435, 44.5017281], [18.0777293, 44.5013379], [18.0777776, 44.5010624], [18.078078, 44.5007027], [18.0784267, 44.5005229], [18.079275, 44.5002822], [18.0796375, 44.5001675], [18.0797088, 44.5002627], [18.0798, 44.500366], [18.0797034, 44.5003967], [18.0798054, 44.5004847], [18.0798751, 44.5005421], [18.0798805, 44.5006109], [18.0798751, 44.5007257], [18.0798536, 44.5007907], [18.0798912, 44.5008673], [18.080079, 44.5009897], [18.0804384, 44.5012499], [18.0811143, 44.501556], [18.081345, 44.5015674], [18.0816293, 44.5014833], [18.0818438, 44.5014068], [18.0820316, 44.5013914], [18.082332, 44.5014029], [18.0827075, 44.5013723], [18.0830187, 44.5014259], [18.0831796, 44.5014871], [18.0840111, 44.5020151], [18.0848157, 44.5024972], [18.085556, 44.503117], [18.0857491, 44.5033006], [18.0865967, 44.5038745], [18.0871975, 44.5042036], [18.0887854, 44.5053972], [18.0892467, 44.5057875], [18.0896222, 44.5061853], [18.0905986, 44.506851], [18.0907273, 44.5069964], [18.0903196, 44.5071035], [18.0900729, 44.5071571], [18.0899441, 44.5072642], [18.089869, 44.5074249], [18.0889463, 44.5075932], [18.0891395, 44.5082589], [18.0890751, 44.508542], [18.0896008, 44.5086032], [18.0899978, 44.5086491], [18.0902123, 44.5087638], [18.0903625, 44.5089551], [18.09062, 44.509024], [18.090899, 44.509001], [18.0911457, 44.5089169], [18.091312, 44.5087218], [18.0913925, 44.5086261], [18.0918109, 44.5085764], [18.0919558, 44.5086873], [18.0920416, 44.5088251], [18.0921811, 44.5088442], [18.0922937, 44.5087294], [18.0924708, 44.5086873], [18.0926156, 44.5087485], [18.0927229, 44.5087983], [18.0928409, 44.5086912], [18.0929965, 44.5086108], [18.0931091, 44.5085955], [18.0932915, 44.5087332], [18.0934203, 44.5088863], [18.0937153, 44.5089805], [18.0941606, 44.5090163], [18.0945897, 44.508936], [18.0947453, 44.5090814], [18.0950081, 44.5091579], [18.0951047, 44.5091961], [18.0951369, 44.5093186], [18.0951315, 44.5095213], [18.0953675, 44.5097049], [18.0955982, 44.5098618], [18.095668, 44.5099], [18.0958503, 44.510011], [18.0960327, 44.5100798], [18.0962741, 44.5104088], [18.0963385, 44.5105236], [18.0963707, 44.5106231], [18.0963117, 44.5110553], [18.0962473, 44.5113422], [18.0961025, 44.511698], [18.096022, 44.5117898], [18.0959576, 44.5118319], [18.0953085, 44.5120652], [18.0948472, 44.512245], [18.0945414, 44.5125013], [18.094241, 44.5128074], [18.093946, 44.5131555], [18.0937582, 44.5136528], [18.0937153, 44.5140008], [18.093785, 44.5142074], [18.0938655, 44.5144293], [18.0939889, 44.5147085], [18.0940747, 44.514938], [18.0943161, 44.515202], [18.0945414, 44.5153894], [18.0946702, 44.5155539], [18.0951315, 44.515967], [18.0953836, 44.5161659], [18.0955821, 44.5163342], [18.0956948, 44.5165561], [18.0956089, 44.5167894], [18.095507, 44.5169156], [18.0953032, 44.5175774], [18.0952978, 44.5178336], [18.0954212, 44.5180325], [18.095566, 44.5182008], [18.0957216, 44.5186101], [18.0958611, 44.5187899], [18.0959737, 44.5188052], [18.096273, 44.5186738], [18.0967623, 44.5183921], [18.0970198, 44.5182047], [18.0971217, 44.5181052], [18.097229, 44.5180937], [18.097288, 44.5182047], [18.0973685, 44.51835], [18.0973202, 44.518568], [18.0972719, 44.5187478], [18.0971914, 44.5188358], [18.0972236, 44.5189352], [18.0972826, 44.5190538], [18.0973524, 44.519203], [18.0975562, 44.5190614], [18.0976582, 44.5189161], [18.0977333, 44.518809], [18.0978298, 44.5186751], [18.0981034, 44.5184992], [18.0983823, 44.5185298], [18.0985862, 44.5186292], [18.09879, 44.5187937], [18.0990583, 44.5190155], [18.0995572, 44.5191915], [18.0997717, 44.5192871], [18.1000775, 44.5193598], [18.1001955, 44.5193827], [18.1002331, 44.519486], [18.1000829, 44.5196658], [18.0999863, 44.5198111], [18.0997878, 44.5201554], [18.1003886, 44.520381], [18.1005979, 44.5205225], [18.1007159, 44.5205952], [18.1010055, 44.5204652], [18.1012791, 44.5203007], [18.101719, 44.5199106], [18.1026685, 44.5193866], [18.1028724, 44.5192297], [18.1030708, 44.5188702], [18.1034249, 44.5185374], [18.1039184, 44.5182353], [18.1051898, 44.517455], [18.1056726, 44.5170954], [18.1060266, 44.5168276], [18.106209, 44.5166211], [18.106724, 44.5164604], [18.1076252, 44.5163151], [18.1080758, 44.5163227], [18.108505, 44.5163227], [18.1090844, 44.5162998], [18.1097281, 44.5161544], [18.1100821, 44.5160856], [18.1103718, 44.5158943], [18.1105971, 44.5158102], [18.1115198, 44.5161544], [18.1121528, 44.516361], [18.1130755, 44.5167205], [18.1139767, 44.5176233], [18.1143737, 44.5179599], [18.1144702, 44.5183041], [18.1143737, 44.5191226], [18.114438, 44.5194363], [18.1144273, 44.5198111], [18.1143844, 44.5202319], [18.1146204, 44.5204002], [18.1149638, 44.5204155], [18.1154787, 44.5205837], [18.1160366, 44.5207826], [18.1171954, 44.5208515], [18.1187723, 44.5211291], [18.1193062, 44.5201828], [18.1211357, 44.5168381], [18.1226875, 44.5148965], [18.1237542, 44.5139863], [18.1230694, 44.5135992], [18.1231338, 44.513515], [18.1226671, 44.5131057], [18.1223881, 44.5129336], [18.1222647, 44.5127653], [18.1221574, 44.5126008], [18.1220663, 44.5124669], [18.1220233, 44.5122183], [18.1220019, 44.512027], [18.1218946, 44.5118778], [18.1216371, 44.5117477], [18.1214923, 44.5116942], [18.1212562, 44.5115144], [18.1211328, 44.5112772], [18.1209987, 44.5111854], [18.1210792, 44.5105427], [18.1210899, 44.5103744], [18.121224, 44.509923], [18.1211704, 44.5094945], [18.1211489, 44.5093224], [18.1211007, 44.5088977], [18.1210899, 44.5086299], [18.1210631, 44.5084693], [18.1205052, 44.5077654], [18.1203175, 44.5075626], [18.1202155, 44.5074555], [18.1199044, 44.5073675], [18.1187832, 44.5071838], [18.1181073, 44.5070499], [18.117823, 44.5069696], [18.117485, 44.5067554], [18.1172115, 44.5065105], [18.1169057, 44.5062848], [18.1159615, 44.5060323], [18.1154466, 44.5059022], [18.115114, 44.5057339], [18.1147921, 44.505489], [18.115071, 44.5053896], [18.1154466, 44.5052365], [18.1158328, 44.5050529], [18.1159401, 44.5048386], [18.1160474, 44.5045249], [18.116101, 44.5043489], [18.1168198, 44.5043413], [18.1194913, 44.5054355], [18.1203067, 44.5056344], [18.1218034, 44.506017], [18.1222594, 44.5058869], [18.1225651, 44.505776], [18.1232518, 44.5055507], [18.1236756, 44.5055503], [18.1240118, 44.5055336], [18.1242496, 44.5055847], [18.1279349, 44.5052557], [18.1279135, 44.5056038], [18.12801, 44.5059099], [18.128112, 44.5060208], [18.1290722, 44.5060476], [18.1295335, 44.5059749], [18.1299037, 44.5058487], [18.1301558, 44.5057186], [18.1302845, 44.5056076], [18.1304938, 44.5051256], [18.1305206, 44.5048999], [18.1304723, 44.5047736], [18.1304455, 44.5046167], [18.1303149, 44.5045556], [18.1301987, 44.5044981], [18.1304079, 44.5040888], [18.1298768, 44.5029486], [18.1297052, 44.5018621], [18.1300056, 44.5015866], [18.1301772, 44.5015024], [18.1329131, 44.5012652], [18.1328165, 44.5008481], [18.1329453, 44.5005535], [18.1329668, 44.500324], [18.1329077, 44.5001327], [18.1327736, 44.4999337], [18.1325912, 44.4997921], [18.1316525, 44.4993215], [18.1314164, 44.4990039], [18.1313252, 44.4987897], [18.1312233, 44.4985639], [18.1309926, 44.4984759], [18.1306225, 44.4984376], [18.1303489, 44.4985869], [18.1301665, 44.4988662], [18.1300324, 44.4991225], [18.1298661, 44.4993674], [18.1296515, 44.4994439], [18.1292814, 44.4993253], [18.1291419, 44.4991608], [18.1290239, 44.4990498], [18.1284982, 44.4987514], [18.128128, 44.4984836], [18.1279188, 44.4982348], [18.1277096, 44.4980856], [18.1276023, 44.4980206], [18.127023, 44.4977833], [18.1267548, 44.4976226], [18.1264543, 44.4972706], [18.1263149, 44.4969109], [18.1262505, 44.4965206], [18.1260896, 44.496138], [18.1259501, 44.4959773], [18.1257784, 44.4956023], [18.1259501, 44.4951278], [18.1258643, 44.4946763], [18.1257033, 44.4943702], [18.1257248, 44.4941635], [18.1260252, 44.4941253], [18.1266153, 44.4939186], [18.1271946, 44.4937885], [18.1274843, 44.4937732], [18.127656, 44.4939569], [18.1279349, 44.4942095], [18.1283212, 44.4943778], [18.1289005, 44.494462], [18.1292653, 44.4943855], [18.1297159, 44.4942554], [18.1298876, 44.4942018], [18.1301236, 44.4942554], [18.1304026, 44.4943855], [18.1306815, 44.494485], [18.1311321, 44.4946457], [18.131336, 44.4947299], [18.1321299, 44.4950513], [18.1324303, 44.495411], [18.1325591, 44.4955564], [18.1327414, 44.4956865], [18.1333208, 44.4958166], [18.1334925, 44.4958702], [18.134104, 44.4958855], [18.1342435, 44.495786], [18.1342971, 44.4956176], [18.1347692, 44.4954875], [18.135016, 44.4954722], [18.1353593, 44.4954722], [18.1357187, 44.4952464], [18.1359172, 44.4951737], [18.136239, 44.4951852], [18.136872, 44.4952235], [18.1371725, 44.4951125], [18.1374407, 44.4949594], [18.1378913, 44.4947796], [18.1384331, 44.4944735], [18.1386477, 44.4944352], [18.138991, 44.494462], [18.1396079, 44.4946533], [18.1397635, 44.4947528], [18.1398815, 44.4952273], [18.1398386, 44.4954569], [18.1401658, 44.4954454], [18.1404179, 44.4954263], [18.1401819, 44.4963446], [18.1407988, 44.4964135], [18.1410026, 44.4965819], [18.1412172, 44.4967349], [18.1413245, 44.4968344], [18.1415284, 44.4970028], [18.1420755, 44.4972783], [18.1423813, 44.4974466], [18.142553, 44.4976035], [18.1426549, 44.4977145], [18.1429392, 44.4981354], [18.1431645, 44.4983152], [18.1433952, 44.4983037], [18.1441301, 44.4981162], [18.1444251, 44.4980627], [18.145659, 44.497879], [18.1459862, 44.4977221], [18.14619, 44.497615], [18.1464881, 44.4975049], [18.1468874, 44.4976112], [18.1472039, 44.4978599], [18.1474668, 44.4980282], [18.1478476, 44.4980627], [18.1482285, 44.498032], [18.1485343, 44.49799], [18.1488937, 44.4980512], [18.1491727, 44.4981966], [18.149811, 44.4985677], [18.151474, 44.4991838], [18.1536197, 44.5012193], [18.1532631, 44.503354], [18.1552505, 44.5039128], [18.1566238, 44.5042801], [18.1587695, 44.504525], [18.1603145, 44.504525], [18.1618594, 44.5044026], [18.1643485, 44.5055656], [18.1650352, 44.5075244], [18.1653785, 44.508565], [18.1653785, 44.511503], [18.1640267, 44.511962], [18.1637692, 44.5122374], [18.1635117, 44.5125434], [18.1625837, 44.5145287], [18.1630343, 44.5146397], [18.1637692, 44.5146435], [18.1644559, 44.5146129], [18.1648207, 44.514655], [18.1651747, 44.514808], [18.1659096, 44.5155271], [18.1660867, 44.5158752], [18.1665748, 44.5160282], [18.1671756, 44.5161009], [18.1671756, 44.5162156], [18.1670952, 44.5162998], [18.1668431, 44.5164719], [18.1666177, 44.5165102], [18.1663012, 44.5165293], [18.1665854, 44.5168922], [18.1660563, 44.5170027], [18.1658024, 44.516644], [18.1654483, 44.5167779], [18.1652015, 44.5168544], [18.165105, 44.5167856], [18.1646597, 44.5169156], [18.1647613, 44.5172704], [18.1646424, 44.5172916], [18.1648345, 44.5177249], [18.1650216, 44.517997], [18.1652077, 44.5181522], [18.1655824, 44.5181741], [18.1658399, 44.5181741], [18.1660813, 44.5180861], [18.1661296, 44.5181664], [18.1674439, 44.5177533], [18.1689888, 44.5172178], [18.1695467, 44.5170724], [18.1695092, 44.5169233], [18.1698847, 44.51682], [18.1700188, 44.5169309], [18.170144, 44.5170982], [18.1698548, 44.5171793], [18.1701975, 44.5185762], [18.1728821, 44.5180872], [18.1748975, 44.5173687], [18.1783404, 44.5153927], [18.1800234, 44.5139365], [18.1803967, 44.5134374], [18.1804309, 44.5123177], [18.1798303, 44.5115476], [18.1788173, 44.5100046], [18.1782103, 44.5091234], [18.1773327, 44.5083864], [18.1754853, 44.5069491], [18.1743738, 44.5050761], [18.1739933, 44.5028651], [18.1851029, 44.4975123], [18.1870032, 44.4948014], [18.1933374, 44.4920904], [18.1965045, 44.4920904], [18.2041055, 44.4943496], [18.2053724, 44.4948014], [18.2117066, 44.495705], [18.2167739, 44.4961569], [18.2212079, 44.495705], [18.2237415, 44.4961569], [18.2269086, 44.4961569], [18.231976, 44.4943496], [18.2357765, 44.4934459], [18.2402104, 44.4920904], [18.2446444, 44.4925422], [18.2484449, 44.4952532], [18.251612, 44.4984159], [18.2554125, 44.5002231], [18.2566794, 44.5033855], [18.2541457, 44.5051925], [18.251612, 44.5083546], [18.2509786, 44.5088064], [18.2598465, 44.5088064], [18.2623801, 44.5101615], [18.2661807, 44.5115166], [18.2708886, 44.5120547], [18.2714662, 44.5120515], [18.2723383, 44.5128995], [18.2730178, 44.5132387], [18.2737539, 44.5136102], [18.2744448, 44.5137797], [18.2749544, 44.5140624], [18.2759624, 44.5143774], [18.2768571, 44.51487], [18.2774687, 44.5155322], [18.2781142, 44.5162106], [18.2784653, 44.5165094], [18.2799277, 44.5166274], [18.2813159, 44.5164557], [18.2815922, 44.5175463], [18.280708, 44.518212], [18.2799269, 44.5188729], [18.2799097, 44.5192952], [18.279987, 44.5196624], [18.280399, 44.5200112], [18.2806822, 44.5204763], [18.2817659, 44.5211102], [18.2823095, 44.52174], [18.2827852, 44.5224103], [18.2834194, 44.5228624], [18.2840423, 44.5232985], [18.2852201, 44.5234761], [18.2860695, 44.5235407], [18.286783, 44.5241463], [18.2876551, 44.5241463], [18.289218, 44.5244774], [18.2897276, 44.5248569], [18.2896823, 44.5253252], [18.2899315, 44.5262456], [18.2903166, 44.526722], [18.2907469, 44.5268996], [18.2912226, 44.5268835], [18.2916077, 44.5267543], [18.2920947, 44.5265202], [18.2930233, 44.5264556], [18.2941219, 44.5264071], [18.2948354, 44.5267462], [18.2952658, 44.5271984], [18.2957867, 44.527263], [18.2964889, 44.5271984], [18.2970552, 44.5270046], [18.2976441, 44.5263829], [18.2984595, 44.5262699], [18.299241, 44.5261487], [18.3000451, 44.52585], [18.3007813, 44.52585], [18.3022875, 44.5262456], [18.3005887, 44.528579], [18.2995581, 44.5306136], [18.2991844, 44.5316148], [18.2981424, 44.5324302], [18.2980179, 44.5333102], [18.2979499, 44.5340771], [18.2980518, 44.5344162], [18.2988106, 44.5351347], [18.299241, 44.5354172], [18.2994335, 44.5356271], [18.2994222, 44.5358855], [18.2991051, 44.5364021], [18.2990258, 44.536725], [18.2991617, 44.5370157], [18.2995015, 44.5371045], [18.3001131, 44.5371125], [18.3002263, 44.5373709], [18.3004075, 44.5380409], [18.3002829, 44.5385495], [18.2998752, 44.5387351], [18.2993316, 44.5389127], [18.2994675, 44.539276], [18.2994335, 44.5395585], [18.2990824, 44.5396473], [18.2983463, 44.5395504], [18.2979839, 44.5397765], [18.2978027, 44.5400509], [18.2967268, 44.5404223], [18.2959793, 44.5412698], [18.2950959, 44.5419156], [18.2944277, 44.5422304], [18.2940313, 44.5427067], [18.292978, 44.543417], [18.2925137, 44.5435704], [18.2921513, 44.5436269], [18.2916756, 44.5432233], [18.290611, 44.5438044], [18.2899881, 44.5442484], [18.2893086, 44.544652], [18.2885158, 44.5461371], [18.288799, 44.5479532], [18.2893086, 44.5489298], [18.2893992, 44.550544], [18.2900787, 44.5501162], [18.2914151, 44.5504552], [18.2907922, 44.5523115], [18.2903166, 44.552594], [18.290713, 44.5531912], [18.2912679, 44.5536431], [18.2918568, 44.5538368], [18.2928535, 44.5530782], [18.2928761, 44.5535544], [18.2931706, 44.5540951], [18.2934764, 44.5543533], [18.2936123, 44.5545147], [18.2940653, 44.5546438], [18.2949034, 44.5540628], [18.295447, 44.5538207], [18.2961605, 44.5536512], [18.2961831, 44.5543856], [18.2956622, 44.5549344], [18.295832, 44.5554186], [18.2950053, 44.555467], [18.2948128, 44.5565968], [18.2961718, 44.5576136], [18.2972817, 44.5580575], [18.2980706, 44.5587437], [18.2975988, 44.5591872], [18.2965251, 44.5603451], [18.2965398, 44.5605472], [18.2969575, 44.5607538], [18.2970394, 44.5609059], [18.2969913, 44.5610348], [18.2964933, 44.5614795], [18.2962773, 44.5615687], [18.2957301, 44.5617211], [18.2957641, 44.5618825], [18.2954243, 44.5622214], [18.2949034, 44.5622456], [18.2942578, 44.5620519], [18.2937029, 44.5618502], [18.292593, 44.5621407], [18.2911999, 44.5629153], [18.290645, 44.5629879], [18.2905091, 44.56323], [18.290577, 44.5634963], [18.2910754, 44.5637626], [18.2913472, 44.5641983], [18.2912566, 44.5645291], [18.2905317, 44.5650213], [18.2900221, 44.5656265], [18.2890481, 44.5662316], [18.2888896, 44.5666351], [18.288799, 44.5669982], [18.2880741, 44.5674581], [18.2870548, 44.5681197], [18.2858996, 44.5689265], [18.2858883, 44.5693703], [18.2854127, 44.5701367], [18.2851861, 44.5712743], [18.2853787, 44.5717907], [18.2857298, 44.5724845], [18.2857296, 44.5732311], [18.2819496, 44.5728164], [18.2811225, 44.5731253], [18.2792328, 44.5738311], [18.2715141, 44.5782391], [18.2710786, 44.5786637], [18.2692112, 44.5805378], [18.2681125, 44.5806305], [18.2662823, 44.5809919], [18.2639198, 44.5812323], [18.2587013, 44.5817705], [18.2567842, 44.5823574], [18.2557666, 44.5832497], [18.2525801, 44.5845155], [18.2482153, 44.5868769], [18.2451583, 44.5867748], [18.2333342, 44.5859123], [18.2288747, 44.5931393], [18.226672, 44.5964951], [18.2261297, 44.5973212], [18.2239707, 44.6004076], [18.2128044, 44.6004034], [18.2074116, 44.600305], [18.1726845, 44.5963281], [18.1614474, 44.5919765], [18.1560088, 44.5914813], [18.1473628, 44.5899368], [18.1377672, 44.5894662], [18.1311663, 44.5890985], [18.1220452, 44.586551], [18.1204898, 44.582402], [18.118737, 44.5808071], [18.1139809, 44.5783289], [18.1109535, 44.5769764], [18.1076862, 44.5755975], [18.1052423, 44.5748926], [18.1024847, 44.5743953], [18.101161, 44.5748908], [18.0994618, 44.5760982], [18.0982408, 44.5768166], [18.0974647, 44.5772732], [18.0957937, 44.5791309], [18.0957093, 44.5795635], [18.096879, 44.5805869], [18.0975257, 44.5815305], [18.0979661, 44.5823314], [18.0981282, 44.583776], [18.0981029, 44.5847296], [18.0970492, 44.5878346], [18.0968893, 44.5894418], [18.0960495, 44.5904211], [18.0951887, 44.5924073], [18.0944679, 44.5935601], [18.0921183, 44.5956683], [18.091606, 44.597177], [18.0904067, 44.5977548], [18.0899442, 44.5986829], [18.0890132, 44.6005829], [18.0887263, 44.6015239], [18.0883629, 44.6033818], [18.0884306, 44.6046988], [18.0886485, 44.6052309], [18.0887807, 44.6055537], [18.0905632, 44.6063306], [18.0929808, 44.6070437], [18.0950812, 44.6081112], [18.0980111, 44.6090829], [18.1004317, 44.6101978], [18.1022018, 44.6124274], [18.1032929, 44.6144958], [18.1033427, 44.6158959], [18.1023801, 44.6167942], [18.1022498, 44.6177336], [18.1000637, 44.6206079], [18.0992063, 44.6239434], [18.0997916, 44.6259811], [18.0997127, 44.6271369], [18.0995471, 44.6279424], [18.0971698, 44.629604], [18.0954976, 44.630125], [18.0912161, 44.6304858], [18.0895176, 44.6315033], [18.0885654, 44.6328499], [18.088322, 44.6369694], [18.0896714, 44.6390007], [18.0908321, 44.6401758], [18.090078, 44.6406326], [18.0898562, 44.6405784], [18.0895457, 44.6403909], [18.0889568, 44.640125], [18.0886737, 44.6398187], [18.0885604, 44.6395609], [18.0881753, 44.6391418], [18.0874618, 44.6387873], [18.0867483, 44.6381506], [18.0856724, 44.6371997], [18.0850042, 44.6369337], [18.0842794, 44.6368209], [18.0837018, 44.636966], [18.0834073, 44.6369821], [18.0829656, 44.636837], [18.0827844, 44.6366678], [18.0827731, 44.636289], [18.0797039, 44.634371], [18.0775634, 44.634645], [18.0725123, 44.6322997], [18.0717195, 44.6319934], [18.0702698, 44.6312036], [18.0688542, 44.6286164], [18.06523, 44.6245459], [18.0649154, 44.6239954], [18.0639295, 44.6231843], [18.0632934, 44.622966], [18.0628404, 44.6225066], [18.0622175, 44.6224098], [18.0617531, 44.6222809], [18.0609037, 44.6214022], [18.0606545, 44.6208541], [18.0606206, 44.6202253], [18.0608018, 44.6194111], [18.0610056, 44.6188146], [18.0605526, 44.6178794], [18.0602015, 44.6172023], [18.0601336, 44.6168153], [18.0592615, 44.6162107], [18.0583781, 44.6150014], [18.0579704, 44.614558], [18.0564981, 44.6141549], [18.0551277, 44.614034], [18.0546294, 44.6140823], [18.0542104, 44.6138969], [18.0534403, 44.6131149], [18.0530212, 44.6125183], [18.0524663, 44.6119136], [18.0518094, 44.6113896], [18.0516508, 44.6111235], [18.0517414, 44.6107365], [18.0518094, 44.610285], [18.0521945, 44.6097932], [18.0521945, 44.6094707], [18.0525569, 44.609003], [18.052772, 44.6083983], [18.052772, 44.6076565], [18.0529306, 44.6073501], [18.0529193, 44.6068664], [18.0528217, 44.6065925], [18.0527991, 44.6064877], [18.0527991, 44.6059878], [18.0530029, 44.6054475], [18.053388, 44.6050444], [18.0536485, 44.6047218], [18.0542601, 44.6045203], [18.0545545, 44.6042784], [18.0549396, 44.6041735], [18.0553133, 44.6035768], [18.0554379, 44.6032624], [18.0554379, 44.6028108], [18.0552907, 44.6024721], [18.0550259, 44.6021833], [18.0549355, 44.6014199], [18.054815, 44.6009158], [18.0547012, 44.6002214], [18.054438, 44.5999313], [18.0540673, 44.5997441], [18.0533668, 44.5995926], [18.0524933, 44.5993111], [18.0520629, 44.5991417], [18.0518364, 44.598924], [18.0517571, 44.5986498], [18.0516665, 44.5983998], [18.0515193, 44.5979079], [18.0515306, 44.5974724], [18.0517118, 44.5972305], [18.0519044, 44.5968192], [18.0516099, 44.5964805], [18.0515646, 44.5963031], [18.0521309, 44.5957547], [18.0520403, 44.5955289], [18.0517911, 44.5953918], [18.05144, 44.5951418], [18.0513268, 44.5949241], [18.0510663, 44.5948595], [18.0508058, 44.5949321], [18.0502848, 44.594787], [18.0498545, 44.5945047], [18.0494581, 44.5937305], [18.0489711, 44.593803], [18.0487333, 44.5939805], [18.0484161, 44.5938272], [18.0480877, 44.5938192], [18.0477366, 44.5936579], [18.0473062, 44.5932788], [18.0470911, 44.5928756], [18.0471024, 44.5926175], [18.0468872, 44.5924159], [18.0466494, 44.5924159], [18.0463549, 44.5923917], [18.0458339, 44.5922304], [18.0457433, 44.591932], [18.0461171, 44.5914158], [18.0462417, 44.5909158], [18.046219, 44.590577], [18.0470571, 44.5897866], [18.047193, 44.5895366], [18.0472156, 44.5891414], [18.0470684, 44.588972], [18.0469325, 44.5887139], [18.0463323, 44.5881896], [18.0459925, 44.5877057], [18.0456188, 44.5874073], [18.0449279, 44.5871492], [18.0446788, 44.5869798], [18.0442937, 44.5864394], [18.0437387, 44.5863668], [18.0435122, 44.5863506], [18.0427195, 44.5860199], [18.0416662, 44.5856812], [18.0412358, 44.5853747], [18.0407262, 44.5851488], [18.0398201, 44.5845116], [18.0389481, 44.5837856], [18.0386763, 44.582979], [18.0384271, 44.5825595], [18.0383365, 44.5822127], [18.038631, 44.5819223], [18.0389934, 44.5815432], [18.0392878, 44.5811318], [18.0392539, 44.5807849], [18.0390613, 44.5802606], [18.0388462, 44.579591], [18.0385857, 44.5786875], [18.0386083, 44.5783407], [18.0390274, 44.5778244], [18.0393671, 44.5772435], [18.0391972, 44.5767595], [18.0393218, 44.57634], [18.0395823, 44.5758963], [18.0398881, 44.5752832], [18.0404657, 44.5745732], [18.0406809, 44.5740973], [18.0420059, 44.5734196], [18.0426741, 44.5730565], [18.0429233, 44.5726693], [18.0433423, 44.5722578], [18.0438746, 44.5713058], [18.0442937, 44.5704667], [18.0447694, 44.5694582], [18.0449279, 44.5687643], [18.0450865, 44.5678768], [18.0451657, 44.5674411], [18.044826, 44.5668602], [18.0447014, 44.566247], [18.0445688, 44.5658939], [18.0438793, 44.5655974], [18.043476, 44.5650598], [18.0432939, 44.5644851], [18.0431898, 44.5636046], [18.0429036, 44.5630021], [18.0428125, 44.561964], [18.0425133, 44.561278], [18.0424743, 44.5608609], [18.042058, 44.5601935], [18.0414465, 44.5597393], [18.0409652, 44.5592573], [18.0399765, 44.5593129], [18.0388446, 44.5595076], [18.0377648, 44.5596652], [18.0371274, 44.5594241], [18.0362818, 44.5593963], [18.0355142, 44.5591553], [18.0349808, 44.5590997], [18.0329513, 44.5569862], [18.0327432, 44.5550766], [18.0320927, 44.5550487], [18.0314032, 44.5549375], [18.0306356, 44.5549097], [18.0302193, 44.5547057], [18.0293347, 44.5545111], [18.0284761, 44.5543627], [18.0279687, 44.5545389], [18.0276565, 44.5547057], [18.0260953, 44.5546038], [18.0251816, 44.5547266], [18.0247965, 44.5550171], [18.0239212, 44.5550171], [18.0234399, 44.5547297], [18.0226333, 44.5543125], [18.0211502, 44.5541364], [18.0202005, 44.5540715], [18.0193679, 44.5542477], [18.0188735, 44.5545999], [18.0172604, 44.5551376], [18.0166619, 44.5554343], [18.0159464, 44.5553416], [18.0148146, 44.5552489], [18.0141381, 44.5554343], [18.0136567, 44.555564], [18.0135006, 44.5557958], [18.0134486, 44.5560368], [18.0129932, 44.5562408], [18.0124078, 44.5562871], [18.0113801, 44.5561202], [18.0106385, 44.5562964], [18.0087391, 44.5561944], [18.008391, 44.556172], [18.0080428, 44.5562135], [18.0075813, 44.5562129], [18.0069875, 44.5559764], [18.0052656, 44.5554435], [18.004472, 44.5553601], [18.0041858, 44.5551932], [18.0037695, 44.5552581], [18.0028068, 44.5553786], [18.0022604, 44.5551098], [18.0015969, 44.5551005], [18.0009855, 44.554841], [18.000387, 44.5546463], [18.0000228, 44.5547575], [17.9991381, 44.5553694], [17.9985267, 44.5559534], [17.9977981, 44.5561481], [17.9968875, 44.5561295], [17.9960679, 44.5558978], [17.9944937, 44.555425], [17.9935831, 44.5551932], [17.9931928, 44.555323], [17.992139, 44.5557773], [17.9914755, 44.5561573], [17.9908901, 44.5563149], [17.9901616, 44.5562315], [17.9894851, 44.5559441], [17.9888346, 44.5554621], [17.9885354, 44.555323], [17.9877678, 44.555323], [17.9870913, 44.5556567], [17.986675, 44.5561573], [17.9862457, 44.5563427], [17.9861677, 44.5570751], [17.9863888, 44.5579928], [17.9862847, 44.5588734], [17.9863108, 44.559411], [17.9860245, 44.560579], [17.9857513, 44.5612927], [17.9847756, 44.5624421], [17.9840601, 44.5635358], [17.9831234, 44.5646481], [17.982551, 44.5636656], [17.9826551, 44.5629334], [17.982525, 44.5623958], [17.9817834, 44.5616635], [17.9809769, 44.5612927], [17.9803394, 44.5605234], [17.9795458, 44.5596335], [17.9785701, 44.5592349], [17.9775814, 44.5584099], [17.9764235, 44.5582152], [17.9748754, 44.5581226], [17.974303, 44.5578723], [17.9733923, 44.5574366], [17.9712197, 44.5575293], [17.9691122, 44.5579186], [17.9675511, 44.5583265], [17.9668225, 44.5587436], [17.966068, 44.5600321], [17.9655996, 44.5603473], [17.9637653, 44.5607551], [17.9631929, 44.5608571], [17.9625034, 44.5608571], [17.9615537, 44.5611908], [17.9608902, 44.5616913], [17.960617, 44.5621733], [17.9600055, 44.5628499], [17.9599405, 44.5636007], [17.9599925, 44.5645276], [17.9600836, 44.565195], [17.9599925, 44.5653525], [17.9550359, 44.5702184], [17.955127, 44.5698291], [17.9559726, 44.5690043], [17.9557644, 44.5684852], [17.9549318, 44.5680126], [17.9543464, 44.5678087], [17.9532796, 44.5672248], [17.9530845, 44.5669652], [17.9525857, 44.5668018], [17.9524947, 44.566635], [17.9527809, 44.5665423], [17.9531256, 44.5663801], [17.9529825, 44.5660511], [17.9528134, 44.5659769], [17.952293, 44.5660835], [17.9523646, 44.5665098], [17.9521954, 44.5664311], [17.9520139, 44.5661357], [17.9518063, 44.5658866], [17.9522744, 44.5651273], [17.9526754, 44.5638036], [17.9539158, 44.5612123], [17.9549805, 44.5596202], [17.9554817, 44.5584978], [17.9562904, 44.5573603], [17.958021, 44.5532733], [17.9603088, 44.5479248], [17.9607633, 44.5462957], [17.9609794, 44.5444831], [17.962271, 44.5413764], [17.9651736, 44.5356262], [17.9664434, 44.5278622], [17.966881, 44.5268953], [17.9669602, 44.5265132], [17.968272, 44.5199482], [17.9684011, 44.518758], [17.9688059, 44.515028], [17.9689805, 44.5119819], [17.9683849, 44.5067534], [17.9672542, 44.5041706], [17.9672366, 44.5040516], [17.9653968, 44.4999278], [17.9602831, 44.4912701], [17.9585374, 44.4881349], [17.9540398, 44.479622], [17.9512878, 44.4760978], [17.9484845, 44.4721851], [17.9458969, 44.4699208], [17.9401292, 44.4657451]]]}}]}