{"type": "FeatureCollection", "features": [{"type": "Feature", "properties": {"name": "Opština Milići, Република Српска / Republika Srpska, 75446, Bosna i Hercegovina / Босна и Херцеговина", "source": "OpenStreetMap relation 2528232", "licence": "ODbL 1.0"}, "geometry": {"type": "Polygon", "coordinates": [[[18.9750409, 44.1501269], [18.9750838, 44.1489106], [18.9769721, 44.1483255], [18.9787531, 44.1471708], [18.9798045, 44.1467088], [18.9799547, 44.1461699], [18.9805126, 44.1454463], [18.9809203, 44.1445224], [18.9822936, 44.1450151], [18.9836025, 44.1459236], [18.9854874, 44.1466336], [18.9859414, 44.1463239], [18.9859199, 44.1456002], [18.9875721, 44.1440682], [18.9878672, 44.1432944], [18.9888328, 44.1426054], [18.9896536, 44.1425361], [18.990088, 44.1425476], [18.9905977, 44.1424822], [18.9923894, 44.1420087], [18.9936662, 44.1414582], [18.9936662, 44.1405959], [18.9942455, 44.1403957], [18.9948137, 44.1391349], [18.9958977, 44.1388558], [18.9969063, 44.138902], [18.9973354, 44.1390714], [18.9984083, 44.1391484], [18.999969, 44.1387557], [19.0031504, 44.1385632], [19.0043306, 44.138132], [19.0052748, 44.1381166], [19.0058078, 44.1385635], [19.0064549, 44.1386248], [19.0067768, 44.1383014], [19.0074634, 44.1388404], [19.007957, 44.1385478], [19.0089011, 44.1386248], [19.0105634, 44.1392931], [19.0128386, 44.1393024], [19.0136754, 44.1394563], [19.0148786, 44.1394398], [19.015633, 44.1387963], [19.016819, 44.1385324], [19.0180724, 44.1383611], [19.0201041, 44.1367353], [19.0195542, 44.1362361], [19.0171194, 44.1354063], [19.0157279, 44.1338013], [19.0140295, 44.1320798], [19.0139973, 44.1311711], [19.0137505, 44.1309401], [19.0139758, 44.1307475], [19.0139978, 44.130273], [19.0148985, 44.1295616], [19.0151346, 44.1290226], [19.0152419, 44.128676], [19.0152633, 44.128291], [19.0147805, 44.1280061], [19.0145767, 44.1277673], [19.0145355, 44.1273807], [19.0155385, 44.1266423], [19.0158963, 44.1258266], [19.0158534, 44.1247947], [19.016276, 44.1242889], [19.0145016, 44.1227306], [19.014523, 44.1221915], [19.0142226, 44.1218834], [19.0136111, 44.1219065], [19.0132403, 44.1215861], [19.0130853, 44.1188797], [19.013493, 44.1186332], [19.0136003, 44.1182635], [19.013257, 44.1180478], [19.0127635, 44.118094], [19.0126562, 44.1183867], [19.0111542, 44.1191877], [19.0107658, 44.1191748], [19.0108405, 44.1182508], [19.010872, 44.1163256], [19.0108076, 44.1134147], [19.0103994, 44.1132688], [19.010399, 44.1083545], [19.0115833, 44.107356], [19.0122056, 44.1071712], [19.0139222, 44.1070787], [19.0150335, 44.1067605], [19.0171789, 44.1051434], [19.0172643, 44.1045199], [19.0198231, 44.1030418], [19.0211749, 44.1026258], [19.023149, 44.101578], [19.0230632, 44.1011928], [19.0235567, 44.1009154], [19.0240502, 44.1009616], [19.0250097, 44.1002753], [19.0255737, 44.1004069], [19.0268183, 44.0997135], [19.0280448, 44.0987886], [19.0288567, 44.0987889], [19.0302515, 44.0981417], [19.0306941, 44.0978179], [19.0318393, 44.0978797], [19.0331268, 44.0974483], [19.0344483, 44.0973095], [19.0396285, 44.0952138], [19.0407872, 44.0951213], [19.0414953, 44.0954295], [19.04434, 44.0940431], [19.0427203, 44.0924794], [19.0395772, 44.0893743], [19.0364877, 44.0865079], [19.0315208, 44.0847741], [19.03048, 44.0841276], [19.0300287, 44.0836344], [19.0325689, 44.082884], [19.0344786, 44.0825912], [19.0348987, 44.0829026], [19.0355737, 44.0832803], [19.0384693, 44.0827794], [19.0437149, 44.0823789], [19.0484025, 44.0819705], [19.0533694, 44.0815698], [19.0575848, 44.0812001], [19.0643111, 44.0804989], [19.0663382, 44.0790581], [19.0734608, 44.0735322], [19.0791787, 44.0691848], [19.0815058, 44.068314], [19.0873299, 44.0651], [19.0912129, 44.0629187], [19.0934011, 44.0615469], [19.0983036, 44.0591188], [19.1017042, 44.0589042], [19.108399, 44.0580948], [19.106512, 44.0546084], [19.1064906, 44.0535906], [19.1094928, 44.0474243], [19.1114843, 44.0429971], [19.1117033, 44.0427295], [19.1125497, 44.0416952], [19.1136959, 44.039923], [19.1154658, 44.0371316], [19.1155603, 44.0369922], [19.1198855, 44.0306144], [19.1207865, 44.0298049], [19.1218613, 44.0282997], [19.1225664, 44.0272059], [19.1263958, 44.0257712], [19.131266, 44.0225315], [19.133261, 44.0204721], [19.1335916, 44.020487], [19.1339564, 44.0206413], [19.1340852, 44.0224003], [19.1353726, 44.0236192], [19.1378617, 44.0235421], [19.137969, 44.0216905], [19.1373038, 44.0212894], [19.1370249, 44.0208573], [19.136939, 44.0202556], [19.1365957, 44.0198852], [19.1367459, 44.0196692], [19.1386986, 44.0181725], [19.1385054, 44.0157189], [19.1387375, 44.0152374], [19.149305, 44.0158495], [19.1614148, 44.0161603], [19.1614419, 44.0161554], [19.1662996, 44.0224243], [19.1732921, 44.0301695], [19.1787884, 44.036672], [19.1796114, 44.0385707], [19.1814208, 44.0391081], [19.1841245, 44.0389153], [19.1846716, 44.0386608], [19.1849613, 44.0386608], [19.1851008, 44.0387842], [19.185133, 44.0390927], [19.1848326, 44.0393395], [19.1845751, 44.0403421], [19.1843176, 44.0408357], [19.1834189, 44.043228], [19.1867155, 44.0474167], [19.1866255, 44.0474712], [19.1870733, 44.0482155], [19.1870112, 44.0482805], [19.1872866, 44.050807], [19.1945884, 44.0559293], [19.1958171, 44.0609392], [19.1959839, 44.0616194], [19.1960764, 44.0618405], [19.1944241, 44.0619638], [19.1940379, 44.0617634], [19.1930723, 44.0631974], [19.193201, 44.0636599], [19.1939091, 44.0638449], [19.195933, 44.0646646], [19.1962159, 44.0648009], [19.1961837, 44.0652866], [19.195894, 44.065487], [19.1959798, 44.0671984], [19.1962695, 44.0675145], [19.1963536, 44.072121], [19.1999713, 44.0723788], [19.2055929, 44.0751304], [19.2049813, 44.0757008], [19.2042947, 44.0769417], [19.2043622, 44.0779783], [19.2047131, 44.0782828], [19.2047775, 44.0784832], [19.2041357, 44.0789821], [19.2032646, 44.0802781], [19.2029643, 44.0810343], [19.2024171, 44.0829226], [19.2018471, 44.0831312], [19.2014695, 44.0849426], [19.200443, 44.0861131], [19.2000353, 44.0861671], [19.1989946, 44.0866911], [19.1985869, 44.087115], [19.1964733, 44.0871612], [19.1962695, 44.0874001], [19.1956901, 44.0873924], [19.1951966, 44.0867682], [19.1948533, 44.0864676], [19.1943096, 44.0863144], [19.1934063, 44.0862379], [19.193083, 44.0867142], [19.1925895, 44.0867065], [19.1920853, 44.0864599], [19.1915381, 44.0860206], [19.1908928, 44.086015], [19.1906476, 44.0863058], [19.190551, 44.0866449], [19.190036, 44.0874771], [19.1895854, 44.0867682], [19.1888237, 44.0867296], [19.188416, 44.0874694], [19.1877293, 44.0874463], [19.1866672, 44.0868067], [19.1866028, 44.0865293], [19.1862488, 44.0862518], [19.185648, 44.0865216], [19.1843712, 44.0865524], [19.1839743, 44.0868298], [19.1831374, 44.0868144], [19.1823649, 44.0864214], [19.182204, 44.0861517], [19.1812599, 44.0860669], [19.1808547, 44.0858763], [19.1802192, 44.0861671], [19.1802406, 44.0871997], [19.1796827, 44.0874155], [19.1793394, 44.0875927], [19.1793501, 44.0878085], [19.1796076, 44.0879626], [19.1797793, 44.0881707], [19.1797042, 44.0883634], [19.1792536, 44.0885406], [19.1766143, 44.0885869], [19.1760242, 44.0890954], [19.1755307, 44.0893497], [19.1751552, 44.0889953], [19.174844, 44.0886639], [19.1747367, 44.088348], [19.1734811, 44.0875877], [19.1715073, 44.0881553], [19.1714537, 44.0886485], [19.1718507, 44.0889721], [19.1718829, 44.0893035], [19.1715395, 44.0895886], [19.1710889, 44.089396], [19.1704881, 44.0893112], [19.170016, 44.0891186], [19.1694445, 44.0891067], [19.1691685, 44.089396], [19.1691041, 44.0899123], [19.1687822, 44.0902205], [19.1688466, 44.0905596], [19.1685891, 44.0907908], [19.1679239, 44.0903747], [19.1658211, 44.0902822], [19.1647267, 44.0899739], [19.1635737, 44.0899784], [19.1632247, 44.0903747], [19.1632247, 44.0911298], [19.163568, 44.0913148], [19.1631603, 44.0917617], [19.162864, 44.0935711], [19.1621979, 44.0947596], [19.1614008, 44.094736], [19.1610789, 44.0945049], [19.1596412, 44.0953216], [19.1590404, 44.0952446], [19.1585254, 44.0949364], [19.157753, 44.0950134], [19.1577768, 44.0956552], [19.155693, 44.0971709], [19.1560364, 44.097664], [19.156487, 44.0980801], [19.156487, 44.0983728], [19.1561758, 44.0985963], [19.1562295, 44.0991433], [19.1568303, 44.0997443], [19.1567445, 44.1006072], [19.1562509, 44.101316], [19.1560793, 44.1023022], [19.1562509, 44.1044902], [19.1569805, 44.1055379], [19.1576028, 44.1058461], [19.1586327, 44.1059385], [19.1589785, 44.1061616], [19.1606831, 44.107788], [19.1601777, 44.1084808], [19.1598022, 44.1094745], [19.1589326, 44.1106163], [19.1586178, 44.1109605], [19.1580534, 44.1115775], [19.1579246, 44.1121784], [19.1572809, 44.1128408], [19.1568303, 44.1130488], [19.1563046, 44.1131566], [19.1554892, 44.1130257], [19.1547167, 44.1128485], [19.1543734, 44.1129256], [19.1541266, 44.113095], [19.1536546, 44.1135649], [19.1534936, 44.1136342], [19.1522598, 44.1135726], [19.1516268, 44.1138191], [19.1505517, 44.1150963], [19.1501291, 44.1153889], [19.1494, 44.1168], [19.1483545, 44.1171466], [19.1474211, 44.1172005], [19.1468847, 44.1175163], [19.1468739, 44.1181787], [19.1465413, 44.1184714], [19.1466272, 44.1186717], [19.1463375, 44.1189413], [19.1454041, 44.1189567], [19.1452432, 44.1189875], [19.1448998, 44.1190183], [19.1442454, 44.1193726], [19.1436124, 44.1194188], [19.1433704, 44.1196668], [19.143151, 44.1200119], [19.142797, 44.1211132], [19.142282, 44.1217756], [19.1415954, 44.1218603], [19.1406512, 44.1218064], [19.1396427, 44.1215985], [19.1392887, 44.1216755], [19.1390312, 44.1219142], [19.1389775, 44.1235162], [19.1393745, 44.123624], [19.1403937, 44.1236548], [19.140898, 44.1235701], [19.1419065, 44.1241708], [19.1425717, 44.1241862], [19.1436338, 44.1249333], [19.144578, 44.1247176], [19.1455865, 44.1253029], [19.1462087, 44.1253337], [19.1467881, 44.1255956], [19.1473846, 44.1253222], [19.1479897, 44.1257188], [19.1492665, 44.1257804], [19.1498673, 44.1264119], [19.1507578, 44.12672], [19.1519701, 44.1267354], [19.1533971, 44.1273977], [19.1539335, 44.1272051], [19.1542876, 44.1269433], [19.1546309, 44.127028], [19.155103, 44.1278366], [19.1555643, 44.1280677], [19.1566028, 44.1280953], [19.1573238, 44.1289687], [19.1586006, 44.128961], [19.1590834, 44.128676], [19.1596413, 44.1289302], [19.1602421, 44.1289764], [19.1612613, 44.1285451], [19.1619276, 44.1284957], [19.162699, 44.1289456], [19.1634822, 44.1289764], [19.163847, 44.1287145], [19.1642117, 44.1289379], [19.1648984, 44.1284373], [19.1673594, 44.128212], [19.1698299, 44.1281359], [19.1709494, 44.12806], [19.1714001, 44.1274824], [19.1718399, 44.1274824], [19.172194, 44.1276287], [19.1731274, 44.1276518], [19.1733618, 44.1278121], [19.1741145, 44.1278058], [19.175241, 44.127419], [19.1766267, 44.1274104], [19.1774726, 44.126951], [19.1783523, 44.1268971], [19.1787493, 44.1265043], [19.1810919, 44.1256845], [19.1816568, 44.1261116], [19.1824078, 44.1256803], [19.1831052, 44.1255802], [19.1843927, 44.1248871], [19.1857958, 44.1249067], [19.1859947, 44.1250603], [19.1863549, 44.1253383], [19.1864204, 44.1257727], [19.1876972, 44.1265582], [19.1880405, 44.1270049], [19.1886091, 44.127105], [19.1893279, 44.1278828], [19.1900474, 44.1283354], [19.190079, 44.1289764], [19.1907227, 44.1292767], [19.1907871, 44.1298543], [19.1915515, 44.1303617], [19.1915703, 44.1309401], [19.1925179, 44.132296], [19.1920853, 44.132665], [19.1915059, 44.1327959], [19.191345, 44.1331347], [19.1907675, 44.1332912], [19.1906583, 44.1336352], [19.1901755, 44.134513], [19.1904759, 44.134952], [19.1906374, 44.1358186], [19.1882014, 44.1383168], [19.1886627, 44.1385863], [19.1884582, 44.1397705], [19.1871285, 44.1401031], [19.1863346, 44.1405189], [19.1856311, 44.140812], [19.1847467, 44.1417508], [19.184113, 44.143192], [19.1840379, 44.1446854], [19.185207, 44.1455803], [19.1870952, 44.1507481], [19.1874075, 44.1530983], [19.1881386, 44.1555783], [19.1882541, 44.1559702], [19.1878248, 44.1566024], [19.1878795, 44.157686], [19.1870641, 44.1585327], [19.187024, 44.1591671], [19.1863024, 44.1596718], [19.1861951, 44.1601413], [19.1859698, 44.1603799], [19.1860986, 44.1614113], [19.1867852, 44.1618731], [19.1870427, 44.1618654], [19.187545, 44.1622858], [19.1876952, 44.1636569], [19.1862773, 44.1650372], [19.1833949, 44.1671065], [19.1820494, 44.1679636], [19.1796015, 44.1709814], [19.1793394, 44.1717085], [19.1782798, 44.1733767], [19.1781485, 44.1770179], [19.1748535, 44.179258], [19.1738248, 44.1797265], [19.1738462, 44.1799881], [19.1707646, 44.1823442], [19.1703217, 44.1822924], [19.1672587, 44.184389], [19.1656065, 44.1858046], [19.1649102, 44.1857952], [19.1640185, 44.1867189], [19.1636109, 44.1880203], [19.1620874, 44.1887588], [19.1618943, 44.189205], [19.1613793, 44.1896666], [19.1608429, 44.189682], [19.1596198, 44.1913283], [19.1591361, 44.1913474], [19.1541772, 44.1915434], [19.1512589, 44.1945415], [19.1511333, 44.195413], [19.1504896, 44.195936], [19.1505325, 44.1962437], [19.1509187, 44.1964437], [19.1509187, 44.1968899], [19.1505217, 44.1971822], [19.1505646, 44.198036], [19.150908, 44.1986052], [19.1516161, 44.1989282], [19.1523207, 44.1994194], [19.1515561, 44.2003516], [19.1503009, 44.2016342], [19.1485932, 44.2019822], [19.1470241, 44.2036354], [19.145844, 44.2053274], [19.145211, 44.2054889], [19.1444278, 44.2055889], [19.1426358, 44.2046057], [19.139439, 44.2040049], [19.1386131, 44.2036902], [19.1368411, 44.2056365], [19.1358125, 44.2059504], [19.1348313, 44.206649], [19.1322613, 44.2066195], [19.131875, 44.2069271], [19.1325402, 44.2076193], [19.1325187, 44.2080192], [19.1315317, 44.2088344], [19.1314823, 44.2097492], [19.1287014, 44.2131352], [19.1273689, 44.213064], [19.126575, 44.2134485], [19.1259742, 44.2142021], [19.1230452, 44.2155048], [19.1196833, 44.2155835], [19.1193223, 44.2160783], [19.118464, 44.216509], [19.1176217, 44.2174985], [19.1157953, 44.2200667], [19.1121125, 44.2208149], [19.1102885, 44.2203595], [19.1089153, 44.2207073], [19.1083574, 44.2212455], [19.1082698, 44.2220596], [19.1048383, 44.2242287], [19.1034165, 44.2247013], [19.1021347, 44.2250744], [19.1003322, 44.2260124], [19.0999245, 44.2266274], [19.0997743, 44.227181], [19.1016712, 44.2279832], [19.102938, 44.2288683], [19.1047953, 44.2293996], [19.1042988, 44.2305926], [19.1024844, 44.2333377], [19.1018402, 44.2347622], [19.099549, 44.2376204], [19.0981328, 44.2383122], [19.0975642, 44.2388733], [19.0977015, 44.239092], [19.097414, 44.2394191], [19.0984225, 44.2412484], [19.0988517, 44.2415405], [19.0996456, 44.2418941], [19.1015339, 44.2418326], [19.1027999, 44.2420939], [19.1042572, 44.2426203], [19.1048598, 44.2434313], [19.1059652, 44.2437203], [19.1074776, 44.2436926], [19.1082287, 44.2438924], [19.1090026, 44.2438973], [19.1101082, 44.2446763], [19.1100526, 44.2461828], [19.1093445, 44.2476738], [19.1096774, 44.2488141], [19.108057, 44.2492108], [19.1062546, 44.2510399], [19.1058039, 44.2544673], [19.1040015, 44.2560195], [19.1035509, 44.2561425], [19.1030466, 44.2568725], [19.102875, 44.258878], [19.1019415, 44.2597002], [19.1019559, 44.2602628], [19.1019335, 44.2606368], [19.1019644, 44.2630471], [19.1014677, 44.2645097], [19.1008915, 44.2662061], [19.1010189, 44.266669], [19.1017055, 44.2671453], [19.1021454, 44.267299], [19.1027489, 44.2675219], [19.1040697, 44.2690597], [19.1072094, 44.2739058], [19.1081858, 44.2747893], [19.1090119, 44.2756112], [19.108973, 44.2761307], [19.108808, 44.2764754], [19.1085827, 44.2768326], [19.1077781, 44.2777851], [19.1069822, 44.2785759], [19.1070163, 44.2791869], [19.105922, 44.278849], [19.1053855, 44.2788221], [19.1050959, 44.2801049], [19.10501, 44.2813569], [19.103744, 44.2822248], [19.101448, 44.2826549], [19.1007829, 44.2825551], [19.0996134, 44.2813108], [19.0985553, 44.2807685], [19.0970921, 44.2827394], [19.0953096, 44.2832212], [19.0953541, 44.2837379], [19.095118, 44.2849668], [19.0940881, 44.2854277], [19.0923929, 44.2855352], [19.0916633, 44.2859499], [19.0901613, 44.2859807], [19.0893419, 44.2854645], [19.0887022, 44.2855813], [19.088273, 44.2862111], [19.0873503, 44.2867794], [19.0855945, 44.2873704], [19.0841544, 44.2900289], [19.0822434, 44.2914642], [19.0812114, 44.2915439], [19.0807414, 44.2923243], [19.0805483, 44.2937527], [19.0795183, 44.2944285], [19.0784025, 44.2939984], [19.0772867, 44.2939984], [19.0760273, 44.2941862], [19.0737247, 44.295396], [19.0704346, 44.2953787], [19.0700769, 44.2964404], [19.0692845, 44.2976761], [19.0676951, 44.2990051], [19.0662685, 44.3000037], [19.0648627, 44.3001876], [19.0626611, 44.2999281], [19.0622663, 44.3000034], [19.0608716, 44.3009248], [19.0590562, 44.3012966], [19.0586278, 44.3014759], [19.0584039, 44.3018615], [19.0592193, 44.3028597], [19.0599161, 44.3034115], [19.0615153, 44.3036275], [19.0632963, 44.3036275], [19.0644979, 44.3038732], [19.0663647, 44.3045796], [19.067738, 44.3054702], [19.0678239, 44.3063609], [19.0674591, 44.3069136], [19.0668049, 44.3074052], [19.0652102, 44.3078186], [19.0613727, 44.3122375], [19.0613222, 44.3144987], [19.0600133, 44.3161875], [19.0590262, 44.3164485], [19.058125, 44.3161261], [19.0579824, 44.3154549], [19.0551424, 44.3135928], [19.0538978, 44.312948], [19.0529322, 44.3108598], [19.0536833, 44.3102917], [19.0535974, 44.3094319], [19.0532807, 44.3088128], [19.0524816, 44.3075432], [19.0522456, 44.3066987], [19.0522671, 44.3056545], [19.0513804, 44.3051866], [19.0490484, 44.3044414], [19.047216, 44.3030036], [19.0468383, 44.3022455], [19.046731, 44.3012473], [19.0469885, 44.2999726], [19.0469465, 44.2992935], [19.0457114, 44.2988383], [19.0443706, 44.2985444], [19.0432747, 44.2981762], [19.0405487, 44.296786], [19.0376486, 44.2962884], [19.0361763, 44.2958737], [19.0320539, 44.2939293], [19.0312303, 44.2911771], [19.0311874, 44.2903356], [19.0364975, 44.2840007], [19.0365473, 44.2833613], [19.0417528, 44.2818945], [19.0423536, 44.2793291], [19.0423464, 44.2779449], [19.0413451, 44.2769786], [19.0404581, 44.2752581], [19.0402293, 44.2743207], [19.0396245, 44.2734307], [19.0396844, 44.269609], [19.0405297, 44.2688509], [19.0412164, 44.2686665], [19.0415382, 44.2681902], [19.0422333, 44.267538], [19.047482, 44.2663309], [19.0477824, 44.2661466], [19.0478897, 44.2655319], [19.0490055, 44.2639645], [19.0491986, 44.2633806], [19.0498853, 44.2633038], [19.0511298, 44.2620591], [19.0511008, 44.2605144], [19.0516662, 44.2597309], [19.0516984, 44.2587397], [19.0536404, 44.2573796], [19.0536082, 44.2571645], [19.0532434, 44.2568955], [19.0535867, 44.2565958], [19.0532219, 44.2562731], [19.0532756, 44.2557275], [19.0529001, 44.2553202], [19.0529644, 44.2539755], [19.0535116, 44.2533146], [19.0540051, 44.2530302], [19.0544987, 44.2525768], [19.0534794, 44.2528228], [19.0527928, 44.2531993], [19.0519667, 44.2534375], [19.0513832, 44.2538923], [19.0502948, 44.2530368], [19.0494776, 44.2519006], [19.0488738, 44.251369], [19.0487373, 44.2505941], [19.048394, 44.2497027], [19.0471816, 44.2478275], [19.0475571, 44.2475739], [19.0474927, 44.2474202], [19.0467417, 44.2468514], [19.0467535, 44.2464149], [19.0441668, 44.2445534], [19.0420696, 44.2445712], [19.0411091, 44.2440923], [19.0408516, 44.2435619], [19.0395704, 44.2444054], [19.0384591, 44.2443228], [19.0378006, 44.2441118], [19.0370941, 44.2446244], [19.0362596, 44.2452298], [19.033792, 44.2457217], [19.032762, 44.2467208], [19.0319037, 44.2469667], [19.0299296, 44.2465671], [19.0299511, 44.2445073], [19.0301442, 44.2435081], [19.0321612, 44.243708], [19.032526, 44.24317], [19.0322759, 44.2420375], [19.0314317, 44.2409717], [19.0300584, 44.2404183], [19.0297365, 44.2403722], [19.028492, 44.2400033], [19.0288567, 44.2396651], [19.028492, 44.2394191], [19.0283847, 44.2387888], [19.0289433, 44.2384516], [19.0277195, 44.2379586], [19.0273762, 44.2375743], [19.0264643, 44.2373076], [19.0254235, 44.23719], [19.0238786, 44.2367595], [19.0235352, 44.2358063], [19.0243292, 44.2341921], [19.0250158, 44.233531], [19.0251875, 44.2329467], [19.0267702, 44.2316152], [19.0275478, 44.2283188], [19.0273332, 44.228042], [19.0273118, 44.2274424], [19.0275478, 44.2270272], [19.0275264, 44.2261969], [19.027183, 44.2259201], [19.0282345, 44.2251974], [19.0286111, 44.2251889], [19.0285778, 44.2248437], [19.0284383, 44.2244593], [19.0283954, 44.2234444], [19.0286422, 44.2229293], [19.0285737, 44.2220634], [19.0303051, 44.2212301], [19.0312064, 44.2204612], [19.0318072, 44.2205535], [19.0322792, 44.220492], [19.0325367, 44.2203536], [19.0334701, 44.2203689], [19.0338886, 44.2206073], [19.0352189, 44.2203151], [19.0356481, 44.2200998], [19.0371609, 44.2201152], [19.0377402, 44.2204612], [19.0388989, 44.2204689], [19.0391783, 44.2203986], [19.0389943, 44.2181307], [19.0396144, 44.2166731], [19.0396499, 44.2155093], [19.0390706, 44.2149557], [19.0382767, 44.2148788], [19.037698, 44.2143655], [19.0382552, 44.2131409], [19.038856, 44.2129717], [19.0395856, 44.2134946], [19.0399933, 44.2131563], [19.040004, 44.2125718], [19.0402937, 44.2123719], [19.0402078, 44.2113107], [19.0389633, 44.2112491], [19.0377831, 44.2109338], [19.0368497, 44.2100341], [19.0360343, 44.2103186], [19.0355623, 44.2097341], [19.0366149, 44.2090294], [19.0335793, 44.204373], [19.0334235, 44.2034226], [19.0330916, 44.2032543], [19.0322875, 44.2018116], [19.0308674, 44.1996795], [19.0289514, 44.1967132], [19.0274933, 44.194138], [19.027183, 44.1935899], [19.027977, 44.193513], [19.0287065, 44.1936361], [19.0300062, 44.1921708], [19.03023, 44.1911437], [19.0299833, 44.1908129], [19.0299511, 44.1903128], [19.0306163, 44.1898205], [19.0308738, 44.188805], [19.0308523, 44.1878357], [19.0306377, 44.1873741], [19.0311864, 44.1863258], [19.0303427, 44.1844341], [19.0307879, 44.1833734], [19.0305304, 44.1828503], [19.0318979, 44.1806884], [19.0324049, 44.1788888], [19.0318887, 44.1772123], [19.031024, 44.1764794], [19.0310883, 44.175356], [19.0307884, 44.1752185], [19.0305304, 44.1753714], [19.0304661, 44.1762793], [19.0301227, 44.1765717], [19.0296721, 44.1765102], [19.0296078, 44.1760639], [19.028964, 44.1760793], [19.0284276, 44.1765256], [19.0283417, 44.1760331], [19.0261745, 44.175079], [19.0260985, 44.1742146], [19.025402, 44.1736015], [19.0246688, 44.1740567], [19.0220963, 44.1722431], [19.0207457, 44.1751251], [19.0188472, 44.1768236], [19.0162289, 44.1786839], [19.0149522, 44.1792956], [19.0143514, 44.1804305], [19.0140241, 44.1807267], [19.0135789, 44.1810691], [19.0131121, 44.1812614], [19.0127742, 44.1812653], [19.0119212, 44.1807729], [19.0122002, 44.1803459], [19.0114334, 44.1795634], [19.010489, 44.1797726], [19.0099525, 44.1798111], [19.009083, 44.1802511], [19.0090084, 44.1807652], [19.0069592, 44.1824502], [19.0069914, 44.1828349], [19.0060043, 44.1831041], [19.0053713, 44.1836658], [19.0053606, 44.1838581], [19.004749, 44.1842813], [19.0041705, 44.1843392], [19.0033543, 44.1842044], [19.0029734, 44.1840889], [19.0009778, 44.1841021], [19.0008759, 44.1844736], [18.9996207, 44.1846583], [18.9989233, 44.184589], [18.9984298, 44.1843121], [18.998183, 44.1845583], [18.996681, 44.184489], [18.9965415, 44.1843428], [18.9956725, 44.1843813], [18.994621, 44.1847583], [18.993237, 44.1845352], [18.9925933, 44.184389], [18.9920568, 44.1840505], [18.991617, 44.1840505], [18.9911985, 44.1841505], [18.9912307, 44.183258], [18.9914453, 44.1830272], [18.9913857, 44.1822533], [18.9895463, 44.1799727], [18.9891708, 44.1796803], [18.9897928, 44.1792095], [18.9894605, 44.1789647], [18.9893854, 44.1773412], [18.9900076, 44.1766102], [18.9899719, 44.1750219], [18.9899544, 44.1742421], [18.9894604, 44.1738324], [18.9891601, 44.1736515], [18.9887953, 44.1734822], [18.9870293, 44.172678], [18.9869285, 44.1725088], [18.9869928, 44.1723626], [18.9871859, 44.1721779], [18.9879262, 44.1716238], [18.9880228, 44.1713622], [18.9881515, 44.1709082], [18.9887631, 44.1704618], [18.9886749, 44.1702909], [18.9879871, 44.1695757], [18.9873147, 44.1688766], [18.9872932, 44.1684918], [18.9882411, 44.1671139], [18.9873345, 44.1670944], [18.9870143, 44.166968], [18.9868963, 44.1666217], [18.9872718, 44.1663677], [18.9877224, 44.1660907], [18.9876795, 44.165475], [18.9867063, 44.1649646], [18.985877, 44.1645514], [18.9858126, 44.1639973], [18.9854264, 44.1637202], [18.9854693, 44.1632892], [18.985944, 44.1629289], [18.9850642, 44.1622062], [18.9843876, 44.1606524], [18.9839887, 44.1601644], [18.9831304, 44.1593793], [18.9828086, 44.1588098], [18.9818859, 44.1580862], [18.981843, 44.157609], [18.9811498, 44.1569562], [18.9803195, 44.1568393], [18.9791393, 44.1561619], [18.9791822, 44.1554384], [18.9784097, 44.1551767], [18.9774656, 44.1544993], [18.9773583, 44.1540374], [18.9768863, 44.1536679], [18.9758134, 44.1529136], [18.9756417, 44.1519898], [18.9753842, 44.1518051], [18.9753842, 44.1506196], [18.9750409, 44.1501269]]]}}]}