{"type": "FeatureCollection", "features": [{"type": "Feature", "properties": {"name": "Grad Mostar, Hercegovačko-neretvanska županija (kanton), Federacija Bosne i Hercegovine, Bosna i Hercegovina / Босна и Херцеговина", "source": "OpenStreetMap relation 2528234", "licence": "ODbL 1.0"}, "geometry": {"type": "Polygon", "coordinates": [[[17.4914331, 43.5529319], [17.4943703, 43.5504921], [17.4980476, 43.5477433], [17.498686, 43.5459605], [17.5007728, 43.5415803], [17.5120246, 43.539356], [17.5113434, 43.5375711], [17.5117081, 43.5361516], [17.5154579, 43.5357239], [17.5178772, 43.53509], [17.5194758, 43.5346038], [17.5234187, 43.5329977], [17.5299525, 43.5292329], [17.5344211, 43.5239238], [17.5417274, 43.5181707], [17.544149, 43.5161435], [17.5455227, 43.515788], [17.5457293, 43.5156888], [17.546078, 43.5153873], [17.5461718, 43.5152647], [17.5463461, 43.5150273], [17.5464883, 43.5149282], [17.54666, 43.5148076], [17.5468022, 43.5146676], [17.546939, 43.5144439], [17.547175, 43.514263], [17.5472984, 43.5141832], [17.5476953, 43.513979], [17.5478992, 43.5138467], [17.548036, 43.5137261], [17.5481701, 43.5135997], [17.5484571, 43.5131115], [17.5486341, 43.5130473], [17.5489506, 43.5129656], [17.5497361, 43.5126739], [17.5504979, 43.5121292], [17.5511309, 43.5119659], [17.5516632, 43.5118577], [17.5518599, 43.5117095], [17.552062, 43.5116448], [17.5523999, 43.5116059], [17.552762, 43.51153], [17.5531805, 43.5114483], [17.5534567, 43.5113491], [17.5537169, 43.5112343], [17.5542131, 43.5110242], [17.5545403, 43.5109717], [17.5549883, 43.5109951], [17.5552592, 43.5110087], [17.5555032, 43.5109581], [17.5557393, 43.5108861], [17.5559726, 43.5108317], [17.5565252, 43.5107733], [17.5568792, 43.5108219], [17.5570106, 43.5107889], [17.5573486, 43.5106935], [17.5575444, 43.5106566], [17.5577188, 43.5107033], [17.5578421, 43.5107636], [17.5580245, 43.5107461], [17.5581238, 43.5106916], [17.5583035, 43.5105866], [17.5584376, 43.5104562], [17.5588238, 43.5101664], [17.5591698, 43.5099602], [17.5594063, 43.5098713], [17.5598216, 43.5097151], [17.5603124, 43.5095205], [17.5644565, 43.508118], [17.5666934, 43.5073398], [17.5698209, 43.5040209], [17.5737637, 43.5013167], [17.5785166, 43.4989391], [17.5799113, 43.4948882], [17.5806575, 43.4886233], [17.5808251, 43.4883057], [17.581008, 43.4879592], [17.5817092, 43.4874505], [17.5821279, 43.4868712], [17.5827024, 43.4864261], [17.5840754, 43.4850696], [17.5843613, 43.4846577], [17.5846402, 43.4843984], [17.5867046, 43.4836565], [17.5877271, 43.4830842], [17.5881166, 43.4830348], [17.5886522, 43.4830771], [17.5890417, 43.48295], [17.5902394, 43.4821374], [17.5910282, 43.4819749], [17.5914761, 43.481763], [17.5919435, 43.4816852], [17.5923233, 43.4814591], [17.5925959, 43.4814097], [17.5928783, 43.4814167], [17.5929222, 43.4812873], [17.5927963, 43.4809225], [17.5930828, 43.4806254], [17.5952251, 43.4789437], [17.5964618, 43.4780887], [17.5980004, 43.4774457], [17.5984581, 43.4771489], [17.5989802, 43.4766343], [17.6017262, 43.4747546], [17.6033232, 43.4737017], [17.6035374, 43.4737088], [17.6037322, 43.4746133], [17.6039269, 43.474896], [17.6066744, 43.4723519], [17.6072323, 43.471733], [17.6076347, 43.4710556], [17.6083106, 43.4699032], [17.6088685, 43.4691363], [17.6093486, 43.4685834], [17.6095551, 43.4685114], [17.6099601, 43.4682155], [17.6102498, 43.4678359], [17.6109713, 43.4669833], [17.6110625, 43.4667964], [17.6111886, 43.4659029], [17.6116204, 43.4658153], [17.6117679, 43.4662046], [17.6119477, 43.466481], [17.6125672, 43.4666874], [17.6126665, 43.4667224], [17.6131332, 43.4667847], [17.6130393, 43.4673064], [17.6133531, 43.4672986], [17.6134095, 43.4673317], [17.6135141, 43.4672597], [17.6136884, 43.4671546], [17.6138306, 43.4670709], [17.6139271, 43.4669521], [17.6139593, 43.4668782], [17.6140183, 43.4667905], [17.6141632, 43.4666368], [17.6143063, 43.4664712], [17.6144716, 43.4662961], [17.6145333, 43.4662513], [17.614662, 43.4662241], [17.614865, 43.4661815], [17.6152602, 43.4660995], [17.6155069, 43.466045], [17.6156786, 43.4659827], [17.6157322, 43.4659204], [17.6157349, 43.46586], [17.6160702, 43.4653889], [17.6162311, 43.4652371], [17.6164591, 43.4651086], [17.6166147, 43.4649568], [17.6168025, 43.464766], [17.6169366, 43.4645791], [17.6170868, 43.4644506], [17.6171297, 43.4643085], [17.6171324, 43.464145], [17.6171029, 43.4639172], [17.6170412, 43.4636797], [17.6170197, 43.4635103], [17.6169661, 43.463265], [17.6169848, 43.4631657], [17.6171458, 43.4630178], [17.6173335, 43.4628893], [17.617532, 43.4627686], [17.6177305, 43.4626732], [17.6182106, 43.462389], [17.6183635, 43.4621359], [17.6185513, 43.4614739], [17.6187229, 43.4610378], [17.6188463, 43.4602435], [17.6186639, 43.4567663], [17.6191547, 43.4567001], [17.6195383, 43.4566397], [17.619659, 43.4566164], [17.6201713, 43.4563263], [17.6204771, 43.4560362], [17.6206675, 43.4558687], [17.6208177, 43.4557538], [17.6210833, 43.4555299], [17.6212093, 43.4553975], [17.6222447, 43.4548563], [17.6224485, 43.4547589], [17.6226658, 43.454681], [17.6231137, 43.4544785], [17.6234677, 43.4543403], [17.6237869, 43.4542429], [17.6253533, 43.4538535], [17.6255786, 43.4536744], [17.6252782, 43.4532304], [17.6250422, 43.4529501], [17.6249349, 43.4524827], [17.6245057, 43.4518051], [17.624656, 43.4513768], [17.6253319, 43.4509795], [17.6260614, 43.4505667], [17.6268232, 43.4503798], [17.6301357, 43.4472759], [17.6301089, 43.447198], [17.6286363, 43.4399808], [17.6239264, 43.4393498], [17.6244199, 43.4388474], [17.6248598, 43.438489], [17.6250315, 43.4382475], [17.6251012, 43.4379943], [17.625187, 43.4378268], [17.6253855, 43.4376087], [17.6256269, 43.4373944], [17.6252675, 43.4368257], [17.6241302, 43.435961], [17.6240659, 43.4355247], [17.6239961, 43.428536], [17.6240122, 43.4284698], [17.6243448, 43.4282243], [17.6327991, 43.4311617], [17.6362538, 43.4321746], [17.6380992, 43.4324707], [17.6409209, 43.4334368], [17.6432061, 43.4334212], [17.6446867, 43.4332498], [17.6469827, 43.4324707], [17.6485598, 43.431637], [17.6504052, 43.4309592], [17.6518643, 43.4304527], [17.6545465, 43.42951], [17.6574862, 43.4285828], [17.6600933, 43.4277335], [17.6642266, 43.4268861], [17.6670402, 43.4266387], [17.6673487, 43.4265998], [17.6678234, 43.4266309], [17.6681721, 43.4267205], [17.6689124, 43.4268666], [17.6691163, 43.4269504], [17.6724797, 43.4268959], [17.6726299, 43.4264634], [17.672925, 43.4260543], [17.6732469, 43.4258167], [17.6733166, 43.4257349], [17.6735955, 43.425392], [17.6738423, 43.4252167], [17.6739871, 43.4251134], [17.67414, 43.4250005], [17.67425, 43.4249147], [17.6742956, 43.424831], [17.6743788, 43.424755], [17.6745155, 43.4247609], [17.6746067, 43.424716], [17.6746926, 43.4246693], [17.6749662, 43.4245368], [17.6750547, 43.424455], [17.6752532, 43.4243303], [17.6754007, 43.4242427], [17.6756796, 43.4241238], [17.6759908, 43.4240264], [17.6763877, 43.4238609], [17.6767015, 43.4237966], [17.6768169, 43.4237829], [17.6770261, 43.4238375], [17.6776269, 43.4240245], [17.6778173, 43.4240673], [17.6779327, 43.4241005], [17.6780051, 43.424044], [17.6781177, 43.4239232], [17.6781768, 43.4238336], [17.6783055, 43.4236485], [17.6783296, 43.4235628], [17.6784396, 43.423366], [17.6806229, 43.4229063], [17.6815671, 43.4222206], [17.6876289, 43.4182171], [17.6875913, 43.4181469], [17.6875806, 43.4180505], [17.6876554, 43.4179902], [17.6877241, 43.4179355], [17.6878032, 43.4178937], [17.6880701, 43.4178157], [17.6926768, 43.4151797], [17.6926433, 43.4150228], [17.6926419, 43.4149459], [17.692654, 43.4148757], [17.6927076, 43.4148261], [17.692768, 43.4147832], [17.6933715, 43.4143984], [17.6940568, 43.4140418], [17.6944484, 43.4138879], [17.694667, 43.4138266], [17.6947381, 43.4138119], [17.6950063, 43.4138227], [17.6950908, 43.413809], [17.6951484, 43.4137944], [17.6952423, 43.4137545], [17.6953107, 43.4137369], [17.6953965, 43.4137282], [17.6954864, 43.4137496], [17.6955333, 43.4138343], [17.6956192, 43.4138684], [17.6956768, 43.4138636], [17.6958083, 43.4138304], [17.695874, 43.4138801], [17.6962146, 43.4140643], [17.6964225, 43.414111], [17.6966505, 43.4141032], [17.6968262, 43.414148], [17.6971802, 43.4141763], [17.6973009, 43.4142308], [17.6974002, 43.414262], [17.6975436, 43.4143448], [17.6976295, 43.4144052], [17.6976778, 43.4143692], [17.6981579, 43.4140311], [17.6983953, 43.4138304], [17.6984207, 43.4138275], [17.6984864, 43.4137934], [17.6988593, 43.4135557], [17.6990712, 43.413396], [17.699334, 43.4131115], [17.6993313, 43.413056], [17.699334, 43.4130024], [17.6994091, 43.4129371], [17.6994762, 43.412865], [17.6995566, 43.4127939], [17.6996706, 43.4127228], [17.6998034, 43.4126741], [17.6999415, 43.4126341], [17.7000448, 43.4125825], [17.7001159, 43.4125114], [17.7002406, 43.4123964], [17.7003278, 43.4123341], [17.7003989, 43.4123019], [17.7005665, 43.4123623], [17.7006302, 43.4123749], [17.7009067, 43.412335], [17.7010721, 43.412262], [17.7012263, 43.4121772], [17.7013122, 43.4121256], [17.7014369, 43.4120993], [17.7016474, 43.4121792], [17.7018392, 43.4121909], [17.7019693, 43.412185], [17.7022576, 43.4121568], [17.7023904, 43.4121509], [17.7024655, 43.4121529], [17.7025259, 43.4121577], [17.7026398, 43.4121207], [17.7029081, 43.4120145], [17.7029805, 43.4119707], [17.7030757, 43.4120077], [17.7032018, 43.412033], [17.70336, 43.4120087], [17.7034137, 43.4119999], [17.7038777, 43.4117797], [17.7039984, 43.4116921], [17.7040547, 43.4116473], [17.704162, 43.4115985], [17.7042612, 43.4116667], [17.7044302, 43.4117018], [17.7047145, 43.4116901], [17.7049908, 43.4117038], [17.7051866, 43.4117193], [17.7053609, 43.4117447], [17.7056506, 43.41177], [17.7058411, 43.4117505], [17.7060637, 43.4117193], [17.706238, 43.4116804], [17.7063695, 43.4116044], [17.7064687, 43.411542], [17.7065867, 43.4114855], [17.7066725, 43.4114427], [17.7068764, 43.4114212], [17.7069756, 43.4114017], [17.7070641, 43.4113764], [17.7072144, 43.4113589], [17.7072653, 43.4113219], [17.707209, 43.4112731], [17.7070373, 43.4109185], [17.7068683, 43.4105249], [17.7066591, 43.4098059], [17.7064767, 43.409124], [17.7063534, 43.4087401], [17.7062166, 43.4085277], [17.7066591, 43.4083114], [17.7071312, 43.4081224], [17.7077213, 43.4077405], [17.7079117, 43.4076664], [17.7080995, 43.4076138], [17.7082497, 43.407608], [17.7083194, 43.4076275], [17.7083892, 43.4076664], [17.708424, 43.4076879], [17.7087218, 43.4074794], [17.7089873, 43.4073274], [17.7091831, 43.4072338], [17.7095157, 43.4071091], [17.7097571, 43.4070487], [17.7098858, 43.4070117], [17.7100816, 43.4069513], [17.7104411, 43.4067525], [17.7107602, 43.4065967], [17.7109212, 43.4064895], [17.7110311, 43.4064057], [17.7111465, 43.4063239], [17.7114737, 43.4061212], [17.7154541, 43.4030813], [17.7178439, 43.4022297], [17.720502, 43.4007642], [17.7223527, 43.3995052], [17.7220792, 43.3993688], [17.7151054, 43.3970808], [17.7114952, 43.3943952], [17.7066296, 43.3942977], [17.7058035, 43.3942237], [17.7053207, 43.3940872], [17.7051008, 43.3940288], [17.7048379, 43.3938962], [17.7043498, 43.3935259], [17.7040869, 43.3932881], [17.7037865, 43.3931283], [17.703529, 43.3929763], [17.7032393, 43.3929334], [17.7024347, 43.3928048], [17.7013725, 43.3926488], [17.7002728, 43.392376], [17.6991999, 43.3920329], [17.698819, 43.3918692], [17.6983201, 43.3915495], [17.6978481, 43.3911831], [17.6972634, 43.390844], [17.6950479, 43.3878539], [17.6904827, 43.3852575], [17.6889029, 43.3843453], [17.6887393, 43.3842263], [17.6886722, 43.3841191], [17.6886306, 43.3840923], [17.6885784, 43.3840587], [17.6885251, 43.3840519], [17.6881385, 43.3840022], [17.6878005, 43.3838911], [17.6859766, 43.3827546], [17.6806229, 43.3799942], [17.6822323, 43.3781851], [17.6839006, 43.3763759], [17.6851022, 43.3753972], [17.6884174, 43.3726443], [17.6893508, 43.3717279], [17.69324, 43.3682183], [17.6971346, 43.3641391], [17.6965123, 43.3593458], [17.6962388, 43.3589675], [17.6959866, 43.3585502], [17.6953858, 43.3575634], [17.6947582, 43.3566351], [17.6943934, 43.3561202], [17.6941788, 43.3559837], [17.6938945, 43.3557029], [17.6936424, 43.3552348], [17.6935619, 43.3549345], [17.6935458, 43.354716], [17.6935834, 43.3545015], [17.6935539, 43.3542909], [17.6934591, 43.3540425], [17.6933663, 43.3537994], [17.693238, 43.3535478], [17.6932052, 43.3534834], [17.6931811, 43.353376], [17.6930737, 43.3528964], [17.6928887, 43.3518705], [17.6928055, 43.3515896], [17.6926266, 43.351246], [17.6923772, 43.3508785], [17.6921993, 43.3506164], [17.6921427, 43.3504641], [17.6919472, 43.3499376], [17.6927412, 43.3493525], [17.6932107, 43.348994], [17.6933849, 43.348861], [17.6932571, 43.3487731], [17.6917346, 43.3477261], [17.6922365, 43.346419], [17.6924082, 43.3459743], [17.6928266, 43.3457714], [17.6932687, 43.3458326], [17.6936742, 43.3459352], [17.6939532, 43.3458884], [17.694157, 43.3455373], [17.6945239, 43.3453021], [17.6945647, 43.3449131], [17.694393, 43.3444372], [17.6944896, 43.343891], [17.6945969, 43.3436569], [17.6894367, 43.3380544], [17.6896191, 43.3377813], [17.689544, 43.3373287], [17.6894688, 43.3371493], [17.6895654, 43.3370088], [17.6897693, 43.3369776], [17.6899409, 43.3370244], [17.690295, 43.3368995], [17.6905846, 43.3367435], [17.6909387, 43.3367435], [17.6914108, 43.3367045], [17.6917004, 43.3364938], [17.6917541, 43.3363767], [17.6917326, 43.3359943], [17.6916253, 43.3358773], [17.6914108, 43.3356276], [17.6915073, 43.3353623], [17.6921081, 43.3351359], [17.6925266, 43.3348706], [17.6925909, 43.334418], [17.6925051, 43.3342307], [17.6922798, 43.3340512], [17.6916897, 43.3338796], [17.6912391, 43.3336923], [17.6911211, 43.333544], [17.6917434, 43.3332865], [17.6925909, 43.3332084], [17.6930416, 43.3332943], [17.6932669, 43.3334894], [17.6935458, 43.3334503], [17.6937175, 43.3332709], [17.6938462, 43.3328572], [17.6936424, 43.3324905], [17.693342, 43.3322017], [17.6932561, 43.3319286], [17.6934171, 43.3317257], [17.6936853, 43.3310077], [17.6939428, 43.3299697], [17.6939106, 43.3293298], [17.694093, 43.3290098], [17.6943183, 43.3288459], [17.6948225, 43.3285961], [17.6950586, 43.3286352], [17.6953268, 43.3287913], [17.6955414, 43.3291034], [17.6964533, 43.3295171], [17.697258, 43.3295561], [17.6975477, 43.3295561], [17.6979124, 43.3294312], [17.698406, 43.3289239], [17.6992428, 43.3284635], [17.6995432, 43.3283152], [17.6998544, 43.3283854], [17.7000475, 43.3286664], [17.700305, 43.328963], [17.7007341, 43.3291425], [17.701453, 43.3294546], [17.7016353, 43.3296497], [17.7015173, 43.3298214], [17.7011311, 43.3300868], [17.7008629, 43.3302429], [17.7006912, 43.330477], [17.7006805, 43.3306799], [17.7010775, 43.330797], [17.7018714, 43.3308282], [17.7021503, 43.3306721], [17.7024186, 43.3303443], [17.7027941, 43.3298214], [17.7032125, 43.3295249], [17.7039206, 43.3292985], [17.7045107, 43.3292673], [17.7048755, 43.3292907], [17.7050364, 43.329361], [17.7054226, 43.3292829], [17.7055192, 43.329119], [17.7054548, 43.3288537], [17.7052939, 43.3286976], [17.7050257, 43.3284869], [17.7049398, 43.3282059], [17.705133, 43.3280264], [17.7056157, 43.3279718], [17.7060771, 43.3280342], [17.7063882, 43.3282215], [17.7065492, 43.3285103], [17.7065062, 43.3287913], [17.7063453, 43.3290644], [17.7063024, 43.3293532], [17.7064741, 43.3295483], [17.7069783, 43.3296419], [17.7075362, 43.3295483], [17.7078152, 43.3294156], [17.7079439, 43.3291581], [17.7079975, 43.3288303], [17.7079761, 43.3285493], [17.7080297, 43.3282371], [17.7080941, 43.3280889], [17.7085125, 43.3280654], [17.7088129, 43.3282059], [17.7090168, 43.328604], [17.7090168, 43.3288303], [17.709403, 43.3289161], [17.7098107, 43.3287288], [17.710315, 43.3284635], [17.7107119, 43.3284166], [17.7110767, 43.328362], [17.7112484, 43.3281669], [17.7110982, 43.3278313], [17.710948, 43.3275738], [17.7109373, 43.327324], [17.7114844, 43.327004], [17.7119672, 43.3265748], [17.7122784, 43.3263484], [17.7125895, 43.3260987], [17.7126753, 43.3258567], [17.7124822, 43.3256382], [17.7122247, 43.3255055], [17.7119136, 43.3255211], [17.7111518, 43.3256616], [17.7105403, 43.3258021], [17.7102721, 43.3257709], [17.7097034, 43.3256226], [17.709403, 43.3254509], [17.7091885, 43.3252713], [17.7089202, 43.3248187], [17.708888, 43.3247016], [17.7093816, 43.3244596], [17.7097464, 43.3245377], [17.7099717, 43.3246391], [17.7102291, 43.3245923], [17.7107227, 43.3243738], [17.7116239, 43.3241943], [17.7122891, 43.324163], [17.7127933, 43.3242879], [17.7131367, 43.3245299], [17.7136946, 43.324686], [17.7148962, 43.3248187], [17.7157438, 43.3247562], [17.7162802, 43.324647], [17.7169347, 43.324483], [17.7171814, 43.3245689], [17.7172351, 43.3247172], [17.7170849, 43.325045], [17.7161407, 43.3258528], [17.7158189, 43.3260401], [17.7152395, 43.3262352], [17.7146816, 43.3262509], [17.7140379, 43.3263835], [17.7138448, 43.3266567], [17.7138662, 43.3269143], [17.714231, 43.3272967], [17.7149633, 43.3275373], [17.7153989, 43.3275228], [17.7158313, 43.3275155], [17.7161705, 43.3274599], [17.7170917, 43.3270921], [17.7173464, 43.3269551], [17.7176346, 43.3267541], [17.7185478, 43.3253261], [17.7187676, 43.3250825], [17.7186974, 43.324977], [17.7186808, 43.3248754], [17.7186614, 43.3247654], [17.7186801, 43.3246792], [17.7186588, 43.3245708], [17.7186184, 43.3244918], [17.7185056, 43.3243881], [17.7183523, 43.3242782], [17.7181523, 43.3241481], [17.717435, 43.3233151], [17.7174039, 43.3232669], [17.7174093, 43.3230537], [17.7174638, 43.322888], [17.7175237, 43.3228143], [17.7177482, 43.3226462], [17.7178692, 43.3226113], [17.7186047, 43.3225994], [17.7189644, 43.3226422], [17.7190657, 43.3226906], [17.7191496, 43.3227762], [17.7192891, 43.3230093], [17.7193338, 43.3231425], [17.7194166, 43.3232535], [17.7195332, 43.3233549], [17.71964, 43.3234104], [17.719762, 43.3234279], [17.7198928, 43.3234199], [17.720041, 43.3233779], [17.7202971, 43.3232424], [17.7204442, 43.3231274], [17.7204965, 43.3230418], [17.7205543, 43.3228595], [17.7205946, 43.322624], [17.720575, 43.3224789], [17.7205467, 43.3224187], [17.7203374, 43.3222284], [17.7200868, 43.3219866], [17.7198438, 43.3218058], [17.7197599, 43.3217614], [17.7195321, 43.3216497], [17.7193872, 43.3215601], [17.7192444, 43.3214404], [17.7189774, 43.3211645], [17.7188521, 43.3210614], [17.7185764, 43.3208569], [17.718462, 43.3208077], [17.7183203, 43.320776], [17.7182244, 43.3207593], [17.7180849, 43.320757], [17.7179814, 43.3207411], [17.7178376, 43.3207046], [17.7176349, 43.3206396], [17.7175619, 43.3205897], [17.717454, 43.3205207], [17.7173156, 43.3204549], [17.7172731, 43.3204224], [17.7172393, 43.3203883], [17.7171859, 43.3203701], [17.7169963, 43.3202955], [17.7169868, 43.3202655], [17.7166235, 43.3200574], [17.7159583, 43.3196984], [17.7157116, 43.3191832], [17.7156687, 43.3189178], [17.7157009, 43.3187071], [17.7161944, 43.3184807], [17.7174067, 43.3185353], [17.7191448, 43.3187149], [17.7196078, 43.3189458], [17.7197528, 43.3194135], [17.7199346, 43.3196545], [17.7202724, 43.3198294], [17.7206296, 43.3198625], [17.7210064, 43.319801], [17.7212892, 43.3196622], [17.7218248, 43.3193994], [17.7228835, 43.3188417], [17.7233447, 43.3186811], [17.7240072, 43.3186007], [17.7245593, 43.3185724], [17.7249555, 43.3185818], [17.7252023, 43.3185298], [17.7254297, 43.3183928], [17.7257609, 43.3179344], [17.7259558, 43.3178352], [17.7261636, 43.3178446], [17.7266898, 43.3180951], [17.7272354, 43.3182274], [17.7282551, 43.3184022], [17.7286513, 43.318407], [17.7289047, 43.3183219], [17.7293204, 43.3180431], [17.7296062, 43.317665], [17.7296025, 43.3175047], [17.7294986, 43.3173959], [17.7294238, 43.3172809], [17.7295111, 43.3169936], [17.7296233, 43.3168393], [17.7297272, 43.3165581], [17.7299184, 43.3160772], [17.7299434, 43.3157959], [17.7299309, 43.3154783], [17.7298727, 43.3152152], [17.7298727, 43.3149762], [17.7299766, 43.3147433], [17.7303466, 43.3142019], [17.7305462, 43.3138299], [17.7309787, 43.3135472], [17.7315473, 43.3133521], [17.7331889, 43.3130398], [17.7339613, 43.3129852], [17.7345943, 43.3128369], [17.7348089, 43.3124075], [17.7352166, 43.3117986], [17.7292675, 43.3018326], [17.729305, 43.301126], [17.7290153, 43.3007317], [17.7286398, 43.3004701], [17.7282643, 43.3002319], [17.7280712, 43.300189], [17.7279317, 43.299986], [17.7274275, 43.2993457], [17.7269702, 43.2988466], [17.726891, 43.2987601], [17.7265048, 43.298518], [17.7258932, 43.2982604], [17.7255607, 43.2978777], [17.7253566, 43.2974945], [17.7252281, 43.2972531], [17.724756, 43.2967143], [17.7246165, 43.2963317], [17.7245736, 43.2959178], [17.7247023, 43.2954024], [17.7246871, 43.2953632], [17.7245414, 43.2949886], [17.7238762, 43.2944654], [17.7226961, 43.2931457], [17.7219236, 43.2923413], [17.7209043, 43.2909825], [17.7207806, 43.2907106], [17.7203572, 43.2897799], [17.7202499, 43.2896432], [17.7196491, 43.2895378], [17.7192789, 43.2894402], [17.7183026, 43.2890419], [17.7173209, 43.2886631], [17.7161193, 43.2880852], [17.7157974, 43.2878626], [17.715556, 43.2877338], [17.7150947, 43.2877259], [17.7132547, 43.2873979], [17.7099395, 43.2875854], [17.7094084, 43.2876908], [17.7092194, 43.2876981], [17.7078903, 43.2877494], [17.7077293, 43.2874096], [17.7075577, 43.2871558], [17.706871, 43.2869684], [17.706435, 43.2869131], [17.7058679, 43.2874409], [17.705664, 43.2873823], [17.7048755, 43.2866521], [17.7039635, 43.2860312], [17.7034217, 43.2855978], [17.7028263, 43.2849964], [17.702263, 43.2845278], [17.7017587, 43.2841295], [17.7015609, 43.2839603], [17.71053, 43.2779077], [17.7117207, 43.2753071], [17.7133082, 43.2741513], [17.7144989, 43.2724175], [17.7148957, 43.2712616], [17.7180708, 43.2692387], [17.7204521, 43.2672158], [17.7204521, 43.2660598], [17.7212458, 43.2640368], [17.724024, 43.2620137], [17.7256115, 43.2614356], [17.7303741, 43.2588344], [17.7343429, 43.2582563], [17.737518, 43.2599905], [17.7387086, 43.2608576], [17.7410899, 43.2611466], [17.7434712, 43.2611466], [17.7466463, 43.2625917], [17.7494245, 43.2625917], [17.7506151, 43.2623027], [17.7533933, 43.2637478], [17.7557746, 43.2640368], [17.7581559, 43.2654818], [17.7601403, 43.2657708], [17.7621247, 43.2657708], [17.7656966, 43.2651928], [17.7700623, 43.2631697], [17.7720467, 43.2631697], [17.7740311, 43.2623027], [17.7768522, 43.2639667], [17.7776243, 43.2635994], [17.7795548, 43.2620836], [17.7832337, 43.2620836], [17.7817099, 43.2605839], [17.7883189, 43.2547877], [17.7887158, 43.2518971], [17.7887158, 43.24785], [17.7895095, 43.24467], [17.7895095, 43.2403333], [17.7875251, 43.2380203], [17.7855407, 43.2365746], [17.7855407, 43.2357071], [17.7871282, 43.2336831], [17.7907002, 43.2322373], [17.7918908, 43.2313698], [17.7942721, 43.2293456], [17.7958596, 43.2284781], [17.7970503, 43.2273214], [17.7997106, 43.2256254], [17.8014135, 43.2233632], [17.8020197, 43.2205604], [17.8013545, 43.2185784], [17.8071803, 43.215961], [17.8072026, 43.2153505], [17.8069875, 43.2153701], [17.8062918, 43.2153058], [17.8053582, 43.2151801], [17.8039623, 43.2148845], [17.8004264, 43.2148566], [17.7984989, 43.2147362], [17.797162, 43.2144915], [17.7967658, 43.2142983], [17.7963494, 43.2140823], [17.7957953, 43.2137692], [17.7941915, 43.2125837], [17.7924012, 43.2112284], [17.789998, 43.2080067], [17.7892684, 43.2066773], [17.7887534, 43.2051289], [17.7878139, 43.2031344], [17.7868437, 43.2022822], [17.7848481, 43.2010465], [17.779076, 43.1969482], [17.7764488, 43.1945127], [17.7755361, 43.1929642], [17.7752089, 43.1910013], [17.7752011, 43.1895833], [17.7758576, 43.1880548], [17.7767474, 43.1868201], [17.7785181, 43.1845892], [17.7808999, 43.1824613], [17.7832388, 43.1810688], [17.7845086, 43.180374], [17.7849445, 43.180135], [17.7851299, 43.1800333], [17.7855643, 43.1795775], [17.7858409, 43.1788519], [17.7859654, 43.177766], [17.7861256, 43.1763958], [17.7859658, 43.1757731], [17.7854787, 43.1742244], [17.7849614, 43.1729755], [17.7840595, 43.1715587], [17.7825525, 43.1699306], [17.7820975, 43.1694176], [17.781415, 43.1690646], [17.7806482, 43.1687268], [17.7810824, 43.1680806], [17.7815759, 43.1668912], [17.783137, 43.1663825], [17.7851272, 43.1665469], [17.7886033, 43.1668481], [17.7895743, 43.1679397], [17.7896789, 43.1682234], [17.7898049, 43.1686225], [17.7898666, 43.1688416], [17.7900115, 43.1690841], [17.7901027, 43.1692524], [17.7901912, 43.1693463], [17.7902475, 43.169405], [17.7902743, 43.1695282], [17.7902985, 43.1696104], [17.7903789, 43.1697317], [17.7904728, 43.1698549], [17.7904379, 43.1698666], [17.7904433, 43.1702266], [17.7904648, 43.1704398], [17.7906311, 43.1706824], [17.7906874, 43.1707978], [17.7907866, 43.171011], [17.7907732, 43.1710677], [17.7907839, 43.1711166], [17.7908698, 43.1713279], [17.7911246, 43.1722199], [17.7911407, 43.1724077], [17.7911407, 43.1725642], [17.7910924, 43.1729613], [17.7915001, 43.1729613], [17.7926642, 43.1729652], [17.7930155, 43.1729515], [17.7932408, 43.1728987], [17.7933079, 43.1729046], [17.7935091, 43.172928], [17.7937961, 43.1729515], [17.7939114, 43.1729417], [17.7943835, 43.172797], [17.7972411, 43.1729665], [17.7974445, 43.1732225], [17.7976306, 43.173451], [17.798844, 43.1743371], [17.801037, 43.1759159], [17.8016844, 43.1763453], [17.8027117, 43.1769536], [17.8033876, 43.1774171], [17.8041038, 43.1779061], [17.8048924, 43.1784362], [17.8050399, 43.1785809], [17.8051549, 43.1787298], [17.8053357, 43.1791455], [17.8056796, 43.179951], [17.8061086, 43.1809149], [17.8062611, 43.181265], [17.8076202, 43.1802161], [17.8077811, 43.1800596], [17.8080922, 43.179821], [17.8083229, 43.1796489], [17.8086662, 43.1794807], [17.8088754, 43.1793985], [17.8090686, 43.1793555], [17.8119707, 43.177955], [17.8129148, 43.1776421], [17.8138375, 43.1771414], [17.8145456, 43.1767658], [17.8149533, 43.1765154], [17.8170991, 43.1763746], [17.8183222, 43.1762416], [17.8185636, 43.176179], [17.8192127, 43.1759521], [17.8194594, 43.1758191], [17.8196365, 43.175956], [17.819733, 43.1761086], [17.8199637, 43.1763198], [17.8200871, 43.1764881], [17.8201568, 43.1766132], [17.820189, 43.1766993], [17.8202051, 43.1772039], [17.8216374, 43.1782445], [17.8219351, 43.1783795], [17.8221658, 43.1784499], [17.8223938, 43.178487], [17.822493, 43.1784929], [17.8226057, 43.1784968], [17.8227103, 43.1784655], [17.8228202, 43.1784029], [17.8230026, 43.1782875], [17.8233004, 43.1781545], [17.8236759, 43.178], [17.8240138, 43.1773057], [17.8268945, 43.1773213], [17.8299683, 43.1773761], [17.8300273, 43.1775286], [17.8300863, 43.177646], [17.8301722, 43.1777438], [17.8303009, 43.1778181], [17.8304672, 43.1778729], [17.8307784, 43.1780411], [17.8309071, 43.1781467], [17.8314596, 43.1786357], [17.8316849, 43.1788626], [17.8318834, 43.1790151], [17.8320497, 43.179242], [17.8321087, 43.1793535], [17.8321195, 43.17942], [17.8321034, 43.1795041], [17.8320819, 43.1796195], [17.8320605, 43.1797682], [17.8319907, 43.1799246], [17.8318405, 43.180042], [17.8316501, 43.1801476], [17.8314489, 43.1802571], [17.8313336, 43.1803158], [17.8317922, 43.1802787], [17.8318405, 43.1802904], [17.8317976, 43.1803647], [17.8317735, 43.1804195], [17.8317896, 43.1804684], [17.8318217, 43.1806112], [17.8318486, 43.180662], [17.8318861, 43.1807129], [17.83198, 43.1807754], [17.8320014, 43.1808791], [17.8320041, 43.1810747], [17.8320122, 43.1811803], [17.8320283, 43.1815519], [17.8320068, 43.1818101], [17.8319773, 43.1819255], [17.8319988, 43.1820311], [17.8320175, 43.1821035], [17.8325218, 43.1830638], [17.8327149, 43.1832593], [17.8328115, 43.1833845], [17.8330743, 43.1837483], [17.8334606, 43.1840025], [17.8345334, 43.1848474], [17.8353488, 43.1852855], [17.8359389, 43.1856297], [17.8362715, 43.1858409], [17.836529, 43.18606], [17.8368616, 43.1861773], [17.837795, 43.1867405], [17.8381276, 43.1869518], [17.8382993, 43.1871395], [17.8384602, 43.1871943], [17.8383422, 43.1873664], [17.838825, 43.1875541], [17.8390181, 43.187515], [17.8390932, 43.1874211], [17.8395116, 43.1860209], [17.8396082, 43.1859192], [17.8400266, 43.1860443], [17.8408313, 43.185176], [17.8409171, 43.1850039], [17.8412712, 43.1850665], [17.8418827, 43.1851682], [17.8424621, 43.1851838], [17.8429556, 43.185176], [17.843653, 43.1850899], [17.8445864, 43.1847066], [17.8448653, 43.1845502], [17.8451443, 43.1843702], [17.8455734, 43.1846362], [17.8457236, 43.1849413], [17.8458846, 43.1851212], [17.8462493, 43.1852542], [17.8470433, 43.1855437], [17.8475797, 43.1858018], [17.8462386, 43.1875932], [17.8450155, 43.1894784], [17.8464317, 43.1897131], [17.8483415, 43.1901277], [17.8501975, 43.1906596], [17.8543496, 43.1916217], [17.8554654, 43.1918877], [17.8555351, 43.1907495], [17.8557444, 43.19064], [17.8562218, 43.1904406], [17.8566724, 43.1902294], [17.8568923, 43.1901198], [17.8570962, 43.1899986], [17.8571391, 43.1899243], [17.857241, 43.1897874], [17.8573161, 43.1896368], [17.8573295, 43.1895449], [17.8573242, 43.1894784], [17.8573403, 43.1894061], [17.8573537, 43.1893669], [17.8574342, 43.1892085], [17.8574958, 43.189058], [17.8575817, 43.1889406], [17.8576219, 43.1888976], [17.8577453, 43.1887627], [17.8578633, 43.1886043], [17.8579518, 43.1884459], [17.8580216, 43.1883833], [17.8580886, 43.1883344], [17.8581557, 43.1882816], [17.8582066, 43.1882092], [17.85822, 43.1881486], [17.85822, 43.1880958], [17.8582549, 43.1879452], [17.8582929, 43.1878285], [17.8584098, 43.1876177], [17.8621066, 43.1881408], [17.8717882, 43.1859369], [17.8753602, 43.1856475], [17.8769477, 43.1873838], [17.8785352, 43.1882519], [17.8801227, 43.18912], [17.8809165, 43.1905668], [17.8809165, 43.1914349], [17.879329, 43.1937497], [17.8789321, 43.1954857], [17.8797259, 43.198379], [17.882504, 43.2004042], [17.886076, 43.2027187], [17.8876635, 43.2044545], [17.8884573, 43.2064795], [17.8904417, 43.209083], [17.8924261, 43.2096615], [17.8952042, 43.2111078], [17.8979824, 43.2131326], [17.8985296, 43.2135979], [17.9003637, 43.2151574], [17.9031419, 43.2168928], [17.9051263, 43.2180497], [17.9071107, 43.2197851], [17.9098889, 43.2197851], [17.9130639, 43.2192066], [17.9154452, 43.2186282], [17.9174296, 43.2180497], [17.919414, 43.217182], [17.9237797, 43.217182], [17.9241766, 43.2145789], [17.9217953, 43.2122649], [17.9213984, 43.209083], [17.9213984, 43.2085044], [17.9249704, 43.2067688], [17.9293361, 43.2061902], [17.9325111, 43.2061902], [17.9356862, 43.2096615], [17.9356862, 43.2105293], [17.9372737, 43.2122649], [17.9400519, 43.2125541], [17.9448145, 43.2125541], [17.9502761, 43.2132619], [17.9719448, 43.2162991], [17.9956714, 43.2197088], [18.0026692, 43.2298563], [18.0158846, 43.2442409], [18.0231263, 43.2540967], [18.0250768, 43.2617849], [18.0245266, 43.2668707], [18.0240562, 43.272581], [18.0224434, 43.2832176], [18.021558, 43.291919], [18.0181427, 43.3105835], [18.0171221, 43.3203104], [18.0144023, 43.3265396], [18.0134279, 43.3292622], [18.0115301, 43.3354347], [18.0097485, 43.3424391], [18.0084263, 43.3481102], [18.005975, 43.3587632], [18.0051329, 43.3615528], [17.9961319, 43.3639638], [17.9933532, 43.3648843], [17.9914078, 43.3657709], [17.9846269, 43.3694706], [17.980988, 43.3713751], [17.9794866, 43.3734754], [17.97808, 43.3756677], [17.9760514, 43.3774941], [17.974034, 43.3790857], [17.9681592, 43.3843027], [17.9679849, 43.3849842], [17.9688057, 43.3893718], [17.969096, 43.3912023], [17.9689127, 43.393424], [17.9694323, 43.4015935], [17.9699387, 43.4045599], [17.971198, 43.4072851], [17.9742528, 43.410566], [17.9764957, 43.4137708], [17.9778643, 43.4161285], [17.9785444, 43.4175284], [17.9791236, 43.4187252], [17.9798026, 43.4207809], [17.9807253, 43.4231115], [17.9815651, 43.4244672], [17.9831433, 43.4262345], [17.9836014, 43.4274959], [17.9842452, 43.4285494], [17.9855897, 43.4305813], [17.9862745, 43.4316287], [17.9869592, 43.4328913], [17.988627, 43.4357461], [17.9900966, 43.4379554], [17.9908018, 43.4389206], [17.9912731, 43.4398718], [17.9936199, 43.4436795], [17.9941988, 43.4452778], [17.9955358, 43.4470449], [17.9963591, 43.4482443], [17.9984452, 43.4513409], [18.0010324, 43.455278], [18.0035413, 43.4590853], [18.0036335, 43.4591221], [18.0074849, 43.4606609], [18.0113652, 43.4621929], [18.0155085, 43.4634741], [18.0249803, 43.4671196], [18.0311198, 43.4694639], [18.0347667, 43.4706145], [18.0371055, 43.4716311], [18.0365809, 43.4727241], [18.0363979, 43.4739977], [18.0354921, 43.4795751], [18.034994, 43.4820728], [18.0335112, 43.4827652], [18.0316637, 43.4835641], [18.0271554, 43.4853201], [18.0241029, 43.4865728], [18.0209927, 43.4878282], [18.0143285, 43.4907982], [18.0124268, 43.4916593], [18.0103251, 43.4926883], [18.0050036, 43.4951109], [17.9978156, 43.498122], [18.0004037, 43.5029237], [18.0021948, 43.5064665], [18.0034912, 43.5083905], [18.0038514, 43.5091964], [18.0046634, 43.5105421], [18.0017396, 43.510887], [17.9999994, 43.5111408], [17.9982094, 43.5113972], [17.9962332, 43.5115552], [17.9946364, 43.5115446], [17.9928713, 43.5112981], [17.9885245, 43.5111653], [17.979885, 43.5132399], [17.9760419, 43.5179384], [17.9711866, 43.5185558], [17.9663568, 43.5188409], [17.9654963, 43.5183668], [17.9639209, 43.5182268], [17.9628628, 43.5185404], [17.9626279, 43.5186796], [17.9622602, 43.518618], [17.9599857, 43.5179956], [17.9596853, 43.5177311], [17.9591703, 43.5177311], [17.9583549, 43.518089], [17.9580331, 43.5186491], [17.957797, 43.5191315], [17.9568743, 43.5194271], [17.9564237, 43.5191471], [17.9556083, 43.5186958], [17.9533505, 43.5190726], [17.951023, 43.5195418], [17.9503523, 43.5203165], [17.9351399, 43.5234643], [17.9336143, 43.5259839], [17.9313376, 43.5305046], [17.9303506, 43.5319873], [17.9254989, 43.5345737], [17.9214084, 43.536771], [17.9197562, 43.5377657], [17.9194852, 43.5452144], [17.918435, 43.5457039], [17.9173882, 43.5462662], [17.9158263, 43.5471699], [17.9130843, 43.5487267], [17.9074851, 43.5519868], [17.9042609, 43.5536835], [17.9017154, 43.5552435], [17.89966, 43.5564376], [17.8944188, 43.5594845], [17.8869358, 43.5639845], [17.8844908, 43.5634093], [17.8819882, 43.5623937], [17.8717732, 43.5579099], [17.8684395, 43.5578639], [17.8639078, 43.5578764], [17.8599789, 43.5603168], [17.8554887, 43.5619437], [17.852121, 43.5643839], [17.8470696, 43.5672308], [17.8425793, 43.5696708], [17.8380891, 43.5704841], [17.8330377, 43.5733307], [17.82967, 43.5757705], [17.8251798, 43.5782102], [17.823496, 43.577397], [17.8206896, 43.5753639], [17.8190058, 43.5712975], [17.8190058, 43.5692642], [17.8201283, 43.5668241], [17.8206896, 43.5639772], [17.8218121, 43.5611303], [17.8201283, 43.5586899], [17.8167607, 43.5578764], [17.8139543, 43.5554359], [17.8105866, 43.5529953], [17.8077803, 43.553402], [17.8055352, 43.5550291], [17.8027288, 43.5570629], [17.7999224, 43.5595033], [17.7965547, 43.5603168], [17.7915033, 43.5603168], [17.7870131, 43.5607235], [17.7830841, 43.5623504], [17.780839, 43.5643839], [17.7774714, 43.5664174], [17.7757875, 43.5692642], [17.7741037, 43.5733307], [17.7741037, 43.5822761], [17.7718586, 43.5859352], [17.7696135, 43.5875614], [17.7651233, 43.5908137], [17.7611944, 43.5932528], [17.7578267, 43.5940658], [17.7527752, 43.5969112], [17.7477238, 43.5981306], [17.7449174, 43.6005694], [17.7409885, 43.6046338], [17.7404272, 43.61073], [17.7387433, 43.6131682], [17.7348144, 43.6160128], [17.7325693, 43.6172318], [17.7292017, 43.6180445], [17.7235889, 43.6188572], [17.71966, 43.6200762], [17.7151698, 43.6225141], [17.7073119, 43.6245456], [17.7022604, 43.6277958], [17.6977702, 43.6286084], [17.69328, 43.6306397], [17.6899124, 43.6326709], [17.6842996, 43.6351083], [17.6775643, 43.6355145], [17.6736354, 43.6338896], [17.6663388, 43.6338896], [17.6624099, 43.6334834], [17.6579197, 43.6310459], [17.6528682, 43.6298272], [17.6495005, 43.6277958], [17.6461329, 43.626577], [17.6427652, 43.626577], [17.638275, 43.6241393], [17.6343461, 43.6229204], [17.6304171, 43.6233267], [17.6270495, 43.6245456], [17.6225593, 43.6269833], [17.6197529, 43.6273896], [17.6195345, 43.6274072], [17.6147014, 43.6277958], [17.6096499, 43.6290146], [17.6079661, 43.6294209], [17.6045985, 43.6302334], [17.5984244, 43.6306397], [17.5921929, 43.6298837], [17.5920323, 43.6298642], [17.5920263, 43.6298397], [17.5914202, 43.6273537], [17.5908014, 43.6248155], [17.5905678, 43.6238574], [17.5903913, 43.6231334], [17.5903484, 43.6229574], [17.5903447, 43.6229304], [17.5903061, 43.6226514], [17.5902896, 43.622532], [17.590097, 43.6211373], [17.5900461, 43.6207686], [17.5899958, 43.6204048], [17.5898715, 43.6195047], [17.5897872, 43.6188943], [17.5897133, 43.6185999], [17.5896995, 43.6185449], [17.5886646, 43.6144244], [17.5858582, 43.6095479], [17.5824906, 43.6058902], [17.581368, 43.6026388], [17.5802455, 43.5989807], [17.5785617, 43.5957288], [17.5768778, 43.5936964], [17.5780004, 43.5908508], [17.5796842, 43.5896312], [17.5841744, 43.5892247], [17.5886646, 43.5884116], [17.5909097, 43.5880051], [17.5942774, 43.5863789], [17.5987676, 43.5835329], [17.6032578, 43.5806869], [17.6060642, 43.5782473], [17.6083093, 43.5762142], [17.6038191, 43.5729612], [17.5998901, 43.5701146], [17.597645, 43.5688946], [17.5953999, 43.5656411], [17.5909097, 43.5615741], [17.5886646, 43.5595405], [17.5841744, 43.5579135], [17.5819293, 43.558727], [17.5780004, 43.5603539], [17.5729489, 43.5619808], [17.5684587, 43.5640144], [17.5662136, 43.5648278], [17.5622847, 43.5668612], [17.5549881, 43.5668612], [17.548814, 43.5656411], [17.5448851, 43.5656411], [17.5443238, 43.5627942], [17.5443238, 43.5558797], [17.5403949, 43.5546595], [17.5375885, 43.5534392], [17.5342209, 43.5522188], [17.5308532, 43.5522188], [17.5241179, 43.5514052], [17.5179439, 43.5493713], [17.5134537, 43.5485577], [17.4963444, 43.5536279], [17.4942319, 43.5533285], [17.4914331, 43.5529319]]]}}]}