{"type": "FeatureCollection", "features": [{"type": "Feature", "properties": {"name": "Općina Neum, Hercegovačko-neretvanska županija (kanton), Federacija Bosne i Hercegovine, Bosna i Hercegovina / Босна и Херцеговина", "source": "OpenStreetMap relation 2528236", "licence": "ODbL 1.0"}, "geometry": {"type": "Polygon", "coordinates": [[[17.5404921, 42.9285813], [17.5446871, 42.9263829], [17.5487087, 42.9236257], [17.5493678, 42.9232259], [17.5580464, 42.9198135], [17.5608807, 42.9187988], [17.565999, 42.9169051], [17.5696168, 42.9154219], [17.5772959, 42.9128562], [17.5798761, 42.9119838], [17.5824883, 42.9111146], [17.5897978, 42.9075395], [17.5940834, 42.9055055], [17.6005222, 42.9033305], [17.6068751, 42.9023623], [17.6106609, 42.9017917], [17.6116155, 42.9012612], [17.6154128, 42.89853], [17.617179, 42.8974057], [17.6185282, 42.8969311], [17.6265795, 42.8945481], [17.6293031, 42.8926984], [17.6340428, 42.8884932], [17.6347953, 42.887882], [17.6377388, 42.8864276], [17.6423325, 42.884172], [17.6484086, 42.8890413], [17.6491769, 42.8897573], [17.6495351, 42.8900925], [17.6498012, 42.8903415], [17.6498377, 42.8903729], [17.6499523, 42.8904703], [17.6517168, 42.8920849], [17.6525461, 42.8928491], [17.6536048, 42.8938291], [17.6539908, 42.89417], [17.6545048, 42.8946106], [17.6549125, 42.8951528], [17.6555288, 42.8957824], [17.6556452, 42.8959147], [17.6561144, 42.8963399], [17.6573845, 42.8977024], [17.6588334, 42.8992292], [17.6595545, 42.9000248], [17.6603283, 42.900808], [17.6611766, 42.9016958], [17.6619152, 42.9024631], [17.662105, 42.9026627], [17.6624426, 42.9030114], [17.6629055, 42.9034905], [17.6630914, 42.9036902], [17.6632255, 42.9038467], [17.6639539, 42.9047292], [17.6641917, 42.9048666], [17.6642501, 42.9048863], [17.6645113, 42.904934], [17.6644951, 42.9051123], [17.6645143, 42.9052416], [17.6646457, 42.905463], [17.6648801, 42.9057202], [17.6648353, 42.9057404], [17.6652278, 42.9061016], [17.6653732, 42.9062935], [17.6658388, 42.906679], [17.6657827, 42.9068981], [17.6659057, 42.9072059], [17.6659502, 42.9074117], [17.6660702, 42.9076297], [17.6661703, 42.9079806], [17.6663241, 42.9083314], [17.6663642, 42.9084916], [17.6666342, 42.9089032], [17.6671193, 42.9093839], [17.6674184, 42.9097565], [17.6676044, 42.9098349], [17.667743, 42.9101595], [17.6679696, 42.9103948], [17.6684175, 42.9106848], [17.6686721, 42.9108833], [17.669064, 42.9112718], [17.669607, 42.9115061], [17.6695412, 42.9116094], [17.6695137, 42.91179], [17.6696444, 42.9119983], [17.670026, 42.9124731], [17.6700721, 42.9125395], [17.6702176, 42.9126501], [17.6703827, 42.9128169], [17.6703939, 42.9128838], [17.6704953, 42.9129352], [17.670558, 42.9129902], [17.6706577, 42.9129971], [17.6708225, 42.9132217], [17.6707221, 42.9133233], [17.6707934, 42.9134072], [17.670948, 42.9133621], [17.6711671, 42.9136255], [17.6712479, 42.9138223], [17.671245, 42.914012], [17.6713546, 42.9140761], [17.671451, 42.914241], [17.6717657, 42.9142078], [17.6720893, 42.9145323], [17.6721937, 42.9147433], [17.6724061, 42.9148771], [17.6726007, 42.9150555], [17.6726884, 42.9150649], [17.672731, 42.9150539], [17.6728698, 42.9151926], [17.672967, 42.9152736], [17.6732165, 42.9155419], [17.6734966, 42.9158808], [17.6739105, 42.916173], [17.6746299, 42.9168543], [17.6747814, 42.9172162], [17.6749862, 42.9180785], [17.6752978, 42.9186747], [17.6769364, 42.9195184], [17.677448, 42.9199326], [17.6777315, 42.9202727], [17.6782158, 42.9205917], [17.6789699, 42.9207169], [17.6804571, 42.9207346], [17.6809906, 42.920857], [17.681024, 42.9210367], [17.6818943, 42.9215157], [17.6841164, 42.9224693], [17.6913178, 42.9256086], [17.6980937, 42.922063], [17.6995357, 42.921892], [17.7050402, 42.9213812], [17.708991, 42.9210043], [17.7210858, 42.9195705], [17.724198, 42.9191707], [17.7293791, 42.9178989], [17.734873, 42.9165934], [17.7389046, 42.9156353], [17.7451453, 42.9141595], [17.7459985, 42.9140765], [17.7494615, 42.9135101], [17.7521224, 42.9130748], [17.7528142, 42.912647], [17.7555785, 42.9116467], [17.7564172, 42.9115523], [17.7571161, 42.9112364], [17.7577892, 42.9108204], [17.7584239, 42.9105789], [17.760001, 42.910209], [17.7611904, 42.9095244], [17.7647728, 42.9082259], [17.7652681, 42.9079911], [17.7675523, 42.9061744], [17.7708699, 42.9036094], [17.7732526, 42.9017988], [17.7776466, 42.8983459], [17.7794946, 42.8968105], [17.7804329, 42.8958264], [17.7810652, 42.8955653], [17.7859434, 42.8918277], [17.7907807, 42.8917189], [17.7915095, 42.8918289], [17.7915238, 42.892378], [17.7919113, 42.8947686], [17.7936456, 42.8968695], [17.7936865, 42.8973387], [17.7939039, 42.8976031], [17.7942197, 42.8979667], [17.7952637, 42.8987238], [17.7955373, 42.8995816], [17.7958987, 42.9000553], [17.7971893, 42.9015708], [17.7988811, 42.9035667], [17.7999464, 42.9051322], [17.8009202, 42.9066016], [17.8016111, 42.9077599], [17.8026605, 42.909348], [17.8036269, 42.9107116], [17.8045613, 42.9119201], [17.8050533, 42.9125788], [17.8060714, 42.9138793], [17.8075286, 42.9151444], [17.8090869, 42.9171064], [17.8099884, 42.9169185], [17.8132611, 42.915704], [17.8144285, 42.9150944], [17.8204345, 42.9127113], [17.8228194, 42.9118859], [17.8263343, 42.9107458], [17.8292614, 42.9097665], [17.8341931, 42.907294], [17.8390121, 42.9048281], [17.8403634, 42.904177], [17.8441638, 42.9026232], [17.8459918, 42.9018787], [17.8480696, 42.9033524], [17.8503147, 42.9045858], [17.8517178, 42.9054081], [17.8534017, 42.9066414], [17.8553661, 42.9089025], [17.8550855, 42.9101358], [17.853121, 42.9119857], [17.853121, 42.9130133], [17.8525598, 42.9138355], [17.8522791, 42.9154797], [17.8505953, 42.9173295], [17.8511566, 42.9185626], [17.8517178, 42.9212342], [17.8497534, 42.9230838], [17.850034, 42.9247278], [17.853121, 42.9259607], [17.8548049, 42.9261662], [17.8576112, 42.9261662], [17.8606983, 42.9280156], [17.8643465, 42.9276047], [17.866311, 42.9271937], [17.8708012, 42.9284266], [17.8744495, 42.9288376], [17.8766946, 42.9296595], [17.8789397, 42.9296595], [17.8809042, 42.929865], [17.8828686, 42.9300705], [17.885675, 42.9300705], [17.8884814, 42.9296595], [17.8898846, 42.9276047], [17.892691, 42.9261662], [17.8949361, 42.9255498], [17.8977425, 42.9247278], [17.8997069, 42.9239058], [17.901952, 42.9228783], [17.9058809, 42.9214397], [17.9084067, 42.9204122], [17.9095292, 42.9197957], [17.9126163, 42.9187681], [17.9148614, 42.917535], [17.9162645, 42.9163018], [17.918229, 42.9173295], [17.9199128, 42.9185626], [17.9215967, 42.9197957], [17.9215967, 42.9206177], [17.9218773, 42.9226728], [17.9235611, 42.9243168], [17.9249643, 42.9255498], [17.9258062, 42.9267827], [17.9258062, 42.9280156], [17.9266481, 42.9300705], [17.928332, 42.9317143], [17.9288932, 42.9345908], [17.9280513, 42.9360291], [17.9276316, 42.9366438], [17.9274901, 42.9368509], [17.9274901, 42.9382891], [17.9277707, 42.9395218], [17.9286126, 42.9409599], [17.9311384, 42.9419871], [17.9331028, 42.9430143], [17.934506, 42.9434251], [17.9373124, 42.9446577], [17.9389962, 42.9463012], [17.9409607, 42.9475337], [17.9432058, 42.9485608], [17.9457315, 42.9489716], [17.9471347, 42.9499987], [17.9488185, 42.9510258], [17.9499411, 42.9518474], [17.9521862, 42.9518474], [17.9535894, 42.9514366], [17.9541507, 42.9504095], [17.9572377, 42.9497933], [17.9617279, 42.9479445], [17.9695718, 42.9463863], [17.9683415, 42.9553029], [17.9674955, 42.9623328], [17.9596228, 42.9685155], [17.958726, 42.9694075], [17.9513419, 42.9685808], [17.9465711, 42.9689915], [17.944326, 42.9683754], [17.9426422, 42.9667326], [17.9331005, 42.9702236], [17.9308554, 42.9710449], [17.9286103, 42.9718663], [17.9260845, 42.972893], [17.9246813, 42.973509], [17.921033, 42.9749463], [17.9182267, 42.9763836], [17.9159816, 42.9769996], [17.9137365, 42.9784368], [17.9109301, 42.9804899], [17.9089656, 42.9815165], [17.9075624, 42.982543], [17.9058786, 42.9848013], [17.9050367, 42.9876754], [17.9036335, 42.9884965], [17.9019497, 42.9897282], [17.8997046, 42.9901388], [17.8974595, 42.9901388], [17.8943724, 42.9905493], [17.8897883, 42.990444], [17.8888612, 42.9908468], [17.8840695, 42.9913656], [17.8819705, 42.9919134], [17.8804951, 42.9920605], [17.8780955, 42.9934232], [17.8744472, 42.9956811], [17.8736052, 42.9958863], [17.8724827, 42.9967073], [17.869957, 42.9979389], [17.8674312, 42.9987599], [17.8649055, 42.9993756], [17.8620991, 43.0006071], [17.8587314, 43.0016333], [17.8570476, 43.0026595], [17.85368, 43.0045066], [17.8522768, 43.0047118], [17.8508736, 43.0055327], [17.8491898, 43.0069693], [17.8463338, 43.0083423], [17.8460588, 43.0071357], [17.8459369, 43.0066009], [17.8447462, 43.0057303], [17.842365, 43.00544], [17.8419681, 43.0034083], [17.8415712, 43.0019571], [17.8399837, 43.0005058], [17.8360148, 42.9990545], [17.8332367, 42.9978934], [17.8264897, 42.9981837], [17.8237115, 42.9973129], [17.8193458, 42.9958615], [17.8169645, 42.9958615], [17.8141863, 42.9973129], [17.8118051, 42.9987642], [17.80863, 43.0007961], [17.8058518, 43.0019571], [17.8026768, 43.0028278], [17.8006924, 43.0036986], [17.7995017, 43.0048595], [17.7971204, 43.0060205], [17.7947391, 43.0074716], [17.7923578, 43.0086325], [17.7887859, 43.0068912], [17.7860077, 43.0063107], [17.7828327, 43.0051498], [17.7804514, 43.0039888], [17.7768795, 43.0039888], [17.7729106, 43.0060205], [17.7709262, 43.0068912], [17.7689418, 43.0080521], [17.7661636, 43.0097934], [17.7641792, 43.0112444], [17.7606073, 43.0126955], [17.7574322, 43.0132759], [17.7538603, 43.0129857], [17.7498915, 43.0126955], [17.7471133, 43.0126955], [17.7443351, 43.0112444], [17.7332225, 43.0155974], [17.7292536, 43.0208206], [17.7260786, 43.0219812], [17.7240942, 43.0214009], [17.7221098, 43.0237221], [17.7205222, 43.0243024], [17.7098064, 43.0243024], [17.7094095, 43.0228517], [17.707822, 43.0211107], [17.7062345, 43.0205304], [17.7074251, 43.0184992], [17.7094095, 43.0173385], [17.711394, 43.0170483], [17.7129815, 43.0158876], [17.7129815, 43.0141465], [17.7165534, 43.0124053], [17.7181409, 43.0118249], [17.7209191, 43.0109542], [17.721316, 43.009213], [17.721316, 43.0080521], [17.7189347, 43.0074716], [17.7169503, 43.0068912], [17.7133784, 43.0074716], [17.711394, 43.0089227], [17.7070283, 43.009213], [17.704647, 43.0083423], [17.7018688, 43.0066009], [17.6994875, 43.0045693], [17.6963124, 43.0025376], [17.6943715, 43.0004307], [17.6945249, 42.9997957], [17.6949771, 42.9989627], [17.696066, 42.9971477], [17.698193, 42.9934044], [17.6996336, 42.9909322], [17.7013547, 42.9879486], [17.7021174, 42.9863983], [17.7022991, 42.9848563], [17.702557, 42.9842749], [17.7032997, 42.9832441], [17.7048959, 42.98032], [17.7053447, 42.9794274], [17.7080261, 42.9768747], [17.7101578, 42.9747897], [17.7106987, 42.9741706], [17.7119582, 42.9729212], [17.7114628, 42.9727425], [17.7105849, 42.972426], [17.7080246, 42.9715002], [17.7006256, 42.9688841], [17.6902653, 42.9662942], [17.6881228, 42.9653651], [17.6849428, 42.9648733], [17.6786222, 42.9646534], [17.6764996, 42.9644296], [17.6760214, 42.9643712], [17.674826, 42.9643076], [17.6738899, 42.9641506], [17.6731778, 42.9639149], [17.6726501, 42.9639677], [17.6721706, 42.9637588], [17.6715715, 42.9633834], [17.6712351, 42.9633494], [17.6711027, 42.9631764], [17.670825, 42.9631535], [17.6704222, 42.9630237], [17.6699898, 42.962948], [17.6695861, 42.9627718], [17.6692585, 42.9627194], [17.6692242, 42.962583], [17.6688638, 42.9625295], [17.668592, 42.9623453], [17.6682097, 42.9623544], [17.6679872, 42.9623169], [17.6679267, 42.962242], [17.667667, 42.9620982], [17.6675787, 42.9619341], [17.6668587, 42.9620392], [17.6663911, 42.9619992], [17.6662431, 42.9619769], [17.6659081, 42.9618666], [17.6644549, 42.961679], [17.6636303, 42.9614097], [17.6629809, 42.9613491], [17.6623013, 42.9609909], [17.661571, 42.9607991], [17.6610952, 42.9608195], [17.660779, 42.9607677], [17.6601035, 42.9608363], [17.6592876, 42.9608303], [17.659103, 42.9607627], [17.6590357, 42.9606731], [17.6576419, 42.9602751], [17.6570151, 42.9602064], [17.656894, 42.9601797], [17.6567128, 42.9599984], [17.6554312, 42.9596824], [17.6553681, 42.9596178], [17.6549664, 42.9596097], [17.6548248, 42.9599431], [17.6548659, 42.9600499], [17.6546775, 42.959876], [17.6538578, 42.9592651], [17.6516716, 42.9592345], [17.6505291, 42.9579414], [17.6476042, 42.9573321], [17.6458854, 42.9560483], [17.644088, 42.9547616], [17.6415158, 42.9533616], [17.6388187, 42.9531636], [17.6363278, 42.9515949], [17.6342806, 42.9508623], [17.6343703, 42.950775], [17.6343692, 42.9505984], [17.6342685, 42.9504856], [17.6341392, 42.950388], [17.6339126, 42.9503394], [17.6336368, 42.9501896], [17.6334306, 42.9501532], [17.6333394, 42.950093], [17.6333495, 42.9500383], [17.6331764, 42.9499843], [17.6332388, 42.9499001], [17.6331766, 42.9498713], [17.6332141, 42.9498189], [17.6331075, 42.9497199], [17.6329, 42.9495031], [17.6327659, 42.9493843], [17.6326008, 42.9492794], [17.632251, 42.9490008], [17.6317977, 42.948674], [17.6315894, 42.9484492], [17.6313808, 42.9483192], [17.6312598, 42.9482514], [17.6309686, 42.9483623], [17.6309568, 42.9483581], [17.6308664, 42.948257], [17.6307943, 42.9481697], [17.6307899, 42.9481146], [17.6306536, 42.9479847], [17.6305312, 42.9478318], [17.6305251, 42.9477112], [17.6305661, 42.947604], [17.6305045, 42.9475517], [17.6303134, 42.9474265], [17.6300121, 42.9472425], [17.6299348, 42.9471175], [17.6297955, 42.9470952], [17.6297137, 42.9470567], [17.6293556, 42.9470619], [17.6288729, 42.9470549], [17.6288551, 42.9470044], [17.6287497, 42.9469143], [17.6284543, 42.9467943], [17.6280423, 42.9466233], [17.6270998, 42.946259], [17.6242955, 42.9451628], [17.620866, 42.9438591], [17.6200979, 42.9435687], [17.6200953, 42.9435067], [17.6200711, 42.9433806], [17.6200235, 42.9433153], [17.6199144, 42.9431897], [17.6194704, 42.9430185], [17.6193399, 42.942932], [17.6193057, 42.9428853], [17.619328, 42.9427827], [17.6179874, 42.9425491], [17.6169974, 42.9423747], [17.6158607, 42.9421725], [17.6147899, 42.9419861], [17.6129317, 42.9416596], [17.6128477, 42.9416014], [17.6109477, 42.9413835], [17.608439, 42.9410993], [17.6064456, 42.9408782], [17.6032705, 42.9405375], [17.6025672, 42.940466], [17.6007181, 42.9402845], [17.6006987, 42.9402839], [17.5921992, 42.9401967], [17.5866434, 42.9387055], [17.5816444, 42.9384977], [17.5815293, 42.9384929], [17.581294, 42.9384832], [17.5811003, 42.9384752], [17.5766922, 42.9354694], [17.5763342, 42.9353187], [17.5759247, 42.9352686], [17.5753118, 42.9353693], [17.5656351, 42.9380212], [17.5594346, 42.9358201], [17.5564066, 42.9365393], [17.5533758, 42.9380337], [17.5488479, 42.9369832], [17.5476562, 42.9361748], [17.5404921, 42.9285813]]]}}]}