{"type": "FeatureCollection", "features": [{"type": "Feature", "properties": {"name": "Општина Невесиње / Opština Nevesinje, Република Српска / Republika Srpska, 88280, Bosna i Hercegovina / Босна и Херцеговина", "source": "OpenStreetMap relation 2528237", "licence": "ODbL 1.0"}, "geometry": {"type": "Polygon", "coordinates": [[[17.9661365, 43.2089614], [17.9661922, 43.2087216], [17.9663088, 43.2084659], [17.9664416, 43.2082788], [17.9666061, 43.2081338], [17.9669351, 43.2079346], [17.9671341, 43.2078031], [17.9671632, 43.207776], [17.9673065, 43.207631], [17.9673944, 43.207518], [17.9676199, 43.207286], [17.9678507, 43.2070636], [17.9680192, 43.2069621], [17.9682447, 43.2067794], [17.9684967, 43.2065676], [17.9688416, 43.2062998], [17.9689968, 43.2061074], [17.9691547, 43.2059208], [17.9695951, 43.2054103], [17.9696826, 43.2052469], [17.9700169, 43.2047914], [17.9702822, 43.2045923], [17.9710821, 43.2049539], [17.9717732, 43.2052681], [17.9724165, 43.2055582], [17.9730068, 43.205827], [17.9730055, 43.2058425], [17.9730068, 43.2058589], [17.9730095, 43.2058753], [17.9730161, 43.2058927], [17.9730214, 43.2059092], [17.973028, 43.2059256], [17.9730373, 43.2059401], [17.9730532, 43.2059527], [17.9730705, 43.2059633], [17.9730904, 43.2059739], [17.9731116, 43.2059817], [17.9731328, 43.2059875], [17.973158, 43.2059904], [17.9732045, 43.2059904], [17.973227, 43.2059865], [17.9732429, 43.205972], [17.9732456, 43.2059556], [17.9732443, 43.2059295], [17.9734008, 43.2060039], [17.9739522, 43.2062422], [17.9741617, 43.2063775], [17.9741644, 43.2064085], [17.9741724, 43.2064413], [17.9741883, 43.2064703], [17.9742201, 43.2064936], [17.9742413, 43.2065226], [17.974244, 43.2065574], [17.9742387, 43.2065902], [17.9742387, 43.2066212], [17.9742546, 43.2066541], [17.9742758, 43.206685], [17.9742864, 43.2067198], [17.9743024, 43.2067565], [17.9743209, 43.2067875], [17.9743475, 43.2068184], [17.9743846, 43.2068397], [17.9744191, 43.2068648], [17.9744456, 43.2068958], [17.9744695, 43.2069344], [17.9744828, 43.2069673], [17.9744881, 43.2070079], [17.9744907, 43.2070389], [17.974496, 43.2070737], [17.974496, 43.2071046], [17.9744987, 43.2071356], [17.9745013, 43.2071704], [17.9745172, 43.2071994], [17.9745438, 43.2072264], [17.9745809, 43.2072496], [17.9746154, 43.2072748], [17.9746579, 43.2073328], [17.9746764, 43.2073637], [17.974695, 43.2074024], [17.9747109, 43.2074333], [17.9747295, 43.2074662], [17.9747481, 43.2074952], [17.9747746, 43.2075242], [17.9748038, 43.2075513], [17.9748383, 43.2075842], [17.9748648, 43.2076132], [17.9748913, 43.2076422], [17.9749205, 43.2076712], [17.974955, 43.2077021], [17.9749842, 43.2077311], [17.9750107, 43.2077563], [17.9750399, 43.2077814], [17.9753264, 43.2081527], [17.975345, 43.2081856], [17.9753715, 43.2082146], [17.9753954, 43.2082513], [17.9754113, 43.2082822], [17.9754193, 43.208317], [17.9754246, 43.2083499], [17.9754299, 43.2083828], [17.9754431, 43.2084195], [17.9754617, 43.2084505], [17.9754829, 43.2084814], [17.9755068, 43.2085104], [17.9755307, 43.2085414], [17.9755546, 43.2085704], [17.9755811, 43.2085994], [17.975605, 43.2086284], [17.9756289, 43.2086535], [17.975658, 43.2086844], [17.9758437, 43.2088875], [17.9758809, 43.2089146], [17.9759127, 43.2089397], [17.9759525, 43.2089648], [17.9759844, 43.20899], [17.9760162, 43.2090132], [17.9760533, 43.2090325], [17.9760905, 43.2090538], [17.9761276, 43.2090731], [17.9761674, 43.2090905], [17.9762072, 43.2091099], [17.9762895, 43.2091427], [17.9763319, 43.2091582], [17.9763797, 43.2091717], [17.9764194, 43.2091853], [17.9764645, 43.2091949], [17.9765096, 43.2092085], [17.9765494, 43.209222], [17.9765919, 43.2092375], [17.9766317, 43.2092529], [17.9766635, 43.2092742], [17.9766927, 43.2092994], [17.9767192, 43.2093303], [17.9767431, 43.2093651], [17.9767643, 43.2093941], [17.9767829, 43.2094212], [17.9768041, 43.2094482], [17.976828, 43.209483], [17.9768519, 43.2095159], [17.9768705, 43.2095469], [17.9769925, 43.2097441], [17.9770137, 43.2097731], [17.9770376, 43.2098079], [17.9770641, 43.209835], [17.9770933, 43.2098659], [17.9771225, 43.2098968], [17.9771517, 43.209922], [17.9771835, 43.2099452], [17.977218, 43.2099665], [17.9772551, 43.2099858], [17.9772923, 43.2100032], [17.9773374, 43.2100167], [17.9773798, 43.2100283], [17.9774249, 43.2100361], [17.97747, 43.2100457], [17.9775151, 43.2100554], [17.9775602, 43.2100689], [17.9776, 43.2100825], [17.9776425, 43.210096], [17.9776849, 43.2101095], [17.9777274, 43.2101212], [17.9777725, 43.2101347], [17.9778149, 43.2101482], [17.9778547, 43.2101618], [17.9778972, 43.2101734], [17.9779927, 43.2101966], [17.9780404, 43.2102043], [17.9780882, 43.2102043], [17.9781359, 43.2101985], [17.9781943, 43.2101927], [17.9782421, 43.2101888], [17.9783004, 43.210185], [17.9783667, 43.2101946], [17.9781704, 43.2096397], [17.9784941, 43.2095991], [17.9786771, 43.2096107], [17.9788178, 43.2095275], [17.9789504, 43.2092471], [17.9792343, 43.2090074], [17.9794037, 43.2088145], [17.9795231, 43.2086869], [17.9795987, 43.2086124], [17.9797738, 43.2085138], [17.9799343, 43.2084403], [17.9800656, 43.2083872], [17.9800988, 43.2084442], [17.9804596, 43.2083301], [17.9804848, 43.2083272], [17.9805087, 43.2083291], [17.9805246, 43.2083417], [17.9805326, 43.2083572], [17.9805379, 43.2083736], [17.9805458, 43.2083881], [17.9805564, 43.2084026], [17.980567, 43.2084162], [17.9805803, 43.2084345], [17.9806015, 43.2084316], [17.9806254, 43.2084307], [17.9806506, 43.2084278], [17.9806771, 43.2084239], [17.980701, 43.208421], [17.9807236, 43.2084181], [17.9807461, 43.2084162], [17.9807687, 43.2084123], [17.9807925, 43.2084084], [17.9808164, 43.2084084], [17.9808403, 43.2084075], [17.9808629, 43.2084075], [17.9808867, 43.2084094], [17.9809106, 43.2084113], [17.9809332, 43.2084162], [17.980957, 43.20842], [17.9809809, 43.2084181], [17.9810021, 43.2084123], [17.9813258, 43.2083011], [17.9813656, 43.2082856], [17.9813815, 43.2082673], [17.9813961, 43.2081783], [17.9813961, 43.2081541], [17.9813828, 43.2081068], [17.9818262, 43.2079409], [17.9819782, 43.2078944], [17.9820288, 43.2078835], [17.9820738, 43.2078794], [17.9820963, 43.2078645], [17.9821335, 43.2078026], [17.98216, 43.2077368], [17.9822024, 43.207675], [17.9822396, 43.2076169], [17.9822979, 43.2075628], [17.9823616, 43.2075125], [17.9824359, 43.2074661], [17.9825102, 43.2074236], [17.9825792, 43.2073694], [17.9826481, 43.2073269], [17.9827383, 43.2072805], [17.9828232, 43.2072418], [17.9829028, 43.2072031], [17.9829877, 43.2071722], [17.9830673, 43.2071451], [17.9831416, 43.2071064], [17.9832159, 43.2070678], [17.9833008, 43.2070291], [17.9833857, 43.207002], [17.9834653, 43.2069749], [17.9835502, 43.2069479], [17.9836297, 43.2069169], [17.9837146, 43.2068937], [17.9838048, 43.2068667], [17.983895, 43.2068473], [17.9839799, 43.206828], [17.9840648, 43.2068048], [17.984155, 43.2067854], [17.9842452, 43.2067661], [17.9843461, 43.206739], [17.9844522, 43.2067081], [17.984553, 43.2066772], [17.9846432, 43.2066501], [17.9847387, 43.2066153], [17.9848289, 43.2065882], [17.9849403, 43.2065573], [17.9850358, 43.2065263], [17.9851473, 43.2064954], [17.9852375, 43.2064722], [17.9853436, 43.2064451], [17.9854391, 43.2064103], [17.9855293, 43.2063832], [17.9856089, 43.2063562], [17.9857256, 43.2063252], [17.9858158, 43.2062981], [17.9859007, 43.2062711], [17.9859856, 43.2062517], [17.986097, 43.2062208], [17.9861925, 43.2061937], [17.9862934, 43.2061666], [17.9863889, 43.2061434], [17.9864738, 43.2061164], [17.986564, 43.2060893], [17.9866489, 43.2060661], [17.9870415, 43.2059617], [17.9871423, 43.2059423], [17.9872325, 43.2059191], [17.9873121, 43.2058766], [17.9874023, 43.205834], [17.9874819, 43.2058031], [17.9875827, 43.2057644], [17.9876729, 43.2057373], [17.9877631, 43.2057141], [17.9878639, 43.2056909], [17.9879488, 43.2056716], [17.9880656, 43.2056561], [17.9881558, 43.2056407], [17.9882778, 43.2056213], [17.988368, 43.2055904], [17.9884582, 43.2055594], [17.9885325, 43.2055246], [17.9886174, 43.2054782], [17.988697, 43.2054395], [17.9887659, 43.2053931], [17.9888455, 43.2053545], [17.9889357, 43.2053235], [17.9890259, 43.2052926], [17.9891321, 43.2052578], [17.9892116, 43.2052307], [17.9892912, 43.2051959], [17.9893708, 43.2051572], [17.9894504, 43.2051185], [17.98953, 43.2050721], [17.9896096, 43.2050218], [17.9896945, 43.2049793], [17.9897794, 43.2049406], [17.9898537, 43.2049058], [17.9899386, 43.2048671], [17.9901084, 43.2047975], [17.9902463, 43.204724], [17.9903259, 43.2046854], [17.9904055, 43.2046428], [17.9904851, 43.2046003], [17.9905647, 43.2045577], [17.9906443, 43.2045191], [17.9907239, 43.2044843], [17.9908194, 43.2044456], [17.9909043, 43.2044069], [17.9909998, 43.2043528], [17.9910847, 43.2043063], [17.9911643, 43.2042677], [17.9912492, 43.2042251], [17.9913287, 43.204171], [17.991403, 43.2041284], [17.991472, 43.2040859], [17.9915463, 43.2040356], [17.9916206, 43.2039931], [17.9916949, 43.2039467], [17.9917638, 43.2038964], [17.9918275, 43.2038384], [17.9918859, 43.2037803], [17.9919442, 43.2037223], [17.9919867, 43.2036643], [17.9920291, 43.2036024], [17.9920716, 43.2035328], [17.9921406, 43.2034477], [17.9921565, 43.203382], [17.9921565, 43.2032466], [17.9921936, 43.2031886], [17.9922732, 43.2031499], [17.9923475, 43.2031035], [17.9924112, 43.2030493], [17.9924642, 43.2029913], [17.9925226, 43.2029256], [17.992565, 43.2028676], [17.9926181, 43.2027979], [17.9926659, 43.2027283], [17.992703, 43.2026703], [17.9927401, 43.2026084], [17.9927985, 43.2025543], [17.9928781, 43.2025117], [17.992963, 43.2024576], [17.9930107, 43.2023996], [17.9930479, 43.2023377], [17.9930903, 43.2022603], [17.9931222, 43.2021868], [17.9931593, 43.2021211], [17.9932071, 43.2020515], [17.9932813, 43.201947], [17.9934405, 43.2017575], [17.9934777, 43.2016995], [17.9935254, 43.2016415], [17.9935944, 43.2015873], [17.9936687, 43.2015448], [17.9937483, 43.2015022], [17.9938279, 43.2014636], [17.9939181, 43.2014249], [17.994003, 43.2013939], [17.9940879, 43.2013591], [17.9941621, 43.2013205], [17.9942417, 43.2012856], [17.9943213, 43.201247], [17.9943956, 43.2012044], [17.9944646, 43.201158], [17.994507, 43.2010923], [17.9945548, 43.2010342], [17.9946344, 43.2009956], [17.9946874, 43.2009298], [17.994698, 43.2008563], [17.9946927, 43.2007906], [17.9946768, 43.2007248], [17.9946503, 43.2006629], [17.9946238, 43.2005972], [17.9945972, 43.2005314], [17.9945601, 43.2004695], [17.9945336, 43.200396], [17.9944964, 43.2003342], [17.9944699, 43.2002645], [17.9943372, 43.2000441], [17.9942948, 43.199986], [17.9942364, 43.1999319], [17.9941674, 43.1998816], [17.9940932, 43.1998468], [17.9940189, 43.1998081], [17.9939446, 43.1997617], [17.9938809, 43.1997153], [17.9938226, 43.1996573], [17.9937907, 43.1995993], [17.9937377, 43.199549], [17.9936687, 43.1995026], [17.993605, 43.1994523], [17.9935732, 43.1993904], [17.9934777, 43.1992086], [17.9936528, 43.1991312], [17.9937217, 43.1990887], [17.993796, 43.1990461], [17.9938809, 43.1990036], [17.9939499, 43.1989494], [17.9940242, 43.1989069], [17.9941091, 43.1988759], [17.9942152, 43.198845], [17.9943054, 43.1988218], [17.9944168, 43.1988373], [17.9945123, 43.1988566], [17.9946025, 43.1988489], [17.9946874, 43.1988141], [17.994767, 43.1987715], [17.9948466, 43.1987328], [17.9949421, 43.1987135], [17.9950482, 43.198698], [17.9951438, 43.1986825], [17.995234, 43.1986709], [17.9953454, 43.1986671], [17.9954409, 43.1986593], [17.9955523, 43.1986516], [17.9956531, 43.1986439], [17.9957486, 43.1986323], [17.9958494, 43.1986129], [17.9959556, 43.1985704], [17.9960352, 43.1985356], [17.9961147, 43.1984969], [17.9963058, 43.1984659], [17.9972343, 43.198377], [17.9974147, 43.1983538], [17.9974996, 43.1983267], [17.9983327, 43.1980289], [17.9990914, 43.1977542], [17.9994416, 43.1975376], [18.0002216, 43.1971663], [18.0003065, 43.197116], [18.0003861, 43.1970773], [18.0004763, 43.1970464], [18.0005665, 43.1970348], [18.0006673, 43.1970309], [18.0007628, 43.1970193], [18.0008477, 43.1969922], [18.0009167, 43.1969458], [18.000991, 43.196911], [18.0010865, 43.1968955], [18.0011767, 43.1968684], [18.001251, 43.1968259], [18.0013252, 43.1967795], [18.0014101, 43.1967369], [18.0015003, 43.1967176], [18.0015958, 43.1967098], [18.001686, 43.1966866], [18.0017656, 43.1966557], [18.0018452, 43.1966286], [18.0019354, 43.1965899], [18.0020203, 43.1965513], [18.0020946, 43.1964971], [18.0021424, 43.1964352], [18.0021848, 43.1963772], [18.0022326, 43.1963076], [18.0023015, 43.1962534], [18.0023758, 43.1962147], [18.0024554, 43.1961838], [18.0025562, 43.1961412], [18.0026411, 43.1961103], [18.002726, 43.1960793], [18.0028215, 43.1960639], [18.0029117, 43.1960445], [18.0030072, 43.1960213], [18.0030868, 43.1959904], [18.0031399, 43.1959362], [18.0031876, 43.1958821], [18.0032672, 43.1958511], [18.003368, 43.1958395], [18.0034636, 43.1958318], [18.0035591, 43.1958202], [18.0036864, 43.1958047], [18.004355, 43.1955842], [18.0044345, 43.1955571], [18.0045194, 43.1955262], [18.004615, 43.1955185], [18.0050129, 43.1955185], [18.0051084, 43.1954991], [18.0051933, 43.1954643], [18.0052623, 43.1954179], [18.0053419, 43.1953637], [18.0054162, 43.1953173], [18.0055064, 43.1952632], [18.0055806, 43.1952245], [18.0057504, 43.1951703], [18.0058406, 43.1951432], [18.0059308, 43.19512], [18.0060263, 43.1950852], [18.0061006, 43.1950427], [18.0061643, 43.1949846], [18.0062121, 43.1949266], [18.0062704, 43.1948686], [18.0064349, 43.1948106], [18.007443, 43.1944663], [18.0075173, 43.1944315], [18.0075969, 43.1943928], [18.0076447, 43.1943309], [18.0076606, 43.1942651], [18.0077137, 43.1942071], [18.0077773, 43.1941491], [18.0077985, 43.1940833], [18.0077932, 43.1940137], [18.0077561, 43.1939518], [18.0076977, 43.1938938], [18.0076341, 43.1938435], [18.0075598, 43.1937971], [18.0074802, 43.1937584], [18.0074165, 43.1937081], [18.0073582, 43.1936578], [18.0073051, 43.1935998], [18.007252, 43.1935418], [18.0072096, 43.1934876], [18.0071618, 43.1934257], [18.00713, 43.19336], [18.0071088, 43.1932865], [18.0070929, 43.193213], [18.0070929, 43.1930157], [18.0070769, 43.1929461], [18.0070875, 43.1928764], [18.0071512, 43.1928223], [18.0072149, 43.192772], [18.0072573, 43.1927101], [18.0072892, 43.1926443], [18.007321, 43.1925824], [18.0073847, 43.1925321], [18.0074643, 43.1925012], [18.0075439, 43.1924664], [18.0076128, 43.19242], [18.0076924, 43.1923658], [18.0077667, 43.192331], [18.007841, 43.1922846], [18.0079153, 43.1922459], [18.0079896, 43.1922033], [18.0080638, 43.192153], [18.0081381, 43.1920989], [18.0081912, 43.1920409], [18.0082389, 43.1919867], [18.0083185, 43.1919557], [18.0084087, 43.1919441], [18.0085042, 43.1919325], [18.0085891, 43.1919055], [18.0086634, 43.191859], [18.0087218, 43.1917971], [18.0087589, 43.1917352], [18.0088173, 43.191685], [18.0089022, 43.1916617], [18.0089924, 43.1916579], [18.0091463, 43.1916153], [18.0092206, 43.1915689], [18.0092312, 43.1914993], [18.0092312, 43.1914335], [18.0092577, 43.1913639], [18.009332, 43.1913291], [18.0094116, 43.191302], [18.0094912, 43.191271], [18.0095707, 43.1912362], [18.0096663, 43.1912207], [18.0097618, 43.1912053], [18.0098467, 43.1911821], [18.0099156, 43.1911356], [18.0099899, 43.1910931], [18.0100801, 43.1910815], [18.0101756, 43.1910853], [18.0102658, 43.191097], [18.010356, 43.1911047], [18.0104515, 43.1910931], [18.0106319, 43.1910273], [18.0112634, 43.1908146], [18.0113483, 43.1907875], [18.0114278, 43.1907604], [18.0114968, 43.1907178], [18.0115817, 43.1906908], [18.0116719, 43.1906676], [18.0117674, 43.1906559], [18.0118576, 43.1906559], [18.0119478, 43.1906676], [18.0120433, 43.1906753], [18.0121389, 43.1906714], [18.0122344, 43.1906482], [18.0123193, 43.1906289], [18.0124042, 43.1905941], [18.0124997, 43.1905747], [18.0125952, 43.190567], [18.0126907, 43.190567], [18.0127809, 43.1905554], [18.0128605, 43.1905167], [18.0128976, 43.1904548], [18.0128976, 43.190389], [18.0128817, 43.1903233], [18.0128499, 43.1902614], [18.0128127, 43.1901995], [18.0127703, 43.1901414], [18.0127225, 43.1900834], [18.0126005, 43.1899403], [18.0125686, 43.1898784], [18.0125633, 43.1898126], [18.0125739, 43.1897468], [18.0126111, 43.1896849], [18.0126748, 43.1896347], [18.0127543, 43.189596], [18.0128392, 43.189565], [18.0129294, 43.1895457], [18.0130303, 43.1895379], [18.0132054, 43.1895225], [18.0133009, 43.1895109], [18.0133858, 43.1894722], [18.0134494, 43.1894219], [18.0135184, 43.1893793], [18.0135927, 43.1893329], [18.0136723, 43.1892942], [18.0137625, 43.1892787], [18.0138845, 43.1892207], [18.0139482, 43.1891743], [18.01398, 43.1891124], [18.01398, 43.1890466], [18.0139747, 43.188977], [18.0139482, 43.1889112], [18.013927, 43.1888455], [18.0139004, 43.1887797], [18.0138633, 43.1887217], [18.0138049, 43.1886675], [18.0137413, 43.188625], [18.013667, 43.1885901], [18.0135821, 43.1885669], [18.0134919, 43.1885476], [18.013407, 43.1885398], [18.0133221, 43.188536], [18.0132372, 43.1885321], [18.0131417, 43.1885166], [18.0130621, 43.1884818], [18.0129719, 43.1884586], [18.012887, 43.1884393], [18.0127968, 43.1884238], [18.0127119, 43.1884238], [18.012627, 43.1884315], [18.0125421, 43.188447], [18.0124625, 43.1884702], [18.0123723, 43.1884741], [18.0121229, 43.1885244], [18.0119425, 43.1885244], [18.011847, 43.1885166], [18.011794, 43.1884625], [18.0117727, 43.1884006], [18.0117621, 43.1883348], [18.0117303, 43.1882729], [18.0116931, 43.1882071], [18.0116507, 43.1881452], [18.0116083, 43.1880833], [18.0115605, 43.1880253], [18.011518, 43.1879712], [18.011465, 43.187917], [18.0114172, 43.187859], [18.0113695, 43.1878009], [18.0113164, 43.187739], [18.011274, 43.1876771], [18.0112474, 43.1876114], [18.0112262, 43.1875456], [18.011205, 43.1874798], [18.0111679, 43.1874179], [18.0111254, 43.1873599], [18.011067, 43.1873096], [18.0109026, 43.1871745], [18.0108442, 43.1871164], [18.0107805, 43.18707], [18.0107168, 43.1870159], [18.0106638, 43.1869656], [18.0106107, 43.1869114], [18.010563, 43.1868534], [18.0105099, 43.1868031], [18.0104515, 43.1867528], [18.0103879, 43.1866986], [18.0103242, 43.1866445], [18.0102499, 43.1865942], [18.0101756, 43.1865439], [18.0101067, 43.1865052], [18.0100377, 43.1864588], [18.0099581, 43.1864162], [18.0098838, 43.1863659], [18.0098095, 43.1863234], [18.0097352, 43.1862847], [18.0096503, 43.1862498], [18.0095654, 43.1862228], [18.0094912, 43.1861957], [18.0094169, 43.1861609], [18.0093373, 43.1861106], [18.0092736, 43.1860603], [18.0092099, 43.1860139], [18.0091357, 43.1859752], [18.0090561, 43.1859442], [18.0089712, 43.1859133], [18.0088916, 43.1858784], [18.0087324, 43.1858049], [18.0086687, 43.1857585], [18.0086157, 43.1857043], [18.0085626, 43.1856502], [18.0084936, 43.1856154], [18.0084193, 43.1855767], [18.0083451, 43.1855496], [18.0082602, 43.1855186], [18.0081859, 43.1854916], [18.0081116, 43.1854645], [18.0080267, 43.1854335], [18.0079418, 43.1854064], [18.0078569, 43.1853871], [18.0077773, 43.1853678], [18.0076924, 43.18536], [18.0076022, 43.1853678], [18.0075279, 43.1853948], [18.007443, 43.1854181], [18.0073528, 43.1854297], [18.0072679, 43.1854219], [18.0071777, 43.1854064], [18.0070929, 43.1853794], [18.0070186, 43.1853523], [18.0069337, 43.1853136], [18.0068594, 43.1852594], [18.006801, 43.1852014], [18.006748, 43.1851511], [18.0066949, 43.1851008], [18.0066365, 43.1850505], [18.0065729, 43.185008], [18.0064243, 43.1849228], [18.0063553, 43.184888], [18.0062916, 43.1848416], [18.006228, 43.1847913], [18.0060396, 43.1846714], [18.00596, 43.1846365], [18.0059202, 43.1846211], [18.0058831, 43.1846037], [18.0058433, 43.1845824], [18.0058088, 43.1845592], [18.005777, 43.184534], [18.0057478, 43.1845108], [18.0057213, 43.1844837], [18.0056894, 43.1844566], [18.0056629, 43.1844276], [18.0056417, 43.1844005], [18.0055761, 43.1842361], [18.0055255, 43.1840802], [18.0055236, 43.1840175], [18.0055133, 43.1839621], [18.0054748, 43.183902], [18.0054101, 43.1838466], [18.0052431, 43.1837809], [18.005094, 43.1837399], [18.0049599, 43.1837139], [18.0047704, 43.183694], [18.0046315, 43.1836637], [18.0045093, 43.1836278], [18.0048011, 43.1834525], [18.0049134, 43.1833756], [18.004997, 43.1833021], [18.0050792, 43.1832315], [18.0052185, 43.1830496], [18.0052769, 43.1829017], [18.005318, 43.1828465], [18.0053618, 43.182773], [18.0054122, 43.1826192], [18.0054639, 43.1824277], [18.0055249, 43.1823058], [18.0055448, 43.1821975], [18.0055541, 43.1821008], [18.0055992, 43.1820234], [18.0056748, 43.1819663], [18.0060303, 43.1818145], [18.006354, 43.1816732], [18.0063912, 43.1816471], [18.0065026, 43.1815813], [18.0065888, 43.1814401], [18.0066817, 43.1813511], [18.0066949, 43.1813047], [18.006752, 43.1812534], [18.0067904, 43.1811722], [18.0068382, 43.1811383], [18.0068912, 43.1811161], [18.0069536, 43.1810803], [18.007012, 43.1810648], [18.007199, 43.1810136], [18.007317, 43.1809662], [18.0074059, 43.1809478], [18.0074829, 43.1809207], [18.0075585, 43.1808849], [18.0077561, 43.1808056], [18.0078331, 43.1807572], [18.0078516, 43.1807476], [18.0080121, 43.1806905], [18.0081315, 43.180617], [18.0082575, 43.1805144], [18.0084313, 43.1804071], [18.0085958, 43.1803394], [18.0086157, 43.1803297], [18.0086343, 43.1803181], [18.0086515, 43.1803065], [18.0086688, 43.1802949], [18.0086886, 43.1802842], [18.0087085, 43.1802707], [18.0087271, 43.1802581], [18.008747, 43.1802475], [18.0087669, 43.1802359], [18.0087868, 43.1802252], [18.0088253, 43.180201], [18.0088452, 43.1801875], [18.0088611, 43.180174], [18.0088797, 43.1801633], [18.0088996, 43.1801517], [18.0089221, 43.1801469], [18.0089447, 43.1801478], [18.0089685, 43.1801517], [18.0089911, 43.1801517], [18.0090136, 43.1801498], [18.0090349, 43.180144], [18.0090601, 43.1801411], [18.0090879, 43.180142], [18.0091118, 43.180143], [18.0091344, 43.1801488], [18.0091543, 43.1801565], [18.0091715, 43.1801682], [18.0091901, 43.1801807], [18.0092166, 43.1801894], [18.0092405, 43.1801923], [18.009263, 43.1801933], [18.0092856, 43.1801952], [18.0093095, 43.1801981], [18.0093347, 43.1802039], [18.0093585, 43.1802107], [18.0093811, 43.1802165], [18.0094023, 43.1802204], [18.0094302, 43.1802252], [18.0095018, 43.1802252], [18.0095495, 43.1802223], [18.0095721, 43.1802146], [18.0095933, 43.1802068], [18.0096159, 43.1802001], [18.0096424, 43.1801981], [18.0096663, 43.1801991], [18.0096915, 43.1802039], [18.009714, 43.1802097], [18.0097379, 43.1802136], [18.0097631, 43.1802126], [18.0097883, 43.1802107], [18.0098162, 43.1802088], [18.0098414, 43.1802078], [18.0098944, 43.1802097], [18.009917, 43.1802155], [18.0099382, 43.1802223], [18.0099581, 43.1802301], [18.0099793, 43.1802388], [18.0100019, 43.1802446], [18.0100271, 43.1802484], [18.0100563, 43.1802533], [18.0101558, 43.1802523], [18.0101796, 43.1802513], [18.0102022, 43.1802455], [18.0102247, 43.1802417], [18.010246, 43.1802349], [18.0102685, 43.180232], [18.010299, 43.180232], [18.0103229, 43.1802368], [18.0103454, 43.1802436], [18.0103733, 43.1802455], [18.0103959, 43.1802426], [18.0104184, 43.1802378], [18.010441, 43.1802301], [18.0104622, 43.1802204], [18.0104807, 43.1802097], [18.0105006, 43.1801991], [18.0105219, 43.1801894], [18.0105444, 43.1801778], [18.0105683, 43.1801652], [18.0105882, 43.1801556], [18.0106107, 43.1801469], [18.0106346, 43.1801382], [18.0106572, 43.1801324], [18.010681, 43.1801266], [18.0107023, 43.1801217], [18.0107301, 43.1801149], [18.0107527, 43.1801101], [18.0107766, 43.1801033], [18.0108203, 43.1800927], [18.0108694, 43.1800821], [18.0108906, 43.1800772], [18.0109185, 43.1800714], [18.010945, 43.1800656], [18.0109676, 43.1800608], [18.0109915, 43.1800569], [18.0110153, 43.180053], [18.0110631, 43.1800482], [18.011087, 43.1800443], [18.0111122, 43.1800443], [18.0111374, 43.1800453], [18.0111599, 43.1800482], [18.0111838, 43.1800521], [18.0112289, 43.1800598], [18.0112501, 43.1800646], [18.0112713, 43.1800695], [18.0112952, 43.1800743], [18.0113191, 43.1800772], [18.0113416, 43.1800821], [18.011404, 43.1800859], [18.0114239, 43.1800937], [18.0114451, 43.1801004], [18.011465, 43.1801091], [18.0114823, 43.1801217], [18.0115008, 43.1801343], [18.01153, 43.1801652], [18.0115406, 43.1801798], [18.0115512, 43.1801962], [18.0115618, 43.1802136], [18.0115711, 43.1802301], [18.0115804, 43.1802455], [18.0115897, 43.1802639], [18.011599, 43.1802784], [18.0116109, 43.1802929], [18.0116229, 43.1803065], [18.0116321, 43.18032], [18.0116481, 43.1803316], [18.011668, 43.1803413], [18.0116892, 43.1803471], [18.011717, 43.1803452], [18.0117369, 43.1803374], [18.0117476, 43.180321], [18.0117568, 43.1803055], [18.0117688, 43.18029], [18.0117873, 43.1802784], [18.0118099, 43.1802765], [18.0118351, 43.1802813], [18.011859, 43.1802823], [18.0118815, 43.1802813], [18.0119028, 43.1802765], [18.0119253, 43.1802697], [18.0119479, 43.1802649], [18.0119744, 43.1802639], [18.0119969, 43.1802668], [18.0120341, 43.1802833], [18.0120553, 43.180291], [18.0120765, 43.1802958], [18.0121004, 43.1802987], [18.0121243, 43.1802987], [18.0122132, 43.1802755], [18.0122105, 43.180291], [18.0122185, 43.1803074], [18.0122304, 43.1803219], [18.0122463, 43.1803345], [18.0122636, 43.1803471], [18.0122835, 43.1803568], [18.012306, 43.1803674], [18.0123246, 43.1803771], [18.0123405, 43.1803897], [18.0123564, 43.1804042], [18.0123684, 43.1804177], [18.0123803, 43.1804351], [18.0123883, 43.1804496], [18.0123949, 43.1804651], [18.0124002, 43.1804806], [18.0124068, 43.180497], [18.0124121, 43.1805135], [18.0124334, 43.1805309], [18.0124533, 43.1805396], [18.0124758, 43.1805502], [18.0124957, 43.1805589], [18.0125143, 43.1805686], [18.0125328, 43.1805792], [18.0125461, 43.1805938], [18.0125527, 43.1806102], [18.0125647, 43.1806237], [18.0125766, 43.1806373], [18.0126098, 43.1806634], [18.012627, 43.180675], [18.0126482, 43.1806818], [18.0126695, 43.1806856], [18.012692, 43.1806856], [18.0127186, 43.1806847], [18.0127424, 43.1806827], [18.0127663, 43.1806827], [18.0127915, 43.1806856], [18.0128101, 43.1806934], [18.0128287, 43.1807031], [18.0128525, 43.1807069], [18.0128751, 43.180704], [18.012895, 43.1806953], [18.0129135, 43.1806856], [18.0129308, 43.180674], [18.0129533, 43.1806682], [18.0129759, 43.1806682], [18.0129998, 43.1806731], [18.013021, 43.1806789], [18.0130396, 43.1806876], [18.0130581, 43.1806992], [18.0130741, 43.1807118], [18.01309, 43.1807243], [18.0131112, 43.1807388], [18.0131284, 43.1807495], [18.013147, 43.1807582], [18.0131656, 43.1807688], [18.0132001, 43.1807766], [18.0132186, 43.1807862], [18.0132332, 43.1807988], [18.0132465, 43.1808124], [18.0132571, 43.1808269], [18.0132677, 43.1808433], [18.0132757, 43.1808588], [18.013285, 43.1808723], [18.0132969, 43.1808859], [18.0133102, 43.1808994], [18.0133287, 43.180912], [18.0133712, 43.1809313], [18.0133924, 43.1809362], [18.0134163, 43.18094], [18.0134415, 43.180942], [18.0134707, 43.1809429], [18.0134932, 43.180942], [18.0135171, 43.1809342], [18.013529, 43.1809178], [18.0135423, 43.1809033], [18.0135635, 43.1808955], [18.0135861, 43.1809014], [18.013598, 43.1809149], [18.01361, 43.1809275], [18.0136272, 43.1809391], [18.013667, 43.1809584], [18.0136895, 43.1809623], [18.0137121, 43.1809623], [18.0137373, 43.1809565], [18.0137585, 43.1809468], [18.0137705, 43.1809333], [18.0137771, 43.1809159], [18.0137917, 43.1809014], [18.0138156, 43.1808965], [18.0138394, 43.1808984], [18.0138607, 43.1809062], [18.0138753, 43.1809178], [18.0138859, 43.1809323], [18.0138978, 43.1809468], [18.0139137, 43.1809613], [18.013931, 43.180972], [18.0139522, 43.1809797], [18.0139774, 43.1809855], [18.0140132, 43.1809903], [18.0140371, 43.1809903], [18.014061, 43.1809884], [18.0140848, 43.1809836], [18.0141061, 43.180971], [18.014122, 43.1809565], [18.0141379, 43.180941], [18.0141512, 43.1809265], [18.0141711, 43.1809188], [18.0141949, 43.1809168], [18.0142175, 43.180912], [18.01424, 43.1809052], [18.0142613, 43.1808955], [18.0142812, 43.1808868], [18.0143037, 43.1808801], [18.0143249, 43.1808733], [18.0143475, 43.1808723], [18.0143674, 43.180882], [18.0143833, 43.1808936], [18.0144045, 43.1809043], [18.0144284, 43.1809052], [18.014451, 43.1809023], [18.0144735, 43.1808965], [18.0145, 43.1808984], [18.0145213, 43.1809062], [18.0145451, 43.1809139], [18.0145703, 43.1809178], [18.0145969, 43.1809197], [18.0146194, 43.1809226], [18.014646, 43.1809284], [18.0146659, 43.1809352], [18.0146844, 43.1809449], [18.014699, 43.1809575], [18.0147136, 43.1809729], [18.0147216, 43.1809884], [18.0147269, 43.1810049], [18.0147322, 43.1810223], [18.0147362, 43.1810416], [18.0147415, 43.1810571], [18.0147494, 43.1810745], [18.01476, 43.181089], [18.0147839, 43.1811161], [18.0148038, 43.1811267], [18.0148264, 43.1811335], [18.0148489, 43.1811393], [18.0148728, 43.1811451], [18.0148927, 43.1811509], [18.0149139, 43.1811567], [18.0149365, 43.1811635], [18.0149816, 43.181179], [18.0150028, 43.1811867], [18.015024, 43.1811935], [18.0150452, 43.1812012], [18.0150651, 43.1812099], [18.0151049, 43.1812235], [18.0151248, 43.1812293], [18.015146, 43.181236], [18.0151911, 43.1812534], [18.015211, 43.1812621], [18.0152309, 43.1812699], [18.0152522, 43.1812776], [18.0152734, 43.1812863], [18.015292, 43.181295], [18.0153145, 43.1813037], [18.0153371, 43.1813115], [18.0153609, 43.1813192], [18.0153835, 43.181326], [18.0154074, 43.1813347], [18.0154498, 43.1813444], [18.0154724, 43.1813511], [18.0154949, 43.1813569], [18.0155228, 43.1813627], [18.0155453, 43.1813695], [18.0155957, 43.1813831], [18.0156196, 43.1813908], [18.0156408, 43.1813976], [18.0156634, 43.1814043], [18.0156846, 43.1814111], [18.0157058, 43.1814179], [18.0157297, 43.1814256], [18.0157562, 43.1814343], [18.0157801, 43.181443], [18.0157987, 43.1814508], [18.0158199, 43.1814566], [18.0158942, 43.181473], [18.0159181, 43.1814778], [18.0159499, 43.1814827], [18.0159738, 43.1814837], [18.015999, 43.1814856], [18.0160255, 43.1814885], [18.0160534, 43.1814895], [18.0160759, 43.1814895], [18.0161011, 43.1814875], [18.0161237, 43.1814827], [18.0161449, 43.1814759], [18.01619, 43.1814643], [18.0162125, 43.1814595], [18.0162417, 43.1814546], [18.0162669, 43.1814508], [18.0162908, 43.1814498], [18.0163134, 43.1814459], [18.0163359, 43.181443], [18.0163585, 43.1814382], [18.0163797, 43.1814334], [18.0164022, 43.1814256], [18.0164221, 43.181415], [18.0164354, 43.1814014], [18.01645, 43.1813869], [18.0164659, 43.1813724], [18.0164805, 43.1813589], [18.0164964, 43.1813453], [18.0165137, 43.1813337], [18.0165362, 43.181325], [18.0165601, 43.1813241], [18.016584, 43.181326], [18.0166052, 43.1813308], [18.0166238, 43.1813405], [18.0166384, 43.1813531], [18.0166662, 43.1813792], [18.0166795, 43.1813927], [18.0166967, 43.1814053], [18.016714, 43.1814169], [18.0167339, 43.1814256], [18.0167564, 43.1814324], [18.016775, 43.181443], [18.0167936, 43.1814537], [18.0168267, 43.1814769], [18.0168426, 43.1814904], [18.0168546, 43.1815049], [18.0168904, 43.1815272], [18.016909, 43.1815359], [18.0169315, 43.1815407], [18.0169541, 43.1815446], [18.0169779, 43.1815456], [18.0170005, 43.1815436], [18.0170244, 43.1815398], [18.0170443, 43.181532], [18.0170628, 43.1815185], [18.0170933, 43.1814924], [18.0171132, 43.1814807], [18.0171331, 43.181472], [18.0171557, 43.1814682], [18.0171796, 43.1814691], [18.0172008, 43.1814788], [18.0172154, 43.1814924], [18.017222, 43.1815088], [18.017222, 43.1815252], [18.0172194, 43.1815407], [18.0172101, 43.1815552], [18.0172021, 43.1815697], [18.0171942, 43.1815852], [18.0171902, 43.1816007], [18.0171902, 43.1816326], [18.0171955, 43.1816655], [18.0172087, 43.1816984], [18.0172167, 43.1817148], [18.0172313, 43.1817419], [18.0172419, 43.1817574], [18.0172512, 43.1817738], [18.0172605, 43.1817903], [18.0172698, 43.1818087], [18.0172764, 43.1818232], [18.017283, 43.1818386], [18.0172897, 43.1818551], [18.017295, 43.1818715], [18.017299, 43.1818889], [18.0173003, 43.1819054], [18.0173016, 43.1819228], [18.0173029, 43.1819402], [18.0173056, 43.1819566], [18.0173096, 43.1819731], [18.0173149, 43.1819905], [18.0173202, 43.1820069], [18.0173255, 43.1820224], [18.0173334, 43.1820369], [18.0173414, 43.1820524], [18.017352, 43.1820679], [18.0173666, 43.1820805], [18.0173825, 43.1820921], [18.0173984, 43.1821046], [18.0174144, 43.1821162], [18.0174316, 43.1821269], [18.0174687, 43.1821491], [18.0174873, 43.1821569], [18.0175125, 43.1821636], [18.0175377, 43.1821665], [18.0175603, 43.1821665], [18.0175841, 43.1821617], [18.0176054, 43.1821549], [18.0176266, 43.1821482], [18.0176478, 43.1821404], [18.0176704, 43.1821308], [18.0176916, 43.182123], [18.0177168, 43.1821143], [18.0177367, 43.1821066], [18.0177579, 43.1820998], [18.0177805, 43.1820911], [18.0178017, 43.1820805], [18.0178203, 43.1820708], [18.0178362, 43.1820572], [18.0178494, 43.1820427], [18.0178614, 43.1820263], [18.017868, 43.1820089], [18.0178747, 43.1819915], [18.01788, 43.1819741], [18.0178906, 43.1819586], [18.0179105, 43.1819479], [18.017933, 43.181946], [18.0179556, 43.1819508], [18.0179768, 43.1819595], [18.017994, 43.1819721], [18.0180086, 43.1819857], [18.0180245, 43.1819982], [18.0180431, 43.182006], [18.0180643, 43.1820118], [18.0180882, 43.1820147], [18.0181094, 43.1820205], [18.018128, 43.1820302], [18.0181479, 43.1820418], [18.0181718, 43.1820447], [18.0181943, 43.1820418], [18.0182049, 43.1820273], [18.0182169, 43.1820127], [18.0182355, 43.1820021], [18.018258, 43.1819992], [18.0182832, 43.1820021], [18.0183058, 43.1820089], [18.0183296, 43.1820118], [18.0183522, 43.1820118], [18.0183747, 43.1820098], [18.0183973, 43.1820069], [18.0184185, 43.1820011], [18.0184411, 43.1819953], [18.0184875, 43.1819808], [18.0185074, 43.1819741], [18.0185286, 43.1819653], [18.0185498, 43.1819566], [18.0185711, 43.1819489], [18.0186173, 43.1819193], [18.0186339, 43.1819053], [18.0186405, 43.181898], [18.0186531, 43.1818748], [18.0186571, 43.1818661], [18.0186677, 43.1818511], [18.0186783, 43.1818477], [18.0186903, 43.1818477], [18.0187009, 43.1818501], [18.0187102, 43.181855], [18.0187161, 43.1818622], [18.0187208, 43.18187], [18.0187248, 43.1818772], [18.0187281, 43.1818859], [18.0187321, 43.1818951], [18.0187367, 43.1819024], [18.018742, 43.1819096], [18.0187466, 43.1819169], [18.018752, 43.1819251], [18.0187579, 43.1819329], [18.0187639, 43.1819396], [18.0187692, 43.1819464], [18.0187825, 43.1819599], [18.0187891, 43.1819662], [18.0188024, 43.1819793], [18.0188116, 43.1819846], [18.0188362, 43.182002], [18.0188455, 43.1820073], [18.0188892, 43.1820368], [18.0189556, 43.1820649], [18.0190259, 43.1821065], [18.019124, 43.1821519], [18.0192498, 43.1822206], [18.0192986, 43.1822576], [18.0193492, 43.1822904], [18.0194111, 43.182419], [18.019473, 43.1825913], [18.0195244, 43.1827269], [18.0195562, 43.1827888], [18.0195881, 43.1828468], [18.0196199, 43.1829087], [18.0196464, 43.1829706], [18.0196836, 43.1830287], [18.0197154, 43.1830945], [18.0197897, 43.1832105], [18.019864, 43.1833343], [18.0198958, 43.1833962], [18.0199701, 43.1835123], [18.0200125, 43.1835703], [18.0200603, 43.1836245], [18.0200974, 43.1836864], [18.0201399, 43.1837444], [18.0201876, 43.1837947], [18.020246, 43.183845], [18.0203203, 43.1838876], [18.0204105, 43.1839108], [18.0205007, 43.1839263], [18.0205909, 43.1839379], [18.0206864, 43.1839495], [18.0207713, 43.1839727], [18.0208509, 43.1840114], [18.0209252, 43.1840501], [18.0209995, 43.1840849], [18.0210737, 43.1841236], [18.0211639, 43.1841429], [18.0212541, 43.1841545], [18.0213443, 43.1841584], [18.0215566, 43.1841413], [18.0217648, 43.184121], [18.0218736, 43.1841278], [18.0221999, 43.1841984], [18.0225077, 43.1842835], [18.0228977, 43.1844044], [18.0231709, 43.1844924], [18.0233062, 43.1845292], [18.0360635, 43.1856224], [18.0369189, 43.1856942], [18.0376974, 43.1857612], [18.038157, 43.1858022], [18.0381664, 43.1857824], [18.0381777, 43.1857715], [18.0381899, 43.1857632], [18.0382227, 43.1857462], [18.0382414, 43.1857379], [18.0382602, 43.1857332], [18.0382761, 43.1857291], [18.0382949, 43.1857277], [18.0383165, 43.1857277], [18.0383371, 43.1857297], [18.0383587, 43.1857338], [18.0383925, 43.1857441], [18.0384093, 43.1857503], [18.0384253, 43.1857544], [18.038445, 43.1857571], [18.0384628, 43.1857557], [18.0384806, 43.1857516], [18.0385013, 43.1857427], [18.0385153, 43.1857338], [18.038565, 43.1857079], [18.0385801, 43.185701], [18.0386007, 43.1856949], [18.0386241, 43.1856894], [18.0386466, 43.185688], [18.0387348, 43.1856873], [18.0387517, 43.1856867], [18.0387676, 43.1856805], [18.0387817, 43.1856709], [18.0387948, 43.1856607], [18.0388127, 43.1856525], [18.0388296, 43.1856463], [18.0388446, 43.1856429], [18.0388633, 43.1856422], [18.0388868, 43.1856456], [18.0389018, 43.1856511], [18.0389196, 43.1856613], [18.0389346, 43.185673], [18.0389477, 43.1856846], [18.0389855, 43.1856948], [18.0390359, 43.1856948], [18.0390836, 43.1856832], [18.0391234, 43.1856677], [18.0391606, 43.1856464], [18.039203, 43.1856251], [18.0392428, 43.1856058], [18.0393383, 43.185571], [18.0393861, 43.1855594], [18.0394391, 43.1855497], [18.0394869, 43.18554], [18.039532, 43.1855323], [18.0395824, 43.1855226], [18.0396302, 43.1855207], [18.0396779, 43.1855168], [18.0397257, 43.1855149], [18.0397893, 43.185511], [18.0398371, 43.1855091], [18.0398981, 43.1855091], [18.0399565, 43.185511], [18.0400042, 43.1855168], [18.0400546, 43.1855265], [18.0401024, 43.1855361], [18.0401555, 43.1855439], [18.0402006, 43.1855535], [18.0402483, 43.1855632], [18.0402934, 43.185571], [18.0403465, 43.1855768], [18.0404924, 43.1855768], [18.0405401, 43.1855748], [18.0405879, 43.185571], [18.040641, 43.185569], [18.0406887, 43.1855652], [18.0407365, 43.1855632], [18.0407922, 43.1855613], [18.0408373, 43.1855594], [18.040885, 43.1855594], [18.0409354, 43.1855632], [18.0409885, 43.185569], [18.0411769, 43.1855845], [18.041222, 43.1855884], [18.0413307, 43.1855884], [18.0413785, 43.1855845], [18.0414262, 43.185571], [18.0414687, 43.1855555], [18.0415032, 43.1855323], [18.0415403, 43.1855052], [18.0415748, 43.185482], [18.041612, 43.1854626], [18.0416544, 43.1854433], [18.0416942, 43.1854239], [18.0417366, 43.1853988], [18.0417764, 43.1853756], [18.0418587, 43.1853369], [18.0418985, 43.1853214], [18.0419383, 43.1853021], [18.0419834, 43.1852827], [18.0420258, 43.1852653], [18.0420709, 43.1852498], [18.0421134, 43.1852382], [18.0421585, 43.1852286], [18.0422089, 43.185217], [18.042254, 43.1852054], [18.0422991, 43.1851957], [18.0423495, 43.1851918], [18.0423972, 43.1851879], [18.0425007, 43.1851841], [18.0425485, 43.1851821], [18.0425936, 43.1851821], [18.042644, 43.1851783], [18.0426917, 43.1851783], [18.0427421, 43.1851763], [18.0427925, 43.1851725], [18.0429305, 43.1851725], [18.0429809, 43.1851841], [18.0430233, 43.1851957], [18.0430711, 43.1852092], [18.0431189, 43.1852112], [18.0431666, 43.1852092], [18.0432117, 43.1852054], [18.0432489, 43.1851879], [18.0432886, 43.1851667], [18.0433284, 43.1851473], [18.0433682, 43.1851318], [18.0434107, 43.1851144], [18.0434558, 43.185097], [18.0434929, 43.1850738], [18.0435248, 43.1850487], [18.0435619, 43.1850235], [18.043599, 43.1850003], [18.0436335, 43.1849771], [18.0436707, 43.1849481], [18.0437025, 43.1849229], [18.0438511, 43.1847933], [18.044066, 43.1846521], [18.0441005, 43.1846289], [18.0441376, 43.1846076], [18.0441827, 43.1845941], [18.0442278, 43.1845979], [18.0442649, 43.1846173], [18.0442888, 43.1846463], [18.0443021, 43.1846773], [18.04431, 43.1847101], [18.0443207, 43.184745], [18.0443339, 43.1847778], [18.0443525, 43.1848069], [18.0443764, 43.1848339], [18.0444109, 43.1848572], [18.0444533, 43.1848726], [18.0444984, 43.1848862], [18.0445409, 43.1848939], [18.0445913, 43.1848997], [18.0446364, 43.1848997], [18.0446815, 43.1848958], [18.0447266, 43.1848881], [18.0447717, 43.1848784], [18.0448141, 43.1848649], [18.0448539, 43.1848475], [18.0448911, 43.1848262], [18.0449282, 43.1847972], [18.0449813, 43.1847392], [18.0450025, 43.1847101], [18.045029, 43.1846811], [18.0450608, 43.184654], [18.0451006, 43.1846328], [18.0451457, 43.1846289], [18.0451855, 43.1846463], [18.0452413, 43.1846521], [18.045289, 43.1846463], [18.0453235, 43.1846231], [18.0453659, 43.1846018], [18.0454031, 43.1845844], [18.0454482, 43.184567], [18.0454853, 43.1845438], [18.0455172, 43.1845186], [18.0455543, 43.1844935], [18.0455835, 43.1844683], [18.0456153, 43.1844451], [18.0456472, 43.18442], [18.0456843, 43.184389], [18.045748, 43.1843349], [18.0457745, 43.1843078], [18.0458037, 43.1842788], [18.0458329, 43.1842517], [18.0458674, 43.1842304], [18.0459125, 43.1842188], [18.0459602, 43.1842111], [18.0460584, 43.1842111], [18.0461061, 43.1842072], [18.0461512, 43.1842014], [18.0461963, 43.1841898], [18.0462361, 43.1841743], [18.0462733, 43.184153], [18.0463131, 43.1841317], [18.0463608, 43.1841221], [18.0464165, 43.1841201], [18.0464616, 43.1841221], [18.0465067, 43.1841259], [18.0465545, 43.1841317], [18.0466022, 43.1841395], [18.0466473, 43.1841395], [18.0466951, 43.1841356], [18.0467375, 43.1841221], [18.0467747, 43.1840989], [18.0468065, 43.1840718], [18.046841, 43.1840428], [18.0468782, 43.1840234], [18.0469153, 43.184006], [18.0469551, 43.1839905], [18.0469975, 43.1839789], [18.0470453, 43.1839789], [18.0470904, 43.1839809], [18.0471381, 43.1839925], [18.0471806, 43.184006], [18.047231, 43.1840137], [18.0472814, 43.1840157], [18.0474724, 43.1840195], [18.0475202, 43.1840253], [18.0475653, 43.184035], [18.0476024, 43.1840563], [18.0476369, 43.1840814], [18.0476502, 43.1841163], [18.0476502, 43.1841492], [18.0476555, 43.1841801], [18.047674, 43.1842091], [18.0476979, 43.1842343], [18.0477404, 43.1842517], [18.0477855, 43.1842613], [18.0478332, 43.1842594], [18.047881, 43.1842536], [18.0479287, 43.184242], [18.0479738, 43.1842285], [18.0480534, 43.1841898], [18.0480985, 43.1841878], [18.0481436, 43.1841898], [18.0481861, 43.1841994], [18.0482285, 43.1842111], [18.048271, 43.1842207], [18.0483161, 43.1842304], [18.0483638, 43.1842381], [18.0484089, 43.1842401], [18.0485363, 43.1842323], [18.0485814, 43.1842362], [18.0486291, 43.1842478], [18.048661, 43.184271], [18.0486795, 43.184302], [18.0486928, 43.1843329], [18.0487087, 43.1843639], [18.0487246, 43.1843929], [18.0487565, 43.1844219], [18.0488016, 43.1844316], [18.0488493, 43.1844316], [18.048905, 43.1844296], [18.0489554, 43.1844238], [18.0490032, 43.1844142], [18.0490483, 43.1843987], [18.0490854, 43.1843774], [18.0491173, 43.1843503], [18.0491465, 43.1843213], [18.0491756, 43.1842942], [18.0492075, 43.1842691], [18.0492473, 43.1842497], [18.049295, 43.1842401], [18.0493401, 43.1842343], [18.0493879, 43.1842362], [18.0496346, 43.1842362], [18.0497275, 43.1842323], [18.0497779, 43.1842246], [18.049823, 43.1842169], [18.0498654, 43.1842053], [18.0499556, 43.1841743], [18.0499954, 43.184153], [18.0500352, 43.1841337], [18.0500671, 43.1841085], [18.0501015, 43.1840834], [18.0501334, 43.1840563], [18.0501705, 43.1840311], [18.0502448, 43.1839925], [18.0502873, 43.1839789], [18.050335, 43.183977], [18.0503828, 43.183977], [18.0504305, 43.1839828], [18.0504756, 43.1839963], [18.0505128, 43.1840157], [18.0505234, 43.1840486], [18.0505181, 43.1840795], [18.0505021, 43.1841085], [18.0504836, 43.1841356], [18.0504703, 43.1841801], [18.0504809, 43.1843155], [18.0505287, 43.1844161], [18.0505499, 43.184509], [18.0505817, 43.184625], [18.0505764, 43.1847875], [18.0506136, 43.1849384], [18.0507621, 43.1851125], [18.0509797, 43.1853485], [18.0512025, 43.1854684], [18.0515421, 43.1855381], [18.0520144, 43.185569], [18.052529, 43.1855303], [18.0531074, 43.1855303], [18.0536964, 43.1855961], [18.0540412, 43.1856774], [18.0544074, 43.1858282], [18.0546355, 43.1859404], [18.0575432, 43.1863776], [18.0590156, 43.1842459], [18.0590156, 43.183977], [18.0589068, 43.1839131], [18.0587609, 43.1836385], [18.058684, 43.1834257], [18.0585195, 43.1832322], [18.0583258, 43.1831026], [18.0559558, 43.1732167], [18.0561096, 43.1732148], [18.0564917, 43.1732206], [18.0567119, 43.173238], [18.0569374, 43.1733057], [18.0570913, 43.1733599], [18.0571868, 43.1733908], [18.0573141, 43.1734121], [18.0574733, 43.1734276], [18.0576563, 43.1734779], [18.0579376, 43.1734663], [18.0581127, 43.1734082], [18.0582559, 43.1732805], [18.0583965, 43.1730542], [18.0585, 43.17288], [18.0586088, 43.1727968], [18.0586963, 43.1727814], [18.0588184, 43.1728007], [18.0589298, 43.172853], [18.0590492, 43.1729168], [18.0592349, 43.1729381], [18.0593941, 43.172969], [18.0595771, 43.1730232], [18.0597124, 43.1730464], [18.059861, 43.1730329], [18.0599936, 43.1729768], [18.0601051, 43.1729207], [18.0602722, 43.1729149], [18.0605906, 43.1729729], [18.0609514, 43.1730619], [18.0612379, 43.173089], [18.0614236, 43.1730929], [18.0615748, 43.173118], [18.0617287, 43.1731683], [18.0619197, 43.1732012], [18.0621691, 43.1732283], [18.0624052, 43.1732302], [18.0626228, 43.173207], [18.0628615, 43.1731335], [18.0630578, 43.1730948], [18.0632329, 43.1730716], [18.0633603, 43.1730174], [18.0634611, 43.1729903], [18.063607, 43.1729207], [18.0636919, 43.1728704], [18.0637821, 43.1728143], [18.0638697, 43.1727968], [18.0639439, 43.172791], [18.0640395, 43.1727543], [18.0641111, 43.1727001], [18.0642119, 43.1726459], [18.0643525, 43.1726401], [18.0646364, 43.1726517], [18.0647266, 43.172675], [18.0649406, 43.172742], [18.0650215, 43.1727681], [18.065121, 43.1727719], [18.0652709, 43.1727468], [18.0653465, 43.1727226], [18.0654473, 43.1726626], [18.0655322, 43.1726181], [18.0656357, 43.172622], [18.0659116, 43.1725852], [18.0660535, 43.1725959], [18.0661437, 43.1725988], [18.0662034, 43.172593], [18.0662724, 43.1725678], [18.06647, 43.1724546], [18.0665722, 43.1724063], [18.066669, 43.1723918], [18.0667075, 43.1723898], [18.0667698, 43.1723937], [18.0668309, 43.1723956], [18.0668866, 43.172386], [18.0669317, 43.1723589], [18.0670696, 43.1722486], [18.067388, 43.1720319], [18.0675365, 43.171939], [18.0676559, 43.171879], [18.0678284, 43.1718287], [18.068038, 43.1717571], [18.0681706, 43.171703], [18.0683271, 43.1716585], [18.0685712, 43.1716217], [18.068879, 43.1716023], [18.0690859, 43.1715985], [18.0692875, 43.1715404], [18.0695767, 43.1714089], [18.0698845, 43.1712773], [18.0700171, 43.1712444], [18.0701179, 43.1712425], [18.07024, 43.1712154], [18.0703408, 43.1711689], [18.0705742, 43.171136], [18.070789, 43.1711161], [18.0709353, 43.1711271], [18.0710235, 43.1711394], [18.071167, 43.1711989], [18.0712636, 43.1712523], [18.0713649, 43.17132], [18.0713996, 43.171333], [18.0714455, 43.1713419], [18.0715121, 43.1713309], [18.0715878, 43.1712932], [18.0718239, 43.1711461], [18.0719725, 43.1710571], [18.0720233, 43.171034], [18.0720786, 43.1710184], [18.0722961, 43.170972], [18.0727472, 43.1707959], [18.0730469, 43.1706527], [18.0734157, 43.170438], [18.073482, 43.1703896], [18.0735935, 43.170318], [18.0737394, 43.1702599], [18.0739224, 43.1701709], [18.0741028, 43.1701071], [18.0742567, 43.1700278], [18.0743496, 43.169931], [18.0744345, 43.1697994], [18.0745538, 43.1696408], [18.0746573, 43.1695537], [18.0748006, 43.1694744], [18.0752277, 43.1692306], [18.0754824, 43.16907], [18.0756363, 43.1689403], [18.0757583, 43.1687952], [18.0758114, 43.1686675], [18.0758485, 43.1684334], [18.0758697, 43.1683463], [18.0759307, 43.1682979], [18.076082, 43.168207], [18.0762571, 43.1680831], [18.0764162, 43.1679554], [18.0766603, 43.1677716], [18.0768115, 43.1676962], [18.0769628, 43.1676613], [18.0771007, 43.1676536], [18.0772705, 43.1676787], [18.0777985, 43.1677755], [18.0779046, 43.1677852], [18.0780187, 43.1677658], [18.0781036, 43.1677387], [18.0781991, 43.1676942], [18.0782707, 43.1676633], [18.0783556, 43.1676458], [18.0784113, 43.167642], [18.0784723, 43.1676439], [18.0785731, 43.16764], [18.078719, 43.1675897], [18.0789154, 43.1675123], [18.0791197, 43.1674678], [18.0794752, 43.1674175], [18.0797564, 43.1673904], [18.0802313, 43.1673208], [18.0806106, 43.1672511], [18.0810139, 43.1671892], [18.0812155, 43.1671679], [18.0813376, 43.1671718], [18.0814676, 43.1671931], [18.0816055, 43.1672221], [18.0818098, 43.1672337], [18.0820592, 43.1672182], [18.0823457, 43.1671892], [18.0824996, 43.1671582], [18.0826587, 43.1671273], [18.0828604, 43.1671021], [18.0829559, 43.1670905], [18.0830381, 43.1670576], [18.0831124, 43.1669996], [18.0832106, 43.1668506], [18.0833326, 43.1667151], [18.0834202, 43.1666532], [18.0836032, 43.1665913], [18.0838685, 43.1664887], [18.0841126, 43.1663223], [18.0843036, 43.1661365], [18.0844124, 43.1659256], [18.0844787, 43.1657495], [18.0845556, 43.1654786], [18.0845795, 43.1652484], [18.0845742, 43.1651342], [18.0846087, 43.1650761], [18.0846909, 43.1650065], [18.0848528, 43.1649407], [18.0850783, 43.1648749], [18.0852773, 43.1648265], [18.0854417, 43.1648149], [18.0855558, 43.1648149], [18.0857468, 43.1648052], [18.086044, 43.1647936], [18.0864419, 43.1647723], [18.0870097, 43.164693], [18.0872405, 43.1646485], [18.0874978, 43.1645556], [18.0878852, 43.1643892], [18.0881398, 43.164277], [18.0883335, 43.1642189], [18.0884953, 43.164186], [18.0887659, 43.1641744], [18.0889915, 43.1641628], [18.0891904, 43.1641376], [18.0893231, 43.1640796], [18.0894212, 43.1639964], [18.0895008, 43.1638803], [18.0895963, 43.1637293], [18.0897157, 43.1636016], [18.0898431, 43.1635049], [18.0899678, 43.1634333], [18.0901375, 43.1633849], [18.0903551, 43.1633326], [18.0905541, 43.1632707], [18.0907239, 43.1632165], [18.0909255, 43.1631294], [18.0910741, 43.1631043], [18.0912014, 43.1631004], [18.0913685, 43.1630811], [18.0916232, 43.1630598], [18.0918753, 43.1630559], [18.0920902, 43.1630578], [18.0922069, 43.1630617], [18.0923581, 43.1630482], [18.0926101, 43.1629398], [18.0927083, 43.1628895], [18.0928012, 43.162843], [18.0929179, 43.1628101], [18.0931222, 43.1627444], [18.0932734, 43.162694], [18.0934856, 43.162634], [18.0935918, 43.1626031], [18.0937934, 43.1625354], [18.0939154, 43.1624986], [18.093987, 43.162487], [18.0940772, 43.1624657], [18.0942258, 43.1624057], [18.0943425, 43.1623902], [18.0944832, 43.1623747], [18.0945893, 43.1623089], [18.0946636, 43.1622451], [18.0948042, 43.1621812], [18.0951676, 43.1620999], [18.0953672, 43.1620639], [18.0956524, 43.1618778], [18.09599, 43.1617081], [18.0965828, 43.1614837], [18.096883, 43.1614289], [18.1026309, 43.1607831], [18.1055724, 43.1594256], [18.12061, 43.1529937], [18.1287048, 43.1476629], [18.1287854, 43.1473673], [18.1297609, 43.147188], [18.1302862, 43.1469594], [18.1304682, 43.1469101], [18.1303294, 43.146635], [18.1307477, 43.146234], [18.1294589, 43.1435061], [18.1295846, 43.1434322], [18.129684, 43.1433172], [18.1297478, 43.1432734], [18.1297328, 43.1432214], [18.1297553, 43.1431707], [18.1297722, 43.1431392], [18.1298116, 43.1431187], [18.1298435, 43.1430859], [18.1298791, 43.1430284], [18.1299504, 43.1429339], [18.1298866, 43.1428326], [18.1297684, 43.1427313], [18.1294495, 43.1424083], [18.129352, 43.1422796], [18.1293163, 43.1422386], [18.1292732, 43.1422139], [18.1292263, 43.1422071], [18.1292, 43.1422057], [18.1291513, 43.1422153], [18.1290631, 43.1422153], [18.1289974, 43.1422085], [18.128913, 43.1422126], [18.1287967, 43.1422605], [18.1287588, 43.1422922], [18.1285135, 43.1425756], [18.1306848, 43.1385577], [18.1317725, 43.1365288], [18.1325684, 43.1350149], [18.1328051, 43.1345289], [18.1329449, 43.1344987], [18.1331447, 43.134418], [18.1333294, 43.1343119], [18.1334737, 43.134176], [18.133483, 43.1341486], [18.133483, 43.1341158], [18.1334587, 43.1340391], [18.1333977, 43.1339659], [18.1332345, 43.1338481], [18.133196, 43.1337078], [18.1331078, 43.1335497], [18.1329578, 43.1334641], [18.1322684, 43.1307822], [18.1322121, 43.1307315], [18.1320132, 43.1307206], [18.1319307, 43.1307644], [18.13182, 43.1306302], [18.1317769, 43.1304919], [18.1316529, 43.1303707], [18.1313345, 43.1291626], [18.1299284, 43.1293755], [18.1296366, 43.1284345], [18.1295742, 43.1279877], [18.1298143, 43.1279911], [18.1297918, 43.1279204], [18.1298097, 43.1278129], [18.129929, 43.1278008], [18.1299423, 43.1276155], [18.1304603, 43.1275593], [18.1304152, 43.1273583], [18.1300186, 43.1273357], [18.1295662, 43.12722], [18.1292658, 43.1272364], [18.1291391, 43.1271948], [18.1290012, 43.1271343], [18.1290151, 43.1270205], [18.1292558, 43.1269228], [18.1292665, 43.1268235], [18.1292539, 43.1267712], [18.1292466, 43.1266856], [18.1292751, 43.1266183], [18.1293613, 43.1264948], [18.1293798, 43.1262886], [18.1294785, 43.1262421], [18.1294881, 43.1261995], [18.1295139, 43.1261656], [18.1295545, 43.1260285], [18.1296219, 43.1257207], [18.1299873, 43.125803], [18.1304015, 43.1258517], [18.1305657, 43.1257699], [18.1306897, 43.1254949], [18.1306658, 43.1254402], [18.1307195, 43.125249], [18.1306419, 43.1250757], [18.1302771, 43.1245554], [18.1308117, 43.1242768], [18.1307755, 43.1239047], [18.1307611, 43.12361], [18.1308933, 43.1228908], [18.1310143, 43.1229394], [18.1310837, 43.123014], [18.1312516, 43.1230127], [18.1314261, 43.1230271], [18.131593, 43.1229586], [18.1315508, 43.1228614], [18.1315846, 43.1227683], [18.1315302, 43.1226902], [18.1314007, 43.1225978], [18.1311419, 43.1227642], [18.1311465, 43.1227217], [18.1311587, 43.1226635], [18.1312122, 43.1225998], [18.1312901, 43.1225252], [18.1313989, 43.1224403], [18.1314701, 43.1223924], [18.1315124, 43.1223534], [18.1315246, 43.1223123], [18.1315264, 43.1222856], [18.131517, 43.1222534], [18.1314955, 43.122213], [18.1314617, 43.1221747], [18.1314045, 43.1221357], [18.1313604, 43.1221158], [18.1313332, 43.1220966], [18.1313032, 43.1220624], [18.131275, 43.1220207], [18.1312178, 43.1219693], [18.131124, 43.1219022], [18.1310752, 43.1218355], [18.1317676, 43.1217541], [18.1331498, 43.1215934], [18.1482852, 43.1204586], [18.1551432, 43.1166417], [18.1551962, 43.1159697], [18.1552413, 43.1144921], [18.1553127, 43.1144181], [18.1624199, 43.1132378], [18.1641124, 43.1129668], [18.1671037, 43.1124879], [18.1764836, 43.1110502], [18.1824702, 43.1143914], [18.1837328, 43.1139135], [18.183759, 43.1137751], [18.1838397, 43.1136204], [18.1843987, 43.1131288], [18.1844869, 43.1130726], [18.1845826, 43.1130329], [18.1848808, 43.1131], [18.1850028, 43.1131123], [18.1851304, 43.1130904], [18.1852373, 43.1130493], [18.1854174, 43.1129631], [18.1856012, 43.112848], [18.1857363, 43.1127467], [18.1857888, 43.1127042], [18.1858826, 43.1126084], [18.1859333, 43.1125618], [18.1860646, 43.1125002], [18.1861246, 43.1124344], [18.1862934, 43.112329], [18.1865617, 43.1121551], [18.1867568, 43.1120633], [18.18686, 43.1120428], [18.1868937, 43.1120003], [18.1869406, 43.1119428], [18.1870101, 43.1119031], [18.1871564, 43.1118305], [18.1872014, 43.1117976], [18.1872502, 43.1117867], [18.1873158, 43.1117894], [18.1874021, 43.1118086], [18.1875203, 43.1118373], [18.1876516, 43.1118401], [18.1878767, 43.1117552], [18.1880831, 43.1116032], [18.1881394, 43.1115388], [18.1882763, 43.111369], [18.1884977, 43.1111978], [18.1886515, 43.111154], [18.1886797, 43.1111143], [18.1887078, 43.1110526], [18.1887228, 43.110965], [18.1887509, 43.110902], [18.1888391, 43.1108102], [18.1889141, 43.1107856], [18.1890192, 43.1107568], [18.1891036, 43.1107116], [18.1891899, 43.1106267], [18.1892743, 43.1105487], [18.1893606, 43.1104774], [18.1895895, 43.1103172], [18.1900847, 43.1098214], [18.1902798, 43.1097502], [18.1903905, 43.1096817], [18.1904656, 43.1096639], [18.1905293, 43.1096174], [18.1906963, 43.1095311], [18.1907939, 43.1094969], [18.1908633, 43.1094791], [18.1909946, 43.1094667], [18.1911053, 43.1094434], [18.1912234, 43.1093722], [18.1913191, 43.1092586], [18.1914073, 43.1092558], [18.1914729, 43.1092901], [18.1915424, 43.1093202], [18.1916024, 43.1093298], [18.1916962, 43.1093243], [18.1917862, 43.1093024], [18.1919326, 43.1092093], [18.1921333, 43.10906], [18.1922683, 43.1090038], [18.1923546, 43.1089983], [18.1924428, 43.1089997], [18.1925535, 43.1090312], [18.1926923, 43.1091339], [18.1928011, 43.1091353], [18.192893, 43.1090819], [18.1929606, 43.1089395], [18.1930131, 43.1089436], [18.1931144, 43.1090504], [18.1931932, 43.1090641], [18.1933508, 43.1089641], [18.1935853, 43.1088217], [18.1938348, 43.1086929], [18.194043, 43.108582], [18.194073, 43.1085286], [18.1942081, 43.1084848], [18.1942963, 43.1084368], [18.1944351, 43.1084026], [18.1945045, 43.1083875], [18.1946058, 43.108382], [18.1946996, 43.1083903], [18.1948065, 43.1084081], [18.1948684, 43.1084108], [18.1949716, 43.1084081], [18.1951254, 43.1083766], [18.1953168, 43.1083286], [18.1953806, 43.1083232], [18.1954875, 43.1083218], [18.1955325, 43.1083218], [18.1956432, 43.1082958], [18.1956995, 43.1082547], [18.1957801, 43.1081835], [18.1958927, 43.1081081], [18.1961591, 43.1080013], [18.1966037, 43.1078602], [18.19681, 43.1077685], [18.1970408, 43.1076014], [18.1971721, 43.1075384], [18.1974647, 43.1073124], [18.1976223, 43.1071768], [18.1978249, 43.1070494], [18.1981551, 43.1067153], [18.1981663, 43.1066372], [18.1981044, 43.106581], [18.198065, 43.1065728], [18.1979863, 43.1065619], [18.19796, 43.10654], [18.1979562, 43.1065071], [18.1980031, 43.1064482], [18.1981457, 43.1063455], [18.1982489, 43.1062455], [18.1983446, 43.1061181], [18.1983915, 43.1059825], [18.1984065, 43.1055716], [18.1984459, 43.10551], [18.1985096, 43.1054251], [18.198549, 43.1053087], [18.1986485, 43.1051539], [18.1988023, 43.1050279], [18.1990687, 43.1049361], [18.1991531, 43.1048772], [18.1997553, 43.1043417], [18.199896, 43.1042924], [18.2000104, 43.104317], [18.2001455, 43.104391], [18.2002637, 43.1043746], [18.2003274, 43.1043773], [18.2005038, 43.1044417], [18.2005694, 43.1044581], [18.2010591, 43.1040924], [18.201513, 43.1037144], [18.2015618, 43.1036541], [18.201528, 43.1035884], [18.2014361, 43.1035583], [18.201378, 43.1035199], [18.2014174, 43.1034651], [18.2014586, 43.1033309], [18.2014474, 43.1032747], [18.2014661, 43.1032323], [18.2015843, 43.1031474], [18.2016068, 43.1030871], [18.2015074, 43.1030255], [18.2014999, 43.1029392], [18.2016237, 43.1028186], [18.2025261, 43.1023488], [18.2028412, 43.1021557], [18.2030401, 43.1020749], [18.2032671, 43.1020132], [18.2034453, 43.1019187], [18.2034697, 43.1018434], [18.2033477, 43.1017612], [18.2033458, 43.1017215], [18.2034396, 43.1016722], [18.2034547, 43.101579], [18.203389, 43.101516], [18.2034509, 43.1014832], [18.2035728, 43.1014352], [18.2037004, 43.101353], [18.2038261, 43.1012763], [18.2039537, 43.10119], [18.2042819, 43.1010312], [18.2043326, 43.1009901], [18.2043739, 43.1009353], [18.2044226, 43.1008778], [18.2045127, 43.1008421], [18.2045971, 43.1008353], [18.204614, 43.100801], [18.2046084, 43.1007641], [18.2046196, 43.1007106], [18.2047903, 43.100638], [18.2048841, 43.1006339], [18.2049273, 43.1006449], [18.204961, 43.1006723], [18.2049817, 43.1006969], [18.2050061, 43.1007148], [18.2050436, 43.1007148], [18.2051336, 43.100675], [18.2051862, 43.1006874], [18.2052424, 43.1006983], [18.2053306, 43.1006928], [18.2054263, 43.1006668], [18.2055332, 43.1006367], [18.2056495, 43.1006175], [18.205809, 43.1006175], [18.2058915, 43.1006353], [18.205959, 43.1006189], [18.206036, 43.1006024], [18.2061335, 43.1006079], [18.2062723, 43.1006175], [18.2064468, 43.1006107], [18.2065162, 43.1006024], [18.2067469, 43.1005682], [18.2069702, 43.1005326], [18.2073266, 43.1005024], [18.2076174, 43.1004682], [18.2078894, 43.1003751], [18.2080582, 43.1003107], [18.2082177, 43.1002093], [18.2084316, 43.1000381], [18.2085066, 43.0999915], [18.2085404, 43.0999545], [18.2085291, 43.0999121], [18.2084935, 43.0998655], [18.208546, 43.0998258], [18.208636, 43.0997847], [18.208636, 43.0997655], [18.2086492, 43.0997148], [18.2086754, 43.0996505], [18.2087767, 43.0995683], [18.2089493, 43.099445], [18.2090844, 43.0993477], [18.2091651, 43.0992847], [18.2092119, 43.0992217], [18.2092457, 43.0991286], [18.2092551, 43.099056], [18.2092982, 43.0989916], [18.2094183, 43.098919], [18.2095703, 43.0988491], [18.209741, 43.0987793], [18.2098648, 43.0987355], [18.2099998, 43.0987081], [18.2102006, 43.098667], [18.2104182, 43.098582], [18.2105045, 43.0985423], [18.2105664, 43.0984999], [18.210602, 43.0984547], [18.2105983, 43.0983903], [18.2106283, 43.0983204], [18.2107765, 43.0981574], [18.2110091, 43.0979163], [18.2112492, 43.0977273], [18.2114725, 43.0975999], [18.2116263, 43.0975492], [18.2117858, 43.0975068], [18.211964, 43.097452], [18.2120822, 43.0974054], [18.2121891, 43.0973643], [18.2122472, 43.0973424], [18.2123392, 43.0973396], [18.2124405, 43.0973629], [18.2125268, 43.0973917], [18.2125868, 43.0974026], [18.2127237, 43.0973835], [18.2129076, 43.0973328], [18.2131627, 43.0972437], [18.2133353, 43.097115], [18.2133841, 43.0970725], [18.2134066, 43.0970342], [18.2134028, 43.0970027], [18.2133616, 43.0969657], [18.2132865, 43.0969287], [18.2132359, 43.0968849], [18.213249, 43.0968136], [18.2133541, 43.0967273], [18.2134666, 43.0966958], [18.213566, 43.0966958], [18.2136561, 43.0967082], [18.2137555, 43.0967246], [18.2138343, 43.0967246], [18.2139206, 43.0967136], [18.213975, 43.0966917], [18.2140088, 43.0966698], [18.2140238, 43.0966451], [18.2140069, 43.0966082], [18.21393, 43.0965794], [18.2138043, 43.0965575], [18.2137386, 43.096541], [18.2137067, 43.0965136], [18.2137049, 43.0964671], [18.2137555, 43.0964314], [18.2138568, 43.0963917], [18.2139938, 43.0963465], [18.2140613, 43.0963191], [18.21408, 43.0962725], [18.2140294, 43.0962219], [18.2136073, 43.0960315], [18.2135735, 43.0960123], [18.213566, 43.0959794], [18.2136523, 43.0959219], [18.2137686, 43.0958808], [18.2139787, 43.0957904], [18.2141813, 43.0956671], [18.2143915, 43.0955684], [18.2147967, 43.0954808], [18.214928, 43.0954698], [18.2150818, 43.0954835], [18.2152544, 43.0955301], [18.2153407, 43.0955], [18.2153782, 43.0954452], [18.2153895, 43.0953794], [18.2153857, 43.0953411], [18.2153144, 43.0952917], [18.2152169, 43.0952534], [18.2151193, 43.0952095], [18.2150856, 43.0951685], [18.2150931, 43.0951082], [18.2151568, 43.0950424], [18.2152844, 43.0949821], [18.2154985, 43.0949077], [18.2163793, 43.0945822], [18.2165332, 43.0945048], [18.2167401, 43.0943575], [18.2169364, 43.0942878], [18.217154, 43.0942684], [18.2173503, 43.0942762], [18.2176474, 43.0942723], [18.2182417, 43.0941793], [18.2185494, 43.0941715], [18.2189673, 43.0940676], [18.21936, 43.0939281], [18.2196571, 43.0936956], [18.2198269, 43.0934709], [18.2199755, 43.0930447], [18.2201028, 43.0928045], [18.2201771, 43.0926417], [18.2203257, 43.0924325], [18.2204742, 43.0921767], [18.220782, 43.0920063], [18.2210579, 43.09189], [18.2212277, 43.0916808], [18.2213656, 43.0916963], [18.221546, 43.0916885], [18.2216946, 43.0916575], [18.2217583, 43.0915955], [18.2218326, 43.0914715], [18.2218538, 43.0913398], [18.2218856, 43.0910453], [18.2219599, 43.0908593], [18.2219811, 43.0906423], [18.2221828, 43.0903556], [18.2225329, 43.0900534], [18.2227876, 43.0897976], [18.2229999, 43.0897666], [18.2231697, 43.0896039], [18.2234668, 43.0895109], [18.2239231, 43.0892086], [18.2239762, 43.0893481], [18.2240929, 43.0894489], [18.2243264, 43.0895806], [18.2246766, 43.0896581], [18.2252602, 43.0897511], [18.2268626, 43.0897821], [18.2295687, 43.0897821], [18.2302054, 43.0898519], [18.2309058, 43.0898906], [18.2311287, 43.0900379], [18.2314789, 43.0899836], [18.2321262, 43.0899759], [18.2333253, 43.0902548], [18.234482, 43.0905493], [18.2349065, 43.0907741], [18.23514, 43.0907896], [18.2361269, 43.0912003], [18.2363391, 43.0914483], [18.2367636, 43.0918125], [18.2372518, 43.0921457], [18.2374003, 43.0923395], [18.2377824, 43.0921922], [18.2385358, 43.0923085], [18.2393105, 43.092169], [18.2421651, 43.0934205], [18.2436349, 43.0929168], [18.2509861, 43.0908849], [18.2513511, 43.0908141], [18.253969, 43.0908664], [18.2552043, 43.0908015], [18.2712679, 43.0855182], [18.27727, 43.0818221], [18.2795662, 43.0812728], [18.2796081, 43.0812361], [18.2797115, 43.0812054], [18.2798093, 43.0812034], [18.2800288, 43.0810972], [18.2834401, 43.080704], [18.2855312, 43.0799649], [18.288911, 43.0781806], [18.2907947, 43.0780593], [18.2908392, 43.0779842], [18.290943, 43.0779402], [18.291026, 43.0779907], [18.2952882, 43.0776985], [18.2953831, 43.0777274], [18.2965887, 43.0777563], [18.297739, 43.0779901], [18.2982964, 43.0782038], [18.2993992, 43.078276], [18.3004903, 43.0785878], [18.3029806, 43.0791682], [18.3048029, 43.0789487], [18.3064078, 43.0791191], [18.3070086, 43.0793327], [18.3076292, 43.0788621], [18.3086096, 43.077967], [18.3101433, 43.0771961], [18.3105174, 43.0769683], [18.3109501, 43.0767216], [18.3115491, 43.0765562], [18.3115619, 43.0765469], [18.3116296, 43.0765742], [18.315961, 43.0747293], [18.3242514, 43.0727937], [18.331696, 43.0811575], [18.3318798, 43.0811979], [18.3319875, 43.0812383], [18.3321644, 43.0813221], [18.3323156, 43.0813849], [18.3325122, 43.0814145], [18.3326427, 43.081439], [18.3327247, 43.0814462], [18.3328067, 43.0814441], [18.3327662, 43.0815343], [18.3329649, 43.0819009], [18.3341399, 43.0840626], [18.3348079, 43.084521], [18.3348099, 43.0845383], [18.3348257, 43.0845657], [18.3348623, 43.0845917], [18.3348929, 43.0846155], [18.3349265, 43.0846249], [18.3349492, 43.0846271], [18.3392827, 43.0877251], [18.3421673, 43.0904686], [18.343632, 43.092126], [18.3438779, 43.0927547], [18.3447724, 43.0932201], [18.347534, 43.0940528], [18.3424916, 43.1001269], [18.3433972, 43.1128608], [18.3445935, 43.1202958], [18.3468119, 43.1225686], [18.3555057, 43.1314752], [18.3671304, 43.1362624], [18.3716728, 43.138133], [18.378147, 43.1363818], [18.3843394, 43.1346118], [18.399829, 43.1334317], [18.4132741, 43.1374495], [18.4133243, 43.1377594], [18.4143891, 43.1443268], [18.4128445, 43.1505043], [18.4186489, 43.1629685], [18.4150727, 43.1656868], [18.392697, 43.1826924], [18.3850121, 43.1839823], [18.3738026, 43.1891297], [18.3709013, 43.1925188], [18.3650355, 43.1965244], [18.3544837, 43.1985477], [18.3452328, 43.2009156], [18.3365606, 43.2085043], [18.3364578, 43.2151131], [18.336861, 43.2219632], [18.3376146, 43.2339222], [18.3373363, 43.2341749], [18.3371742, 43.2343419], [18.3370991, 43.2345349], [18.3370754, 43.2346789], [18.3370952, 43.2348257], [18.3371189, 43.2349265], [18.337107, 43.2349957], [18.3371268, 43.2350648], [18.3371466, 43.2351224], [18.3371466, 43.2351742], [18.337111, 43.2352232], [18.3370873, 43.2352808], [18.3370833, 43.2354536], [18.3370319, 43.2356984], [18.3368659, 43.2359431], [18.3367552, 43.2360727], [18.3366248, 43.2361879], [18.336526, 43.2364558], [18.3365141, 43.2366487], [18.336522, 43.23681], [18.3364509, 43.2369453], [18.3358935, 43.2377805], [18.3357986, 43.2383449], [18.3357512, 43.2385839], [18.3357354, 43.2387193], [18.3356698, 43.238765], [18.3356377, 43.2388109], [18.3356363, 43.2388475], [18.3358669, 43.2390114], [18.3359172, 43.2389575], [18.3360668, 43.2388272], [18.3363714, 43.238649], [18.336711, 43.2385207], [18.3370423, 43.238426], [18.3374923, 43.2383415], [18.3378528, 43.2383303], [18.3380946, 43.2383639], [18.3384007, 43.238425], [18.3390296, 43.2385624], [18.3395173, 43.2387418], [18.3398444, 43.2388954], [18.3399083, 43.2389355], [18.3401127, 43.2390695], [18.3404132, 43.2393525], [18.3406354, 43.2395826], [18.3407863, 43.2397221], [18.3409638, 43.239829], [18.3412573, 43.2399318], [18.3414404, 43.2399695], [18.3416752, 43.2400163], [18.3418834, 43.2400886], [18.3419715, 43.2401517], [18.3421168, 43.2402902], [18.3422161, 43.24045], [18.3422328, 43.2405427], [18.3422119, 43.2406801], [18.3421434, 43.2408573], [18.3419659, 43.2410914], [18.3415872, 43.2415649], [18.341358, 43.2419477], [18.3412769, 43.2422266], [18.3410868, 43.2428415], [18.340961, 43.243318], [18.3408492, 43.243485], [18.340634, 43.2437089], [18.3403741, 43.2439818], [18.340198, 43.2442383], [18.34017, 43.2443605], [18.3401532, 43.2445356], [18.3402399, 43.2449611], [18.3403265, 43.2453724], [18.3403657, 43.2456371], [18.340416, 43.2460524], [18.3404943, 43.2465207], [18.3405781, 43.2468607], [18.3406648, 43.2471213], [18.3407207, 43.2473412], [18.3407235, 43.2477138], [18.3406815, 43.2479704], [18.3406005, 43.2481516], [18.3405054, 43.2484284], [18.3403014, 43.2487013], [18.3399576, 43.2490066], [18.3397088, 43.249196], [18.3394601, 43.2492896], [18.3392672, 43.2493181], [18.3390771, 43.2493243], [18.338943, 43.2493141], [18.3387752, 43.2493141], [18.3386495, 43.2493466], [18.3384929, 43.2494118], [18.3382665, 43.2495278], [18.3380848, 43.2496032], [18.3379479, 43.2496256], [18.3377886, 43.2496317], [18.3376236, 43.2496643], [18.3374503, 43.2496968], [18.337319, 43.2497375], [18.3371988, 43.2497844], [18.3370786, 43.2498984], [18.3370395, 43.2501264], [18.336936, 43.250558], [18.3369249, 43.250841], [18.3370031, 43.2512197], [18.3371373, 43.2516044], [18.3372519, 43.2518711], [18.3374503, 43.2521236], [18.3376572, 43.2523007], [18.3380261, 43.2525002], [18.3382721, 43.2526346], [18.3386606, 43.2528117], [18.3391805, 43.2528626], [18.339706, 43.2528768], [18.3399967, 43.2528972], [18.3405613, 43.2528809], [18.3408325, 43.2528239], [18.3409946, 43.2528035], [18.3411483, 43.2528076], [18.3413552, 43.2528443], [18.3416794, 43.2529664], [18.3420372, 43.2531578], [18.3424229, 43.2533817], [18.3428086, 43.2536464], [18.3433872, 43.2541105], [18.3436192, 43.2543385], [18.3438009, 43.2544932], [18.3439602, 43.254593], [18.3440357, 43.2546948], [18.3440637, 43.2548495], [18.3440804, 43.2549696], [18.3440553, 43.2550266], [18.3440972, 43.2551487], [18.3441391, 43.2552261], [18.3442873, 43.2554012], [18.3444885, 43.2555396], [18.3446646, 43.2556495], [18.3450224, 43.2558959], [18.3451901, 43.2559854], [18.345492, 43.256132], [18.3456597, 43.2561788], [18.3457855, 43.256187], [18.3458973, 43.2561666], [18.3460007, 43.2561055], [18.3460957, 43.2560567], [18.3462047, 43.2559895], [18.346269, 43.2559223], [18.3464227, 43.255847], [18.3465234, 43.2557432], [18.34661, 43.2556516], [18.3466659, 43.255617], [18.3467861, 43.2556007], [18.3469147, 43.2556027], [18.3470489, 43.2556414], [18.347197, 43.2557249], [18.3474122, 43.255845], [18.3476862, 43.2559508], [18.3479601, 43.2561422], [18.3481362, 43.2562623], [18.3483402, 43.2563702], [18.3484884, 43.2565025], [18.3485638, 43.2566083], [18.3486477, 43.2566959], [18.3487791, 43.2567916], [18.3489719, 43.2569463], [18.3491173, 43.2570196], [18.3492179, 43.2570664], [18.3493381, 43.2571356], [18.349489, 43.2572842], [18.3496819, 43.2575712], [18.3498412, 43.2577198], [18.3498971, 43.2578277], [18.3498887, 43.2578766], [18.3498468, 43.2579437], [18.3498272, 43.2580048], [18.3498552, 43.2580842], [18.3499083, 43.2581534], [18.3500089, 43.2583346], [18.3503387, 43.2587559], [18.3506238, 43.2590816], [18.3508251, 43.2592811], [18.3511885, 43.2595844], [18.3514736, 43.259788], [18.3517279, 43.2599081], [18.3521081, 43.2600363], [18.3523009, 43.2600954], [18.3525022, 43.2601116], [18.3527034, 43.2600913], [18.3529354, 43.2600363], [18.3531954, 43.2599244], [18.3534302, 43.2597697], [18.3534861, 43.2596435], [18.3535, 43.2595234], [18.3535028, 43.2594175], [18.3535615, 43.2593341], [18.3535867, 43.2592608], [18.3537516, 43.2592221], [18.3541178, 43.2591386], [18.3543861, 43.2591407], [18.3546013, 43.2591468], [18.3547914, 43.2591753], [18.3549647, 43.2592445], [18.3552386, 43.2593035], [18.3554063, 43.2593483], [18.3556104, 43.2594073], [18.3557893, 43.2594562], [18.3559682, 43.2595254], [18.3560241, 43.2596231], [18.3560716, 43.2597371], [18.3562002, 43.2598409], [18.3563315, 43.2598979], [18.3565132, 43.2599549], [18.3565356, 43.2599915], [18.3562896, 43.2604007], [18.3528687, 43.2626737], [18.3373969, 43.2673138], [18.3318312, 43.2671987], [18.3297915, 43.2898646], [18.3291669, 43.2944566], [18.3269849, 43.3045026], [18.3299812, 43.3062573], [18.3335035, 43.3188201], [18.3362683, 43.3251551], [18.3362851, 43.3251905], [18.3362982, 43.3252153], [18.336313, 43.3252346], [18.3359793, 43.3261709], [18.3352656, 43.3281732], [18.3335915, 43.3300891], [18.3322475, 43.3320328], [18.3282946, 43.3357879], [18.3243733, 43.3386917], [18.3216774, 43.3406064], [18.3167283, 43.3428085], [18.3112179, 43.3448209], [18.3067499, 43.3471946], [18.3017625, 43.3493282], [18.2976357, 43.3512886], [18.2920497, 43.3537613], [18.2929283, 43.3554434], [18.2954898, 43.3591912], [18.2985889, 43.3629618], [18.2964148, 43.3653126], [18.293205, 43.3672495], [18.2913471, 43.3689621], [18.2901534, 43.3703644], [18.2915606, 43.3720942], [18.2942249, 43.3746515], [18.2958219, 43.3765881], [18.2963278, 43.3776512], [18.2944779, 43.3781856], [18.2914815, 43.379151], [18.2900269, 43.3807196], [18.2886829, 43.3824147], [18.2863744, 43.3832191], [18.2843584, 43.3827939], [18.2825796, 43.3828973], [18.2801129, 43.3842936], [18.2778305, 43.3849282], [18.2761143, 43.3847495], [18.2745602, 43.3864233], [18.271793, 43.3872155], [18.2698085, 43.3888162], [18.2685171, 43.3890396], [18.2679972, 43.3904899], [18.2658226, 43.3923261], [18.2626138, 43.3925983], [18.2575211, 43.3932685], [18.2533731, 43.39428], [18.2500245, 43.394475], [18.2456249, 43.3925008], [18.2426592, 43.3908307], [18.2387181, 43.3887792], [18.2338659, 43.3859019], [18.2333458, 43.3838349], [18.2330887, 43.3817384], [18.2334073, 43.3794144], [18.2329713, 43.3772527], [18.23277, 43.3752861], [18.2318924, 43.3728236], [18.2313892, 43.3706536], [18.2301146, 43.3685404], [18.2289686, 43.3675651], [18.2263011, 43.3669986], [18.2150824, 43.3715883], [18.2088939, 43.3725595], [18.2043379, 43.3740874], [18.1977805, 43.3759037], [18.1929896, 43.377013], [18.1880422, 43.378106], [18.1826476, 43.379069], [18.1787791, 43.3800157], [18.1767666, 43.3807714], [18.1749665, 43.3817872], [18.174592, 43.3836114], [18.1769623, 43.3877676], [18.1785723, 43.3912004], [18.1802829, 43.3954982], [18.1806854, 43.3996251], [18.1805736, 43.4019159], [18.1806295, 43.4038654], [18.1817364, 43.4059693], [18.1827166, 43.4067933], [18.1840843, 43.4079431], [18.1958798, 43.416065], [18.1989768, 43.4175674], [18.2033372, 43.4182414], [18.2071162, 43.417941], [18.2106157, 43.4174293], [18.2142942, 43.4174862], [18.2175924, 43.4176892], [18.2227131, 43.4256068], [18.2246921, 43.4278641], [18.2254859, 43.4296586], [18.2272189, 43.4316884], [18.2251617, 43.4345545], [18.2237596, 43.4366756], [18.2232833, 43.437396], [18.2203764, 43.440895], [18.2186434, 43.4458305], [18.2176483, 43.4481683], [18.2171787, 43.451829], [18.2161837, 43.4549538], [18.2158035, 43.4614058], [18.2131873, 43.4652523], [18.2112642, 43.4673296], [18.2087573, 43.4697411], [18.2077777, 43.4709646], [18.2034432, 43.4711818], [18.19654, 43.4713529], [18.1848391, 43.4708708], [18.1798998, 43.4689748], [18.1759977, 43.4673258], [18.1667964, 43.4625588], [18.1595945, 43.4619561], [18.1521353, 43.4615602], [18.1426481, 43.4656952], [18.1345598, 43.4700115], [18.1295424, 43.4712956], [18.1220974, 43.472992], [18.119062, 43.4733686], [18.1170032, 43.473624], [18.11083, 43.4742042], [18.1036286, 43.4748087], [18.1025597, 43.4753089], [18.1007587, 43.4761492], [18.095921, 43.475792], [18.0862171, 43.4752648], [18.0859438, 43.475251], [18.0773183, 43.4748163], [18.0764373, 43.474776], [18.0738206, 43.4746563], [18.0664247, 43.474359], [18.0620671, 43.4739012], [18.0526251, 43.4732972], [18.0432768, 43.4727787], [18.0380953, 43.4720651], [18.0371055, 43.4716311], [18.0381594, 43.4605878], [18.0394202, 43.4575018], [18.039024, 43.4550278], [18.0381802, 43.4497577], [18.0420673, 43.443472], [18.0435692, 43.4357101], [18.0446588, 43.4302998], [18.0460429, 43.4251028], [18.0485754, 43.4200765], [18.0522565, 43.4150498], [18.0520055, 43.4143478], [18.0463668, 43.3985764], [18.0337924, 43.3851376], [18.0338669, 43.3765267], [18.0172491, 43.3662472], [18.0167503, 43.3659386], [18.0146804, 43.3616327], [18.0144301, 43.3614025], [18.0142528, 43.361083], [18.0141565, 43.3607746], [18.0140784, 43.3605172], [18.0139795, 43.3602977], [18.0139041, 43.3601709], [18.0138051, 43.360046], [18.0137479, 43.3599362], [18.0136828, 43.359694], [18.0135553, 43.3592606], [18.0134511, 43.3588764], [18.013308, 43.3581895], [18.0132611, 43.3579832], [18.0132507, 43.3578999], [18.0132585, 43.3577769], [18.0132715, 43.3576652], [18.0132924, 43.3576066], [18.0132872, 43.3574779], [18.0132742, 43.3573776], [18.0132689, 43.3573038], [18.0132585, 43.3571069], [18.0132351, 43.3569764], [18.0131857, 43.356859], [18.0131752, 43.3567303], [18.0131544, 43.3566243], [18.0131232, 43.3565543], [18.0130972, 43.3564162], [18.0132169, 43.3561436], [18.013308, 43.3558257], [18.0135527, 43.3554907], [18.0137921, 43.3553639], [18.0136229, 43.3549437], [18.013649, 43.354834], [18.0136958, 43.3547469], [18.013852, 43.3546712], [18.0139327, 43.3545046], [18.0139717, 43.3543627], [18.0137036, 43.3543381], [18.0137531, 43.3539842], [18.014042, 43.3536094], [18.0141774, 43.3534637], [18.0143023, 43.3533464], [18.014258, 43.3532366], [18.0142606, 43.3531457], [18.014573, 43.3529035], [18.0146927, 43.3525495], [18.0145392, 43.3521994], [18.0140837, 43.3520442], [18.0139821, 43.3522694], [18.0132559, 43.3528278], [18.0122746, 43.3526839], [18.0125323, 43.3524076], [18.0127874, 43.3521332], [18.0129332, 43.351925], [18.0132221, 43.3515029], [18.0133054, 43.3512852], [18.0134694, 43.3511603], [18.0137245, 43.3506682], [18.014055, 43.3505452], [18.0145912, 43.35046], [18.0151795, 43.3496953], [18.0151196, 43.3492581], [18.0148177, 43.3488852], [18.0143075, 43.3487016], [18.0135344, 43.3485843], [18.0120352, 43.3483193], [18.0110877, 43.3480997], [18.0104344, 43.3484972], [18.0102522, 43.3481641], [18.0100674, 43.3477098], [18.0093699, 43.3477909], [18.0087171, 43.3480153], [18.0084263, 43.3481102], [18.0097485, 43.3424391], [18.0115301, 43.3354347], [18.0134279, 43.3292622], [18.0134688, 43.3292424], [18.0135168, 43.3292165], [18.0135576, 43.3291942], [18.0136437, 43.3291487], [18.013752, 43.329113], [18.013854, 43.3290957], [18.0138951, 43.3290804], [18.0139218, 43.3290564], [18.0139344, 43.3290093], [18.0139344, 43.3289863], [18.0139545, 43.328944], [18.0139867, 43.3289284], [18.0140441, 43.3289284], [18.0141087, 43.3289388], [18.0141554, 43.328944], [18.0142092, 43.3289284], [18.0142415, 43.3288657], [18.0142917, 43.3288188], [18.0143527, 43.3288057], [18.0144531, 43.3287379], [18.0145787, 43.3286726], [18.0147903, 43.3285917], [18.0148728, 43.3285656], [18.0151778, 43.3285004], [18.0153105, 43.3284952], [18.0154827, 43.3284743], [18.0155796, 43.3284456], [18.0157195, 43.3283647], [18.0161571, 43.3282238], [18.0162468, 43.3281716], [18.0163293, 43.3280463], [18.0163616, 43.3279393], [18.0164154, 43.3278428], [18.0165087, 43.3277436], [18.0166701, 43.3276888], [18.0169894, 43.3276183], [18.0173302, 43.3274879], [18.0173948, 43.3274618], [18.0174486, 43.3273861], [18.0174522, 43.3273261], [18.0174522, 43.3272426], [18.0174845, 43.3271799], [18.0174845, 43.3270938], [18.017506, 43.3270129], [18.0176029, 43.3269555], [18.0176782, 43.3269555], [18.0177751, 43.3269503], [18.0178289, 43.3269033], [18.0178038, 43.3267676], [18.0177499, 43.3267128], [18.0177392, 43.3266658], [18.017793, 43.3265954], [18.0178755, 43.3265614], [18.0179724, 43.3265119], [18.0179975, 43.3264753], [18.0179939, 43.3264336], [18.0179221, 43.326337], [18.0178719, 43.3262587], [18.0178899, 43.3261804], [18.0179365, 43.3261413], [18.0180334, 43.3261308], [18.0181625, 43.3261178], [18.0182486, 43.3260969], [18.0183024, 43.3260708], [18.0183634, 43.3260082], [18.0184136, 43.3259508], [18.0185141, 43.3258934], [18.0186038, 43.325862], [18.0186984, 43.3258515], [18.0188303, 43.3258478], [18.0189317, 43.3258331], [18.0190383, 43.3258109], [18.0191753, 43.3258146], [18.0192818, 43.3257814], [18.0193224, 43.3257039], [18.0194188, 43.3256522], [18.0195355, 43.3256079], [18.0196319, 43.3254455], [18.0197181, 43.3253274], [18.0198703, 43.3251872], [18.0200225, 43.3251724], [18.0202204, 43.3251835], [18.0203269, 43.325165], [18.0206009, 43.3249547], [18.0208089, 43.3248366], [18.0211488, 43.3247517], [18.0212401, 43.3246779], [18.0214989, 43.3246742], [18.0215902, 43.3246889], [18.0217627, 43.3247111], [18.0219656, 43.3247222], [18.0221635, 43.3246889], [18.0222751, 43.3246188], [18.0224171, 43.3245302], [18.0225693, 43.3244786], [18.022752, 43.324497], [18.0228484, 43.3245524], [18.0230057, 43.3246188], [18.023168, 43.3246077], [18.0233101, 43.3245598], [18.0235384, 43.3244786], [18.0237109, 43.3245192], [18.0238225, 43.3246299], [18.0239899, 43.3246447], [18.0242436, 43.3246373], [18.0244668, 43.3246926], [18.0246748, 43.3247664], [18.0249437, 43.3248034], [18.0251162, 43.3247628], [18.0252532, 43.3246926], [18.0253191, 43.3246483], [18.0254104, 43.3246077], [18.0254764, 43.3246188], [18.0255677, 43.324652], [18.0257199, 43.3246299], [18.0257808, 43.3245708], [18.0258379, 43.3244617], [18.0259132, 43.3241772], [18.0259706, 43.3241277], [18.0261141, 43.3240546], [18.0261715, 43.3240076], [18.0261859, 43.323945], [18.0261751, 43.3239163], [18.0261285, 43.3238484], [18.0261356, 43.3238171], [18.0262612, 43.3237257], [18.0262325, 43.3236448], [18.0262182, 43.3234674], [18.0262504, 43.323363], [18.0262469, 43.3232534], [18.0262289, 43.3230759], [18.0262899, 43.3229115], [18.0264693, 43.3227549], [18.0267778, 43.3226688], [18.0271617, 43.3226714], [18.0274917, 43.3227732], [18.0275599, 43.322828], [18.0275921, 43.3228462], [18.0276747, 43.3228384], [18.0277464, 43.3227601], [18.0278468, 43.3227157], [18.027915, 43.3227079], [18.0279796, 43.3227131], [18.0281518, 43.3227914], [18.0283096, 43.3228593], [18.0286971, 43.3228645], [18.0289087, 43.322828], [18.0291563, 43.3227732], [18.029454, 43.3227027], [18.0297338, 43.3227392], [18.0298235, 43.3228149], [18.0298809, 43.3229245], [18.0298271, 43.3230263], [18.0297805, 43.3230733], [18.0297625, 43.3232429], [18.0298881, 43.3233525], [18.0301284, 43.3234021], [18.0303222, 43.3233473], [18.0304872, 43.3232951], [18.030706, 43.3233003], [18.0309464, 43.3233473], [18.0311975, 43.3233734], [18.0312621, 43.3233682], [18.0313805, 43.3233343], [18.0314092, 43.3232899], [18.0314271, 43.3231986], [18.0315168, 43.3231516], [18.0316244, 43.3231803], [18.0317428, 43.323256], [18.0318683, 43.3232664], [18.0320298, 43.3232221], [18.0321051, 43.3231594], [18.0321374, 43.3230576], [18.0322378, 43.3229689], [18.0323885, 43.3229271], [18.0326002, 43.3229298], [18.0329769, 43.3229298], [18.033167, 43.3229663], [18.0334073, 43.3230733], [18.0337374, 43.3231464], [18.0339777, 43.323149], [18.0342576, 43.3231699], [18.0345015, 43.323209], [18.0348674, 43.3232116], [18.0351472, 43.3232221], [18.0355419, 43.3233291], [18.0358863, 43.3234569], [18.0360549, 43.3235587], [18.0362055, 43.3236083], [18.0363813, 43.3236031], [18.036636, 43.3235274], [18.036758, 43.3234909], [18.0368656, 43.3234622], [18.0370378, 43.3234491], [18.0371347, 43.3234543], [18.0372566, 43.3234517], [18.0373535, 43.3234152], [18.0374575, 43.3233578], [18.0375329, 43.3233369], [18.0376369, 43.3233134], [18.0376835, 43.3232429], [18.0377338, 43.3231464], [18.0377661, 43.3230107], [18.0376979, 43.3228932], [18.0375652, 43.3228515], [18.0374468, 43.3228097], [18.0373571, 43.3227027], [18.037375, 43.3226087], [18.0374253, 43.3225357], [18.037558, 43.3224026], [18.0377623, 43.3219457], [18.0377946, 43.3218022], [18.0378664, 43.3216482], [18.0379578, 43.3215895], [18.0380924, 43.3215477], [18.0381605, 43.3215621], [18.038182, 43.3216182], [18.0381982, 43.3217147], [18.0382897, 43.3218139], [18.0383973, 43.321887], [18.0385229, 43.3220449], [18.0385982, 43.3221206], [18.0387004, 43.322165], [18.038817, 43.3221806], [18.0388816, 43.3221767], [18.0389408, 43.3221428], [18.0390161, 43.3220658], [18.0390628, 43.3219783], [18.0390717, 43.3218048], [18.0390538, 43.3216103], [18.0390699, 43.321549], [18.0391471, 43.3214407], [18.039235, 43.3213715], [18.0393731, 43.321258], [18.0397211, 43.3210636], [18.0398861, 43.3210114], [18.0400475, 43.3209761], [18.0402107, 43.3209383], [18.0403704, 43.3208783], [18.0404403, 43.3208156], [18.0405139, 43.3207595], [18.0406071, 43.3207308], [18.0407237, 43.3207008], [18.0407973, 43.320646], [18.0408152, 43.3206094], [18.0408314, 43.3205533], [18.0408529, 43.3205181], [18.0409085, 43.3204881], [18.0409731, 43.3204685], [18.041034, 43.3204698], [18.041113, 43.3204894], [18.0411632, 43.3205403], [18.0411829, 43.320616], [18.0411955, 43.3206956], [18.0412726, 43.3207647], [18.0413479, 43.3208365], [18.0413784, 43.3209213], [18.0414, 43.3209905], [18.0414394, 43.3210179], [18.0414807, 43.321014], [18.0415148, 43.3209918], [18.0415811, 43.3209331], [18.0416708, 43.3208365], [18.0417928, 43.3207543], [18.041904, 43.3206851], [18.0419363, 43.3206551], [18.0420044, 43.3205716], [18.0420565, 43.3204803], [18.0421318, 43.3204111], [18.0422179, 43.3203015], [18.0422556, 43.3202284], [18.042313, 43.3200796], [18.0423578, 43.3200353], [18.0424887, 43.3200366], [18.042582, 43.3200744], [18.0426735, 43.3201201], [18.0427399, 43.3201697], [18.0428152, 43.3202571], [18.0428941, 43.3203302], [18.0429264, 43.3203706], [18.0429677, 43.3203954], [18.0430071, 43.3203915], [18.0430233, 43.3203746], [18.0430358, 43.3203276], [18.0430412, 43.320278], [18.0430656, 43.3201979], [18.0431468, 43.3201499], [18.0432787, 43.3200539], [18.0434664, 43.3199506], [18.0438114, 43.3198435], [18.0443898, 43.3197439], [18.0447398, 43.3196996], [18.0449022, 43.3196996], [18.0450341, 43.3197476], [18.045166, 43.3197808], [18.0453588, 43.319766], [18.0454501, 43.3197143], [18.0455313, 43.3196405], [18.0456429, 43.3196147], [18.0457444, 43.3196442], [18.0458712, 43.3197365], [18.0460082, 43.3197402], [18.0462213, 43.3196405], [18.0463126, 43.3195039], [18.0466525, 43.3193194], [18.0469671, 43.3192271], [18.0474947, 43.3191311], [18.0478194, 43.319109], [18.0480122, 43.3191607], [18.048139, 43.319216], [18.0482354, 43.3192382], [18.0483419, 43.3192087], [18.0483572, 43.3191681], [18.0484738, 43.3189872], [18.0485652, 43.3189208], [18.0489305, 43.3188359], [18.049174, 43.3188506], [18.0493871, 43.3189872], [18.0495596, 43.3192382], [18.0496001, 43.3194264], [18.0497371, 43.3194006], [18.0499299, 43.3193415], [18.0500212, 43.319253], [18.0500618, 43.3190389], [18.0501582, 43.3188174], [18.05028, 43.3187104], [18.050488, 43.3186181], [18.0509294, 43.318607], [18.0511627, 43.3186107], [18.0512946, 43.3185922], [18.0515737, 43.3184594], [18.0517512, 43.318404], [18.051939, 43.3184151], [18.052152, 43.3184261], [18.0523956, 43.3184225], [18.0524767, 43.3184003], [18.0525833, 43.3182785], [18.0527558, 43.3181751], [18.0528522, 43.3181382], [18.0529486, 43.3180496], [18.0530247, 43.3179094], [18.0531464, 43.3178282], [18.0532936, 43.3178171], [18.0535066, 43.3178282], [18.0536233, 43.317747], [18.0536436, 43.3175735], [18.0537146, 43.3173742], [18.0540343, 43.3170899], [18.0551098, 43.316396], [18.0552874, 43.3163222], [18.0553889, 43.3162963], [18.0555766, 43.3163111], [18.0557795, 43.3163037], [18.0559621, 43.3162594], [18.0561752, 43.3161819], [18.0563883, 43.316145], [18.0566572, 43.3160822], [18.0567637, 43.3159973], [18.0568195, 43.315905], [18.0568246, 43.3157537], [18.0569312, 43.3155544], [18.0570986, 43.3154732], [18.0573878, 43.3154768], [18.05754, 43.3155248], [18.0577378, 43.3155581], [18.0577987, 43.3155544], [18.0580777, 43.3155211], [18.0583416, 43.3155285], [18.0584633, 43.3155248], [18.0586764, 43.3154953], [18.0588337, 43.3154658], [18.0589656, 43.3153883], [18.0590924, 43.3152849], [18.059199, 43.3152369], [18.059407, 43.3152443], [18.0595642, 43.3152628], [18.0597672, 43.3152258], [18.059894, 43.3151557], [18.0599803, 43.3150634], [18.0600817, 43.3149822], [18.060173, 43.3149564], [18.060239, 43.3149121], [18.0603151, 43.3148346], [18.0603811, 43.3148419], [18.0604927, 43.3148604], [18.0605637, 43.3147681], [18.0607058, 43.314746], [18.0608478, 43.3147533], [18.0609087, 43.3146684], [18.0608833, 43.3143215], [18.0614143, 43.3140996], [18.0622744, 43.3132501], [18.0714113, 43.3042249], [18.0801578, 43.2831325], [18.0717157, 43.2809312], [18.0641056, 43.2755829], [18.0612645, 43.2733371], [18.0544256, 43.2664513], [18.0526195, 43.2655055], [18.0462108, 43.2629682], [18.0459561, 43.2630152], [18.0455866, 43.2630439], [18.0451131, 43.2630779], [18.0446503, 43.2630674], [18.0443238, 43.2630622], [18.044044, 43.2630126], [18.0437355, 43.2629368], [18.0435238, 43.262882], [18.0431938, 43.2628297], [18.0428889, 43.2628219], [18.0425481, 43.2628219], [18.0422754, 43.2627592], [18.0418808, 43.2626442], [18.0414109, 43.2625267], [18.0410055, 43.2624823], [18.0404853, 43.2624718], [18.0400835, 43.2624953], [18.039714, 43.2625371], [18.0394055, 43.2626155], [18.0391831, 43.2626808], [18.0390503, 43.2627331], [18.0389822, 43.2628062], [18.0389104, 43.2629525], [18.0388818, 43.2631356], [18.0388463, 43.2632612], [18.0386992, 43.2634311], [18.0385368, 43.2635678], [18.0382984, 43.2637267], [18.0380498, 43.2638301], [18.0378722, 43.2638892], [18.0377098, 43.2639594], [18.0375678, 43.2640444], [18.0373344, 43.2641331], [18.0370249, 43.2641848], [18.0365314, 43.2642916], [18.0362731, 43.2643856], [18.0359861, 43.264558], [18.0357206, 43.26472], [18.0355556, 43.2647983], [18.0351682, 43.2649185], [18.0349457, 43.2650544], [18.0344363, 43.2651484], [18.033561, 43.2652581], [18.0330014, 43.2654253], [18.0322982, 43.2655977], [18.0318964, 43.2656447], [18.0308776, 43.2657388], [18.0304758, 43.265744], [18.0299664, 43.2657701], [18.0293852, 43.265906], [18.0284884, 43.2660941], [18.0277924, 43.2663187], [18.0250014, 43.2668046], [18.0245266, 43.2668707], [18.0250768, 43.2617849], [18.0231263, 43.2540967], [18.0158846, 43.2442409], [18.0026692, 43.2298563], [17.9956714, 43.2197088], [17.9719448, 43.2162991], [17.9722596, 43.2161287], [17.972366, 43.2161299], [17.9724396, 43.2161172], [17.9725132, 43.216042], [17.972705, 43.2159655], [17.9718188, 43.2149543], [17.9719154, 43.214925], [17.9719407, 43.214888], [17.9719829, 43.2148504], [17.9719792, 43.2148251], [17.9719435, 43.2147917], [17.971891, 43.214752], [17.9718563, 43.2147014], [17.9717775, 43.2146399], [17.9716865, 43.2145941], [17.9715318, 43.2146009], [17.969092, 43.211421], [17.9661365, 43.2089614]]]}}]}