{"type": "FeatureCollection", "features": [{"type": "Feature", "properties": {"name": "Grad Novi Travnik, Srednjobosanski kanton / Županija Središnja Bosna, Federacija Bosne i Hercegovine, 72290, Bosna i Hercegovina / Босна и Херцеговина", "source": "OpenStreetMap relation 2528241", "licence": "ODbL 1.0"}, "geometry": {"type": "Polygon", "coordinates": [[[17.5444621, 44.1622056], [17.5492247, 44.1616361], [17.5508122, 44.1613514], [17.5539873, 44.1602125], [17.5571623, 44.1585042], [17.5587499, 44.1565111], [17.5591468, 44.1545179], [17.5603374, 44.1528093], [17.5619249, 44.1519551], [17.5623218, 44.1491074], [17.5623218, 44.1476835], [17.5619249, 44.1462596], [17.5643062, 44.1445508], [17.5654969, 44.1439812], [17.5651, 44.1422724], [17.5635125, 44.141418], [17.5623218, 44.1371456], [17.5623218, 44.1360063], [17.5647031, 44.1342973], [17.5662906, 44.132873], [17.5678782, 44.1305941], [17.5702595, 44.1283152], [17.5706563, 44.1274606], [17.5710532, 44.1251815], [17.5726407, 44.1240419], [17.5774033, 44.1214778], [17.5805784, 44.1197683], [17.5833566, 44.1189136], [17.5857378, 44.1169191], [17.5873254, 44.1149246], [17.5897067, 44.1103654], [17.5908973, 44.1092255], [17.5928817, 44.1069457], [17.5944692, 44.1035259], [17.595263, 44.1018159], [17.5980412, 44.0995358], [17.6000256, 44.0981107], [17.6032006, 44.0958305], [17.6059788, 44.0946904], [17.608757, 44.0935502], [17.6111383, 44.0932652], [17.6099476, 44.0909848], [17.6075663, 44.0895595], [17.6063757, 44.0881342], [17.6059788, 44.0861387], [17.6051851, 44.0852834], [17.6043913, 44.0847133], [17.6051851, 44.0827176], [17.6067726, 44.0815773], [17.6079632, 44.0787262], [17.608757, 44.0770155], [17.6099476, 44.0755898], [17.6127258, 44.0744493], [17.615504, 44.0741642], [17.618679, 44.0735939], [17.622251, 44.0735939], [17.6238385, 44.0724533], [17.6250291, 44.0718831], [17.6250291, 44.069887], [17.625426, 44.0693167], [17.6258229, 44.0678909], [17.6258229, 44.0670354], [17.6286011, 44.0653243], [17.6293948, 44.0638984], [17.628998, 44.0613317], [17.6270136, 44.0599057], [17.6262198, 44.0579092], [17.6250291, 44.0559127], [17.6238385, 44.0547718], [17.6238385, 44.0527751], [17.6225078, 44.0494287], [17.623052, 44.0486093], [17.6231674, 44.0479986], [17.6234517, 44.0475902], [17.6241488, 44.0474324], [17.6247029, 44.0474012], [17.6262587, 44.0460033], [17.62864, 44.0454327], [17.6310213, 44.0454327], [17.6349901, 44.0428653], [17.6397527, 44.0428653], [17.642134, 44.0422947], [17.6449122, 44.0405829], [17.6468966, 44.039727], [17.6476903, 44.0385858], [17.6476903, 44.0357327], [17.6464997, 44.0348766], [17.6433246, 44.0337354], [17.6429277, 44.0328793], [17.6441184, 44.0311673], [17.6464997, 44.030026], [17.6504685, 44.0288845], [17.6548342, 44.0271724], [17.6595968, 44.0248894], [17.6627718, 44.0234626], [17.6671375, 44.0217503], [17.6675344, 44.0211795], [17.6699157, 44.0197526], [17.6730908, 44.0177547], [17.6742814, 44.016613], [17.6766627, 44.0140444], [17.6762658, 44.0126171], [17.6719001, 44.0126171], [17.6711064, 44.0114754], [17.6742814, 44.00805], [17.6750752, 44.00805], [17.6758689, 44.0069082], [17.6766627, 44.0051955], [17.6774565, 44.0020552], [17.679044, 44.0006278], [17.6806315, 43.9994859], [17.6818222, 43.9983438], [17.6826159, 43.9966308], [17.6838066, 43.9960598], [17.6830128, 43.9949178], [17.6798378, 43.9943467], [17.6778533, 43.9943467], [17.6778533, 43.9937756], [17.6786471, 43.992348], [17.682219, 43.9909204], [17.685791, 43.9889216], [17.6865847, 43.9880649], [17.688966, 43.986066], [17.6905536, 43.986066], [17.6933317, 43.9852093], [17.699285, 43.9852093], [17.699285, 43.9883505], [17.7044444, 43.986066], [17.7068257, 43.9843527], [17.7088101, 43.9832103], [17.7100008, 43.9817825], [17.7131758, 43.9814969], [17.7151602, 43.9806402], [17.7179384, 43.9783554], [17.7199228, 43.9763562], [17.7203197, 43.975785], [17.7125036, 43.9690602], [17.7130772, 43.9677518], [17.7142499, 43.9664579], [17.7317969, 43.9672946], [17.7362758, 43.9672946], [17.7380674, 43.9666498], [17.7420985, 43.9669722], [17.7443379, 43.9676169], [17.7456816, 43.9705181], [17.7479211, 43.9727745], [17.7497127, 43.9747085], [17.7532958, 43.9779317], [17.7550874, 43.9795432], [17.7559832, 43.9808324], [17.7541916, 43.983733], [17.7515043, 43.9856666], [17.7506085, 43.9888892], [17.7456816, 43.9927561], [17.7456816, 43.9953338], [17.7492648, 43.9972671], [17.7519522, 43.9988781], [17.7600143, 43.9988781], [17.7627016, 43.9995225], [17.7658369, 44.0027443], [17.7685243, 44.0033886], [17.7721074, 44.0017778], [17.7747948, 44.0001668], [17.778378, 43.9982337], [17.7797217, 43.9988781], [17.7837527, 44.0020999], [17.7877838, 44.0037108], [17.7900233, 44.0066102], [17.7900233, 44.0095096], [17.7922627, 44.010476], [17.7940543, 44.0117645], [17.7931585, 44.0140193], [17.7918148, 44.0149856], [17.7918148, 44.0182066], [17.7843876, 44.0304564], [17.7843284, 44.0308577], [17.7840793, 44.031387], [17.7840566, 44.031786], [17.7841812, 44.0322989], [17.7840226, 44.03282], [17.7836737, 44.0335555], [17.7836438, 44.0338939], [17.7834047, 44.0344042], [17.7832329, 44.0348823], [17.7829415, 44.0355377], [17.7826202, 44.0362414], [17.7826202, 44.0365046], [17.7826202, 44.0367785], [17.7825978, 44.0371492], [17.7824857, 44.0373963], [17.7822466, 44.0376326], [17.7819253, 44.0380623], [17.7817534, 44.0382503], [17.7812677, 44.0386693], [17.7808568, 44.039518], [17.7804458, 44.0404741], [17.7802964, 44.0413334], [17.7809838, 44.0414301], [17.781477, 44.0414624], [17.7820598, 44.041559], [17.7825978, 44.0418491], [17.7829116, 44.0420156], [17.7832329, 44.0421015], [17.7836588, 44.0421176], [17.784122, 44.0420478], [17.7846227, 44.041747], [17.7855268, 44.0415053], [17.7858331, 44.0416503], [17.7861544, 44.04179], [17.7865729, 44.0417739], [17.7868194, 44.0417416], [17.7871183, 44.0416235], [17.7873499, 44.0413496], [17.7873275, 44.041081], [17.7873873, 44.0409145], [17.7877609, 44.040603], [17.7881046, 44.0405116], [17.7885006, 44.0403989], [17.7893001, 44.0403022], [17.7899502, 44.0402968], [17.7905031, 44.0403827], [17.790944, 44.0405439], [17.7921993, 44.0407641], [17.7933574, 44.0407587], [17.794142, 44.0405815], [17.7948219, 44.0405707], [17.7955168, 44.0407104], [17.796137, 44.040936], [17.7979901, 44.0416826], [17.798685, 44.0419404], [17.7992821, 44.0424171], [17.7982863, 44.043218], [17.7978327, 44.0437353], [17.7971524, 44.0440117], [17.7962054, 44.0442779], [17.7942019, 44.04468], [17.7922302, 44.0450808], [17.7907024, 44.0456977], [17.7899471, 44.0460926], [17.7886253, 44.04629], [17.7876125, 44.0462776], [17.7868743, 44.0461049], [17.785913, 44.0461049], [17.7846771, 44.0458705], [17.7838016, 44.0457347], [17.7828231, 44.0457347], [17.7823425, 44.0456113], [17.7816901, 44.0453029], [17.7799735, 44.0451301], [17.7794071, 44.0449204], [17.7789264, 44.0444391], [17.7784801, 44.0437235], [17.7773643, 44.042798], [17.7752528, 44.0418355], [17.7741199, 44.0413049], [17.7729354, 44.0411939], [17.7721286, 44.0411198], [17.770412, 44.0412432], [17.7694507, 44.0416628], [17.7681461, 44.0420083], [17.7663265, 44.0423291], [17.7648673, 44.0428721], [17.7642665, 44.043378], [17.763288, 44.0437111], [17.7622924, 44.0441307], [17.7616573, 44.0442541], [17.760387, 44.0446859], [17.7595115, 44.0449821], [17.7587219, 44.0449944], [17.7464541, 44.0506158], [17.7393202, 44.049234], [17.7365991, 44.0495059], [17.7332167, 44.0521707], [17.7321239, 44.0533488], [17.7311481, 44.0543025], [17.7301074, 44.0547419], [17.7290797, 44.0552188], [17.7282991, 44.0557516], [17.7267249, 44.0582573], [17.7260354, 44.0591828], [17.7264012, 44.063068], [17.7260484, 44.0638197], [17.725398, 44.0647826], [17.7248256, 44.0653995], [17.7215992, 44.067615], [17.7192445, 44.0685777], [17.7157189, 44.070737], [17.7135463, 44.0724942], [17.7088629, 44.0744009], [17.703529, 44.075401], [17.7017727, 44.0776534], [17.7009141, 44.0800459], [17.7010182, 44.0804197], [17.7015125, 44.0806814], [17.7016166, 44.0810179], [17.7013434, 44.081401], [17.7009141, 44.0816066], [17.7006929, 44.0816066], [17.7005628, 44.0813076], [17.7003157, 44.0812048], [17.699457, 44.0817094], [17.6992359, 44.0820459], [17.6995221, 44.0825785], [17.6995221, 44.0831206], [17.6991578, 44.0832981], [17.6989757, 44.0837373], [17.6991838, 44.0839336], [17.6990798, 44.0843167], [17.6989106, 44.0845971], [17.6985984, 44.0845223], [17.698039, 44.0848213], [17.6976877, 44.0852325], [17.6978959, 44.085597], [17.6977398, 44.0859521], [17.6978829, 44.0862604], [17.6978829, 44.0864847], [17.6975446, 44.086765], [17.6974536, 44.0870734], [17.6971674, 44.0871762], [17.696608, 44.087251], [17.6964128, 44.0877182], [17.6960746, 44.0881106], [17.6956192, 44.0888582], [17.69532, 44.0892787], [17.6949818, 44.0898954], [17.6948517, 44.0907177], [17.6947866, 44.0910727], [17.6942012, 44.0917361], [17.6942793, 44.0921659], [17.6950468, 44.0926518], [17.6959835, 44.0933993], [17.6975446, 44.0938011], [17.6981821, 44.094315], [17.6989367, 44.0949503], [17.6994961, 44.0959407], [17.7002246, 44.0968096], [17.7024362, 44.0977158], [17.7032818, 44.0985754], [17.7050901, 44.1004906], [17.7056886, 44.1010418], [17.7066253, 44.1017144], [17.7075359, 44.1024058], [17.7082515, 44.1033773], [17.7083685, 44.1046385], [17.7085507, 44.1057782], [17.7084076, 44.1065068], [17.7083816, 44.1074129], [17.7092142, 44.1082536], [17.7097215, 44.1095427], [17.7094613, 44.1103553], [17.7089019, 44.1119152], [17.709006, 44.1130641], [17.7092011, 44.1140168], [17.7085116, 44.1148481], [17.7080823, 44.1151843], [17.7080563, 44.1155766], [17.7081214, 44.1158008], [17.7092142, 44.1164172], [17.7096044, 44.1168375], [17.7096175, 44.1178929], [17.7094743, 44.1182291], [17.7091101, 44.1185093], [17.709058, 44.1189296], [17.7086157, 44.1192845], [17.7079783, 44.1193779], [17.707614, 44.1193032], [17.7071456, 44.1190043], [17.7064171, 44.1185654], [17.7060138, 44.1181451], [17.7060008, 44.1176781], [17.7056365, 44.1174633], [17.7054934, 44.1197421], [17.7017514, 44.1273219], [17.6973417, 44.1362531], [17.6977065, 44.1365291], [17.6979727, 44.1366918], [17.6985248, 44.137456], [17.6994516, 44.1386023], [17.700154, 44.1392796], [17.7003954, 44.1396348], [17.70048, 44.1400082], [17.7004019, 44.140447], [17.700532, 44.1407738], [17.7006686, 44.1412079], [17.7008247, 44.1412359], [17.7009158, 44.1413386], [17.701202, 44.1420715], [17.7011369, 44.1423655], [17.7008767, 44.1428603], [17.7008898, 44.1432384], [17.7009483, 44.1434531], [17.7014492, 44.1437799], [17.701911, 44.1442653], [17.70195, 44.1445594], [17.7018199, 44.1449281], [17.7017354, 44.1453482], [17.7014166, 44.1460017], [17.7013386, 44.1464825], [17.7002913, 44.1485501], [17.7002263, 44.1492129], [17.6999986, 44.1501884], [17.6990359, 44.1516352], [17.7037193, 44.1537401], [17.7043178, 44.1540761], [17.7048511, 44.1545568], [17.7052154, 44.1549955], [17.7060025, 44.1554715], [17.7065034, 44.1557235], [17.7073685, 44.1558495], [17.7104517, 44.1560642], [17.7132032, 44.1565075], [17.7131252, 44.1561435], [17.714549, 44.1566764], [17.7187097, 44.1583245], [17.7190153, 44.1604959], [17.7198928, 44.1638697], [17.7209083, 44.1656095], [17.7233041, 44.1672291], [17.7240633, 44.1677383], [17.724783, 44.1681414], [17.7252957, 44.1687779], [17.7252661, 44.169287], [17.7269708, 44.1716651], [17.7282886, 44.1763232], [17.7274254, 44.176924], [17.7268502, 44.1771593], [17.7258202, 44.1774785], [17.7250783, 44.1776636], [17.7252375, 44.1779777], [17.7253186, 44.1783385], [17.7254035, 44.178809], [17.7257225, 44.1791441], [17.7261394, 44.1794039], [17.7254687, 44.1794979], [17.7249931, 44.1795872], [17.7243412, 44.1796633], [17.723592, 44.1797079], [17.7227529, 44.1798467], [17.7223989, 44.1798801], [17.7222831, 44.180011], [17.7222367, 44.1802017], [17.7221776, 44.1804076], [17.7221396, 44.1805892], [17.7221354, 44.1807587], [17.722224, 44.1809101], [17.7222831, 44.1810826], [17.7222873, 44.1812098], [17.7221269, 44.1813339], [17.7219665, 44.1814187], [17.7217048, 44.1814853], [17.7215149, 44.1814792], [17.7214473, 44.1815307], [17.7216514, 44.1817559], [17.7218582, 44.1819254], [17.7220271, 44.1820283], [17.7222212, 44.1821555], [17.722407, 44.1823159], [17.7226856, 44.1825823], [17.722745, 44.1827309], [17.7223613, 44.1829827], [17.7212229, 44.1825303], [17.7209692, 44.1823717], [17.7207026, 44.1821618], [17.7204359, 44.1821011], [17.7202602, 44.1820125], [17.7198723, 44.1819998], [17.7200191, 44.1836986], [17.7221629, 44.1889779], [17.7220988, 44.1896212], [17.7222615, 44.1904837], [17.7220643, 44.1909962], [17.7217472, 44.1929457], [17.7233854, 44.1944919], [17.7240783, 44.1948762], [17.7249387, 44.1949894], [17.7260769, 44.1954076], [17.7260259, 44.1962683], [17.7262696, 44.1963867], [17.7264942, 44.196503], [17.7267189, 44.1966074], [17.7270808, 44.1968549], [17.7270516, 44.1969175], [17.7269435, 44.1970666], [17.7268561, 44.1971173], [17.7266689, 44.1971561], [17.7264942, 44.197174], [17.7263237, 44.1971322], [17.7261406, 44.1970726], [17.7259576, 44.196998], [17.7256373, 44.1969145], [17.7253545, 44.1968788], [17.7251318, 44.196862], [17.7250134, 44.1968937], [17.7248927, 44.1969503], [17.7248012, 44.1970398], [17.7248012, 44.1971144], [17.7248137, 44.1972665], [17.7248719, 44.1973798], [17.7249426, 44.1975289], [17.7250175, 44.1976363], [17.725109, 44.1977436], [17.7251631, 44.1978868], [17.7251756, 44.1979613], [17.7250924, 44.1980508], [17.7248386, 44.198179], [17.7246639, 44.1982148], [17.7244393, 44.1982118], [17.7242979, 44.1981939], [17.724119, 44.1981492], [17.7239152, 44.1981701], [17.7238029, 44.1981969], [17.7236365, 44.1982924], [17.7236365, 44.1983788], [17.7236989, 44.1984802], [17.7238445, 44.1986025], [17.7238819, 44.1986413], [17.7238902, 44.1987457], [17.7238861, 44.1988858], [17.7237987, 44.1989783], [17.7236531, 44.1991721], [17.7235075, 44.1992944], [17.7234035, 44.1993689], [17.7232538, 44.1994017], [17.7231914, 44.199366], [17.7230624, 44.1992705], [17.7229834, 44.1992318], [17.7229044, 44.1992347], [17.7227962, 44.1992347], [17.7226797, 44.1992318], [17.7225383, 44.1991691], [17.7225425, 44.199032], [17.7225841, 44.1989216], [17.7226548, 44.1988411], [17.7226714, 44.1987725], [17.7225882, 44.1987009], [17.7223786, 44.1987632], [17.7220265, 44.198892], [17.7218027, 44.1990524], [17.721689, 44.1991445], [17.7216084, 44.1993706], [17.7215093, 44.1994442], [17.7213626, 44.1995547], [17.7214103, 44.1996257], [17.7215533, 44.1996572], [17.7216707, 44.199723], [17.7217074, 44.1997913], [17.7217331, 44.1999123], [17.7216744, 44.2000569], [17.7215643, 44.2001647], [17.721458, 44.2002199], [17.7212856, 44.2002883], [17.7210692, 44.2002909], [17.7209225, 44.2003014], [17.7207281, 44.2003277], [17.7204823, 44.2003961], [17.7202036, 44.2004645], [17.7199432, 44.2005328], [17.7197341, 44.2005723], [17.7194847, 44.2005907], [17.7193893, 44.2006249], [17.7191949, 44.2006775], [17.7190262, 44.2007563], [17.7190042, 44.2008352], [17.7190665, 44.2008904], [17.7191986, 44.2009457], [17.7193123, 44.2010561], [17.719305, 44.2011192], [17.7192756, 44.2012165], [17.7191876, 44.2013296], [17.7190665, 44.2014084], [17.7188648, 44.20149], [17.7186484, 44.2015557], [17.7185127, 44.201603], [17.718344, 44.2016425], [17.7182486, 44.2016372], [17.7180286, 44.2015951], [17.7178085, 44.2015452], [17.7176398, 44.2015399], [17.717482, 44.2015347], [17.7172656, 44.2016293], [17.7170896, 44.2017161], [17.7169319, 44.2017792], [17.7167301, 44.2018108], [17.7164991, 44.2018292], [17.716268, 44.2018476], [17.7160113, 44.2019186], [17.7158499, 44.2020027], [17.7156665, 44.2021026], [17.7154574, 44.2022315], [17.7152593, 44.2022998], [17.715109, 44.2023314], [17.7149769, 44.2023103], [17.7148632, 44.2022972], [17.7147165, 44.2023025], [17.7145808, 44.2023209], [17.7143901, 44.2023761], [17.7142617, 44.2024839], [17.7141517, 44.202497], [17.714005, 44.2024655], [17.7139023, 44.2024234], [17.7138179, 44.2023761], [17.7136822, 44.2022972], [17.7135391, 44.2022104], [17.7133668, 44.2021026], [17.7133668, 44.2020237], [17.7133778, 44.2019422], [17.7133814, 44.2018213], [17.7133521, 44.2017266], [17.713176, 44.2016293], [17.712978, 44.2015794], [17.7128056, 44.2016293], [17.7126479, 44.2017082], [17.7124865, 44.2017845], [17.7122774, 44.2019054], [17.7121014, 44.2020237], [17.7119656, 44.2020421], [17.7117933, 44.2020527], [17.7116539, 44.2020842], [17.7115622, 44.2021263], [17.7113238, 44.2022446], [17.7112101, 44.2023103], [17.711012, 44.2024155], [17.7109166, 44.202426], [17.7107516, 44.2024444], [17.7105132, 44.202426], [17.7104031, 44.2023813], [17.7103371, 44.2022919], [17.7103371, 44.2022209], [17.7103848, 44.2021526], [17.7104288, 44.2021026], [17.7104728, 44.2020106], [17.7105058, 44.2019396], [17.7105499, 44.2018555], [17.7105645, 44.2017582], [17.7105829, 44.2016898], [17.7105682, 44.2016293], [17.7104692, 44.201582], [17.7103885, 44.2015425], [17.7102894, 44.2015373], [17.7101537, 44.2015294], [17.7100327, 44.2015373], [17.7099483, 44.2015846], [17.7097136, 44.2016346], [17.7095119, 44.201582], [17.7093908, 44.2015688], [17.7092148, 44.2015294], [17.7091488, 44.2014794], [17.7091414, 44.201419], [17.7091084, 44.2013611], [17.7090057, 44.2013427], [17.7088773, 44.2013795], [17.7088113, 44.2014216], [17.7087013, 44.2015163], [17.7085619, 44.2016109], [17.7084629, 44.2017082], [17.7083528, 44.2018186], [17.7082868, 44.2019212], [17.7081438, 44.2020816], [17.7081071, 44.2021342], [17.7081291, 44.2022393], [17.7081951, 44.2023235], [17.7082648, 44.2023971], [17.7083528, 44.2024891], [17.7084189, 44.2025575], [17.7085216, 44.2026416], [17.7085839, 44.2027205], [17.7085986, 44.2028152], [17.7085802, 44.202902], [17.7085362, 44.2029808], [17.7083968, 44.2029887], [17.7082355, 44.2029335], [17.7081731, 44.2028993], [17.7080337, 44.2028204], [17.7079127, 44.2028178], [17.707832, 44.2028704], [17.707689, 44.2029598], [17.7075753, 44.203036], [17.7074762, 44.2030886], [17.7074102, 44.2031228], [17.7073699, 44.2031991], [17.7073662, 44.2032674], [17.7073882, 44.2033332], [17.7074652, 44.2034226], [17.7075202, 44.2035041], [17.7075569, 44.2035698], [17.7076119, 44.2036592], [17.7076303, 44.2037381], [17.7076303, 44.2038301], [17.7076119, 44.2039248], [17.7075056, 44.2040115], [17.7074395, 44.2040483], [17.7072818, 44.2040562], [17.7071461, 44.2040352], [17.7070398, 44.2040352], [17.7069811, 44.2040326], [17.706838, 44.2039958], [17.7067647, 44.2039879], [17.706695, 44.2039353], [17.7066913, 44.2038696], [17.7066693, 44.2038064], [17.7066033, 44.2037381], [17.7064676, 44.2037276], [17.7063722, 44.2037302], [17.7062658, 44.2037302], [17.7061778, 44.2037565], [17.7060898, 44.2038091], [17.7060164, 44.2038669], [17.7058514, 44.2039984], [17.7057157, 44.2041246], [17.7056973, 44.2042008], [17.7056937, 44.2042745], [17.7057047, 44.2043665], [17.7057523, 44.2044506], [17.7057413, 44.2045295], [17.7056643, 44.2046005], [17.7055323, 44.2046399], [17.7054076, 44.204661], [17.7052975, 44.2046899], [17.7051985, 44.2047293], [17.7050848, 44.2047714], [17.7049124, 44.2047977], [17.7048594, 44.2048207], [17.7047914, 44.2048345], [17.7047767, 44.2048924], [17.704707, 44.2049555], [17.704542, 44.2050238], [17.7043879, 44.2050422], [17.7042705, 44.2050554], [17.7041825, 44.2051237], [17.7041605, 44.2051632], [17.7041642, 44.2052289], [17.7041165, 44.2052263], [17.7040138, 44.2052158], [17.7039038, 44.2052315], [17.7038451, 44.2052605], [17.7038194, 44.2053157], [17.7038377, 44.2053709], [17.7038744, 44.2054156], [17.7039404, 44.2054629], [17.7040285, 44.2055102], [17.7039991, 44.2055733], [17.7039221, 44.2055996], [17.7038341, 44.2055812], [17.7037644, 44.2055576], [17.703669, 44.2055392], [17.7035553, 44.205547], [17.703493, 44.2055944], [17.7034269, 44.2056285], [17.7033829, 44.2056995], [17.7033903, 44.2057784], [17.7032509, 44.2057784], [17.7029953, 44.2056777], [17.7004654, 44.2039912], [17.6994603, 44.2050054], [17.6992538, 44.2049091], [17.6993059, 44.2047696], [17.69931, 44.2045756], [17.699312, 44.2043902], [17.6993882, 44.204245], [17.6992077, 44.2040553], [17.6986964, 44.2037448], [17.6983275, 44.2035235], [17.6978984, 44.2032762], [17.697361, 44.2029974], [17.6969961, 44.202822], [17.6967194, 44.2026955], [17.6965099, 44.202626], [17.6964548, 44.2025288], [17.6966553, 44.2019107], [17.6968518, 44.2018417], [17.6975535, 44.2020688], [17.6977861, 44.201698], [17.6977821, 44.2016405], [17.697742, 44.201583], [17.697722, 44.201537], [17.6977901, 44.2014536], [17.6978783, 44.2014249], [17.6979586, 44.2013559], [17.6979987, 44.2012898], [17.6979906, 44.2011086], [17.6975352, 44.2010745], [17.6970284, 44.2010031], [17.6964273, 44.2008608], [17.6959979, 44.2006939], [17.6956633, 44.2006187], [17.6954308, 44.2005313], [17.6951302, 44.2004987], [17.6950707, 44.2006227], [17.6947389, 44.2005516], [17.6943873, 44.2005008], [17.6945631, 44.1999804], [17.6946425, 44.1998482], [17.6947286, 44.1994895], [17.6946183, 44.1993219], [17.6938834, 44.1992883], [17.6925281, 44.199268], [17.6921353, 44.1993916], [17.6917736, 44.19936], [17.6915061, 44.1992463], [17.6914981, 44.1990491], [17.6913089, 44.1989087], [17.6913722, 44.1987254], [17.6912495, 44.1986023], [17.6902115, 44.198543], [17.6896084, 44.1984227], [17.6891509, 44.1982459], [17.6885715, 44.1981923], [17.6882282, 44.1979716], [17.6876889, 44.1978956], [17.6869645, 44.1978424], [17.6865432, 44.1981406], [17.6861308, 44.1982904], [17.6857234, 44.1982857], [17.6853704, 44.198237], [17.685169, 44.1982524], [17.6849697, 44.1982384], [17.6847768, 44.1981629], [17.683772, 44.1979377], [17.6822455, 44.1976665], [17.6818572, 44.1977445], [17.6807181, 44.19773], [17.6806268, 44.1979353], [17.6805583, 44.1980065], [17.6803759, 44.1980598], [17.6798752, 44.1980119], [17.6792701, 44.1979974], [17.6782639, 44.1977411], [17.6778994, 44.1976888], [17.6775658, 44.1977741], [17.6770262, 44.1980361], [17.6764941, 44.1982489], [17.6759674, 44.1983336], [17.6754717, 44.1983544], [17.6751091, 44.1983714], [17.6747321, 44.1984662], [17.6747882, 44.1978478], [17.6734557, 44.1977215], [17.6726326, 44.1975401], [17.6722511, 44.1974194], [17.6719955, 44.1974111], [17.6719136, 44.1975159], [17.6717411, 44.197572], [17.6711017, 44.1976192], [17.6709439, 44.1977542], [17.6705236, 44.1974671], [17.67016, 44.1973585], [17.6691947, 44.197453], [17.6683703, 44.1973083], [17.6677271, 44.1970215], [17.6673121, 44.1969268], [17.6669084, 44.1967428], [17.6662839, 44.1964187], [17.6653706, 44.1968741], [17.6651107, 44.1969562], [17.6649528, 44.196955], [17.664633, 44.1968003], [17.6639407, 44.1955592], [17.6633616, 44.1956781], [17.6604876, 44.1966022], [17.6599113, 44.1967411], [17.6592339, 44.1966913], [17.657432, 44.1966749], [17.656146, 44.1970496], [17.6551504, 44.1974679], [17.6499211, 44.1990946], [17.6472199, 44.2002179], [17.6460486, 44.200728], [17.6445691, 44.2011732], [17.6407965, 44.2036299], [17.6372137, 44.2022356], [17.6364385, 44.2019728], [17.635622, 44.2018944], [17.6315415, 44.2020944], [17.6299575, 44.2019922], [17.6282174, 44.2017407], [17.6264154, 44.2013312], [17.6252075, 44.2008414], [17.6236392, 44.2010328], [17.6176704, 44.2009293], [17.6147918, 44.2004549], [17.6131756, 44.200167], [17.6110703, 44.2006901], [17.6103339, 44.2013979], [17.6086706, 44.2025722], [17.6088272, 44.2031919], [17.6080503, 44.2028761], [17.6002161, 44.1933765], [17.5989492, 44.1911057], [17.5964155, 44.1874722], [17.5951487, 44.1852012], [17.5913482, 44.1806588], [17.5869143, 44.1774789], [17.5831137, 44.1765704], [17.5767795, 44.1770247], [17.5736124, 44.1783875], [17.5691785, 44.1774789], [17.5634777, 44.1742989], [17.5596772, 44.17021], [17.5565101, 44.1683927], [17.5514428, 44.1656665], [17.5444621, 44.1622056]]]}}]}