{"type": "FeatureCollection", "features": [{"type": "Feature", "properties": {"name": "Općina Novi Grad, Grad Sarajevo, Kanton Sarajevo, Federacija Bosne i Hercegovine, Bosna i Hercegovina / Босна и Херцеговина", "source": "OpenStreetMap relation 2528240", "licence": "ODbL 1.0"}, "geometry": {"type": "Polygon", "coordinates": [[[18.2494674, 43.8983941], [18.249635, 43.8978679], [18.2499658, 43.8973293], [18.2509132, 43.8968689], [18.2516151, 43.896419], [18.2529469, 43.8957999], [18.2535855, 43.8955737], [18.2537495, 43.8953811], [18.2536857, 43.8951684], [18.2535047, 43.8948969], [18.2532264, 43.8946111], [18.2527905, 43.8940725], [18.2527252, 43.8938145], [18.2527622, 43.8934335], [18.2530097, 43.893027], [18.2534095, 43.8927319], [18.2538184, 43.8925102], [18.2540574, 43.8924367], [18.2542889, 43.892334], [18.2547233, 43.8920442], [18.2550285, 43.8918403], [18.2548655, 43.8917034], [18.254693, 43.8915824], [18.2542122, 43.8913317], [18.2538388, 43.8912089], [18.2535179, 43.8910566], [18.2534296, 43.8909024], [18.2532764, 43.8907196], [18.2532567, 43.8905536], [18.2533088, 43.8903462], [18.2531976, 43.890125], [18.2531613, 43.8899664], [18.253259, 43.8897944], [18.2535396, 43.8895568], [18.2537172, 43.8892636], [18.2539503, 43.8885222], [18.2545922, 43.8877573], [18.2548003, 43.8872129], [18.2552537, 43.8864299], [18.255551, 43.8855262], [18.2566778, 43.8838671], [18.2569197, 43.8827553], [18.2578418, 43.88273], [18.258035, 43.8820336], [18.2583195, 43.8816619], [18.2590155, 43.8811757], [18.2599837, 43.8807198], [18.2604673, 43.8803856], [18.2608125, 43.8797991], [18.2615615, 43.8787197], [18.2617845, 43.8785442], [18.262325, 43.8782854], [18.2627419, 43.8780227], [18.2631433, 43.8776877], [18.263422, 43.8770301], [18.2636103, 43.8759794], [18.2637997, 43.8755118], [18.263921, 43.8754305], [18.264073, 43.8753544], [18.2642682, 43.8753356], [18.2642684, 43.8753336], [18.2642954, 43.875051], [18.264116, 43.8749984], [18.2638353, 43.8748799], [18.2635938, 43.8746758], [18.2634227, 43.8744107], [18.263382, 43.8742369], [18.2632527, 43.8738096], [18.263143, 43.8735591], [18.2629921, 43.873324], [18.2627967, 43.872893], [18.2627473, 43.8725046], [18.2626221, 43.8718157], [18.262518, 43.8715855], [18.2620992, 43.8709496], [18.2614763, 43.8702099], [18.2610942, 43.869526], [18.2610181, 43.8692962], [18.2610306, 43.8689841], [18.2609843, 43.8685979], [18.2610436, 43.868456], [18.2613779, 43.8682764], [18.2621267, 43.8679594], [18.2628424, 43.867629], [18.2632391, 43.8673121], [18.2645504, 43.8661163], [18.2652626, 43.8654513], [18.266504, 43.8645736], [18.2675273, 43.8640797], [18.2679234, 43.8639004], [18.2682691, 43.8636483], [18.2688545, 43.8633716], [18.2697073, 43.8633453], [18.2705023, 43.8634282], [18.2714135, 43.8638711], [18.2719078, 43.8640544], [18.2723739, 43.8649198], [18.272721, 43.8652892], [18.2731804, 43.8655836], [18.2736402, 43.8658043], [18.2756396, 43.8666145], [18.2780275, 43.8676294], [18.2803745, 43.8686276], [18.2815617, 43.8673993], [18.2834405, 43.8678449], [18.2839943, 43.8690502], [18.2842835, 43.8691721], [18.2850761, 43.8694218], [18.2856927, 43.8694889], [18.2871478, 43.8694805], [18.2877815, 43.8693855], [18.2883532, 43.8692024], [18.2887793, 43.8689842], [18.2891525, 43.868917], [18.2895394, 43.868949], [18.2899179, 43.8690329], [18.2903086, 43.8693355], [18.2910657, 43.8683273], [18.2906593, 43.8680223], [18.2904708, 43.8678113], [18.290411, 43.8676179], [18.2904842, 43.8673913], [18.2907096, 43.8672532], [18.2909553, 43.8672027], [18.2911925, 43.8672389], [18.2914942, 43.8673925], [18.291831, 43.8674544], [18.2920776, 43.8674112], [18.2923113, 43.8671914], [18.2924328, 43.8669091], [18.2924986, 43.8666887], [18.2926162, 43.8666282], [18.2928128, 43.8666113], [18.2930488, 43.8666611], [18.2933726, 43.8668921], [18.2935418, 43.8669684], [18.293677, 43.8669596], [18.2938169, 43.866864], [18.2938966, 43.8667596], [18.293999, 43.866652], [18.2941885, 43.8665474], [18.2944102, 43.8665237], [18.2947895, 43.8666178], [18.2950233, 43.8667497], [18.2950437, 43.8668223], [18.2951016, 43.8668404], [18.2951676, 43.8668189], [18.2952087, 43.8667828], [18.2952661, 43.866506], [18.2953078, 43.866365], [18.2953794, 43.8662558], [18.2953384, 43.8661691], [18.2952107, 43.8661154], [18.2950624, 43.8661112], [18.294878, 43.866147], [18.2946675, 43.8662479], [18.29458, 43.8662405], [18.2941608, 43.8659979], [18.2941666, 43.8658861], [18.29446, 43.8656258], [18.2949003, 43.8653429], [18.2952534, 43.8649997], [18.2955051, 43.864689], [18.2956562, 43.8645206], [18.2958003, 43.8643453], [18.2963631, 43.8641558], [18.2966962, 43.8641798], [18.2968314, 43.8642282], [18.2969336, 43.8642197], [18.297158, 43.8641772], [18.2973547, 43.8639832], [18.2973506, 43.8638815], [18.2972898, 43.8637565], [18.2970455, 43.8635755], [18.2973358, 43.8634738], [18.297603, 43.8632424], [18.2977655, 43.8631813], [18.2979084, 43.8631074], [18.2979676, 43.8630188], [18.297936, 43.8627632], [18.297862, 43.8625975], [18.2978444, 43.8624594], [18.2978828, 43.8622635], [18.2980693, 43.8619026], [18.2983256, 43.8616169], [18.2985053, 43.8616628], [18.2986464, 43.8616437], [18.2987487, 43.8615627], [18.2988028, 43.8614912], [18.298844, 43.8614325], [18.2988954, 43.8614123], [18.2990128, 43.8614162], [18.2991112, 43.8614282], [18.2992886, 43.8614956], [18.2994221, 43.8616502], [18.2997491, 43.8622634], [18.299887, 43.8624363], [18.3000196, 43.862531], [18.3001668, 43.8625671], [18.300374, 43.8625857], [18.3005517, 43.8625683], [18.3008567, 43.862465], [18.3009328, 43.8623947], [18.3009853, 43.8623233], [18.3009526, 43.8622055], [18.30085, 43.8620897], [18.3007099, 43.8620011], [18.3005533, 43.8618854], [18.3004277, 43.8617336], [18.3004392, 43.8616033], [18.3004934, 43.8614884], [18.3007313, 43.861265], [18.3008125, 43.861151], [18.3007638, 43.8610265], [18.300652, 43.8609336], [18.3004862, 43.8608572], [18.3002699, 43.8607616], [18.3001045, 43.8606328], [18.3000767, 43.8604948], [18.3000898, 43.8603646], [18.3002472, 43.8602061], [18.300481, 43.8600644], [18.3007134, 43.8599597], [18.3009314, 43.8599331], [18.3010643, 43.8599548], [18.3012566, 43.8600963], [18.3015291, 43.8603662], [18.3016401, 43.8603997], [18.3018055, 43.8604188], [18.3020697, 43.8603539], [18.3022144, 43.8602239], [18.3024081, 43.8599335], [18.3025296, 43.8596218], [18.3025473, 43.8594704], [18.3021945, 43.858997], [18.3021931, 43.8587855], [18.3020331, 43.8585245], [18.3019284, 43.8581764], [18.301584, 43.8578683], [18.3015539, 43.8577737], [18.3015958, 43.8576157], [18.3017183, 43.8574725], [18.3018961, 43.8573444], [18.3020813, 43.8572502], [18.3022935, 43.8572485], [18.3027644, 43.85738], [18.3029819, 43.8574823], [18.3032354, 43.8575298], [18.3034671, 43.8574977], [18.3036699, 43.8573693], [18.3038965, 43.85721], [18.3041345, 43.8570922], [18.3043871, 43.8570918], [18.3050644, 43.8573138], [18.3052506, 43.85734], [18.3054755, 43.8573365], [18.3056669, 43.8573063], [18.3057845, 43.8572669], [18.3058406, 43.8571648], [18.3058493, 43.8568898], [18.3058169, 43.85665], [18.3058117, 43.8564363], [18.3058797, 43.8562829], [18.3060748, 43.8561259], [18.3063816, 43.8560927], [18.306603, 43.8560057], [18.3069772, 43.8559896], [18.3073898, 43.8560067], [18.3077601, 43.8560399], [18.3080446, 43.8560141], [18.3083474, 43.8560435], [18.3086791, 43.8560303], [18.3089307, 43.8559712], [18.309344, 43.8558209], [18.3097095, 43.8556653], [18.3099033, 43.8554107], [18.309928, 43.855198], [18.3098991, 43.8549806], [18.3097463, 43.8547636], [18.3095055, 43.8546643], [18.3093153, 43.8545975], [18.3091643, 43.8544807], [18.3091113, 43.8543244], [18.308991, 43.8541905], [18.3087807, 43.8540816], [18.3085841, 43.854072], [18.3082831, 43.8541607], [18.3080421, 43.8543207], [18.3077533, 43.854412], [18.3074673, 43.8544608], [18.3071398, 43.8544481], [18.3068552, 43.8543115], [18.3066653, 43.8541352], [18.3065402, 43.8537777], [18.3064277, 43.8533396], [18.3063693, 43.853239], [18.3061598, 43.8530107], [18.3061393, 43.8529196], [18.306198, 43.8527545], [18.3063625, 43.8525303], [18.3065225, 43.8524221], [18.3068587, 43.8522466], [18.3072078, 43.8521704], [18.3073857, 43.8522356], [18.307564, 43.8523512], [18.3077215, 43.8523884], [18.307955, 43.8523929], [18.3082438, 43.8523829], [18.3085166, 43.8522586], [18.308771, 43.8521036], [18.3089583, 43.852057], [18.3092192, 43.8520585], [18.3094324, 43.8520212], [18.309653, 43.8519353], [18.3099543, 43.8518209], [18.3102455, 43.8516397], [18.3104899, 43.8512495], [18.3105421, 43.8509393], [18.3106385, 43.850576], [18.3107716, 43.85046], [18.3110081, 43.8504283], [18.311266, 43.8505656], [18.3114738, 43.8507874], [18.3115413, 43.8510471], [18.3114567, 43.8516093], [18.3115664, 43.8517513], [18.3117736, 43.8518691], [18.3120544, 43.8520172], [18.3123977, 43.8521208], [18.3127905, 43.8520675], [18.3133117, 43.8519303], [18.3136885, 43.8517296], [18.31415, 43.851336], [18.3149817, 43.8505923], [18.3151269, 43.8504265], [18.3150902, 43.8502017], [18.3149463, 43.8498342], [18.3148504, 43.8494525], [18.3148465, 43.8491437], [18.3149138, 43.8488854], [18.3151581, 43.8486824], [18.3156901, 43.8484233], [18.3161592, 43.8483578], [18.316725, 43.8482706], [18.3173807, 43.848093], [18.3178608, 43.8478543], [18.318582, 43.8474924], [18.3194936, 43.8471284], [18.3198804, 43.8470378], [18.320397, 43.8469147], [18.3208212, 43.8468715], [18.3222058, 43.8468375], [18.3242342, 43.8468213], [18.3267113, 43.8468068], [18.3291182, 43.8468681], [18.3297806, 43.8467711], [18.3302335, 43.8466461], [18.3314185, 43.8461751], [18.3320264, 43.8459969], [18.3327312, 43.8459296], [18.3331995, 43.845933], [18.3335734, 43.8459643], [18.3338269, 43.8460423], [18.3339136, 43.8457663], [18.3340479, 43.8456168], [18.3342425, 43.8453363], [18.3343423, 43.8451377], [18.3351143, 43.8453023], [18.3353647, 43.8447761], [18.3350451, 43.8446894], [18.3354608, 43.8440215], [18.3374484, 43.8444022], [18.3383513, 43.8445616], [18.3398348, 43.8427713], [18.3381486, 43.8417687], [18.3378611, 43.8415789], [18.3374584, 43.8412351], [18.3365664, 43.8405258], [18.335375, 43.8393345], [18.3340896, 43.8380255], [18.3333322, 43.8371965], [18.332581, 43.8363635], [18.3310172, 43.8345019], [18.3302484, 43.8350217], [18.3295109, 43.8356189], [18.3289978, 43.8360154], [18.3277343, 43.8370127], [18.3260928, 43.8357509], [18.3262211, 43.8355143], [18.3264242, 43.8351775], [18.3265968, 43.8348988], [18.3266451, 43.8347184], [18.3267198, 43.8345199], [18.3267928, 43.8343702], [18.3269485, 43.8342101], [18.3280574, 43.8333723], [18.3281582, 43.8332305], [18.328256, 43.8329314], [18.3283317, 43.8328263], [18.3285213, 43.8327621], [18.3287436, 43.8327595], [18.3289667, 43.8327808], [18.329215, 43.8328186], [18.3293692, 43.832805], [18.3296551, 43.8327018], [18.3301906, 43.8325985], [18.3300449, 43.8319798], [18.33003, 43.8318111], [18.3300845, 43.8309016], [18.330503, 43.830822], [18.3310585, 43.8305901], [18.3329723, 43.8297798], [18.3344682, 43.8290999], [18.3365006, 43.8282812], [18.3370245, 43.8281278], [18.3372565, 43.827995], [18.3381212, 43.8272688], [18.3384936, 43.8270029], [18.3390659, 43.8265753], [18.3397627, 43.8260542], [18.3405779, 43.8254571], [18.341051, 43.825076], [18.3412702, 43.8249221], [18.3414559, 43.8248074], [18.3416463, 43.8247194], [18.3419182, 43.8246269], [18.3423601, 43.8245426], [18.342896, 43.8244629], [18.3432334, 43.824394], [18.3439241, 43.8242025], [18.3442297, 43.8240774], [18.346409, 43.8233218], [18.3490781, 43.822416], [18.3514373, 43.8215334], [18.3517705, 43.8219255], [18.3522385, 43.8216222], [18.3523384, 43.8215356], [18.3527531, 43.8211022], [18.3528298, 43.8210032], [18.3529159, 43.8209096], [18.3529979, 43.820961], [18.3530643, 43.8210062], [18.3545163, 43.8219947], [18.3556745, 43.8235626], [18.3547556, 43.8239548], [18.3555173, 43.8249756], [18.3555679, 43.8253042], [18.3561653, 43.8260986], [18.3562377, 43.8261949], [18.3564257, 43.8264819], [18.3564929, 43.8265846], [18.3571209, 43.8263617], [18.3574895, 43.8263707], [18.3577469, 43.8264723], [18.358045, 43.826876], [18.357966, 43.8275836], [18.3573527, 43.8278235], [18.3575444, 43.8281387], [18.3582151, 43.8281948], [18.358402, 43.828503], [18.3583189, 43.8286894], [18.3578674, 43.8288649], [18.3583056, 43.829481], [18.3570117, 43.8298683], [18.357233, 43.8302479], [18.3573873, 43.8304263], [18.3576419, 43.830622], [18.3578058, 43.8306635], [18.3580997, 43.830692], [18.3587054, 43.8305875], [18.3618943, 43.835002], [18.3626737, 43.8356687], [18.3641459, 43.8358505], [18.3654802, 43.836128], [18.3657552, 43.8370058], [18.3661043, 43.8370393], [18.3663311, 43.8372185], [18.3666084, 43.8373666], [18.3670206, 43.8375001], [18.3675194, 43.8375036], [18.3678826, 43.8375782], [18.3681136, 43.8377249], [18.3684813, 43.8380691], [18.3690855, 43.8387661], [18.369635, 43.8388508], [18.3695001, 43.8394274], [18.370104, 43.8395406], [18.370324, 43.8396773], [18.370501, 43.8396903], [18.3708449, 43.8396496], [18.3713009, 43.839567], [18.3721812, 43.8394949], [18.3726784, 43.8394448], [18.3731169, 43.8395034], [18.3734997, 43.8396148], [18.3737615, 43.8396434], [18.3741717, 43.8396414], [18.3745055, 43.8396804], [18.374958, 43.839733], [18.3752284, 43.8397921], [18.3753886, 43.839861], [18.375513, 43.8398764], [18.3756055, 43.8398743], [18.3757145, 43.8398621], [18.3761796, 43.839756], [18.3764341, 43.8397316], [18.3765603, 43.8397503], [18.3766952, 43.8397915], [18.3769169, 43.8398862], [18.3770105, 43.8399044], [18.3771241, 43.8398951], [18.3772457, 43.8398728], [18.3777063, 43.8396452], [18.3777352, 43.8397804], [18.3777857, 43.8398144], [18.3776974, 43.8400945], [18.3776596, 43.84035], [18.3776718, 43.8406227], [18.3776489, 43.841142], [18.377614, 43.8416216], [18.377577, 43.8416911], [18.3773289, 43.8420686], [18.3771643, 43.8423437], [18.3770321, 43.8425446], [18.3769876, 43.8427646], [18.376986, 43.8429555], [18.3769981, 43.8430252], [18.3770775, 43.8431026], [18.3772218, 43.8431632], [18.3772937, 43.8431593], [18.3773658, 43.8431301], [18.377461, 43.8430002], [18.3775312, 43.8430393], [18.3775085, 43.8431487], [18.3775422, 43.8432793], [18.3777975, 43.8438591], [18.3779345, 43.8442415], [18.3779766, 43.8445044], [18.3780277, 43.8447061], [18.3781808, 43.8450647], [18.3781774, 43.845113], [18.3781103, 43.8451526], [18.3779971, 43.8451786], [18.3778711, 43.8451888], [18.3777175, 43.8452762], [18.377614, 43.8453688], [18.3775514, 43.8454384], [18.3775263, 43.845512], [18.3774697, 43.8456922], [18.3773555, 43.8458971], [18.3773075, 43.8461119], [18.3773074, 43.8463002], [18.3773614, 43.8465086], [18.377533, 43.8468241], [18.3772773, 43.846977], [18.3770309, 43.8471787], [18.3768216, 43.8474193], [18.3767453, 43.8476312], [18.3764649, 43.848405], [18.3763537, 43.8486058], [18.3762627, 43.8488417], [18.3755302, 43.8488702], [18.3730076, 43.8490822], [18.371749, 43.8491723], [18.3700339, 43.8491636], [18.3683966, 43.8490008], [18.3683395, 43.8492854], [18.3668514, 43.84905], [18.3663378, 43.8508566], [18.3660214, 43.8519047], [18.3651057, 43.8534927], [18.3654242, 43.8535855], [18.3657539, 43.8537201], [18.3662194, 43.8538836], [18.3664988, 43.8539861], [18.3665839, 43.8541027], [18.3666162, 43.8541238], [18.3666586, 43.8541357], [18.3668817, 43.8541404], [18.367076, 43.854176], [18.3672196, 43.8542129], [18.3673319, 43.8542591], [18.367207, 43.8546557], [18.3673196, 43.8546761], [18.3676815, 43.8548758], [18.3677997, 43.854962], [18.3680154, 43.8551914], [18.3680883, 43.8553926], [18.3683614, 43.856207], [18.3685306, 43.8565225], [18.3686864, 43.8567479], [18.368882, 43.8569498], [18.3690046, 43.8570356], [18.369174, 43.8571011], [18.3696826, 43.8572317], [18.3700822, 43.8573049], [18.3696196, 43.8575188], [18.370032, 43.8581229], [18.3699693, 43.858482], [18.3703582, 43.8586639], [18.3701969, 43.8588353], [18.3690811, 43.8592842], [18.3682985, 43.8593425], [18.3686743, 43.8596765], [18.3689678, 43.8598049], [18.369136, 43.8597972], [18.3692971, 43.8597891], [18.3694899, 43.8598043], [18.3697299, 43.8598751], [18.3702203, 43.8602041], [18.3710108, 43.8606879], [18.3711875, 43.8609117], [18.3713295, 43.8612032], [18.3714321, 43.8613388], [18.3717321, 43.8614322], [18.372133, 43.8614957], [18.3723695, 43.8616293], [18.3725022, 43.8617949], [18.3725584, 43.8619648], [18.3726202, 43.8621257], [18.3726926, 43.8622599], [18.3727645, 43.8623278], [18.3736579, 43.8630977], [18.373499, 43.8631744], [18.3737024, 43.8634142], [18.3737454, 43.8635985], [18.3738701, 43.8637], [18.374101, 43.863752], [18.3745671, 43.8638266], [18.3748455, 43.8640729], [18.3751332, 43.8642723], [18.3752316, 43.864569], [18.3755779, 43.8647588], [18.3757574, 43.8649875], [18.3761925, 43.8651414], [18.376725, 43.8655141], [18.3767776, 43.8657247], [18.3767043, 43.8659412], [18.376756, 43.8662517], [18.3766972, 43.8667493], [18.3767064, 43.8672452], [18.3767304, 43.8676401], [18.3768697, 43.867978], [18.3771125, 43.8682856], [18.3771702, 43.8685619], [18.3773354, 43.8688236], [18.3772497, 43.8690735], [18.3772302, 43.8693478], [18.3773901, 43.8697691], [18.3774136, 43.8701049], [18.3774576, 43.8710293], [18.3774821, 43.8712658], [18.3775167, 43.8714666], [18.3774678, 43.8716259], [18.3774358, 43.8717737], [18.3774748, 43.8719033], [18.377434, 43.8720352], [18.3772694, 43.8722993], [18.3770986, 43.8723907], [18.3770381, 43.8724739], [18.3769808, 43.8726516], [18.3767298, 43.8726858], [18.3765234, 43.8727347], [18.3763561, 43.8728402], [18.376113, 43.8730039], [18.3759783, 43.8731208], [18.3757135, 43.8732197], [18.3749839, 43.8735271], [18.3746402, 43.873721], [18.3744689, 43.8738451], [18.3741725, 43.8743127], [18.3740337, 43.8741117], [18.3739158, 43.8739989], [18.3737703, 43.8739247], [18.373457, 43.8738403], [18.3732214, 43.8737652], [18.372964, 43.873743], [18.3727583, 43.8737055], [18.3725442, 43.8737322], [18.3723048, 43.8738922], [18.372144, 43.8741088], [18.3720264, 43.874265], [18.3718948, 43.8744109], [18.3714809, 43.8746181], [18.3707256, 43.8750724], [18.370391, 43.8751794], [18.3696831, 43.8753395], [18.3694212, 43.8754013], [18.3691835, 43.8754041], [18.3689258, 43.8754273], [18.3686782, 43.8754318], [18.3684831, 43.8754234], [18.3682647, 43.8754895], [18.3680075, 43.8755395], [18.3677551, 43.8755531], [18.3675063, 43.8756142], [18.367129, 43.8757997], [18.3669823, 43.8760027], [18.3670311, 43.8762587], [18.3668007, 43.876646], [18.3667392, 43.8768689], [18.3666987, 43.8769999], [18.3658713, 43.8772499], [18.3661446, 43.8774551], [18.3669347, 43.8775512], [18.3683096, 43.8781989], [18.3687011, 43.8782431], [18.3689938, 43.8783057], [18.3692422, 43.8786718], [18.3685669, 43.8788392], [18.3682044, 43.8790371], [18.3678711, 43.8787913], [18.366959, 43.878425], [18.366038, 43.8782552], [18.3653146, 43.8779404], [18.3646934, 43.8776109], [18.3647709, 43.8771075], [18.3640408, 43.8766178], [18.3630571, 43.8771281], [18.3630558, 43.877318], [18.3632007, 43.8776536], [18.3633518, 43.8778273], [18.3635006, 43.8781134], [18.3635209, 43.8786477], [18.3634643, 43.8790111], [18.3632742, 43.879182], [18.3625537, 43.8797936], [18.3621327, 43.8800995], [18.3617725, 43.8802697], [18.3612688, 43.8803031], [18.3601563, 43.8801629], [18.3594362, 43.8801103], [18.358789, 43.8801889], [18.3579225, 43.8806405], [18.3569006, 43.8810282], [18.356329, 43.8812439], [18.355994, 43.8812977], [18.3554497, 43.8812332], [18.3551168, 43.8811091], [18.3548775, 43.8810514], [18.3542438, 43.8811993], [18.3534026, 43.8813934], [18.3531773, 43.8812644], [18.3523611, 43.8818014], [18.3513342, 43.8826033], [18.3517609, 43.883039], [18.3511018, 43.883517], [18.350433, 43.8842294], [18.3494611, 43.8845984], [18.3487931, 43.8849036], [18.3486578, 43.8854003], [18.3481081, 43.8853894], [18.3480676, 43.88621], [18.3476256, 43.8862685], [18.3473024, 43.8858367], [18.3472968, 43.8855974], [18.3473179, 43.8852253], [18.3472813, 43.8848012], [18.3470903, 43.8844325], [18.3466154, 43.8840724], [18.3461461, 43.8834625], [18.3455867, 43.8829911], [18.3444932, 43.8824468], [18.3435592, 43.8820486], [18.3428484, 43.8823687], [18.3423163, 43.8827565], [18.3419296, 43.8829552], [18.3414962, 43.8827417], [18.3405649, 43.8835119], [18.3405854, 43.8838516], [18.3402455, 43.8840768], [18.3398561, 43.8843124], [18.3394986, 43.8843721], [18.3387988, 43.8846039], [18.3383745, 43.8849172], [18.3381176, 43.8850656], [18.3373511, 43.8853349], [18.3370925, 43.8854671], [18.3366767, 43.8857936], [18.3364202, 43.8861055], [18.3362366, 43.8864525], [18.3360364, 43.8865874], [18.3359212, 43.8867748], [18.3359214, 43.8871277], [18.3359629, 43.888077], [18.3359765, 43.8883149], [18.3359065, 43.8885063], [18.335788, 43.8887153], [18.3354904, 43.889003], [18.3351231, 43.8892474], [18.3347316, 43.8894394], [18.33406, 43.8893104], [18.3328898, 43.8892714], [18.3320352, 43.8891449], [18.3311816, 43.8900633], [18.3309004, 43.8903411], [18.3306445, 43.8905805], [18.3301095, 43.8906188], [18.3297974, 43.8905898], [18.3294799, 43.8906652], [18.3292548, 43.8907959], [18.3285924, 43.8909233], [18.3280213, 43.8907703], [18.3280962, 43.8906029], [18.3281186, 43.8903662], [18.3280948, 43.8901171], [18.3280319, 43.889833], [18.3276615, 43.8887948], [18.3271528, 43.8873056], [18.3269662, 43.8870538], [18.3267736, 43.8869425], [18.3263573, 43.8868328], [18.3258177, 43.8868123], [18.3255087, 43.8877138], [18.3251191, 43.8876267], [18.3247842, 43.8876118], [18.3244727, 43.8877177], [18.3241653, 43.8879479], [18.3239251, 43.8882743], [18.3235762, 43.8887316], [18.3233079, 43.8891683], [18.3237691, 43.8893788], [18.3236714, 43.8896037], [18.3232508, 43.8896408], [18.3228844, 43.889735], [18.3225079, 43.889729], [18.3219993, 43.8897615], [18.322115, 43.8900912], [18.3217657, 43.8903213], [18.321809, 43.8906265], [18.3213641, 43.8908911], [18.3212318, 43.8910401], [18.3208371, 43.8913611], [18.3206514, 43.8914075], [18.3202869, 43.8914251], [18.3199335, 43.8915006], [18.3195948, 43.8916759], [18.3194154, 43.891894], [18.3190841, 43.8920613], [18.3180656, 43.8923551], [18.3177198, 43.8924149], [18.3173025, 43.8924268], [18.3169749, 43.8923699], [18.3160958, 43.8925507], [18.3163565, 43.8933821], [18.3159897, 43.8944096], [18.3156229, 43.8946341], [18.3151832, 43.8947886], [18.3150565, 43.8949182], [18.3150078, 43.8950976], [18.3148558, 43.8954116], [18.3148161, 43.8959205], [18.3148365, 43.8962445], [18.3147892, 43.896378], [18.3146873, 43.8965026], [18.3144474, 43.8967772], [18.3141795, 43.8969971], [18.3137643, 43.8971726], [18.3134608, 43.8972658], [18.3132502, 43.8972973], [18.3131663, 43.8973874], [18.3131709, 43.8975926], [18.3132715, 43.8977268], [18.3132915, 43.8979339], [18.3133297, 43.8982918], [18.3134027, 43.8985391], [18.3136031, 43.8988859], [18.3136561, 43.8991891], [18.3136654, 43.8996624], [18.3134898, 43.8997073], [18.3133529, 43.8996006], [18.3131773, 43.8994801], [18.3128982, 43.899437], [18.3126673, 43.8994855], [18.3124519, 43.8996048], [18.3122848, 43.899711], [18.3121484, 43.89974], [18.3119924, 43.8995546], [18.3115677, 43.8996226], [18.3113601, 43.8996821], [18.3112307, 43.8997632], [18.3111264, 43.8998885], [18.3110379, 43.8999843], [18.3109039, 43.9000214], [18.3107517, 43.9000492], [18.3105562, 43.9001823], [18.3101952, 43.9004116], [18.3097718, 43.900586], [18.3094598, 43.9006671], [18.3091812, 43.9006634], [18.3090649, 43.9005688], [18.3089926, 43.9004209], [18.3088692, 43.9002728], [18.3086032, 43.9001792], [18.3080702, 43.9000647], [18.3077712, 43.8999588], [18.30743, 43.8998479], [18.3072261, 43.8998112], [18.306947, 43.8998924], [18.3068524, 43.9000177], [18.306892, 43.9002781], [18.3068002, 43.900586], [18.3065395, 43.9007738], [18.305954, 43.901003], [18.3047102, 43.9014086], [18.3040794, 43.9016255], [18.3035461, 43.9018862], [18.3028866, 43.902252], [18.3027354, 43.9023686], [18.3026088, 43.9025299], [18.3023801, 43.9026508], [18.3019059, 43.90281], [18.3014596, 43.9031066], [18.3011344, 43.9034094], [18.3006707, 43.9036821], [18.3002886, 43.9037709], [18.2997969, 43.9039617], [18.2994643, 43.9041858], [18.2992718, 43.9045932], [18.299072, 43.9053186], [18.2987678, 43.9058355], [18.2984268, 43.9061558], [18.2974507, 43.9065936], [18.2968067, 43.9070043], [18.2960254, 43.9070317], [18.2954068, 43.9071358], [18.2947381, 43.9074124], [18.294378, 43.908132], [18.2942152, 43.9084238], [18.2942325, 43.9086846], [18.2938382, 43.9091518], [18.2937109, 43.909568], [18.2934327, 43.9104068], [18.2934137, 43.9108756], [18.293121, 43.9114872], [18.2928455, 43.9119999], [18.2923837, 43.911873], [18.2917522, 43.9118548], [18.2909896, 43.9119708], [18.2903165, 43.9121092], [18.2894031, 43.9123465], [18.2883728, 43.9125851], [18.2881251, 43.9129526], [18.2878858, 43.9132143], [18.2874732, 43.9134293], [18.2870896, 43.9135176], [18.2868109, 43.9135061], [18.2864581, 43.9134082], [18.2860237, 43.9133324], [18.2856958, 43.913372], [18.2847542, 43.913591], [18.2836986, 43.9142182], [18.2832018, 43.9142637], [18.2823789, 43.9151563], [18.2822463, 43.9151659], [18.2821642, 43.9147717], [18.2823644, 43.9142389], [18.2823846, 43.9137744], [18.282417, 43.9130075], [18.282005, 43.9127667], [18.2818511, 43.912609], [18.2817354, 43.9125047], [18.2811779, 43.9122737], [18.2809871, 43.9121444], [18.2808052, 43.9119471], [18.2806781, 43.9118563], [18.2800283, 43.9116153], [18.2796425, 43.9113786], [18.2794691, 43.9112059], [18.2793881, 43.9110755], [18.2788427, 43.9104936], [18.2786642, 43.910257], [18.2783411, 43.9100404], [18.2780411, 43.9096596], [18.2779021, 43.909473], [18.277722, 43.9093521], [18.2774816, 43.909249], [18.2772644, 43.9090806], [18.2771262, 43.9089253], [18.2770136, 43.9086846], [18.2769527, 43.9084361], [18.2767249, 43.9083209], [18.2764453, 43.9082699], [18.2762077, 43.9082641], [18.2760118, 43.9083093], [18.2759356, 43.9083865], [18.2758863, 43.9084929], [18.2758302, 43.9085461], [18.2757067, 43.9085116], [18.2753768, 43.9083897], [18.2752652, 43.9083268], [18.2751707, 43.9081379], [18.2750074, 43.90796], [18.2746248, 43.9078181], [18.2742255, 43.9077811], [18.2738057, 43.907733], [18.2733403, 43.907627], [18.2728728, 43.9075519], [18.2723033, 43.9075651], [18.2719256, 43.9077495], [18.2716778, 43.907986], [18.2713842, 43.9080117], [18.2712591, 43.9079175], [18.2713325, 43.9076151], [18.271455, 43.9070681], [18.2714402, 43.9064717], [18.2712954, 43.9060141], [18.270876, 43.905705], [18.2704432, 43.9049466], [18.2697701, 43.9042006], [18.2694367, 43.9038712], [18.2685566, 43.9036289], [18.2680129, 43.9034072], [18.2678621, 43.9030053], [18.2675946, 43.9025383], [18.2674812, 43.9020217], [18.2674857, 43.9017192], [18.2675238, 43.9015202], [18.2674662, 43.9013324], [18.2671312, 43.9009591], [18.2670607, 43.900754], [18.2669234, 43.9005669], [18.2667673, 43.9004541], [18.2666, 43.9002993], [18.2666015, 43.9001655], [18.2666538, 43.8998953], [18.2667501, 43.89964], [18.2665542, 43.899841], [18.2663789, 43.8999183], [18.2661991, 43.8999493], [18.2660125, 43.8999577], [18.2655794, 43.899822], [18.2653841, 43.8997826], [18.2649794, 43.8998044], [18.2647166, 43.899791], [18.264554, 43.8997189], [18.264419, 43.8995099], [18.2643878, 43.8991081], [18.2643298, 43.8989618], [18.264234, 43.8989018], [18.2641042, 43.8988959], [18.2638845, 43.8990547], [18.2636472, 43.8993178], [18.2635134, 43.8995302], [18.2627499, 43.9002936], [18.2626019, 43.9003292], [18.2618093, 43.9001907], [18.2615737, 43.9001896], [18.2613951, 43.9002525], [18.2611954, 43.9003919], [18.2610552, 43.9004079], [18.2608738, 43.9003212], [18.2604738, 43.9000133], [18.2604506, 43.8997658], [18.2603669, 43.8996706], [18.2601662, 43.899558], [18.2600226, 43.8993977], [18.2597234, 43.8992344], [18.2589118, 43.8991516], [18.2587244, 43.8991931], [18.2585239, 43.8993546], [18.258393, 43.8995588], [18.258266, 43.8999061], [18.2580798, 43.9000433], [18.2577594, 43.9001978], [18.2575739, 43.9003972], [18.2574306, 43.9006139], [18.2573343, 43.9008332], [18.2573419, 43.9010244], [18.2575695, 43.9013982], [18.2573063, 43.9014418], [18.2570765, 43.9015371], [18.2567246, 43.9014786], [18.2562925, 43.9012815], [18.2561086, 43.9010994], [18.2559863, 43.9009253], [18.2560162, 43.9006152], [18.2561707, 43.900259], [18.2563208, 43.8999978], [18.2562442, 43.8996223], [18.2560116, 43.8993646], [18.2556981, 43.8992904], [18.2551888, 43.8993396], [18.2546795, 43.8993889], [18.2542314, 43.8993649], [18.2538613, 43.8991743], [18.253316, 43.8988162], [18.2529832, 43.8985149], [18.2526376, 43.8983449], [18.2521675, 43.8981637], [18.2515996, 43.8981792], [18.2510489, 43.8982937], [18.2504597, 43.8984734], [18.2498876, 43.8984861], [18.2494674, 43.8983941]]]}}]}