{"type": "FeatureCollection", "features": [{"type": "Feature", "properties": {"name": "Općina Novo Sarajevo, Grad Sarajevo, Kanton Sarajevo, Federacija Bosne i Hercegovine, Bosna i Hercegovina / Босна и Херцеговина", "source": "OpenStreetMap relation 2528239", "licence": "ODbL 1.0"}, "geometry": {"type": "Polygon", "coordinates": [[[18.3651057, 43.8534927], [18.3660214, 43.8519047], [18.3663378, 43.8508566], [18.3668514, 43.84905], [18.3683395, 43.8492854], [18.3683966, 43.8490008], [18.3700339, 43.8491636], [18.371749, 43.8491723], [18.3730076, 43.8490822], [18.3755302, 43.8488702], [18.3762627, 43.8488417], [18.3763537, 43.8486058], [18.3764649, 43.848405], [18.3767453, 43.8476312], [18.3768216, 43.8474193], [18.3770309, 43.8471787], [18.3772773, 43.846977], [18.377533, 43.8468241], [18.3773614, 43.8465086], [18.3773074, 43.8463002], [18.3773075, 43.8461119], [18.3773555, 43.8458971], [18.3774697, 43.8456922], [18.3775263, 43.845512], [18.3775514, 43.8454384], [18.377614, 43.8453688], [18.3777175, 43.8452762], [18.3778711, 43.8451888], [18.3779971, 43.8451786], [18.3781103, 43.8451526], [18.3781774, 43.845113], [18.3781808, 43.8450647], [18.3780277, 43.8447061], [18.3779766, 43.8445044], [18.3779345, 43.8442415], [18.3777975, 43.8438591], [18.3775422, 43.8432793], [18.3775085, 43.8431487], [18.3775312, 43.8430393], [18.377461, 43.8430002], [18.3773658, 43.8431301], [18.3772937, 43.8431593], [18.3772218, 43.8431632], [18.3770775, 43.8431026], [18.3769981, 43.8430252], [18.376986, 43.8429555], [18.3769876, 43.8427646], [18.3770321, 43.8425446], [18.3771643, 43.8423437], [18.3773289, 43.8420686], [18.377577, 43.8416911], [18.377614, 43.8416216], [18.3776489, 43.841142], [18.3776718, 43.8406227], [18.3776596, 43.84035], [18.3776974, 43.8400945], [18.3777857, 43.8398144], [18.3777352, 43.8397804], [18.3777063, 43.8396452], [18.3772457, 43.8398728], [18.3771241, 43.8398951], [18.3770105, 43.8399044], [18.3769169, 43.8398862], [18.3766952, 43.8397915], [18.3765603, 43.8397503], [18.3764341, 43.8397316], [18.3761796, 43.839756], [18.3757145, 43.8398621], [18.3756055, 43.8398743], [18.375513, 43.8398764], [18.3753886, 43.839861], [18.3752284, 43.8397921], [18.374958, 43.839733], [18.3745055, 43.8396804], [18.3741717, 43.8396414], [18.3737615, 43.8396434], [18.3734997, 43.8396148], [18.3731169, 43.8395034], [18.3726784, 43.8394448], [18.3721812, 43.8394949], [18.3713009, 43.839567], [18.3708449, 43.8396496], [18.370501, 43.8396903], [18.370324, 43.8396773], [18.370104, 43.8395406], [18.3695001, 43.8394274], [18.369635, 43.8388508], [18.3690855, 43.8387661], [18.3684813, 43.8380691], [18.3681136, 43.8377249], [18.3678826, 43.8375782], [18.3675194, 43.8375036], [18.3670206, 43.8375001], [18.3666084, 43.8373666], [18.3663311, 43.8372185], [18.3661043, 43.8370393], [18.3657552, 43.8370058], [18.3654802, 43.836128], [18.367977, 43.8368385], [18.3702115, 43.8371777], [18.3749875, 43.8380362], [18.3775551, 43.8387769], [18.3803071, 43.8392986], [18.3827042, 43.8397913], [18.3903355, 43.8413424], [18.3945872, 43.8422697], [18.3956045, 43.8424732], [18.3985518, 43.8429865], [18.3985975, 43.8429926], [18.4047285, 43.8438042], [18.407691, 43.8441964], [18.4091087, 43.8443898], [18.4091433, 43.8445178], [18.4091905, 43.8445921], [18.4093386, 43.8446973], [18.4094587, 43.8448521], [18.409521, 43.8449929], [18.4096154, 43.8451415], [18.4097162, 43.8452421], [18.4096368, 43.8454107], [18.4096433, 43.8455547], [18.4096304, 43.8456862], [18.4095682, 43.8457852], [18.4094416, 43.8459864], [18.4094611, 43.8461047], [18.4098059, 43.8460316], [18.4101567, 43.8460198], [18.4105217, 43.8461196], [18.4107895, 43.8462383], [18.4110356, 43.8464168], [18.4112536, 43.8466958], [18.411372, 43.8469519], [18.4113015, 43.8472969], [18.4111282, 43.8474626], [18.4111343, 43.8479696], [18.4108803, 43.8479365], [18.4105277, 43.8479263], [18.4102756, 43.8478932], [18.4099749, 43.847828], [18.4094598, 43.8476797], [18.4083463, 43.8473435], [18.4082788, 43.8473564], [18.4079459, 43.8477554], [18.4077481, 43.8479461], [18.4075554, 43.8480521], [18.4073083, 43.8481385], [18.4072695, 43.8481922], [18.4073165, 43.8482874], [18.4074495, 43.848467], [18.4082112, 43.8484436], [18.4083363, 43.8485311], [18.4072817, 43.849752], [18.4069029, 43.8499655], [18.4066652, 43.850213], [18.4067313, 43.8504181], [18.4068765, 43.8505514], [18.407001, 43.8506516], [18.4070236, 43.8507154], [18.4069956, 43.8507876], [18.4069358, 43.8508705], [18.4068532, 43.8509805], [18.4067534, 43.8511047], [18.4067519, 43.8511682], [18.4067715, 43.8512131], [18.4068556, 43.8513152], [18.4069922, 43.8515395], [18.4071196, 43.8517156], [18.4072061, 43.8518086], [18.4074033, 43.8519191], [18.4077887, 43.8520504], [18.4078585, 43.8520844], [18.4078828, 43.8521599], [18.4078418, 43.85222], [18.4077584, 43.852243], [18.4075126, 43.8522594], [18.4073882, 43.852243], [18.4073169, 43.8522124], [18.407244, 43.8521588], [18.4070999, 43.8520122], [18.4069967, 43.8519542], [18.4069087, 43.8519443], [18.4068328, 43.8519574], [18.4067904, 43.8519914], [18.4066917, 43.8521894], [18.4066098, 43.8522715], [18.4063276, 43.8524783], [18.4062836, 43.85251], [18.4062654, 43.8525953], [18.4061909, 43.8532667], [18.4043662, 43.8532041], [18.403861, 43.8531894], [18.4027217, 43.8532687], [18.4016743, 43.8533727], [18.4018207, 43.8539996], [18.4018149, 43.8543297], [18.4016888, 43.8553376], [18.4013349, 43.855338], [18.4012937, 43.8558921], [18.4011278, 43.8574842], [18.4010551, 43.8585496], [18.4009983, 43.8588906], [18.4011125, 43.8590583], [18.4004961, 43.8605185], [18.4003892, 43.8607814], [18.4003907, 43.8609426], [18.4004315, 43.8610691], [18.4008368, 43.8614932], [18.4010719, 43.8617107], [18.4012393, 43.8618889], [18.4013644, 43.8621582], [18.4013889, 43.8622151], [18.4016882, 43.8628996], [18.4018813, 43.8631791], [18.4020845, 43.8634562], [18.4022724, 43.8637887], [18.4021081, 43.8638452], [18.402486, 43.8644191], [18.4025144, 43.864604], [18.4025412, 43.8647019], [18.4026296, 43.8648007], [18.4028109, 43.8649833], [18.4029186, 43.8652282], [18.4029961, 43.8654731], [18.4030016, 43.8656222], [18.4024071, 43.8671153], [18.4029213, 43.8682927], [18.4027645, 43.8690581], [18.4027514, 43.8695825], [18.4029351, 43.8703497], [18.4029435, 43.8705986], [18.4023285, 43.8703923], [18.4021256, 43.8697496], [18.4019355, 43.8697601], [18.40178, 43.8702558], [18.4015016, 43.8708487], [18.4013949, 43.8711323], [18.4013634, 43.8712929], [18.4013638, 43.871419], [18.4014512, 43.871658], [18.4007003, 43.87181], [18.4003836, 43.8718664], [18.4003631, 43.8720806], [18.399962, 43.8720978], [18.3999549, 43.8724534], [18.3998971, 43.8726285], [18.3997554, 43.8728046], [18.3995619, 43.8731077], [18.3987724, 43.8726719], [18.3980236, 43.8723483], [18.3977066, 43.8727313], [18.3974004, 43.872914], [18.3970322, 43.8733016], [18.3964725, 43.8738629], [18.396177, 43.8737887], [18.3959793, 43.8743472], [18.3957756, 43.8747701], [18.3956371, 43.8749294], [18.3953408, 43.8752069], [18.3949424, 43.8754818], [18.3945465, 43.8758259], [18.3942949, 43.8762207], [18.3940523, 43.8764871], [18.3924899, 43.8757643], [18.3918867, 43.8763275], [18.3910604, 43.8757515], [18.39132, 43.875548], [18.3911222, 43.8754042], [18.3914233, 43.8751075], [18.3917024, 43.8746197], [18.3913481, 43.8744813], [18.390787, 43.8743428], [18.3903743, 43.8742313], [18.3897694, 43.874111], [18.3896062, 43.8742671], [18.3893274, 43.8746044], [18.3891378, 43.8748666], [18.3890402, 43.8749555], [18.3889324, 43.8750573], [18.3888794, 43.8751268], [18.3888606, 43.8752087], [18.3888404, 43.8753013], [18.3885115, 43.875595], [18.3883885, 43.8757325], [18.3882635, 43.8758438], [18.3882157, 43.875952], [18.3882013, 43.8760269], [18.3881011, 43.8760361], [18.3880728, 43.8760471], [18.3879464, 43.8760961], [18.3878387, 43.8761693], [18.3872233, 43.8765263], [18.3869957, 43.8764712], [18.3868283, 43.8764578], [18.3866094, 43.8768609], [18.3863473, 43.8770908], [18.3859793, 43.8773271], [18.3847589, 43.8777608], [18.384187, 43.8770464], [18.3838658, 43.8771996], [18.383459, 43.8769637], [18.3834333, 43.8769134], [18.3837048, 43.8764475], [18.383928, 43.8761868], [18.3841019, 43.8760048], [18.3843192, 43.8757293], [18.3844212, 43.8755062], [18.3833312, 43.8752703], [18.3822977, 43.8750911], [18.3820495, 43.8751185], [18.3818799, 43.8749725], [18.3813552, 43.8750519], [18.3813242, 43.8749033], [18.3813281, 43.8747425], [18.3813878, 43.8746541], [18.3817354, 43.8745498], [18.3818502, 43.8745225], [18.3819352, 43.8743604], [18.382167, 43.874146], [18.3823321, 43.8739054], [18.3823525, 43.8737458], [18.38233, 43.8736341], [18.3823911, 43.8735864], [18.3825791, 43.8735434], [18.3823695, 43.8734642], [18.3821269, 43.8734133], [18.3816208, 43.8733968], [18.3811189, 43.8733538], [18.3806858, 43.8733646], [18.3805677, 43.8733616], [18.3804527, 43.8733222], [18.3803227, 43.8732552], [18.3801502, 43.8731913], [18.3799445, 43.8732023], [18.3791428, 43.8731066], [18.3785779, 43.8729879], [18.3782969, 43.8729896], [18.3780187, 43.8729112], [18.3776382, 43.8728979], [18.3772762, 43.8728813], [18.3771481, 43.8728599], [18.3770699, 43.8728181], [18.377006, 43.872738], [18.3769808, 43.8726516], [18.3770381, 43.8724739], [18.3770986, 43.8723907], [18.3772694, 43.8722993], [18.377434, 43.8720352], [18.3774748, 43.8719033], [18.3774358, 43.8717737], [18.3774678, 43.8716259], [18.3775167, 43.8714666], [18.3774821, 43.8712658], [18.3774576, 43.8710293], [18.3774136, 43.8701049], [18.3773901, 43.8697691], [18.3772302, 43.8693478], [18.3772497, 43.8690735], [18.3773354, 43.8688236], [18.3771702, 43.8685619], [18.3771125, 43.8682856], [18.3768697, 43.867978], [18.3767304, 43.8676401], [18.3767064, 43.8672452], [18.3766972, 43.8667493], [18.376756, 43.8662517], [18.3767043, 43.8659412], [18.3767776, 43.8657247], [18.376725, 43.8655141], [18.3761925, 43.8651414], [18.3757574, 43.8649875], [18.3755779, 43.8647588], [18.3752316, 43.864569], [18.3751332, 43.8642723], [18.3748455, 43.8640729], [18.3745671, 43.8638266], [18.374101, 43.863752], [18.3738701, 43.8637], [18.3737454, 43.8635985], [18.3737024, 43.8634142], [18.373499, 43.8631744], [18.3736579, 43.8630977], [18.3727645, 43.8623278], [18.3726926, 43.8622599], [18.3726202, 43.8621257], [18.3725584, 43.8619648], [18.3725022, 43.8617949], [18.3723695, 43.8616293], [18.372133, 43.8614957], [18.3717321, 43.8614322], [18.3714321, 43.8613388], [18.3713295, 43.8612032], [18.3711875, 43.8609117], [18.3710108, 43.8606879], [18.3702203, 43.8602041], [18.3697299, 43.8598751], [18.3694899, 43.8598043], [18.3692971, 43.8597891], [18.369136, 43.8597972], [18.3689678, 43.8598049], [18.3686743, 43.8596765], [18.3682985, 43.8593425], [18.3690811, 43.8592842], [18.3701969, 43.8588353], [18.3703582, 43.8586639], [18.3699693, 43.858482], [18.370032, 43.8581229], [18.3696196, 43.8575188], [18.3700822, 43.8573049], [18.3696826, 43.8572317], [18.369174, 43.8571011], [18.3690046, 43.8570356], [18.368882, 43.8569498], [18.3686864, 43.8567479], [18.3685306, 43.8565225], [18.3683614, 43.856207], [18.3680883, 43.8553926], [18.3680154, 43.8551914], [18.3677997, 43.854962], [18.3676815, 43.8548758], [18.3673196, 43.8546761], [18.367207, 43.8546557], [18.3673319, 43.8542591], [18.3672196, 43.8542129], [18.367076, 43.854176], [18.3668817, 43.8541404], [18.3666586, 43.8541357], [18.3666162, 43.8541238], [18.3665839, 43.8541027], [18.3664988, 43.8539861], [18.3662194, 43.8538836], [18.3657539, 43.8537201], [18.3654242, 43.8535855], [18.3651057, 43.8534927]]]}}]}