{"type": "FeatureCollection", "features": [{"type": "Feature", "properties": {"name": "Opština Novo Goražde, Република Српска / Republika Srpska, 73110, Bosna i Hercegovina / Босна и Херцеговина", "source": "OpenStreetMap relation 2528238", "licence": "ODbL 1.0"}, "geometry": {"type": "Polygon", "coordinates": [[[18.8847461, 43.5913005], [18.8849596, 43.5904034], [18.885035, 43.5903558], [18.8851488, 43.5902414], [18.8854395, 43.5901181], [18.8856935, 43.5898955], [18.8856407, 43.5897479], [18.8856673, 43.5896717], [18.885652, 43.5895834], [18.8888157, 43.5856428], [18.8887718, 43.583553], [18.8887876, 43.58154], [18.8885742, 43.5793838], [18.8882579, 43.5782956], [18.8887125, 43.5781582], [18.8885583, 43.5779949], [18.8884832, 43.5779864], [18.8880484, 43.5781839], [18.8880563, 43.5773649], [18.8882382, 43.5773964], [18.8884635, 43.5772332], [18.8883133, 43.577007], [18.8878784, 43.5770442], [18.8877954, 43.5766376], [18.8881077, 43.5765545], [18.8884437, 43.5764228], [18.8889102, 43.5762223], [18.8894596, 43.5763226], [18.8896296, 43.5762424], [18.8897937, 43.5761348], [18.8899181, 43.576062], [18.8903293, 43.5758672], [18.8907183, 43.5756422], [18.8913017, 43.5755035], [18.8915507, 43.5751942], [18.8918946, 43.5750396], [18.8919925, 43.5749735], [18.892033, 43.5748849], [18.8920409, 43.5747389], [18.892452, 43.5741089], [18.8931279, 43.5741174], [18.8931912, 43.5740573], [18.893203, 43.5740086], [18.8931951, 43.5739571], [18.8931595, 43.5739141], [18.8931082, 43.5738797], [18.8930528, 43.573854], [18.8930014, 43.5738253], [18.8929777, 43.5737766], [18.8929619, 43.5737194], [18.892954, 43.5736678], [18.8929303, 43.5735619], [18.8928947, 43.5735218], [18.8928473, 43.5734874], [18.8927959, 43.5734588], [18.8927603, 43.5734158], [18.8927445, 43.5733614], [18.8927445, 43.5733098], [18.8927722, 43.5732612], [18.8928275, 43.5732268], [18.8928828, 43.573201], [18.89295, 43.573181], [18.8930251, 43.5731666], [18.8930765, 43.5731294], [18.8930923, 43.5730779], [18.89312, 43.573032], [18.8931754, 43.5730034], [18.8932307, 43.5729662], [18.89329, 43.5729404], [18.8933651, 43.5729433], [18.8934323, 43.5729375], [18.8934995, 43.572906], [18.893543, 43.5728659], [18.893543, 43.5727628], [18.8935469, 43.5727084], [18.8936062, 43.5726712], [18.8936853, 43.5726626], [18.8937446, 43.5726311], [18.8938118, 43.5726368], [18.8938987, 43.5726454], [18.8939738, 43.5726311], [18.8940331, 43.5726025], [18.8941043, 43.5726025], [18.8941675, 43.5726254], [18.8941794, 43.5726712], [18.8941794, 43.5727199], [18.8941834, 43.5727714], [18.8942071, 43.5728287], [18.8942426, 43.5728688], [18.894298, 43.5728974], [18.8943652, 43.5729232], [18.8944245, 43.5729576], [18.8944561, 43.5730005], [18.8944798, 43.5730492], [18.8945273, 43.5731409], [18.8945431, 43.5731896], [18.894551, 43.5732841], [18.894551, 43.5734788], [18.8945549, 43.5735246], [18.8945905, 43.5735676], [18.8946617, 43.5735762], [18.8947407, 43.5735848], [18.8947565, 43.5736335], [18.894804, 43.5736678], [18.8948751, 43.5736764], [18.8949265, 43.5737108], [18.8949384, 43.5737566], [18.8949542, 43.5738053], [18.8950174, 43.5738196], [18.8950886, 43.5738167], [18.8951597, 43.5738053], [18.8952309, 43.5738024], [18.8952941, 43.5738196], [18.8953455, 43.573854], [18.895389, 43.5738912], [18.8954443, 43.5739256], [18.8954918, 43.5739599], [18.8955432, 43.5739943], [18.8955945, 43.5740315], [18.8956855, 43.5741146], [18.8957645, 43.5741948], [18.8958159, 43.5742291], [18.8958713, 43.5742578], [18.8959305, 43.5742835], [18.8959938, 43.5743122], [18.896061, 43.5743294], [18.8961203, 43.5743466], [18.8961954, 43.5743494], [18.8962665, 43.5743466], [18.8963772, 43.5743351], [18.8964563, 43.5743122], [18.8965116, 43.5742807], [18.8965788, 43.5742578], [18.896646, 43.5742463], [18.8968516, 43.5742463], [18.8969306, 43.5742148], [18.8970018, 43.574189], [18.8970571, 43.5741461], [18.8971204, 43.5741174], [18.8971836, 43.5740974], [18.8972943, 43.5740229], [18.8973496, 43.5739943], [18.8974168, 43.5739828], [18.8975078, 43.5739714], [18.8975631, 43.5739456], [18.8976224, 43.5739141], [18.8976817, 43.5738855], [18.897741, 43.5738597], [18.8978082, 43.5738339], [18.8978754, 43.5738196], [18.8979584, 43.573811], [18.898243, 43.5738454], [18.8989703, 43.5735332], [18.8990455, 43.5735332], [18.8991127, 43.5735218], [18.8991759, 43.573496], [18.8992431, 43.5734616], [18.8993024, 43.5734273], [18.8993498, 43.5733929], [18.8994091, 43.5733585], [18.8994328, 43.5733098], [18.8994328, 43.5732612], [18.8994526, 43.5732096], [18.8995119, 43.5731781], [18.8995356, 43.5731323], [18.8995554, 43.5730836], [18.8996147, 43.5730521], [18.8996542, 43.5730063], [18.89967, 43.5729003], [18.8997016, 43.5728545], [18.8997412, 43.5728115], [18.899753, 43.5727628], [18.899753, 43.5726597], [18.8997491, 43.5726082], [18.8997491, 43.5725566], [18.8997333, 43.572508], [18.8997135, 43.5724621], [18.899674, 43.572422], [18.8996305, 43.5723819], [18.899591, 43.5723333], [18.8995672, 43.5722817], [18.8995633, 43.572233], [18.8995633, 43.5718664], [18.8996107, 43.5716201], [18.8996147, 43.5715714], [18.8996542, 43.5715228], [18.8997056, 43.5714798], [18.8997688, 43.5714426], [18.8998202, 43.5714111], [18.8998756, 43.5713853], [18.8999388, 43.5713681], [18.8999981, 43.5713423], [18.9000614, 43.5713194], [18.9001127, 43.5712851], [18.9001286, 43.5712335], [18.9001483, 43.571182], [18.900172, 43.5710302], [18.9001839, 43.5709729], [18.900176, 43.5709213], [18.9001444, 43.5708755], [18.9000732, 43.5708612], [18.9000179, 43.5708297], [18.8999625, 43.5708068], [18.8998953, 43.5708096], [18.8998321, 43.5708268], [18.8997649, 43.570844], [18.8997016, 43.5708583], [18.8996344, 43.5708669], [18.8995712, 43.5708669], [18.899504, 43.5708555], [18.8994407, 43.5708297], [18.8994052, 43.5707896], [18.8993815, 43.5707409], [18.899334, 43.5707037], [18.8992984, 43.5706578], [18.8992629, 43.570612], [18.8992391, 43.5705662], [18.8992115, 43.5705232], [18.8991996, 43.5704717], [18.8991799, 43.57038], [18.9014884, 43.5678883], [18.9016109, 43.5678625], [18.9072675, 43.5678196], [18.907311, 43.5677823], [18.9073624, 43.5678539], [18.9073822, 43.5678969], [18.9074217, 43.567937], [18.9074612, 43.5679799], [18.9075482, 43.5680544], [18.9075956, 43.5680888], [18.907651, 43.5681232], [18.9077024, 43.5681518], [18.9077577, 43.5681804], [18.907817, 43.5682062], [18.9078842, 43.568232], [18.9079474, 43.568252], [18.9080146, 43.5682635], [18.9083862, 43.5683093], [18.908995, 43.5684898], [18.9094772, 43.5686931], [18.9097658, 43.5689136], [18.9100978, 43.5690884], [18.910339, 43.5691227], [18.9107975, 43.5693633], [18.9108647, 43.5693977], [18.9116237, 43.5696554], [18.9125645, 43.570128], [18.9129479, 43.5703056], [18.9129993, 43.5703342], [18.9133748, 43.5703915], [18.9134464, 43.570418], [18.9141061, 43.570466], [18.915209, 43.5708555], [18.9156596, 43.5711218], [18.9161102, 43.5714311], [18.9165095, 43.5716602], [18.9175056, 43.5721299], [18.9179325, 43.5723848], [18.91886, 43.5725004], [18.9185373, 43.5730063], [18.9186836, 43.5731896], [18.9189761, 43.5733585], [18.9191856, 43.5735103], [18.9198299, 43.5739943], [18.9202845, 43.5743809], [18.9204861, 43.5745069], [18.9206756, 43.5746108], [18.9209091, 43.5746301], [18.9211304, 43.5746301], [18.9213647, 43.5746222], [18.9216354, 43.5746451], [18.9217619, 43.5746472], [18.9218687, 43.5746458], [18.9221286, 43.5746365], [18.9223193, 43.5746372], [18.922598, 43.5746494], [18.9227255, 43.5746716], [18.9227887, 43.5746887], [18.923016, 43.5748183], [18.9236237, 43.5750492], [18.9237848, 43.5750928], [18.9238847, 43.5751054], [18.9240431, 43.5751112], [18.9240531, 43.5750394], [18.9241232, 43.5750479], [18.9244558, 43.5750408], [18.9245592, 43.5750449], [18.9247842, 43.575057], [18.9250155, 43.5750586], [18.925121, 43.5750677], [18.9251574, 43.5750748], [18.925193, 43.5750773], [18.9252601, 43.5750839], [18.9253852, 43.5751026], [18.9254474, 43.5751067], [18.9256004, 43.5751229], [18.9256668, 43.5751345], [18.9260756, 43.5751816], [18.9262104, 43.5751947], [18.9263189, 43.5752082], [18.9268393, 43.5752237], [18.9271318, 43.5752237], [18.927282, 43.5752409], [18.9274164, 43.575258], [18.9275429, 43.575281], [18.9277643, 43.5753726], [18.9278908, 43.5754127], [18.9280094, 43.5754413], [18.9281438, 43.5754642], [18.9282861, 43.5754929], [18.9284205, 43.5755158], [18.9285786, 43.5755387], [18.9287209, 43.5755731], [18.9288553, 43.5756017], [18.9289897, 43.5756418], [18.9291083, 43.5756819], [18.929219, 43.5757277], [18.9293376, 43.5757792], [18.929464, 43.5758251], [18.9295905, 43.5758766], [18.929717, 43.575911], [18.9298435, 43.5759224], [18.9299937, 43.5759224], [18.9301202, 43.5758995], [18.9302467, 43.5758709], [18.9303811, 43.5758251], [18.9304997, 43.575785], [18.9306341, 43.5757506], [18.9307448, 43.5757105], [18.9308792, 43.5756704], [18.9309978, 43.5756418], [18.9311401, 43.5756303], [18.9312745, 43.5756303], [18.9314089, 43.5756361], [18.9315354, 43.5756762], [18.9316698, 43.5757105], [18.9318042, 43.5757334], [18.9319307, 43.5757392], [18.9320651, 43.5757506], [18.932326, 43.5757506], [18.9324604, 43.5757392], [18.9325948, 43.575722], [18.9327371, 43.5756991], [18.9328636, 43.5756704], [18.9329901, 43.5756303], [18.9331245, 43.5756074], [18.9332747, 43.5755845], [18.9334249, 43.5755731], [18.9335672, 43.5755673], [18.9336937, 43.5755673], [18.9338281, 43.5755559], [18.9339822, 43.5754986], [18.9340376, 43.5754757], [18.9341641, 43.5754471], [18.9342313, 43.5754442], [18.9342945, 43.5754442], [18.9343538, 43.5754614], [18.9343617, 43.5755101], [18.9343538, 43.5755616], [18.9344092, 43.5755874], [18.9344724, 43.5755902], [18.9345356, 43.5755731], [18.9350337, 43.5755645], [18.9353025, 43.5755645], [18.935429, 43.5755702], [18.9355713, 43.5755702], [18.9356978, 43.5755759], [18.9358638, 43.5755759], [18.9363461, 43.5755587], [18.9364805, 43.5755587], [18.9366228, 43.5755473], [18.9369707, 43.5754843], [18.9371051, 43.5754556], [18.9372315, 43.575427], [18.9373422, 43.5753869], [18.937445, 43.5753296], [18.9375557, 43.5752781], [18.9376822, 43.5752437], [18.9378087, 43.575238], [18.937951, 43.575238], [18.9380775, 43.5752609], [18.938204, 43.5752895], [18.9383463, 43.5753067], [18.9384807, 43.5753067], [18.9386151, 43.5752895], [18.9387337, 43.5752609], [18.9388601, 43.575238], [18.9389787, 43.5752036], [18.9391052, 43.5751693], [18.9392238, 43.5751234], [18.9393424, 43.5750719], [18.9394452, 43.5750146], [18.9395717, 43.5749745], [18.9396903, 43.5749344], [18.9398089, 43.5749001], [18.9399433, 43.5748714], [18.9400856, 43.5748485], [18.9402121, 43.5748199], [18.9403306, 43.5747855], [18.9404413, 43.5747397], [18.940552, 43.5746824], [18.9406785, 43.5746251], [18.9407971, 43.5745564], [18.9409236, 43.5744934], [18.9410422, 43.5744419], [18.9411608, 43.574396], [18.9412793, 43.5743559], [18.9414058, 43.5743044], [18.9415244, 43.5742586], [18.941643, 43.5742242], [18.9417774, 43.5741784], [18.9418881, 43.5741326], [18.9420225, 43.5740925], [18.942149, 43.5740581], [18.9422755, 43.574018], [18.9424099, 43.5739837], [18.9425364, 43.573955], [18.9427894, 43.5739092], [18.9429159, 43.5738806], [18.9430503, 43.5738691], [18.9432005, 43.5738576], [18.9433349, 43.5738519], [18.9436037, 43.5738519], [18.9437381, 43.5738576], [18.9442994, 43.5738576], [18.9444338, 43.5738519], [18.9445761, 43.573829], [18.9447026, 43.5738118], [18.944837, 43.5737832], [18.9450741, 43.5736973], [18.9451848, 43.5736457], [18.9453034, 43.5735827], [18.945422, 43.5735312], [18.9455485, 43.5734911], [18.9457461, 43.5733307], [18.9458489, 43.5732677], [18.9459517, 43.573199], [18.9460545, 43.5731188], [18.9461335, 43.5730443], [18.9462284, 43.5729698], [18.9463154, 43.5728897], [18.9464023, 43.5728209], [18.9464814, 43.5727465], [18.9466237, 43.5725861], [18.9467107, 43.5725002], [18.9468213, 43.5724429], [18.9469399, 43.5723799], [18.9470664, 43.5723398], [18.947185, 43.5723054], [18.9473115, 43.5722768], [18.9474459, 43.5722424], [18.9475645, 43.5722195], [18.9477068, 43.5721966], [18.9478491, 43.5721851], [18.9479756, 43.572168], [18.94811, 43.5721393], [18.9482286, 43.5720992], [18.9483472, 43.5720534], [18.9484658, 43.5719961], [18.9485685, 43.5719446], [18.9486713, 43.5718873], [18.9489085, 43.5718014], [18.9490429, 43.5717785], [18.9491694, 43.5717613], [18.949288, 43.5717384], [18.9494066, 43.5716983], [18.9494935, 43.5716353], [18.9495489, 43.5715551], [18.9496121, 43.5714692], [18.9496833, 43.571389], [18.9497623, 43.5713202], [18.9498651, 43.5712629], [18.9499679, 43.5712114], [18.9500944, 43.571177], [18.9502367, 43.5711713], [18.9503869, 43.5711541], [18.9505213, 43.5711427], [18.9506557, 43.5711255], [18.9510352, 43.5710797], [18.9511458, 43.5710224], [18.9512565, 43.5709823], [18.9513672, 43.5709365], [18.9514779, 43.5708849], [18.9515728, 43.5708276], [18.9516913, 43.5707761], [18.9518178, 43.5707532], [18.9519443, 43.5706959], [18.9520392, 43.5706214], [18.9522289, 43.5704839], [18.9523317, 43.5704209], [18.9524503, 43.5703923], [18.9525847, 43.5704152], [18.9527191, 43.5704152], [18.9528377, 43.5703751], [18.9529326, 43.5703121], [18.9530353, 43.5702548], [18.9531697, 43.5702434], [18.9532725, 43.5701861], [18.9533516, 43.5701059], [18.9534148, 43.5700314], [18.9535492, 43.5699684], [18.9538022, 43.5699111], [18.9539129, 43.5698653], [18.9540394, 43.569808], [18.9542291, 43.569682], [18.9543556, 43.5696305], [18.9545928, 43.5695503], [18.9547351, 43.5695159], [18.9548616, 43.5694758], [18.9549881, 43.5694414], [18.9551304, 43.5694185], [18.9552727, 43.5694013], [18.9553992, 43.5693727], [18.9555178, 43.5693326], [18.9556364, 43.5692696], [18.955755, 43.569218], [18.9558577, 43.5691493], [18.9559684, 43.5690978], [18.956087, 43.5690634], [18.9562135, 43.5690462], [18.95634, 43.5690347], [18.9564823, 43.5689946], [18.9566167, 43.5689431], [18.9567274, 43.5688915], [18.9570041, 43.5688056], [18.9571069, 43.5687369], [18.9572254, 43.5686911], [18.9573361, 43.5686452], [18.9574626, 43.5686051], [18.9575812, 43.5685765], [18.9577235, 43.5685593], [18.95785, 43.5685536], [18.9579923, 43.5685478], [18.9581267, 43.5685364], [18.9583006, 43.5685192], [18.9584508, 43.568502], [18.9586801, 43.5684619], [18.9587987, 43.5684333], [18.9589331, 43.5683989], [18.9590912, 43.5683645], [18.9592572, 43.5683187], [18.9593758, 43.5682843], [18.9595023, 43.5682557], [18.9598107, 43.5681812], [18.9599371, 43.5681469], [18.960119, 43.5680896], [18.9602613, 43.5680495], [18.9603799, 43.5680037], [18.9604985, 43.5679636], [18.9606171, 43.567912], [18.9607198, 43.5678547], [18.9608463, 43.5677974], [18.960957, 43.5677459], [18.9610756, 43.5676886], [18.9611784, 43.5676256], [18.9612811, 43.5675569], [18.9613602, 43.5674824], [18.9614314, 43.5674022], [18.9614709, 43.5673163], [18.9614946, 43.5672132], [18.961542, 43.5671215], [18.9616369, 43.5670413], [18.9617555, 43.5669955], [18.9619136, 43.5669668], [18.962048, 43.5669439], [18.9621745, 43.5669325], [18.9623168, 43.566921], [18.9624433, 43.5669153], [18.9625777, 43.5669096], [18.9627121, 43.5669096], [18.9628544, 43.566921], [18.9629809, 43.5669325], [18.9631074, 43.5669497], [18.9632339, 43.5669554], [18.9633683, 43.5669554], [18.9634948, 43.566921], [18.9635578, 43.5669953], [18.9639308, 43.5669497], [18.9689229, 43.5663389], [18.9712868, 43.5663561], [18.9751607, 43.5680173], [18.9770422, 43.5710646], [18.9784732, 43.5726054], [18.9827819, 43.5758931], [18.9842761, 43.5813512], [18.983925, 43.5818138], [18.9838467, 43.5819434], [18.9837797, 43.582073], [18.9837014, 43.5822026], [18.9836231, 43.5823484], [18.9835896, 43.5824941], [18.9835449, 43.5826318], [18.983489, 43.5827614], [18.9833995, 43.582891], [18.9833436, 43.5830287], [18.9833101, 43.5831825], [18.9832877, 43.5833202], [18.9832765, 43.583466], [18.9832765, 43.5837576], [18.9832542, 43.5838952], [18.9832095, 43.5840329], [18.9830753, 43.5841706], [18.9829635, 43.5842921], [18.9828181, 43.5844136], [18.982684, 43.5845431], [18.9826169, 43.5846808], [18.9825722, 43.5848266], [18.9825722, 43.585272], [18.9826504, 43.585677], [18.9826504, 43.5858146], [18.9827175, 43.5859523], [18.9827734, 43.5860819], [18.9828405, 43.5862115], [18.9828852, 43.586341], [18.9829076, 43.5864949], [18.9829076, 43.5866488], [18.9828964, 43.5868026], [18.9828517, 43.587078], [18.9828181, 43.5872238], [18.982751, 43.5877421], [18.9827287, 43.5878959], [18.9826951, 43.5880336], [18.9826392, 43.5881794], [18.9826169, 43.5883251], [18.9825274, 43.5885195], [18.9824492, 43.5886491], [18.9823374, 43.5887705], [18.9822591, 43.5889163], [18.9822256, 43.5890621], [18.9822144, 43.5892159], [18.982192, 43.5893617], [18.9821697, 43.5895237], [18.9821138, 43.5896775], [18.982069, 43.5898152], [18.9827958, 43.5926413], [18.9822367, 43.594771], [18.980828, 43.5985442], [18.9824715, 43.5993377], [18.9837461, 43.600204], [18.984484, 43.6009489], [18.9868431, 43.6021958], [18.9877264, 43.6035964], [18.9884643, 43.6045518], [18.9885761, 43.6046813], [18.9887215, 43.6051104], [18.9894929, 43.6051509], [18.989683, 43.6051833], [18.9898842, 43.6052076], [18.9900855, 43.6052399], [18.9903091, 43.6052642], [18.9905104, 43.6052966], [18.9907116, 43.6053209], [18.990924, 43.6053533], [18.9911365, 43.6053857], [18.9913154, 43.605418], [18.9915054, 43.6054423], [18.9917067, 43.6054747], [18.9920756, 43.6055395], [18.9922769, 43.60558], [18.992467, 43.6056043], [18.9926458, 43.6056447], [18.9928247, 43.605669], [18.9930036, 43.6057176], [18.993149, 43.6057905], [18.9933055, 43.6058795], [18.9934508, 43.6059605], [18.9936074, 43.6060414], [18.9937527, 43.6061305], [18.9939093, 43.6062195], [18.994077, 43.6063005], [18.9942558, 43.6063329], [18.994636, 43.6063815], [18.9948149, 43.6064138], [18.9950049, 43.6064138], [18.9952062, 43.6063895], [18.9953739, 43.6063167], [18.9955416, 43.6062438], [18.9956981, 43.6061629], [18.9958658, 43.60609], [18.995877, 43.6059038], [18.9959441, 43.6057905], [18.9960224, 43.6056528], [18.9962124, 43.6055314], [18.9963913, 43.6054585], [18.9965479, 43.6053938], [18.9967156, 43.6053371], [18.9968721, 43.6052642], [18.9969504, 43.6051428], [18.9970063, 43.6050213], [18.9970286, 43.6048837], [18.9970622, 43.6047299], [18.9971069, 43.6045356], [18.9971963, 43.6044222], [19.0004275, 43.6024711], [19.0006623, 43.6021553], [19.0007741, 43.6020258], [19.0009083, 43.6019205], [19.001076, 43.6018395], [19.0012325, 43.6017586], [19.001389, 43.6016938], [19.0017245, 43.6015643], [19.0019145, 43.6014995], [19.0020711, 43.6014266], [19.0022388, 43.6013376], [19.0024288, 43.6012647], [19.0026524, 43.601208], [19.0028202, 43.6011675], [19.0030438, 43.6011675], [19.0032562, 43.6011513], [19.0034127, 43.6010947], [19.0035916, 43.6010542], [19.0037705, 43.6010542], [19.0039718, 43.6010623], [19.0041842, 43.6010704], [19.0044413, 43.6010785], [19.0051779, 43.6010532], [19.0053412, 43.601018], [19.0055603, 43.6009794], [19.0057227, 43.600937], [19.0058487, 43.6008709], [19.0059731, 43.6007708], [19.0060402, 43.6006413], [19.0060961, 43.6005117], [19.006152, 43.6003822], [19.0063085, 43.6003093], [19.006465, 43.6002526], [19.006588, 43.6001393], [19.0066439, 43.6000097], [19.0066998, 43.5998802], [19.0067781, 43.5997668], [19.0070129, 43.5996454], [19.0072477, 43.599532], [19.0074042, 43.599443], [19.007516, 43.5993215], [19.0076502, 43.5992082], [19.0077955, 43.5991353], [19.007952, 43.5990705], [19.0081197, 43.5990219], [19.0082763, 43.598941], [19.0083769, 43.5988276], [19.008444, 43.5986981], [19.0084775, 43.5985604], [19.008567, 43.598439], [19.0087347, 43.5983904], [19.0089024, 43.5983499], [19.0090254, 43.5982446], [19.009126, 43.5981394], [19.0092713, 43.5980503], [19.0094502, 43.5979936], [19.0096515, 43.5979531], [19.0098751, 43.5979289], [19.0100652, 43.597945], [19.0102441, 43.597945], [19.0104341, 43.5979289], [19.0106018, 43.5978722], [19.0108031, 43.5977588], [19.0109931, 43.597605], [19.0111385, 43.5975321], [19.011295, 43.5974592], [19.0114851, 43.5974349], [19.0116081, 43.5973378], [19.0116528, 43.5972082], [19.0116863, 43.5970706], [19.011787, 43.5968358], [19.0118541, 43.5966981], [19.0120106, 43.596609], [19.0122006, 43.5965605], [19.0123795, 43.5965038], [19.0125137, 43.5964147], [19.0126702, 43.5963175], [19.0128156, 43.5961313], [19.0128938, 43.5960018], [19.0129833, 43.5958722], [19.0130616, 43.5957184], [19.0131175, 43.5955564], [19.013151, 43.595192], [19.015566, 43.5955483], [19.0159909, 43.5953702], [19.0162145, 43.5953135], [19.0163934, 43.5952811], [19.0165834, 43.5952325], [19.0167847, 43.5952163], [19.0173437, 43.5952163], [19.017545, 43.5952082], [19.0177127, 43.5951354], [19.0178804, 43.5950544], [19.0180369, 43.5949977], [19.0182046, 43.5949329], [19.0183835, 43.5948762], [19.0185512, 43.5948196], [19.0187525, 43.5947791], [19.0189425, 43.5947467], [19.0193115, 43.5947467], [19.0195016, 43.5947548], [19.0196804, 43.5948115], [19.0198482, 43.5948681], [19.0200159, 43.5949248], [19.0201948, 43.5949572], [19.020396, 43.5949572], [19.0205861, 43.594941], [19.0208097, 43.5948681], [19.0209886, 43.5947953], [19.0211563, 43.5947386], [19.0213128, 43.5946738], [19.0214917, 43.5946171], [19.0216706, 43.5945685], [19.0218607, 43.5945604], [19.0220619, 43.5945442], [19.0222408, 43.5945442], [19.0224532, 43.5945766], [19.0226321, 43.5945928], [19.0228445, 43.5945928], [19.0230346, 43.5945604], [19.0232247, 43.5945038], [19.0234036, 43.594439], [19.0235825, 43.594358], [19.023739, 43.5942932], [19.0240073, 43.5941151], [19.024175, 43.5940503], [19.0243651, 43.5940341], [19.0245664, 43.5940341], [19.0248906, 43.594107], [19.0250807, 43.594107], [19.0252819, 43.5941151], [19.0256397, 43.5942365], [19.0258186, 43.5943256], [19.0259639, 43.5943985], [19.0260869, 43.5945038], [19.0262211, 43.594609], [19.0263776, 43.59469], [19.0265677, 43.5947386], [19.0267242, 43.5948034], [19.0269478, 43.5949491], [19.0271267, 43.5951111], [19.027272, 43.5952163], [19.0274286, 43.5952892], [19.0275739, 43.5953621], [19.0277528, 43.595435], [19.0278982, 43.5955078], [19.0280547, 43.5955726], [19.0282112, 43.5956455], [19.0283677, 43.5957184], [19.0285019, 43.5958155], [19.0285802, 43.5959451], [19.0285802, 43.5960908], [19.0285354, 43.5962285], [19.0283901, 43.5963337], [19.0282112, 43.5964066], [19.0280323, 43.5964714], [19.0278646, 43.5965281], [19.0276969, 43.596609], [19.0275292, 43.5967143], [19.0274062, 43.5968196], [19.0272609, 43.5969086], [19.0271267, 43.597022], [19.0270037, 43.5971434], [19.0268919, 43.597273], [19.0268025, 43.5974026], [19.0267242, 43.5975321], [19.0266571, 43.5976779], [19.0266124, 43.5978155], [19.0266012, 43.5980341], [19.0265677, 43.5981718], [19.0265341, 43.5983256], [19.0264782, 43.5984633], [19.0263888, 43.5985847], [19.0263217, 43.5987223], [19.0262434, 43.59886], [19.0262211, 43.5990138], [19.0262099, 43.5991677], [19.0262211, 43.5993053], [19.0263552, 43.5995806], [19.0264111, 43.5997263], [19.0264335, 43.5998721], [19.0264335, 43.6003012], [19.0264894, 43.6004308], [19.0265789, 43.6005603], [19.0266683, 43.6006979], [19.0266907, 43.6008356], [19.0267018, 43.6009813], [19.0265341, 43.6011999], [19.0266012, 43.6014671], [19.0267242, 43.6015805], [19.0269143, 43.6017424], [19.0270484, 43.6018476], [19.0271491, 43.6019691], [19.0271714, 43.6021148], [19.0271714, 43.6022525], [19.0271267, 43.6023901], [19.0270261, 43.6025034], [19.0269254, 43.6026249], [19.0269143, 43.6027706], [19.0270149, 43.602884], [19.0271043, 43.6029973], [19.0272161, 43.603305], [19.0274174, 43.6034264], [19.0279764, 43.6044384], [19.0282336, 43.6047137], [19.0283901, 43.6048351], [19.0285914, 43.6052723], [19.0287345, 43.6055627], [19.0285287, 43.6057892], [19.0284478, 43.6061273], [19.0284236, 43.6063086], [19.0283901, 43.6064705], [19.0283347, 43.6066055], [19.02826, 43.6067458], [19.0281929, 43.6068704], [19.028111, 43.6070372], [19.0281017, 43.6071722], [19.0281218, 43.6077496], [19.0281553, 43.6078953], [19.0282, 43.6080411], [19.0281665, 43.6081868], [19.0280659, 43.6083001], [19.0279429, 43.6084054], [19.0277975, 43.6085106], [19.0276969, 43.608632], [19.0276522, 43.6087859], [19.0276522, 43.6089316], [19.0276634, 43.6090773], [19.0276186, 43.6092149], [19.0273727, 43.6096844], [19.0272832, 43.6098625], [19.0272385, 43.6100002], [19.0272497, 43.6101459], [19.0272832, 43.6102835], [19.0272385, 43.6104292], [19.0271714, 43.6105668], [19.0271267, 43.6107045], [19.0271491, 43.6108421], [19.0272273, 43.6109797], [19.0272609, 43.6111173], [19.0272497, 43.611263], [19.027205, 43.6114006], [19.0270932, 43.6115463], [19.026959, 43.6116759], [19.0268025, 43.6119916], [19.0267018, 43.6121454], [19.0266348, 43.612283], [19.0265565, 43.6124125], [19.0264894, 43.6125501], [19.0264335, 43.6126796], [19.0262658, 43.6127606], [19.0261875, 43.6128901], [19.0261652, 43.6130439], [19.0261428, 43.6131896], [19.0261204, 43.6133434], [19.0260757, 43.613481], [19.0259975, 43.6136187], [19.0258633, 43.6137401], [19.0262099, 43.6140072], [19.0262993, 43.6141367], [19.0263664, 43.6142743], [19.0264111, 43.6144119], [19.0264335, 43.6145496], [19.0264335, 43.6146953], [19.0264223, 43.6148329], [19.0262434, 43.6151728], [19.0262323, 43.6153347], [19.026277, 43.6154723], [19.0263776, 43.6155938], [19.0265229, 43.6156828], [19.0257179, 43.6159904], [19.0250024, 43.6180544], [19.027518, 43.6216077], [19.0289268, 43.6246266], [19.0282296, 43.6271644], [19.0281553, 43.6274349], [19.0278199, 43.6279124], [19.0277416, 43.62805], [19.0276857, 43.6282037], [19.027641, 43.6283413], [19.0276186, 43.6284951], [19.0276634, 43.6286488], [19.0277193, 43.6287783], [19.0278087, 43.6288997], [19.0279317, 43.6290211], [19.0280547, 43.6291344], [19.0281553, 43.6292558], [19.0282336, 43.6293772], [19.0282895, 43.6295067], [19.0283342, 43.6296604], [19.0283677, 43.6298142], [19.0283789, 43.6299761], [19.0283566, 43.6301298], [19.0283007, 43.6302674], [19.0282448, 43.6304131], [19.0282224, 43.6305668], [19.0282448, 43.6307125], [19.028323, 43.6308339], [19.0284907, 43.6310847], [19.0285466, 43.6312385], [19.0285802, 43.6313761], [19.0286249, 43.6315136], [19.0286473, 43.6316512], [19.0287032, 43.6317888], [19.0287367, 43.6319425], [19.0287702, 43.6320801], [19.0288373, 43.6322096], [19.0289268, 43.6323552], [19.0290162, 43.6324847], [19.0291057, 43.6326385], [19.0291839, 43.6327679], [19.0292622, 43.6328893], [19.0293405, 43.6330269], [19.0294634, 43.6331402], [19.0295981, 43.6333923], [19.0297326, 43.6339235], [19.0304465, 43.6352105], [19.030863, 43.6351977], [19.0351518, 43.6323928], [19.0358699, 43.6325494], [19.0359929, 43.6326466], [19.0361271, 43.6327437], [19.0362612, 43.632857], [19.0363954, 43.6329622], [19.0365296, 43.6330754], [19.0366973, 43.6331402], [19.0368873, 43.6331483], [19.0370774, 43.6331645], [19.0372339, 43.6332454], [19.0373905, 43.6333182], [19.0375917, 43.6332858], [19.0377147, 43.6331968], [19.0378936, 43.6331887], [19.0379942, 43.6333101], [19.0379942, 43.6334477], [19.0381843, 43.6334477], [19.0382737, 43.6333344], [19.0384414, 43.6333749], [19.0384861, 43.6335043], [19.0384861, 43.63365], [19.0386539, 43.6336985], [19.0388663, 43.6336904], [19.0390564, 43.6336824], [19.0392352, 43.6337309], [19.0394141, 43.6337795], [19.0395595, 43.6338685], [19.0396937, 43.6339656], [19.0398614, 43.6340384], [19.0400626, 43.6340708], [19.040275, 43.6340708], [19.0404427, 43.6341193], [19.0406105, 43.6342002], [19.040767, 43.6342893], [19.0409682, 43.6343297], [19.0411918, 43.6343297], [19.0414602, 43.6343702], [19.0416167, 43.6344511], [19.0417285, 43.6345725], [19.0419074, 43.6346372], [19.0421198, 43.6346372], [19.0423434, 43.6346615], [19.0425, 43.6347505], [19.0426677, 43.6348152], [19.042813, 43.6347181], [19.0429919, 43.63471], [19.043182, 43.6347343], [19.0433721, 43.6347181], [19.0435509, 43.6348476], [19.0436292, 43.6350014], [19.0436516, 43.6351713], [19.043618, 43.6353169], [19.0435174, 43.6354545], [19.043428, 43.635584], [19.0433609, 43.6357215], [19.0433497, 43.6358591], [19.0434168, 43.6360371], [19.043495, 43.6361909], [19.0435733, 43.6363203], [19.0436292, 43.6364498], [19.0436963, 43.6365874], [19.0437298, 43.6367249], [19.0437522, 43.6368787], [19.0437075, 43.6370243], [19.043618, 43.6371457], [19.0435174, 43.6372671], [19.043428, 43.6373884], [19.0433944, 43.6375341], [19.0435286, 43.6376878], [19.0437522, 43.6374693], [19.0438975, 43.6373884], [19.0440541, 43.6373318], [19.0441212, 43.6372185], [19.0441323, 43.6370809], [19.0441771, 43.6369515], [19.0443224, 43.6368544], [19.0444678, 43.6367573], [19.0445684, 43.636644], [19.0446466, 43.6365307], [19.0447808, 43.6364417], [19.0449485, 43.6363932], [19.0451386, 43.636377], [19.0453398, 43.6363527], [19.0455299, 43.6363284], [19.0456976, 43.636288], [19.0458653, 43.6362313], [19.0459436, 43.636118], [19.0460554, 43.6359805], [19.0461896, 43.6358834], [19.0463461, 43.6358105], [19.0465138, 43.6357539], [19.0467039, 43.6357296], [19.0468716, 43.6356892], [19.0470281, 43.6356325], [19.0471846, 43.6355516], [19.0472593, 43.6354759], [19.04733, 43.635325], [19.0473574, 43.6352381], [19.0475644, 43.6353929], [19.0476672, 43.6354615], [19.0477858, 43.6355188], [19.0479043, 43.6355645], [19.0480308, 43.6355989], [19.0481415, 43.6356504], [19.0482601, 43.6356961], [19.0483629, 43.6357648], [19.0484578, 43.6358335], [19.0486159, 43.6359937], [19.0487442, 43.63615], [19.0488303, 43.6362464], [19.0489084, 43.6363603], [19.0489479, 43.63644], [19.0489795, 43.6365315], [19.049027, 43.636726], [19.0491851, 43.6370522], [19.0492404, 43.6371437], [19.0492879, 43.6372296], [19.049359, 43.6373154], [19.0494381, 43.6374126], [19.0495409, 43.6375042], [19.0496515, 43.6375729], [19.0497701, 43.6376129], [19.0499045, 43.6376243], [19.0503314, 43.6376243], [19.0504779, 43.6376782], [19.0506166, 43.637755], [19.0507206, 43.6378023], [19.05081, 43.6378583], [19.0508849, 43.6379104], [19.050956, 43.6379905], [19.0510193, 43.6380821], [19.0510579, 43.6382805], [19.0510615, 43.6383535], [19.0510642, 43.6384129], [19.0510837, 43.6385441], [19.0511269, 43.6386823], [19.0511812, 43.6388522], [19.0511895, 43.6389512], [19.051189, 43.6390447], [19.0511789, 43.63914], [19.0511774, 43.6392149], [19.0511953, 43.6392901], [19.0512477, 43.6393691], [19.0513228, 43.639456], [19.0512169, 43.639644], [19.0511062, 43.6397127], [19.0509797, 43.6397585], [19.0507267, 43.6398615], [19.0505923, 43.6398958], [19.05045, 43.6399416], [19.0503552, 43.6400102], [19.0502682, 43.640096], [19.050197, 43.6401819], [19.0501022, 43.6402562], [19.0500864, 43.6403707], [19.0500785, 43.6404794], [19.0500468, 43.6405881], [19.0499757, 43.6406739], [19.0498729, 43.6407425], [19.0497859, 43.6408169], [19.0496357, 43.6408284], [19.0495725, 43.6409142], [19.0500389, 43.6412918], [19.050205, 43.6413776], [19.0506872, 43.6413433], [19.0508137, 43.641349], [19.0529088, 43.6414978], [19.0533752, 43.6435173], [19.0533199, 43.6439407], [19.0537468, 43.6447817], [19.0537863, 43.6450334], [19.0538179, 43.6453194], [19.053976, 43.6455769], [19.0542527, 43.6458915], [19.0543318, 43.6462634], [19.0546639, 43.6465666], [19.0546085, 43.6467325], [19.0546322, 43.6468583], [19.0546876, 43.6469441], [19.0547666, 43.6470242], [19.0547903, 43.6471272], [19.0547113, 43.6472073], [19.054735, 43.6473045], [19.0546797, 43.6474018], [19.0546085, 43.6474876], [19.0546955, 43.647562], [19.0548141, 43.6476077], [19.0549247, 43.6476707], [19.0551856, 43.6477508], [19.0553596, 43.6477794], [19.0555098, 43.6478137], [19.05566, 43.6478423], [19.0557786, 43.6478823], [19.0558814, 43.647951], [19.0559209, 43.6480539], [19.0559209, 43.6481569], [19.0559051, 43.6482542], [19.0558655, 43.6483457], [19.0557865, 43.6484258], [19.05566, 43.648483], [19.0555335, 43.648523], [19.0553675, 43.6485688], [19.0552252, 43.6485974], [19.0551224, 43.6486775], [19.0551224, 43.6487805], [19.05566, 43.6494498], [19.0556916, 43.649547], [19.0556205, 43.6496385], [19.0555019, 43.6497072], [19.055407, 43.6497873], [19.0553279, 43.6498674], [19.0552647, 43.6499646], [19.0552094, 43.6500561], [19.0551382, 43.6501648], [19.055075, 43.6502563], [19.0549959, 43.6503364], [19.0548773, 43.6503994], [19.0547508, 43.650468], [19.0547034, 43.6505652], [19.0548062, 43.6508513], [19.0547745, 43.6509485], [19.0547192, 43.6510515], [19.0546006, 43.6511201], [19.0544346, 43.6511487], [19.0543002, 43.6511716], [19.0543792, 43.6512231], [19.0544978, 43.6512574], [19.0546164, 43.6512974], [19.0547429, 43.6512974], [19.0548852, 43.6512746], [19.0550275, 43.6512345], [19.055154, 43.6512288], [19.0552963, 43.6512688], [19.055407, 43.6513089], [19.0555256, 43.6513489], [19.0556679, 43.6513833], [19.0559051, 43.6514519], [19.0560316, 43.6514805], [19.0561502, 43.6515263], [19.0562371, 43.6515949], [19.0563478, 43.6516521], [19.056498, 43.6516578], [19.0566245, 43.6516693], [19.0567431, 43.651715], [19.0568538, 43.6517722], [19.0569724, 43.6518237], [19.0571068, 43.651858], [19.0572412, 43.6518809], [19.0573518, 43.6519267], [19.0574467, 43.6519953], [19.0577155, 43.6521784], [19.057755, 43.6522699], [19.0578183, 43.6523557], [19.0579211, 43.6524358], [19.0580001, 43.6525159], [19.0580555, 43.6526017], [19.058182, 43.6527618], [19.0582768, 43.6528362], [19.0583875, 43.652882], [19.0584745, 43.652962], [19.0585852, 43.653025], [19.0587116, 43.6530307], [19.0588381, 43.6530307], [19.0589725, 43.6530192], [19.0591228, 43.6530021], [19.0589172, 43.6531222], [19.058854, 43.653208], [19.0588302, 43.653311], [19.0588302, 43.6534082], [19.0587512, 43.6534883], [19.0587116, 43.653597], [19.05868, 43.6536999], [19.0586642, 43.6537972], [19.0585772, 43.6538773], [19.0585061, 43.6539688], [19.0584428, 43.654066], [19.0583875, 43.6541747], [19.0583401, 43.6542662], [19.0582531, 43.6543463], [19.0581503, 43.6544264], [19.0580634, 43.6545065], [19.0579922, 43.6545923], [19.0579448, 43.6547009], [19.057929, 43.6548039], [19.0579843, 43.6548897], [19.0580476, 43.6549755], [19.058095, 43.655067], [19.0580238, 43.6551471], [19.0579211, 43.6552157], [19.0578578, 43.6553073], [19.0577076, 43.6553587], [19.0576048, 43.6554217], [19.0575179, 43.655496], [19.0574072, 43.6555646], [19.0572649, 43.6556047], [19.0571384, 43.6556447], [19.0570277, 43.6557134], [19.0569249, 43.655782], [19.0568301, 43.6558678], [19.0567589, 43.6559593], [19.0566403, 43.6560222], [19.0565929, 43.6561195], [19.056498, 43.6562053], [19.0563715, 43.6562568], [19.0562925, 43.656354], [19.0562213, 43.6564398], [19.0565059, 43.6565027], [19.0566403, 43.656497], [19.0567747, 43.6564855], [19.0569012, 43.6564855], [19.0570435, 43.6565084], [19.0571621, 43.6565427], [19.0573044, 43.6565885], [19.0574309, 43.6566228], [19.0575732, 43.65664], [19.0577313, 43.6566514], [19.0581424, 43.6566514], [19.0582926, 43.6566343], [19.0584428, 43.6566114], [19.0585614, 43.6565885], [19.0586958, 43.656537], [19.0588065, 43.6564913], [19.0589172, 43.6564283], [19.05902, 43.656354], [19.0591386, 43.6563025], [19.0592651, 43.6562911], [19.0593995, 43.6562796], [19.0595339, 43.6562568], [19.0596524, 43.6562167], [19.0597473, 43.6561538], [19.0598264, 43.6560794], [19.0598817, 43.6559994], [19.0599529, 43.6559136], [19.0600477, 43.6558392], [19.0601584, 43.6557877], [19.0603007, 43.6557534], [19.0604351, 43.6557248], [19.0605458, 43.6556905], [19.0606565, 43.6556447], [19.0607672, 43.6555932], [19.0608937, 43.6555361], [19.0610043, 43.6554789], [19.0612257, 43.6553759], [19.0613443, 43.6553359], [19.0614787, 43.6553015], [19.0616052, 43.6552787], [19.0617396, 43.6553015], [19.0618661, 43.6553301], [19.0619451, 43.6552615], [19.0619689, 43.65517], [19.0620558, 43.6551013], [19.0621823, 43.655067], [19.0623246, 43.6550441], [19.062459, 43.6550327], [19.0625776, 43.6549984], [19.0626804, 43.6549011], [19.0627753, 43.6548325], [19.062878, 43.6547696], [19.0630124, 43.6547753], [19.0631468, 43.6548039], [19.0632891, 43.6548153], [19.0634235, 43.6548211], [19.0635579, 43.6547925], [19.0637793, 43.6546666], [19.06389, 43.6546323], [19.0640244, 43.6546323], [19.0641588, 43.6546723], [19.0643327, 43.6548211], [19.064475, 43.6548668], [19.0646252, 43.6548897], [19.0647596, 43.6549126], [19.064894, 43.6549126], [19.0650363, 43.6549183], [19.0651628, 43.6549183], [19.0652893, 43.654924], [19.0654158, 43.6549583], [19.0654711, 43.6550556], [19.0655186, 43.6551414], [19.0656451, 43.6551814], [19.0657479, 43.6552443], [19.0658664, 43.6552215], [19.0660008, 43.6552615], [19.0660246, 43.6553645], [19.0660404, 43.6554674], [19.0660641, 43.6555704], [19.066072, 43.6556733], [19.066072, 43.6558735], [19.0661036, 43.6559708], [19.0661669, 43.6560566], [19.0662855, 43.6561023], [19.0664119, 43.6560852], [19.0664831, 43.6560051], [19.0665384, 43.655925], [19.0666096, 43.6558449], [19.0666887, 43.6557648], [19.0667598, 43.6556848], [19.0668547, 43.6555017], [19.0668942, 43.6554102], [19.0669574, 43.6553301], [19.0670523, 43.6552501], [19.067163, 43.6551986], [19.0672658, 43.6551357], [19.0673448, 43.6550556], [19.0674081, 43.6549755], [19.0674792, 43.6548954], [19.0675583, 43.6548211], [19.0676532, 43.6547524], [19.0677718, 43.6547124], [19.0678824, 43.6546609], [19.0679457, 43.6545808], [19.0680643, 43.6545179], [19.068175, 43.6544607], [19.0682619, 43.6543921], [19.0683474, 43.6543415], [19.0685151, 43.6544993], [19.0684983, 43.6548592], [19.0684592, 43.654932], [19.06842, 43.6549967], [19.0684536, 43.6550574], [19.0685207, 43.6551019], [19.0685933, 43.6551383], [19.0686716, 43.6552637], [19.0686716, 43.6553324], [19.0686548, 43.6554012], [19.0686045, 43.6554821], [19.0685933, 43.6555549], [19.069007, 43.6558057], [19.0692809, 43.6562142], [19.069225, 43.6558582], [19.0692418, 43.6557895], [19.069253, 43.6557248], [19.0692865, 43.6556641], [19.0693704, 43.6556358], [19.0694654, 43.6556358], [19.0695549, 43.6556641], [19.0696387, 43.6556843], [19.0697337, 43.6557086], [19.0698288, 43.6557207], [19.0699015, 43.6556884], [19.0699629, 43.6556277], [19.0700077, 43.6555711], [19.0700133, 43.6554012], [19.0701922, 43.6554416], [19.070276, 43.6554133], [19.0703431, 43.6553608], [19.0704046, 43.6553122], [19.0704549, 43.6552556], [19.0705891, 43.6550776], [19.0706282, 43.655017], [19.0706617, 43.6549563], [19.0711034, 43.6551302], [19.071109, 43.655199], [19.071109, 43.6553405], [19.0716736, 43.6555873], [19.0729593, 43.6555792], [19.0729929, 43.6554821], [19.0730488, 43.6554255], [19.073127, 43.655385], [19.0732109, 43.6553446], [19.0732836, 43.6553122], [19.0733562, 43.6552677], [19.0734177, 43.6552111], [19.0734681, 43.6551545], [19.0735184, 43.6550938], [19.0735575, 43.6550372], [19.0735855, 43.6549684], [19.0735966, 43.6548309], [19.0736078, 43.65475], [19.073619, 43.6546732], [19.0736246, 43.6546044], [19.0736581, 43.6545437], [19.0737084, 43.6544871], [19.0737755, 43.6544426], [19.0738482, 43.6544062], [19.073932, 43.6543779], [19.0740215, 43.6543658], [19.0741109, 43.6543658], [19.074206, 43.6543577], [19.0742954, 43.6543375], [19.0743569, 43.6542849], [19.0744016, 43.6542283], [19.0744855, 43.6541999], [19.0745749, 43.6541757], [19.0747035, 43.6540746], [19.0747818, 43.6540382], [19.07486, 43.6540018], [19.0750166, 43.6539249], [19.0751004, 43.6538885], [19.0751843, 43.6538642], [19.0752625, 43.6538359], [19.075352, 43.6538157], [19.0755365, 43.6537712], [19.0756315, 43.6537469], [19.0757153, 43.6537308], [19.0758048, 43.6537186], [19.0759054, 43.6537186], [19.0759949, 43.6537146], [19.0760899, 43.6537146], [19.0761793, 43.6537186], [19.0762688, 43.6537308], [19.0763526, 43.653751], [19.0764365, 43.6537833], [19.0765203, 43.6538197], [19.0765986, 43.6538561], [19.0766825, 43.6538926], [19.0767607, 43.6539249], [19.0768502, 43.6539492], [19.0769396, 43.6539532], [19.0770402, 43.6539532], [19.0771297, 43.6539613], [19.077208, 43.6540058], [19.0772694, 43.6540543], [19.0773365, 43.654111], [19.077398, 43.6541595], [19.0774763, 43.6541999], [19.0775657, 43.654208], [19.0776552, 43.6541757], [19.0777334, 43.6541474], [19.0778173, 43.6541231], [19.0779235, 43.6540948], [19.0780185, 43.6540786], [19.078203, 43.6540503], [19.0782757, 43.6540139], [19.0783763, 43.6539573], [19.0784434, 43.6539087], [19.0785664, 43.6538319], [19.0786447, 43.6537995], [19.0787565, 43.6537833], [19.0788515, 43.6537793], [19.0789409, 43.6537833], [19.0790416, 43.6538117], [19.0791198, 43.653844], [19.0792093, 43.6538764], [19.079349, 43.6538845], [19.0794608, 43.6538804], [19.0795726, 43.6538723], [19.0796677, 43.6538602], [19.0797571, 43.6538561], [19.0799416, 43.6538561], [19.0800422, 43.6538723], [19.0801205, 43.6539006], [19.0802043, 43.653937], [19.0802882, 43.6539694], [19.0803944, 43.6539937], [19.0804894, 43.6540139], [19.0805901, 43.654026], [19.0808584, 43.6540462], [19.0809702, 43.6540503], [19.0811044, 43.6540543], [19.081328, 43.6540543], [19.0814286, 43.6540624], [19.0816355, 43.6540624], [19.0817305, 43.6540665], [19.0818255, 43.6540827], [19.0819094, 43.654115], [19.0819876, 43.6541514], [19.0820603, 43.6541959], [19.0821498, 43.6542323], [19.0823342, 43.6542768], [19.0824069, 43.6543172], [19.0824684, 43.6543739], [19.0824964, 43.6544386], [19.0825131, 43.6545114], [19.0825131, 43.654657], [19.0825299, 43.6547298], [19.0825914, 43.6547824], [19.0826864, 43.6547986], [19.0827815, 43.6547986], [19.0828709, 43.6547945], [19.0829436, 43.6547541], [19.0870077, 43.6572698], [19.0935148, 43.6589159], [19.0948844, 43.6589887], [19.0959354, 43.659385], [19.0965112, 43.6599188], [19.0967628, 43.6600361], [19.0969864, 43.660481], [19.0970311, 43.6605902], [19.0973162, 43.6612858], [19.097305, 43.6619126], [19.0975119, 43.6620138], [19.0977243, 43.6627336], [19.0983224, 43.6627336], [19.0994181, 43.6629399], [19.1006871, 43.6634251], [19.1031357, 43.6638659], [19.1051035, 43.6638457], [19.106747, 43.6628913], [19.1073228, 43.6612575], [19.1073731, 43.6611685], [19.1074681, 43.6611321], [19.1075464, 43.6610836], [19.1076191, 43.6610391], [19.107675, 43.6609906], [19.1077421, 43.660938], [19.1078092, 43.6608773], [19.1078595, 43.6608248], [19.1079545, 43.6607156], [19.1080328, 43.6606913], [19.1081278, 43.6606873], [19.1082172, 43.6607115], [19.1083179, 43.6607398], [19.1084129, 43.6607762], [19.1084912, 43.6608126], [19.1085694, 43.6608571], [19.1086421, 43.6609016], [19.1087148, 43.660938], [19.108793, 43.6609825], [19.1088825, 43.6610067], [19.1089831, 43.6610189], [19.1091788, 43.6610351], [19.109285, 43.6610431], [19.10938, 43.6610472], [19.1094974, 43.6610553], [19.1096036, 43.6610593], [19.1096931, 43.6610674], [19.1097881, 43.6610836], [19.1098831, 43.6610957], [19.1099782, 43.6610998], [19.1100676, 43.6610998], [19.1101571, 43.6611119], [19.1102297, 43.6611604], [19.1102912, 43.661213], [19.1103248, 43.6612818], [19.1103248, 43.6614354], [19.1103471, 43.6615042], [19.1103975, 43.661577], [19.1104534, 43.6616376], [19.1105652, 43.661674], [19.1106434, 43.6617145], [19.1107217, 43.661763], [19.1107944, 43.6618115], [19.1108447, 43.6618682], [19.1109062, 43.6619288], [19.1109677, 43.6619854], [19.1110292, 43.6620421], [19.1110683, 43.6621108], [19.1111018, 43.6621755], [19.1111488, 43.6622215], [19.1111901, 43.6622824], [19.111223, 43.6623493], [19.1112914, 43.662418], [19.1113389, 43.6625313], [19.1113813, 43.6626244], [19.1114093, 43.6627013], [19.1114205, 43.662774], [19.1114261, 43.6628509], [19.1114428, 43.6629277], [19.1114708, 43.6629965], [19.111605, 43.6632351], [19.1116776, 43.6632836], [19.1117503, 43.663324], [19.1119124, 43.6634292], [19.1119963, 43.6634575], [19.1120801, 43.6634939], [19.1122143, 43.6635465], [19.1123596, 43.6635909], [19.1124435, 43.6636112], [19.1125385, 43.6636314], [19.1126447, 43.6636597], [19.1127621, 43.663684], [19.1128404, 43.6637163], [19.1128963, 43.663777], [19.1129634, 43.6638457], [19.1130025, 43.6639064], [19.1130361, 43.6639751], [19.1130417, 43.6640439], [19.1130417, 43.6641167], [19.1130081, 43.6641814], [19.1129746, 43.6642461], [19.112818, 43.6642784], [19.1129298, 43.6646747], [19.112941, 43.6647475], [19.1129913, 43.6649942], [19.1133603, 43.6649578], [19.1134386, 43.6649133], [19.1169325, 43.6636678], [19.1228805, 43.6606468], [19.1288957, 43.6560038], [19.1291923, 43.6559427], [19.1302695, 43.6552592], [19.1305225, 43.6552707], [19.1308407, 43.6553607], [19.1309533, 43.6553078], [19.1310877, 43.6553407], [19.1311786, 43.6554823], [19.1310838, 43.6558469], [19.1311132, 43.6558719], [19.1346458, 43.6539884], [19.1401749, 43.657436], [19.1404807, 43.6611682], [19.140453, 43.6612297], [19.1404332, 43.6612912], [19.1404392, 43.661387], [19.140453, 43.6614685], [19.1404668, 43.6615121], [19.1404836, 43.6615307], [19.1405064, 43.6615421], [19.1405459, 43.6615364], [19.1405795, 43.6615278], [19.140623, 43.6615242], [19.1406605, 43.6615292], [19.1407011, 43.6615435], [19.1407327, 43.6615893], [19.1407495, 43.6616279], [19.1407752, 43.6616729], [19.1408868, 43.6617694], [19.1410123, 43.6618366], [19.1411517, 43.6619303], [19.1413197, 43.6620611], [19.1414294, 43.6621369], [19.1415015, 43.6622198], [19.1415529, 43.6623106], [19.1415737, 43.6623728], [19.1415796, 43.6624636], [19.1415924, 43.662538], [19.141625, 43.662608], [19.1416814, 43.6626759], [19.1417772, 43.6627653], [19.1418484, 43.6628161], [19.1419235, 43.6628597], [19.1419788, 43.6628997], [19.1420016, 43.6629326], [19.1420124, 43.6629791], [19.1420609, 43.6631628], [19.1422081, 43.6637576], [19.1423623, 43.6643731], [19.1424888, 43.6648678], [19.1426508, 43.665524], [19.1427002, 43.6657557], [19.1439286, 43.6663898], [19.1456649, 43.6672919], [19.1471858, 43.6680782], [19.1478064, 43.6684042], [19.1485199, 43.6687773], [19.1498748, 43.6694836], [19.1503966, 43.6695837], [19.1505498, 43.669608], [19.151452, 43.6697781], [19.1526201, 43.6699983], [19.1537012, 43.6701941], [19.1537922, 43.6702327], [19.1538524, 43.6702492], [19.1552814, 43.6707495], [19.1568656, 43.6713121], [19.1582797, 43.6718067], [19.1581987, 43.6718796], [19.1581611, 43.6718946], [19.1581018, 43.6718953], [19.1580356, 43.6718918], [19.1579823, 43.6718953], [19.157917, 43.6719075], [19.1578469, 43.6719268], [19.1577915, 43.6719561], [19.1577401, 43.6719926], [19.1576878, 43.6720426], [19.1575781, 43.6721541], [19.1574871, 43.6722606], [19.1574417, 43.6723264], [19.157413, 43.67238], [19.1573804, 43.6724243], [19.1573488, 43.6724607], [19.1573241, 43.672485], [19.1572856, 43.6725458], [19.157248, 43.6725987], [19.1571936, 43.6726437], [19.157164, 43.6726845], [19.1571284, 43.6727681], [19.1570978, 43.6728381], [19.1570385, 43.6729018], [19.1570088, 43.6729261], [19.1568992, 43.6730547], [19.1568478, 43.6731183], [19.1568231, 43.6731669], [19.1568082, 43.6732277], [19.1567914, 43.673267], [19.1567588, 43.6733028], [19.1567173, 43.6733399], [19.1566521, 43.6733935], [19.156579, 43.673465], [19.1565325, 43.6735429], [19.1565216, 43.6736201], [19.1565296, 43.673678], [19.1565434, 43.6737188], [19.1565533, 43.6737502], [19.1565543, 43.6737745], [19.1565414, 43.6738195], [19.1565048, 43.673881], [19.1564624, 43.6739082], [19.1564357, 43.6739339], [19.1563922, 43.6739646], [19.1563546, 43.6739789], [19.156321, 43.6739882], [19.1562924, 43.6740011], [19.1562736, 43.6740211], [19.1562588, 43.6740475], [19.156237, 43.6740683], [19.1562133, 43.6740819], [19.1561659, 43.674109], [19.1561372, 43.6741348], [19.1561165, 43.6741698], [19.156069, 43.6742798], [19.1560325, 43.6743285], [19.155992, 43.6743506], [19.1559317, 43.6743692], [19.1558842, 43.6743792], [19.155823, 43.6743985], [19.1555552, 43.6745264], [19.1554593, 43.6745836], [19.1553516, 43.6746672], [19.1553041, 43.6747159], [19.1552478, 43.674763], [19.1551826, 43.6747952], [19.1551203, 43.6748245], [19.1550917, 43.6748474], [19.155067, 43.674911], [19.1550442, 43.6749796], [19.1550067, 43.6750404], [19.1548911, 43.675189], [19.1548634, 43.6752462], [19.1548594, 43.6752991], [19.1548594, 43.6753699], [19.1548693, 43.6754263], [19.1548871, 43.6754663], [19.1548901, 43.6754914], [19.1548802, 43.6755214], [19.1548505, 43.6755471], [19.154811, 43.6755643], [19.1547636, 43.6755771], [19.1547241, 43.6755871], [19.1546806, 43.6756014], [19.1546569, 43.6756207], [19.1546005, 43.6756801], [19.1545076, 43.6757408], [19.1544157, 43.6757823], [19.1543159, 43.6758066], [19.1542398, 43.6758259], [19.1541944, 43.6758502], [19.1541578, 43.6758709], [19.1541074, 43.6758852], [19.15406, 43.6758923], [19.1540185, 43.6759116], [19.1539256, 43.6759517], [19.1538455, 43.6759731], [19.1537684, 43.6759953], [19.1536914, 43.6760253], [19.1536459, 43.6760639], [19.1536024, 43.6760882], [19.1534532, 43.6761639], [19.1533099, 43.6762204], [19.1532061, 43.6762619], [19.1531577, 43.6763033], [19.1530836, 43.6763712], [19.1530253, 43.6764291], [19.1529433, 43.6764706], [19.1528672, 43.6765013], [19.1528019, 43.6765377], [19.1527466, 43.6765956], [19.1526577, 43.6766414], [19.1525895, 43.6766828], [19.152547, 43.6767407], [19.1524818, 43.676873], [19.1523997, 43.6769916], [19.1523395, 43.6770416], [19.1522387, 43.6770917], [19.1521744, 43.6771131], [19.1520766, 43.6771953], [19.1519896, 43.6772675], [19.151958, 43.6773447], [19.1519629, 43.6774126], [19.151959, 43.6774483], [19.1519264, 43.6775076], [19.1518868, 43.6775412], [19.1518562, 43.6775734], [19.1518404, 43.677602], [19.151791, 43.6776863], [19.1517129, 43.6777778], [19.1516348, 43.677845], [19.1516062, 43.6778979], [19.1516012, 43.6779386], [19.1516091, 43.6780137], [19.1516294, 43.6781484], [19.151642, 43.6782485], [19.1516811, 43.6783485], [19.151723, 43.6784153], [19.1517328, 43.6784698], [19.1517202, 43.6785275], [19.1516741, 43.6785921], [19.151635, 43.6787124], [19.151635, 43.6788458], [19.1516336, 43.6789772], [19.1516154, 43.6790702], [19.1515651, 43.6791713], [19.1514952, 43.6792269], [19.1514128, 43.6792592], [19.1512171, 43.679335], [19.1511095, 43.6793947], [19.151062, 43.6794543], [19.1510326, 43.6795301], [19.1510033, 43.6796686], [19.1509823, 43.6799061], [19.1509563, 43.6800057], [19.1508869, 43.6800642], [19.1505638, 43.6802236], [19.1504709, 43.6803], [19.1503266, 43.6804072], [19.1502584, 43.6804709], [19.1499872, 43.6806738], [19.149837, 43.6804717], [19.1497294, 43.6803241], [19.1496162, 43.6802079], [19.1495477, 43.680122], [19.1494721, 43.6800532], [19.1491293, 43.6797207], [19.1487642, 43.6792237], [19.1484721, 43.6789192], [19.1480339, 43.6784097], [19.1479867, 43.6782668], [19.1478062, 43.6780835], [19.1474153, 43.6779313], [19.1469815, 43.6778443], [19.146539, 43.6777355], [19.1460493, 43.677661], [19.1453105, 43.6776951], [19.1445072, 43.6777573], [19.1438542, 43.677925], [19.1434204, 43.677981], [19.1429865, 43.6780835], [19.1420844, 43.6781456], [19.141861, 43.6782512], [19.1411995, 43.6782575], [19.1407699, 43.6783382], [19.1403361, 43.6784687], [19.1400526, 43.6786178], [19.1398807, 43.6787421], [19.1394641, 43.6787701], [19.1389443, 43.6790186], [19.1382484, 43.6792516], [19.1377458, 43.67932], [19.1371659, 43.6794442], [19.1368362, 43.6795285], [19.1365946, 43.6795902], [19.1360232, 43.6796928], [19.1357096, 43.6797238], [19.13525, 43.6798854], [19.1349407, 43.6800811], [19.1338711, 43.6808609], [19.1335017, 43.6809944], [19.1325051, 43.6818053], [19.1320626, 43.6819854], [19.1317104, 43.6822899], [19.1312765, 43.6824017], [19.1309071, 43.6826534], [19.1304689, 43.6830572], [19.1293521, 43.6839922], [19.1291888, 43.6840979], [19.1286605, 43.6842563], [19.1280161, 43.6843557], [19.1272085, 43.6846663], [19.1258511, 43.6850453], [19.1244077, 43.685356], [19.12415, 43.6854492], [19.1221955, 43.6857256], [19.1210228, 43.6858685], [19.1208338, 43.6859089], [19.1207178, 43.6859275], [19.1197731, 43.6858455], [19.1193389, 43.6858375], [19.1185785, 43.6858468], [19.1181747, 43.6857412], [19.1174273, 43.6856697], [19.1167958, 43.685707], [19.1157133, 43.6859027], [19.1152236, 43.6860456], [19.1146179, 43.6862941], [19.1142657, 43.6863686], [19.1144566, 43.6870227], [19.1144461, 43.6871949], [19.1144891, 43.6873471], [19.1144375, 43.6874745], [19.1145234, 43.6878783], [19.1145277, 43.6879342], [19.1144977, 43.6879901], [19.114459, 43.6880367], [19.1143043, 43.6881951], [19.1141927, 43.6883939], [19.1141884, 43.6884467], [19.1141884, 43.6885586], [19.1142013, 43.6886145], [19.1142227, 43.6886642], [19.1142528, 43.6887108], [19.1142958, 43.6887543], [19.1143344, 43.6887977], [19.1143688, 43.6888443], [19.1143903, 43.688894], [19.1143989, 43.6889468], [19.1143989, 43.6889996], [19.1144289, 43.6893879], [19.1144203, 43.6894407], [19.1144031, 43.6894935], [19.1143946, 43.6895494], [19.1143989, 43.6896053], [19.1144289, 43.6896519], [19.1144676, 43.6897016], [19.1145019, 43.6897513], [19.1146093, 43.690006], [19.1146351, 43.6900588], [19.1146394, 43.6901272], [19.1146523, 43.69018], [19.114691, 43.6902328], [19.1150045, 43.6905745], [19.1150217, 43.6906273], [19.115026, 43.6906801], [19.1150518, 43.6907298], [19.1150862, 43.6907764], [19.1150905, 43.6908323], [19.1150561, 43.6908789], [19.1150088, 43.6909223], [19.1149874, 43.6909783], [19.1149874, 43.6910373], [19.1149959, 43.6912858], [19.114837, 43.6915746], [19.1148241, 43.6916274], [19.1147812, 43.6916771], [19.1147167, 43.6917113], [19.1146609, 43.6917455], [19.1146179, 43.6917952], [19.1145922, 43.691848], [19.1145836, 43.6919008], [19.1145234, 43.6920561], [19.1143946, 43.6922517], [19.1142872, 43.6926276], [19.1141583, 43.6927611], [19.1141583, 43.6928823], [19.1141669, 43.6929972], [19.1141669, 43.6930531], [19.1141755, 43.693109], [19.1141583, 43.6931618], [19.1142485, 43.6933326], [19.113123, 43.6943265], [19.1089176, 43.6948856], [19.1084747, 43.6950737], [19.107616, 43.6954384], [19.106744, 43.696569], [19.1074828, 43.6974758], [19.107427, 43.6974417], [19.1073583, 43.6974137], [19.1072208, 43.6973703], [19.1071435, 43.6973547], [19.1070619, 43.6973454], [19.1069845, 43.6973392], [19.1067655, 43.6973392], [19.1066838, 43.6973423], [19.1066108, 43.6973516], [19.1065335, 43.6973765], [19.1064733, 43.6974044], [19.1064089, 43.6974386], [19.10628, 43.6975007], [19.1062113, 43.6975255], [19.1061254, 43.697538], [19.1060524, 43.6975473], [19.105902, 43.6975535], [19.1058204, 43.6975473], [19.1057302, 43.697538], [19.1056572, 43.6975317], [19.1055884, 43.6975131], [19.1054381, 43.6975007], [19.1052835, 43.6975007], [19.1052061, 43.6975069], [19.1050644, 43.6975317], [19.1049956, 43.6975504], [19.104914, 43.6975752], [19.1048367, 43.6976094], [19.1047637, 43.6976436], [19.1046992, 43.6976839], [19.1046477, 43.6977212], [19.1045446, 43.6978019], [19.104493, 43.6978485], [19.1044501, 43.697892], [19.104347, 43.6979728], [19.1042869, 43.6980069], [19.1042138, 43.698038], [19.1041408, 43.6980597], [19.1040678, 43.6980753], [19.1039948, 43.6980877], [19.1041064, 43.6982305], [19.1044286, 43.6999418], [19.1047551, 43.7008455], [19.1047121, 43.7009107], [19.104652, 43.700948], [19.1045833, 43.7009728], [19.1045145, 43.7009946], [19.1044415, 43.701007], [19.1043685, 43.7010163], [19.1042912, 43.7010163], [19.1042095, 43.7010194], [19.1041279, 43.7010163], [19.1040506, 43.701007], [19.1039733, 43.7010008], [19.1038272, 43.7009821], [19.1037628, 43.7010132], [19.1037155, 43.7010567], [19.1036812, 43.7011095], [19.1036425, 43.7011592], [19.103591, 43.7012026], [19.1035265, 43.7012399], [19.103475, 43.7012834], [19.103432, 43.70133], [19.1034105, 43.7013828], [19.1033848, 43.7014356], [19.1033375, 43.701479], [19.1032817, 43.7015163], [19.1032344, 43.7015629], [19.1032001, 43.7016126], [19.1031872, 43.7017461], [19.102938, 43.7020256], [19.1027061, 43.7023765], [19.102444, 43.7026188], [19.1021347, 43.7029541], [19.1020832, 43.7032957], [19.1020961, 43.7038516], [19.10195, 43.7038547], [19.1017954, 43.7038547], [19.1016407, 43.7038671], [19.1015033, 43.7039168], [19.1013916, 43.7039976], [19.1012885, 43.7040845], [19.101194, 43.7041839], [19.1011338, 43.7042771], [19.1010823, 43.7043764], [19.100962, 43.7044634], [19.1008074, 43.7044696], [19.1006613, 43.7044696], [19.100541, 43.7045441], [19.1004122, 43.7046], [19.1002661, 43.7046373], [19.1001287, 43.7046683], [19.0999826, 43.7046994], [19.099828, 43.7046994], [19.0996991, 43.7046435], [19.099553, 43.7046497], [19.0994328, 43.7047118], [19.0993297, 43.7047863], [19.0991922, 43.7048174], [19.0990376, 43.704836], [19.0988829, 43.7048609], [19.0987283, 43.7048919], [19.0985994, 43.7049602], [19.0984791, 43.7050348], [19.0983588, 43.7051155], [19.0982729, 43.7052087], [19.0981784, 43.7052956], [19.0979035, 43.7056807], [19.0977918, 43.7057676], [19.0976715, 43.7058484], [19.0976028, 43.7059415], [19.0975598, 43.7060471], [19.0975169, 43.7061465], [19.0974482, 43.7062459], [19.0974739, 43.7063639], [19.0975083, 43.7064756], [19.0974482, 43.706575], [19.0973279, 43.7066495], [19.0972591, 43.7067427], [19.0972334, 43.7068545], [19.0971904, 43.7069601], [19.09701, 43.7071712], [19.0968897, 43.707252], [19.0967694, 43.7073265], [19.0966406, 43.707401], [19.0965031, 43.7074321], [19.0964172, 43.7075252], [19.0962797, 43.7075811], [19.0961165, 43.7075998], [19.0959619, 43.707606], [19.0958072, 43.7076184], [19.0956526, 43.7076494], [19.0954979, 43.7076991], [19.0953433, 43.7077178], [19.0951972, 43.707724], [19.0950426, 43.7077053], [19.0948708, 43.7076991], [19.0947075, 43.7076991], [19.0945529, 43.7077178], [19.0944154, 43.7077923], [19.0943553, 43.7078916], [19.0943037, 43.707991], [19.0942436, 43.7081028], [19.0941577, 43.7082022], [19.0940202, 43.7082456], [19.0938742, 43.7082208], [19.0937453, 43.7081649], [19.0936164, 43.7081214], [19.0934704, 43.708109], [19.0933071, 43.7081028], [19.0931525, 43.7081339], [19.0929549, 43.7081711], [19.0928432, 43.7082394], [19.0926972, 43.7082953], [19.0925597, 43.7083512], [19.0923707, 43.7083761], [19.0922246, 43.7084133], [19.0921215, 43.7084941], [19.0920528, 43.7085872], [19.0919927, 43.7086866], [19.092027, 43.7087921], [19.0920356, 43.7088977], [19.0919325, 43.7089847], [19.0918208, 43.7090592], [19.0917263, 43.7091461], [19.0916061, 43.7092145], [19.0915803, 43.7093262], [19.0914686, 43.7094008], [19.0913139, 43.7094132], [19.0911851, 43.7093635], [19.0910304, 43.7093573], [19.0909187, 43.709438], [19.0908758, 43.7095374], [19.0907383, 43.7095871], [19.0905923, 43.7096119], [19.0904634, 43.7096864], [19.0903947, 43.7097858], [19.0903861, 43.7099038], [19.0903345, 43.7100032], [19.0902229, 43.7100777], [19.0900854, 43.7101584], [19.0894153, 43.7104938], [19.0892692, 43.7105124], [19.0891232, 43.7105496], [19.0889943, 43.7106428], [19.0889771, 43.7107546], [19.0889857, 43.7108602], [19.0889084, 43.7109595], [19.0888225, 43.7110527], [19.0887451, 43.7111645], [19.088685, 43.7112638], [19.0886077, 43.7113632], [19.0885475, 43.7114625], [19.0884874, 43.7115681], [19.0884273, 43.7116675], [19.0883413, 43.7117668], [19.0882039, 43.7118351], [19.0880578, 43.7118786], [19.0879032, 43.7119097], [19.0877657, 43.7119469], [19.0876283, 43.7119904], [19.0873362, 43.712127], [19.0872159, 43.7122077], [19.08713, 43.7123009], [19.0870441, 43.7123878], [19.086941, 43.7124623], [19.0867863, 43.7124872], [19.0866489, 43.7125182], [19.0865887, 43.7126238], [19.0864598, 43.7126983], [19.0863052, 43.7127107], [19.0861592, 43.7127107], [19.0860045, 43.712717], [19.0858413, 43.712717], [19.0856866, 43.7126859], [19.0855835, 43.7126114], [19.0855148, 43.7125244], [19.0854289, 43.7124251], [19.0852828, 43.712394], [19.085154, 43.7124499], [19.0849993, 43.7124251], [19.0848619, 43.7123878], [19.0847072, 43.712363], [19.0845526, 43.7123754], [19.0844151, 43.7124251], [19.0842777, 43.7123816], [19.0841574, 43.7123133], [19.0840457, 43.712245], [19.0835989, 43.7119842], [19.0834529, 43.711978], [19.0832982, 43.711978], [19.0831522, 43.7119407], [19.0830147, 43.7118848], [19.0825336, 43.7117296], [19.0824047, 43.7116923], [19.0822501, 43.7116488], [19.0820783, 43.7115992], [19.0819236, 43.7115805], [19.0817776, 43.7115681], [19.0816057, 43.7115619], [19.0811504, 43.7115619], [19.0806349, 43.7115433], [19.0804889, 43.7115308], [19.0803428, 43.7115122], [19.0801882, 43.7114812], [19.0800421, 43.7114377], [19.0799304, 43.7113694], [19.0799476, 43.71127], [19.0799218, 43.7111645], [19.079793, 43.7111024], [19.0796555, 43.7110775], [19.0795009, 43.7110651], [19.0793548, 43.7110837], [19.0792002, 43.7110899], [19.0790627, 43.7110465], [19.0789167, 43.7110216], [19.0787706, 43.7110278], [19.0786246, 43.7110713], [19.0784785, 43.7110775], [19.0783239, 43.7110651], [19.0781864, 43.7110278], [19.0780403, 43.7109719], [19.0779029, 43.710916], [19.077774, 43.7108539], [19.0776366, 43.7108167], [19.0745952, 43.7106801], [19.0745983, 43.7106318], [19.0745891, 43.7105747], [19.0744008, 43.7105703], [19.0743856, 43.7105], [19.0743644, 43.710421], [19.0743522, 43.7103419], [19.0737052, 43.7103024], [19.0736813, 43.7104704], [19.0736536, 43.7106647], [19.0733772, 43.7115012], [19.0728608, 43.712621], [19.0726482, 43.7129898], [19.0724052, 43.7132094], [19.0717187, 43.7137143], [19.0709897, 43.7143027], [19.0705827, 43.7145881], [19.0704794, 43.714632], [19.0703761, 43.7146672], [19.0702607, 43.7146979], [19.0701453, 43.714733], [19.070042, 43.7147594], [19.0698719, 43.7147813], [19.0697504, 43.7147901], [19.0691125, 43.7147901], [19.0690032, 43.7147813], [19.0688938, 43.7147769], [19.0687723, 43.7147682], [19.0686691, 43.7147638], [19.068505, 43.7147506], [19.0683732, 43.7147472], [19.0683349, 43.7147462], [19.0681952, 43.7147726], [19.0680737, 43.7148033], [19.0679765, 43.7148428], [19.0678915, 43.7149043], [19.0678125, 43.7149701], [19.0671868, 43.7155717], [19.0670653, 43.7156946], [19.0667737, 43.715923], [19.0665185, 43.7160723], [19.0663363, 43.7161864], [19.0661783, 43.7163006], [19.0660082, 43.716406], [19.0657531, 43.7165201], [19.0655708, 43.7165904], [19.0653886, 43.7166606], [19.065182, 43.7167221], [19.0650119, 43.7168099], [19.0648297, 43.7168977], [19.0646596, 43.7170031], [19.0645138, 43.7171085], [19.0643801, 43.7172314], [19.0642586, 43.7173544], [19.064125, 43.7174773], [19.0640035, 43.7176002], [19.0638698, 43.7177144], [19.0636754, 43.7177847], [19.0634689, 43.7178373], [19.0632502, 43.7178725], [19.0630315, 43.7178813], [19.0628492, 43.7178286], [19.0627399, 43.7176968], [19.0626791, 43.7175651], [19.0626062, 43.7174158], [19.0625333, 43.7172753], [19.062424, 43.7171348], [19.0623146, 43.7170207], [19.0621688, 43.7169065], [19.0619987, 43.7168363], [19.06178, 43.7168187], [19.0615735, 43.7168538], [19.0613912, 43.7169592], [19.0612211, 43.7170558], [19.0610267, 43.71717], [19.0608566, 43.717249], [19.0606865, 43.7173456], [19.0604921, 43.7174422], [19.0601155, 43.7176442], [19.0599454, 43.7177408], [19.0597874, 43.7178549], [19.0596781, 43.7179866], [19.0595687, 43.7181271], [19.0594472, 43.7182501], [19.0593014, 43.7183642], [19.0590949, 43.7184433], [19.0589126, 43.7185047], [19.0587182, 43.7185662], [19.0584995, 43.7186189], [19.0582444, 43.718654], [19.0580257, 43.7186628], [19.057807, 43.718654], [19.0576004, 43.7186101], [19.0574789, 43.7184872], [19.0574668, 43.7183467], [19.0574668, 43.7180569], [19.057406, 43.7179076], [19.0572602, 43.7178022], [19.0571266, 43.7176968], [19.0570537, 43.7175476], [19.0570172, 43.7173983], [19.05692, 43.7172666], [19.0567499, 43.71717], [19.0565434, 43.7171085], [19.0560703, 43.7169667], [19.0557782, 43.7169419], [19.0554517, 43.7169295], [19.0551596, 43.7169295], [19.0548675, 43.7169667], [19.0545926, 43.7170785], [19.0542833, 43.7172275], [19.0540427, 43.7173517], [19.053785, 43.7174511], [19.0534929, 43.7175132], [19.0531664, 43.7175877], [19.0528743, 43.7176374], [19.0522557, 43.7177119], [19.0519464, 43.717774], [19.0516543, 43.7178485], [19.0513794, 43.7179602], [19.0508639, 43.7181838], [19.0506234, 43.7182955], [19.0503484, 43.7183949], [19.0500563, 43.7184818], [19.0497814, 43.718606], [19.0495409, 43.7187178], [19.0492831, 43.7188047], [19.048991, 43.7189041], [19.0486989, 43.7189662], [19.0481491, 43.7190903], [19.047857, 43.7191028], [19.0475477, 43.7191152], [19.0472384, 43.7191028], [19.0469119, 43.7190655], [19.0466026, 43.7190158], [19.0459497, 43.7190158], [19.0456404, 43.7190407], [19.0453483, 43.7190903], [19.0450562, 43.7191649], [19.0447469, 43.7192518], [19.044472, 43.7193387], [19.044197, 43.7194132], [19.0438878, 43.7194629], [19.0435785, 43.7194753], [19.043252, 43.7195126], [19.0429427, 43.7195622], [19.0426678, 43.7196616], [19.0424101, 43.7197982], [19.0400388, 43.7214001], [19.0398155, 43.7215492], [19.0395749, 43.7216982], [19.0394203, 43.7218844], [19.0392828, 43.7220707], [19.039111, 43.7222446], [19.0388876, 43.722406], [19.038647, 43.7225426], [19.0385717, 43.7225658], [19.0383549, 43.7226295], [19.0380628, 43.7226792], [19.0377536, 43.7227661], [19.0375302, 43.7229275], [19.0374099, 43.7231138], [19.0372209, 43.7233001], [19.0370147, 43.7234739], [19.0363987, 43.7239861], [19.0361212, 43.7241569], [19.0358978, 43.7243059], [19.0356401, 43.7244425], [19.0353995, 43.7245667], [19.0351418, 43.7246908], [19.0348669, 43.7248026], [19.0345748, 43.7249019], [19.0340249, 43.7251006], [19.0336984, 43.7252], [19.0333892, 43.725262], [19.0329424, 43.7253862], [19.0326675, 43.7254731], [19.0324957, 43.7256594], [19.0324613, 43.7258829], [19.0324613, 43.7270004], [19.0324269, 43.7272239], [19.0323066, 43.7274226], [19.0322207, 43.7276461], [19.0321864, 43.7278696], [19.0321864, 43.7281055], [19.0322551, 43.7283042], [19.0322723, 43.7285277], [19.0322723, 43.7287512], [19.0322207, 43.7288629], [19.0282, 43.7266279], [19.0225297, 43.7247033], [19.022083, 43.7206551], [19.0218768, 43.720506], [19.0220658, 43.7202328], [19.0210864, 43.7188047], [19.0209145, 43.7186433], [19.020674, 43.7185191], [19.0205193, 43.7183452], [19.0206224, 43.7181589], [19.020485, 43.7179851], [19.0203132, 43.7177864], [19.0201241, 43.7176249], [19.0199523, 43.7174511], [19.0197977, 43.7172648], [19.0196258, 43.7170909], [19.0196765, 43.7166162], [19.019713, 43.716423], [19.0195915, 43.7163089], [19.0195915, 43.7160893], [19.0194586, 43.7159408], [19.0194028, 43.7158973], [19.0193426, 43.7158725], [19.0192739, 43.7158538], [19.0192009, 43.7158414], [19.0191364, 43.7158197], [19.0190591, 43.71577], [19.0190076, 43.7157328], [19.0189345, 43.7157203], [19.0188615, 43.7157296], [19.0187971, 43.7157545], [19.0187284, 43.71577], [19.0186553, 43.71577], [19.0186038, 43.7157328], [19.0185909, 43.71568], [19.0185909, 43.7155775], [19.0185823, 43.7155247], [19.0185608, 43.7154751], [19.0185265, 43.7154285], [19.018452, 43.7153461], [19.0184069, 43.7152561], [19.0184284, 43.7151427], [19.0184198, 43.7150108], [19.0183854, 43.7149378], [19.0183597, 43.7149176], [19.0183382, 43.7148974], [19.018278, 43.7148602], [19.0182523, 43.71484], [19.0182394, 43.7148152], [19.0182329, 43.7147888], [19.0182329, 43.7147096], [19.0182222, 43.7146848], [19.0182029, 43.714663], [19.0181707, 43.7146459], [19.0181384, 43.714632], [19.0181041, 43.7146242], [19.0180676, 43.7146196], [19.018031, 43.7146211], [19.018001, 43.7146366], [19.0179838, 43.7146599], [19.0179816, 43.7146863], [19.0179988, 43.7147406], [19.0179924, 43.714767], [19.0179602, 43.714781], [19.0179237, 43.7147841], [19.0178828, 43.7147795], [19.0178485, 43.714767], [19.0178184, 43.7147531], [19.017784, 43.7147391], [19.017754, 43.7147236], [19.0177346, 43.7147018], [19.0177282, 43.714677], [19.0177389, 43.7146522], [19.017769, 43.7146366], [19.0178034, 43.7146258], [19.017842, 43.7146149], [19.0178743, 43.714604], [19.0179065, 43.7145932], [19.0179301, 43.7145714], [19.017943, 43.7145481], [19.0179301, 43.7145233], [19.0178957, 43.7145062], [19.0178657, 43.7144907], [19.0178506, 43.7144659], [19.0178592, 43.7144395], [19.0178828, 43.7144162], [19.0178979, 43.7143929], [19.0178871, 43.7143665], [19.0178528, 43.7143215], [19.0178077, 43.7142842], [19.0177948, 43.7142594], [19.0177733, 43.7142377], [19.017754, 43.7142159], [19.0177282, 43.7141957], [19.0177003, 43.7141787], [19.0176659, 43.7141693], [19.0176294, 43.7141631], [19.0175929, 43.7141678], [19.0175564, 43.7141787], [19.0175199, 43.7141787], [19.0174855, 43.7141647], [19.017434, 43.7141197], [19.0174017, 43.7141057], [19.0173631, 43.714101], [19.0173266, 43.7140855], [19.0172986, 43.7140669], [19.017275, 43.7140467], [19.0172535, 43.7140234], [19.0172149, 43.714011], [19.0171375, 43.7140048], [19.0171182, 43.7139815], [19.0171075, 43.7139505], [19.0170946, 43.7139256], [19.0170796, 43.7139023], [19.0170065, 43.7138123], [19.0169421, 43.7137781], [19.016882, 43.7137533], [19.0168003, 43.7137253], [19.0167316, 43.7137005], [19.0166929, 43.7136601], [19.0166715, 43.7136043], [19.0166328, 43.7135608], [19.016577, 43.7135235], [19.0165125, 43.7134956], [19.0164438, 43.7134707], [19.0163751, 43.7134428], [19.0163106, 43.7134118], [19.0162548, 43.7133776], [19.0162075, 43.7133372], [19.0161603, 43.7132938], [19.016113, 43.7132534], [19.0160486, 43.7132255], [19.0159756, 43.7132286], [19.0158983, 43.7132255], [19.0158381, 43.7131913], [19.0158123, 43.7131447], [19.0157694, 43.713095], [19.0127023, 43.7126976], [19.01174, 43.7127752], [19.0099928, 43.7132723], [19.0095315, 43.7133243], [19.0092197, 43.7133496], [19.0075647, 43.7132223], [19.0059409, 43.7131944], [19.0035783, 43.7141973], [19.0019245, 43.7150636], [19.00064, 43.7153213], [18.9997423, 43.7156224], [18.9981915, 43.7164731], [18.9974441, 43.7168488], [18.9963014, 43.7173145], [18.9957117, 43.7176847], [18.9955497, 43.7177864], [18.9955798, 43.7179945], [18.9953822, 43.7183794], [18.9952919, 43.7185036], [18.9950815, 43.7186464], [18.9948581, 43.7191308], [18.9948581, 43.7193015], [18.9947851, 43.7194257], [18.9944543, 43.7203571], [18.9944543, 43.7205371], [18.9938228, 43.7209718], [18.9935608, 43.7212077], [18.9934062, 43.7214002], [18.9932257, 43.7215523], [18.9926544, 43.7219466], [18.9911681, 43.7219621], [18.9891534, 43.7206427], [18.9884833, 43.7207234], [18.9882556, 43.7207793], [18.9881826, 43.7217914], [18.9878175, 43.7227538], [18.987796, 43.7229804], [18.9877488, 43.7231325], [18.9874953, 43.7233063], [18.9870743, 43.7237875], [18.9869841, 43.7241538], [18.9864644, 43.7250572], [18.9856439, 43.7260568], [18.9848105, 43.726361], [18.9840803, 43.7263548], [18.9834067, 43.7262522], [18.9806781, 43.7258364], [18.979093, 43.7256129], [18.9771642, 43.7253118], [18.9728213, 43.7255539], [18.9721598, 43.7256657], [18.965785, 43.7270346], [18.9651364, 43.7274133], [18.9638348, 43.7284036], [18.9627093, 43.7288257], [18.9614765, 43.7293969], [18.9592685, 43.7297228], [18.9556945, 43.7298749], [18.9529195, 43.7295831], [18.9502347, 43.7276896], [18.9479146, 43.7248819], [18.9477428, 43.7248943], [18.9476697, 43.7249098], [18.947601, 43.7249315], [18.947528, 43.7249471], [18.947455, 43.7249502], [18.9473819, 43.7249688], [18.9473132, 43.7249936], [18.9472488, 43.7250216], [18.9471843, 43.7250495], [18.9471199, 43.7250868], [18.9470555, 43.7251209], [18.9469309, 43.725183], [18.9468536, 43.7251892], [18.9467805, 43.7251861], [18.9467204, 43.7251582], [18.9466688, 43.7251178], [18.9466302, 43.7250712], [18.9465915, 43.7250247], [18.94654, 43.7249905], [18.9464798, 43.7249626], [18.9464068, 43.7249502], [18.9463252, 43.7249533], [18.9462522, 43.7249688], [18.9461834, 43.7249936], [18.9461104, 43.725006], [18.9460331, 43.7250091], [18.9459601, 43.7250185], [18.9458956, 43.7250433], [18.9458398, 43.7250774], [18.9457711, 43.7251054], [18.945698, 43.7251147], [18.945625, 43.7251147], [18.9455606, 43.7250899], [18.9455047, 43.7250588], [18.9454489, 43.7250278], [18.9453887, 43.7249905], [18.9453329, 43.7249533], [18.9452771, 43.7249191], [18.9451482, 43.724857], [18.945088, 43.7248291], [18.9450193, 43.7248043], [18.944942, 43.7247856], [18.944869, 43.7247732], [18.9440657, 43.7245807], [18.943301, 43.7243914], [18.9416995, 43.7239512], [18.938987, 43.7234393], [18.9390118, 43.7231066], [18.9498928, 43.7235586], [18.9584271, 43.7139529], [18.9617648, 43.7101624], [18.9651768, 43.7062505], [18.9659688, 43.7053424], [18.9664024, 43.7048432], [18.9667681, 43.7044222], [18.9678, 43.7032343], [18.9700027, 43.7010737], [18.9749776, 43.6961938], [18.9785668, 43.6941754], [18.9842213, 43.6915038], [18.9846437, 43.69129], [18.9863393, 43.69059], [18.9876756, 43.6900384], [18.991256, 43.6885679], [18.9922295, 43.6881681], [18.9965078, 43.686411], [18.9993387, 43.6850702], [19.0000252, 43.6831754], [19.000264, 43.6809365], [19.0002999, 43.6806], [19.004969, 43.6754662], [19.0057135, 43.6746476], [19.0085352, 43.6716534], [19.0148114, 43.664732], [19.0156839, 43.6637697], [19.0166753, 43.6626763], [19.017219, 43.6576595], [19.0172293, 43.6575645], [19.0171645, 43.6553991], [19.0169902, 43.6495713], [19.01607, 43.6435945], [19.0157464, 43.6420848], [19.0148204, 43.6378405], [19.0143216, 43.6374546], [19.0131781, 43.63657], [19.0110793, 43.6349463], [19.0071469, 43.6319245], [19.0069021, 43.6317358], [19.0026745, 43.6284765], [19.0001101, 43.6264995], [18.9979942, 43.6248346], [18.9951565, 43.6225758], [18.9930953, 43.6215527], [18.9907089, 43.6205975], [18.9900394, 43.6203296], [18.9883966, 43.6196721], [18.9837053, 43.6178894], [18.9798351, 43.6164686], [18.9794783, 43.616299], [18.9766767, 43.6144945], [18.9719731, 43.612482], [18.9709895, 43.6123364], [18.9702462, 43.6123009], [18.9627827, 43.6119444], [18.9455715, 43.6109275], [18.9431878, 43.6107867], [18.9388703, 43.6094423], [18.9280203, 43.6060636], [18.9249978, 43.6051223], [18.9223834, 43.6047626], [18.9170412, 43.6038876], [18.9111826, 43.6029279], [18.908218, 43.6010096], [18.9055805, 43.5993029], [18.90345, 43.5979242], [18.9015161, 43.5967836], [18.9001479, 43.5959766], [18.8972237, 43.5950888], [18.8847461, 43.5913005]]]}}]}