{"type": "FeatureCollection", "features": [{"type": "Feature", "properties": {"name": "Općina Odžak, Županija Posavska, Federacija Bosne i Hercegovine, Bosna i Hercegovina / Босна и Херцеговина", "source": "OpenStreetMap relation 2528242", "licence": "ODbL 1.0"}, "geometry": {"type": "Polygon", "coordinates": [[[18.1973863, 45.0786923], [18.1974341, 45.0785431], [18.1983983, 45.0772865], [18.2012171, 45.075143], [18.2035618, 45.0740653], [18.2071768, 45.0722444], [18.2074252, 45.0722109], [18.2077863, 45.0721622], [18.2088165, 45.0720213], [18.2116319, 45.0718265], [18.2144193, 45.0719469], [18.2152552, 45.0721562], [18.2169159, 45.0715718], [18.2202233, 45.0704029], [18.2285738, 45.0669661], [18.232903, 45.0650273], [18.2341609, 45.0649827], [18.2460657, 45.0645606], [18.2526917, 45.0597382], [18.256616, 45.0565036], [18.2625104, 45.0516447], [18.2651608, 45.0504161], [18.2723043, 45.046524], [18.2834699, 45.0305485], [18.2942639, 45.0240878], [18.299252, 45.0205472], [18.3075902, 45.014652], [18.3099217, 45.0018609], [18.311472, 44.9934398], [18.3161828, 44.9938971], [18.3221057, 44.994472], [18.3226281, 44.9945227], [18.3323807, 44.993116], [18.336778, 44.9986544], [18.3417713, 45.0049487], [18.3425317, 45.0069887], [18.3445782, 45.0138157], [18.3451395, 45.0161424], [18.3453628, 45.0196129], [18.3454047, 45.0202639], [18.3516757, 45.0182152], [18.3658216, 45.0136103], [18.3657504, 45.0151867], [18.3666993, 45.0168497], [18.3687751, 45.0182528], [18.3731204, 45.0193847], [18.3754017, 45.0198235], [18.378976, 45.0196446], [18.3815302, 45.0198235], [18.383341, 45.0202315], [18.3847446, 45.0208184], [18.3856777, 45.0216904], [18.3859768, 45.0229614], [18.3855798, 45.0238546], [18.3852392, 45.0246725], [18.3843485, 45.0262494], [18.3837271, 45.0269407], [18.3829437, 45.0275381], [18.3812653, 45.0286603], [18.3805337, 45.0291821], [18.3799956, 45.0298987], [18.3798632, 45.0303066], [18.3799978, 45.0310663], [18.3802428, 45.0317449], [18.3807084, 45.0324158], [18.3812232, 45.0329833], [18.3814143, 45.0331152], [18.3818715, 45.0334308], [18.3829491, 45.0339941], [18.3833823, 45.0345501], [18.3835971, 45.0353119], [18.3833552, 45.0362009], [18.3829829, 45.036735], [18.3827293, 45.037308], [18.3826699, 45.0379238], [18.3828572, 45.038679], [18.383178, 45.0393657], [18.3845782, 45.0399209], [18.3865072, 45.0400454], [18.3883405, 45.0394084], [18.3892421, 45.0391592], [18.3906523, 45.0392375], [18.391715, 45.039871], [18.392536, 45.0407714], [18.3929188, 45.041654], [18.3932562, 45.042953], [18.3936591, 45.0434725], [18.3945355, 45.0438569], [18.3960616, 45.0435864], [18.3984637, 45.0419677], [18.4011888, 45.0406753], [18.4039338, 45.0402483], [18.406437, 45.0399173], [18.4073031, 45.0399574], [18.4082803, 45.0399351], [18.4111713, 45.0393479], [18.412773, 45.0392838], [18.4145005, 45.0396895], [18.4154122, 45.0401237], [18.4161022, 45.0407821], [18.4168073, 45.0418462], [18.4170793, 45.0428355], [18.4171246, 45.044469], [18.4176786, 45.0455401], [18.418701, 45.0469742], [18.4197033, 45.0479848], [18.4208859, 45.0484952], [18.4212697, 45.0486609], [18.4244528, 45.0494188], [18.4265883, 45.0505895], [18.4274446, 45.0513332], [18.4280691, 45.0522156], [18.4288095, 45.0527956], [18.4299729, 45.0531763], [18.4314486, 45.0532795], [18.4330503, 45.0530447], [18.4338158, 45.0525323], [18.4347123, 45.051657], [18.4355132, 45.0514221], [18.4362183, 45.0515479], [18.4369378, 45.0519756], [18.4375859, 45.0524386], [18.4379492, 45.0531581], [18.4379848, 45.0538022], [18.4370217, 45.0554465], [18.4366339, 45.0558032], [18.4354283, 45.057306], [18.4354812, 45.0581915], [18.4356426, 45.058484], [18.4361072, 45.0591663], [18.4365595, 45.0594763], [18.4367587, 45.0596129], [18.4407057, 45.0603433], [18.4432272, 45.0608464], [18.4439995, 45.0609503], [18.4445734, 45.0610275], [18.4464111, 45.0611583], [18.4475151, 45.0617369], [18.4483414, 45.062567], [18.4489112, 45.0633921], [18.4490038, 45.0642927], [18.4484625, 45.0647505], [18.4473228, 45.065324], [18.4458413, 45.0655353], [18.443774, 45.0657015], [18.4430592, 45.06588], [18.4423678, 45.0660527], [18.4415676, 45.0668081], [18.4415818, 45.0673967], [18.4420231, 45.0679944], [18.44244, 45.0683796], [18.4429912, 45.0686094], [18.443867, 45.0686296], [18.4446252, 45.0683563], [18.4472481, 45.0674828], [18.4477512, 45.0672239], [18.4483948, 45.0667765], [18.4493378, 45.0665324], [18.4517388, 45.0656507], [18.4535452, 45.0650569], [18.4581499, 45.0638142], [18.4586712, 45.0638077], [18.4608005, 45.0637812], [18.4616982, 45.0640916], [18.4618344, 45.0641414], [18.4627651, 45.0650876], [18.463556, 45.0659486], [18.4647311, 45.0665799], [18.4661378, 45.0669069], [18.4670672, 45.06697], [18.4680787, 45.0667477], [18.4691044, 45.0668043], [18.469234, 45.0669637], [18.4668266, 45.0691442], [18.4657624, 45.0704058], [18.4631732, 45.0733462], [18.4601063, 45.0755712], [18.4560699, 45.0775908], [18.4533057, 45.0785482], [18.4470719, 45.0813188], [18.4444207, 45.0832932], [18.4420491, 45.0856631], [18.4408218, 45.0880754], [18.4403321, 45.0901954], [18.4393715, 45.0950479], [18.4381434, 45.0977117], [18.4363314, 45.0998487], [18.4351058, 45.1013573], [18.4342901, 45.1020228], [18.431391, 45.1044875], [18.429022, 45.1058227], [18.4253875, 45.107506], [18.421693, 45.1089198], [18.4185526, 45.1096167], [18.4152999, 45.1101481], [18.4120022, 45.1104361], [18.4100387, 45.1105805], [18.4071704, 45.1106198], [18.4052488, 45.1104969], [18.4039652, 45.1103977], [18.4037171, 45.1103762], [18.4027815, 45.1102572], [18.4022098, 45.1101845], [18.4012921, 45.1100313], [18.3999976, 45.1097472], [18.397791, 45.1091972], [18.3960172, 45.1088056], [18.3946983, 45.1084935], [18.3934127, 45.1082429], [18.3919213, 45.1080397], [18.3910675, 45.1079027], [18.3898233, 45.1077305], [18.388267, 45.1074603], [18.3872708, 45.1073041], [18.3868229, 45.1072339], [18.3856115, 45.107117], [18.385564, 45.1071124], [18.3839956, 45.1070282], [18.3823156, 45.1069225], [18.3804781, 45.1068805], [18.3788244, 45.1068872], [18.3767248, 45.1068706], [18.3753889, 45.1068625], [18.3740608, 45.1068486], [18.3726438, 45.1067739], [18.3709537, 45.1066376], [18.3704351, 45.1064997], [18.3696893, 45.1062886], [18.3682284, 45.1061632], [18.3658382, 45.1059362], [18.3634794, 45.1056806], [18.3601872, 45.1052811], [18.3578757, 45.1050025], [18.3556608, 45.104785], [18.3531973, 45.1044626], [18.3505921, 45.1042145], [18.3469657, 45.1037893], [18.3450536, 45.1035972], [18.3430383, 45.1034228], [18.3406316, 45.103156], [18.3379785, 45.1028968], [18.3356907, 45.1025951], [18.3326223, 45.1022266], [18.3305111, 45.102019], [18.3282794, 45.1017449], [18.3265341, 45.1015397], [18.3249656, 45.1014402], [18.3238748, 45.1013704], [18.3228882, 45.1013561], [18.32164, 45.1013833], [18.3208307, 45.1015028], [18.3200039, 45.1017039], [18.3199197, 45.1017244], [18.3194414, 45.1019437], [18.3191066, 45.1020973], [18.3180871, 45.1024944], [18.3173681, 45.102782], [18.3168729, 45.103141], [18.3162531, 45.1036643], [18.3155422, 45.104442], [18.3149753, 45.1052803], [18.3143842, 45.1060964], [18.3136314, 45.1072348], [18.3128391, 45.1083904], [18.3122903, 45.1093638], [18.3118889, 45.1101106], [18.3114419, 45.1109931], [18.3108306, 45.1120346], [18.3104114, 45.1126634], [18.3098815, 45.1133436], [18.3091291, 45.114037], [18.3085333, 45.1145715], [18.3078001, 45.114983], [18.3069151, 45.1153565], [18.3057026, 45.1156424], [18.304662, 45.115741], [18.3034935, 45.1157955], [18.3024026, 45.1157425], [18.3011118, 45.1156122], [18.2998112, 45.1153861], [18.2984539, 45.1150817], [18.2970162, 45.1147217], [18.2951619, 45.1141902], [18.2936601, 45.113808], [18.2927106, 45.1136298], [18.2916821, 45.1134973], [18.2904073, 45.1133723], [18.2893019, 45.1134038], [18.2879507, 45.1134766], [18.2862431, 45.113648], [18.2847749, 45.1138738], [18.2831423, 45.1142586], [18.2819309, 45.1146231], [18.2810711, 45.1150918], [18.2805356, 45.1154285], [18.2798578, 45.1158394], [18.2792311, 45.1164471], [18.2788263, 45.1170136], [18.2785989, 45.1177196], [18.2784088, 45.1182787], [18.2782699, 45.1190572], [18.2782047, 45.1199647], [18.2781968, 45.1209786], [18.2781624, 45.1218126], [18.2781917, 45.1226629], [18.2781816, 45.1235361], [18.2783297, 45.1242603], [18.2784814, 45.124946], [18.2786323, 45.1254357], [18.2787493, 45.1260541], [18.2788195, 45.1265541], [18.2787887, 45.1271344], [18.2787474, 45.1276304], [18.2787115, 45.1280363], [18.2786133, 45.1284882], [18.2785668, 45.1290799], [18.2785192, 45.1293565], [18.2784399, 45.1296335], [18.2783213, 45.1299336], [18.2782493, 45.130188], [18.2780989, 45.1304885], [18.2779584, 45.1308566], [18.2778397, 45.1311454], [18.2775493, 45.131555], [18.277316, 45.1320087], [18.2768785, 45.1325555], [18.2765415, 45.1329996], [18.27593, 45.133577], [18.2755523, 45.1339935], [18.2751865, 45.134269], [18.2745495, 45.1347963], [18.27413, 45.1351345], [18.2737548, 45.1353651], [18.2733103, 45.1356701], [18.2728489, 45.1359413], [18.2723648, 45.1362523], [18.2719093, 45.1364559], [18.2715024, 45.1366871], [18.2711425, 45.1368949], [18.2708512, 45.1370006], [18.2704522, 45.1372259], [18.2700033, 45.1373844], [18.26968, 45.1374791], [18.2690653, 45.1376739], [18.2681177, 45.1379128], [18.2671148, 45.1381637], [18.2665533, 45.1382788], [18.2655658, 45.1385127], [18.2647363, 45.1387048], [18.2639532, 45.1388625], [18.2630737, 45.1389821], [18.2627624, 45.1390295], [18.2622765, 45.1391034], [18.2620918, 45.1391315], [18.261157, 45.1392688], [18.2603556, 45.139331], [18.2594576, 45.1393609], [18.2586152, 45.1393899], [18.2577564, 45.1394023], [18.2568419, 45.1394097], [18.2560456, 45.1393818], [18.2553295, 45.1393696], [18.254405, 45.1393097], [18.2533611, 45.1392403], [18.2523971, 45.1391865], [18.2519032, 45.1391654], [18.2513684, 45.1390999], [18.2509456, 45.1390553], [18.2502423, 45.1389416], [18.2500029, 45.1389113], [18.2493093, 45.1388593], [18.2484787, 45.138736], [18.2478701, 45.1385984], [18.247342, 45.1384877], [18.246766, 45.1383721], [18.2464164, 45.1383084], [18.2462542, 45.1382724], [18.2455666, 45.1381528], [18.2452861, 45.1381125], [18.2449, 45.1380963], [18.2444817, 45.138063], [18.2440266, 45.1380229], [18.2432583, 45.1378812], [18.2425551, 45.137772], [18.2420017, 45.1376427], [18.2413767, 45.1375038], [18.2406632, 45.1373385], [18.2401086, 45.1371755], [18.239523, 45.1370301], [18.2383668, 45.136722], [18.2374669, 45.136465], [18.2368248, 45.1362981], [18.2361346, 45.1361211], [18.2355708, 45.1359247], [18.2350377, 45.135705], [18.2345141, 45.1355246], [18.2341323, 45.1353588], [18.2338837, 45.1352508], [18.233613, 45.1351363], [18.233326, 45.1350149], [18.2322463, 45.1346264], [18.2307851, 45.1340379], [18.2296194, 45.1334938], [18.2280433, 45.132812], [18.2270472, 45.132332], [18.227032, 45.132326], [18.2262863, 45.1320287], [18.2259737, 45.1319041], [18.2245281, 45.1313039], [18.2234863, 45.1308753], [18.2233749, 45.1308325], [18.2233547, 45.1308247], [18.2221957, 45.1303788], [18.221113, 45.1299173], [18.2203208, 45.1295679], [18.2192517, 45.1290499], [18.2183699, 45.1286463], [18.2177033, 45.1282607], [18.2171508, 45.1279459], [18.2162733, 45.1274521], [18.2155905, 45.1270611], [18.2150202, 45.1267016], [18.2146263, 45.1263837], [18.2142324, 45.1260655], [18.2138688, 45.1257132], [18.2134513, 45.1254013], [18.2130797, 45.1252388], [18.2124326, 45.1249166], [18.212186, 45.1247186], [18.2119462, 45.1244979], [18.2117549, 45.1242876], [18.2114603, 45.1240906], [18.2111459, 45.1237925], [18.2109056, 45.123555], [18.2107538, 45.1233439], [18.2105617, 45.1231166], [18.2104188, 45.1229279], [18.2102428, 45.122706], [18.2100561, 45.1224167], [18.2098568, 45.1220092], [18.2096688, 45.1216861], [18.2094771, 45.1212729], [18.2093083, 45.1208311], [18.2091052, 45.1203335], [18.2089473, 45.1199647], [18.2087691, 45.1194892], [18.2086883, 45.1190569], [18.2085352, 45.118609], [18.2084384, 45.1181771], [18.2083965, 45.117727], [18.2083444, 45.1174181], [18.2083486, 45.1171249], [18.208351, 45.1167867], [18.2084196, 45.116109], [18.2085973, 45.1153784], [18.2087771, 45.1142928], [18.2089937, 45.113336], [18.2090757, 45.112799], [18.209295, 45.1119097], [18.2093891, 45.1114795], [18.2095205, 45.1111782], [18.2096103, 45.1108383], [18.2098408, 45.1104279], [18.2100463, 45.1099954], [18.2104381, 45.1094409], [18.2107644, 45.1090399], [18.2110894, 45.1086107], [18.21141, 45.1082661], [18.2118453, 45.1078066], [18.2119053, 45.1077109], [18.2120922, 45.1074127], [18.2124697, 45.1071008], [18.2125179, 45.1070576], [18.2140917, 45.1058717], [18.2176666, 45.1034376], [18.2201843, 45.1017712], [18.2211255, 45.1009213], [18.2215255, 45.1001047], [18.2217373, 45.0994548], [18.2217678, 45.0988916], [18.2216903, 45.0978882], [18.2213528, 45.09689], [18.2185867, 45.0934727], [18.2146879, 45.0895289], [18.2144964, 45.0893352], [18.2139534, 45.0887859], [18.2100808, 45.0853682], [18.2071361, 45.08331], [18.2029536, 45.0810043], [18.1992185, 45.0792196], [18.1973863, 45.0786923]]]}}]}