{"type": "FeatureCollection", "features": [{"type": "Feature", "properties": {"name": "Općina Olovo, Zeničko-dobojski kanton, Federacija Bosne i Hercegovine, 71340, Bosna i Hercegovina / Босна и Херцеговина", "source": "OpenStreetMap relation 2528244", "licence": "ODbL 1.0"}, "geometry": {"type": "Polygon", "coordinates": [[[18.312727, 44.2616419], [18.3177943, 44.2575591], [18.3196946, 44.2543834], [18.3228617, 44.2525686], [18.3285625, 44.2512075], [18.3336298, 44.2503001], [18.3424977, 44.247124], [18.344398, 44.245309], [18.3488319, 44.2425864], [18.3526324, 44.2425864], [18.3583332, 44.2421326], [18.3615003, 44.2403174], [18.3646674, 44.2357793], [18.3684679, 44.2326024], [18.3678345, 44.2276098], [18.3646674, 44.2194392], [18.3684679, 44.2189852], [18.371635, 44.2194392], [18.3805029, 44.2239786], [18.3887373, 44.2257942], [18.3919044, 44.2257942], [18.3969718, 44.2271559], [18.4064731, 44.2344178], [18.410907, 44.236687], [18.4204083, 44.2371408], [18.4248422, 44.2362332], [18.4292762, 44.233964], [18.4318099, 44.2316947], [18.4337101, 44.2271559], [18.4362438, 44.2235247], [18.438144, 44.2226168], [18.442578, 44.2253403], [18.4470119, 44.2271559], [18.4533461, 44.2276098], [18.4577801, 44.2271559], [18.4679148, 44.2239786], [18.4729821, 44.221255], [18.4736155, 44.2153535], [18.4717153, 44.2148995], [18.4761492, 44.2099054], [18.48185, 44.206273], [18.4831168, 44.2030945], [18.48185, 44.1990077], [18.4799497, 44.1976453], [18.4824834, 44.1935581], [18.4850171, 44.1899247], [18.4831168, 44.1849285], [18.4812166, 44.1831116], [18.4767826, 44.1808404], [18.4799497, 44.1781148], [18.4856505, 44.1767519], [18.4932515, 44.1762976], [18.4989523, 44.178569], [18.5052759, 44.1808359], [18.5052865, 44.1808404], [18.5141544, 44.1776605], [18.5185883, 44.1731175], [18.5217554, 44.1690286], [18.5249225, 44.1649394], [18.5242891, 44.162213], [18.5230223, 44.1590322], [18.5217554, 44.1535789], [18.5236557, 44.1490341], [18.5255559, 44.1467615], [18.5255538, 44.145092], [18.5255559, 44.1449435], [18.5192218, 44.1431253], [18.5154212, 44.1431253], [18.5103539, 44.1426708], [18.5065534, 44.1408526], [18.5021194, 44.1376705], [18.4983189, 44.1353976], [18.4945184, 44.1344884], [18.4907179, 44.1335791], [18.4888176, 44.1335791], [18.4831168, 44.1353976], [18.4786829, 44.137216], [18.474249, 44.1335791], [18.4723487, 44.131306], [18.4780495, 44.1285781], [18.4837503, 44.1253955], [18.4878183, 44.1206566], [18.4845499, 44.1150051], [18.4939215, 44.1099037], [18.4930262, 44.100777], [18.5030174, 44.1005332], [18.5181955, 44.0952398], [18.522223, 44.0953925], [18.521064, 44.09353], [18.5190914, 44.0919356], [18.5218628, 44.0919744], [18.5240169, 44.0934729], [18.5254811, 44.0928107], [18.5276604, 44.0929502], [18.5329531, 44.0921909], [18.531844, 44.0909617], [18.531844, 44.0889175], [18.5325216, 44.0871955], [18.5311117, 44.0859958], [18.5317882, 44.0837153], [18.5334356, 44.0780715], [18.5327848, 44.074397], [18.5348029, 44.0751171], [18.5366959, 44.0743474], [18.5354592, 44.0727166], [18.5371759, 44.0716602], [18.5388524, 44.0718388], [18.5431566, 44.0700592], [18.5500548, 44.0679296], [18.5519737, 44.0652531], [18.5506781, 44.0633508], [18.5546747, 44.0603889], [18.5581475, 44.063989], [18.5631331, 44.0659623], [18.5662479, 44.0736642], [18.5636911, 44.0739345], [18.5642803, 44.0751205], [18.5672718, 44.0759515], [18.568986, 44.0778941], [18.5717911, 44.079811], [18.5738692, 44.0852072], [18.5769307, 44.085701], [18.5786238, 44.086309], [18.5813128, 44.0858126], [18.580397, 44.0840685], [18.5813645, 44.0828991], [18.5830355, 44.0840998], [18.5847126, 44.0845768], [18.5865373, 44.0824858], [18.5847043, 44.0826284], [18.5863408, 44.0803299], [18.5872423, 44.0799178], [18.5873706, 44.0782562], [18.5865303, 44.0781497], [18.5872711, 44.0769761], [18.5875393, 44.0754309], [18.5865483, 44.0748056], [18.587971, 44.0740112], [18.5889174, 44.0722701], [18.5909278, 44.0720909], [18.591858, 44.0712442], [18.5919036, 44.0689445], [18.5949989, 44.0676173], [18.5998735, 44.0682807], [18.6034609, 44.0684114], [18.6047955, 44.0685201], [18.6033298, 44.0665607], [18.604329, 44.0650722], [18.6044612, 44.0632826], [18.6030961, 44.0631516], [18.6015877, 44.0621324], [18.6014817, 44.0615466], [18.6010463, 44.0600609], [18.6052853, 44.0513003], [18.6086511, 44.0464818], [18.610181, 44.0427421], [18.6113726, 44.0406377], [18.61286, 44.0415156], [18.6153601, 44.0429249], [18.6165194, 44.0437087], [18.6199743, 44.0464421], [18.6213774, 44.0476426], [18.6231682, 44.0505618], [18.6253344, 44.0538005], [18.6265943, 44.0554785], [18.6300416, 44.0600694], [18.6343629, 44.0645723], [18.635066, 44.0652324], [18.6360519, 44.066158], [18.638693, 44.0683181], [18.6412308, 44.0704267], [18.6443216, 44.072899], [18.6481006, 44.0757276], [18.6530092, 44.0791485], [18.6569002, 44.0824261], [18.6595535, 44.0846611], [18.6637249, 44.0873572], [18.6714387, 44.0918104], [18.6722441, 44.0922364], [18.6759753, 44.0942097], [18.6885745, 44.0999136], [18.695825, 44.1046694], [18.6974964, 44.1057657], [18.7078926, 44.1119757], [18.7110154, 44.1130884], [18.7289866, 44.118657], [18.7303864, 44.119038], [18.7421677, 44.1222445], [18.7501805, 44.1234795], [18.7517543, 44.1237184], [18.753747, 44.1239904], [18.7643182, 44.1271104], [18.7683306, 44.1294772], [18.7724821, 44.131926], [18.7749845, 44.133402], [18.7810339, 44.1363934], [18.7858511, 44.1387755], [18.7869924, 44.1393398], [18.7907184, 44.1411244], [18.7971443, 44.144202], [18.80468, 44.1480529], [18.8053703, 44.1487394], [18.8085038, 44.1518555], [18.8125959, 44.1556738], [18.814832, 44.1581123], [18.8174035, 44.1625077], [18.8176992, 44.1686295], [18.816272, 44.1720724], [18.815784, 44.1732588], [18.8127258, 44.180694], [18.8127182, 44.180716], [18.8067486, 44.1900526], [18.8036893, 44.1948368], [18.8064265, 44.1980014], [18.8091286, 44.2007088], [18.8116619, 44.2041959], [18.8174058, 44.2090941], [18.8185179, 44.2103186], [18.8194518, 44.211282], [18.8204357, 44.2125722], [18.8213525, 44.2143031], [18.8210339, 44.2153289], [18.818999, 44.2170036], [18.8159937, 44.2189672], [18.8119061, 44.2209983], [18.806537, 44.2146459], [18.802103, 44.2128299], [18.8008362, 44.2105598], [18.7964022, 44.2082896], [18.7938686, 44.2060194], [18.790068, 44.2019327], [18.7881678, 44.198754], [18.7862675, 44.1933044], [18.7862675, 44.1869458], [18.7837338, 44.1837663], [18.7780331, 44.1796781], [18.7761328, 44.1764982], [18.7691652, 44.1737724], [18.7634644, 44.174681], [18.7590305, 44.1796781], [18.7526963, 44.1814951], [18.7469955, 44.1814951], [18.743195, 44.1787696], [18.7381276, 44.1719551], [18.7349605, 44.1715008], [18.7286263, 44.1737724], [18.7229256, 44.1733181], [18.7191251, 44.1696835], [18.7191251, 44.1674117], [18.7197585, 44.1660487], [18.7140577, 44.1633224], [18.7064567, 44.162868], [18.6956885, 44.1619592], [18.6912546, 44.1615048], [18.6861872, 44.1642312], [18.6823867, 44.1674117], [18.6779528, 44.1710465], [18.6735188, 44.1769524], [18.672252, 44.1824036], [18.6671847, 44.1864916], [18.6633841, 44.1883084], [18.6583168, 44.1860374], [18.6507157, 44.1855832], [18.6456484, 44.185129], [18.640581, 44.1837663], [18.6336134, 44.1833121], [18.6285461, 44.1819493], [18.6222119, 44.1814951], [18.6184113, 44.1814951], [18.6051095, 44.1869458], [18.6006756, 44.1878542], [18.5956082, 44.1901252], [18.5905409, 44.1933044], [18.5867404, 44.1955751], [18.5861069, 44.2005704], [18.5829399, 44.2019327], [18.5797728, 44.2023868], [18.5734386, 44.2046572], [18.5702715, 44.2110138], [18.5671044, 44.2141919], [18.5614036, 44.2173698], [18.5563362, 44.2182777], [18.5468349, 44.2219093], [18.5417676, 44.2232711], [18.5360668, 44.2259946], [18.5360668, 44.2282641], [18.5405007, 44.231895], [18.5398673, 44.2359796], [18.5354334, 44.2391563], [18.5341665, 44.2405177], [18.5360668, 44.2432404], [18.5386005, 44.2446017], [18.5373336, 44.245963], [18.5335331, 44.247778], [18.5322663, 44.250954], [18.5354334, 44.2550373], [18.5386005, 44.2573057], [18.5354334, 44.2622958], [18.5335331, 44.2668318], [18.5335331, 44.2695533], [18.5348, 44.2740888], [18.5335331, 44.279531], [18.5328997, 44.2813449], [18.5367002, 44.2867864], [18.5386005, 44.2881467], [18.5469239, 44.3002297], [18.5434656, 44.3009985], [18.5393836, 44.3024086], [18.5360414, 44.3040315], [18.5326397, 44.3036907], [18.5311741, 44.3051615], [18.530213, 44.3067012], [18.527914, 44.3091375], [18.5264229, 44.3096995], [18.5257057, 44.3108376], [18.5239454, 44.310864], [18.5228965, 44.3129573], [18.521788, 44.3156489], [18.5183863, 44.3175494], [18.51376, 44.3183648], [18.5061044, 44.3209742], [18.5003086, 44.322798], [18.4975068, 44.3237786], [18.4957488, 44.3247954], [18.492947, 44.325593], [18.4853804, 44.3235265], [18.4710478, 44.3235265], [18.4665688, 44.3228856], [18.4665688, 44.3190403], [18.4638815, 44.3164766], [18.4594025, 44.3139129], [18.4567151, 44.31199], [18.4522362, 44.310067], [18.4370078, 44.310067], [18.4307372, 44.3023745], [18.4271541, 44.299169], [18.4199877, 44.2966044], [18.414613, 44.2940398], [18.4119256, 44.2927574], [18.3993846, 44.2933986], [18.3966972, 44.2940398], [18.3850519, 44.2901926], [18.3796772, 44.2889101], [18.3751982, 44.2863452], [18.3707193, 44.2850626], [18.3662403, 44.2844214], [18.3581782, 44.2895514], [18.354595, 44.2921162], [18.3492203, 44.2940398], [18.3438455, 44.2933986], [18.3393666, 44.2901926], [18.337575, 44.291475], [18.3374303, 44.2856794], [18.3361635, 44.2834121], [18.3361635, 44.2802378], [18.3380638, 44.2775168], [18.3405974, 44.2766098], [18.3424977, 44.2747957], [18.3367969, 44.2711674], [18.3336298, 44.2702602], [18.3317296, 44.2670852], [18.3272956, 44.266178], [18.3209614, 44.2670852], [18.3165275, 44.2657244], [18.3139938, 44.2625492], [18.312727, 44.2616419]]]}}]}