{"type": "FeatureCollection", "features": [{"type": "Feature", "properties": {"name": "Grad Orašje, Županija Posavska, Federacija Bosne i Hercegovine, Bosna i Hercegovina / Босна и Херцеговина", "source": "OpenStreetMap relation 2528245", "licence": "ODbL 1.0"}, "geometry": {"type": "Polygon", "coordinates": [[[18.5683056, 45.0170886], [18.5890275, 45.0053034], [18.5943759, 45.0022612], [18.5960334, 45.0018492], [18.5979233, 45.0013684], [18.5998528, 45.0008372], [18.6010626, 45.0005464], [18.6032531, 45.0000208], [18.6046922, 44.9995456], [18.6056807, 44.9993443], [18.6071911, 44.9989249], [18.6076643, 44.9987858], [18.6082665, 44.9986397], [18.6096345, 44.9982036], [18.6106625, 44.9979687], [18.6115403, 44.9976891], [18.6124576, 44.9975269], [18.6135646, 44.9971467], [18.6145768, 44.9969286], [18.6156839, 44.9965372], [18.6167831, 44.9963415], [18.6194717, 44.9954691], [18.6206341, 44.995307], [18.6222552, 44.9947925], [18.6239395, 44.9942724], [18.6253233, 44.9938922], [18.6284548, 44.9930142], [18.6298663, 44.9925137], [18.6312778, 44.9920132], [18.6329859, 44.9914819], [18.6339269, 44.991096], [18.634773, 44.9908891], [18.6356951, 44.9905292], [18.6375791, 44.9897686], [18.6396472, 44.9888568], [18.6403665, 44.9885396], [18.6411395, 44.9883439], [18.6419145, 44.987916], [18.6426677, 44.9877552], [18.6434584, 44.987484], [18.6445853, 44.9870729], [18.64624, 44.986378], [18.6482101, 44.9855749], [18.6486993, 44.9853755], [18.6497213, 44.9850175], [18.650779, 44.9844764], [18.6520897, 44.9841534], [18.6535467, 44.9834962], [18.6543967, 44.9831802], [18.655314, 44.982867], [18.6563341, 44.982358], [18.6568007, 44.9821902], [18.6575474, 44.9819073], [18.6583802, 44.9815917], [18.659853, 44.9809429], [18.661227, 44.9805947], [18.6621344, 44.9803332], [18.6624191, 44.9802087], [18.6640994, 44.9794913], [18.6642771, 44.9793865], [18.6648012, 44.9790774], [18.6657936, 44.9786873], [18.6668355, 44.9782188], [18.6681185, 44.9777014], [18.6699313, 44.9771392], [18.6714575, 44.9764763], [18.6719364, 44.9762714], [18.6724737, 44.9760414], [18.6731873, 44.9757393], [18.674755, 44.9751562], [18.6758562, 44.9747464], [18.6767638, 44.9743161], [18.6771056, 44.974145], [18.6780011, 44.9738318], [18.6789105, 44.9735017], [18.6796558, 44.9732458], [18.6809566, 44.9727996], [18.6818067, 44.9722626], [18.6827912, 44.9719969], [18.6839101, 44.9715731], [18.6849618, 44.9710556], [18.6858752, 44.9706654], [18.6868142, 44.9703395], [18.6876702, 44.9699018], [18.6892102, 44.9694262], [18.6902086, 44.9690486], [18.6918257, 44.9683619], [18.6926066, 44.9680975], [18.6933716, 44.9678304], [18.6934176, 44.967815], [18.6950085, 44.9672807], [18.6960167, 44.9668485], [18.6970882, 44.9664778], [18.6983119, 44.9659169], [18.6989999, 44.9656694], [18.6998033, 44.9653305], [18.7004707, 44.9650707], [18.7010361, 44.9649113], [18.7016233, 44.9646889], [18.7024022, 44.9643532], [18.7035903, 44.9639223], [18.7039784, 44.9638203], [18.7045214, 44.9636342], [18.705674, 44.9631908], [18.7062236, 44.9630565], [18.7070855, 44.9626746], [18.7080404, 44.9622983], [18.709438, 44.961792], [18.7108159, 44.9613667], [18.7115781, 44.9610361], [18.7125497, 44.9606603], [18.7130914, 44.9603903], [18.7143665, 44.9599679], [18.7152976, 44.9597105], [18.7162979, 44.9593048], [18.7174979, 44.9588893], [18.7188225, 44.9585144], [18.7200877, 44.9579759], [18.7214399, 44.9574457], [18.7234425, 44.9566637], [18.7245654, 44.9561852], [18.7252161, 44.9559103], [18.7257364, 44.9558037], [18.7258903, 44.956175], [18.7259637, 44.9562392], [18.7274693, 44.9555313], [18.7281528, 44.9552262], [18.7283733, 44.9551378], [18.7285006, 44.9551066], [18.7286329, 44.9550806], [18.7287824, 44.9550112], [18.7289979, 44.9548864], [18.7291204, 44.9548101], [18.7292796, 44.9547217], [18.7300048, 44.9544166], [18.730186, 44.9543715], [18.7303379, 44.9543178], [18.73048, 44.9542519], [18.7306588, 44.9541045], [18.7307519, 44.9540196], [18.7310973, 44.953555], [18.731161, 44.9534839], [18.7312835, 44.9534232], [18.7315824, 44.9532776], [18.7316706, 44.9532273], [18.7319327, 44.9530574], [18.7321238, 44.952943], [18.7323957, 44.9528199], [18.7327582, 44.9526483], [18.7331428, 44.9524593], [18.7333927, 44.9523588], [18.7336671, 44.9522808], [18.7339439, 44.9522236], [18.7342599, 44.9521646], [18.7345024, 44.9521247], [18.7346764, 44.9521109], [18.7349091, 44.9521282], [18.7351908, 44.9521542], [18.7353941, 44.9521733], [18.7354921, 44.9521716], [18.7356073, 44.9521473], [18.7362099, 44.95196], [18.7364157, 44.9518838], [18.7365896, 44.9517988], [18.7367488, 44.9517433], [18.7370967, 44.9516202], [18.738569, 44.9511366], [18.738836, 44.9510568], [18.7390712, 44.9509233], [18.739272, 44.9508332], [18.7395733, 44.9507187], [18.7399212, 44.9505852], [18.7401172, 44.9505038], [18.7403524, 44.9503737], [18.7404797, 44.9503321], [18.7408888, 44.9502264], [18.7412514, 44.9501483], [18.741663, 44.950079], [18.7419716, 44.9500357], [18.7422043, 44.9500131], [18.7429919, 44.949838], [18.7430691, 44.9497955], [18.743112, 44.9497999], [18.7432491, 44.9498033], [18.7432841, 44.9497968], [18.7434729, 44.9497677], [18.7455838, 44.9491449], [18.745802, 44.9499814], [18.7458314, 44.9502206], [18.7460087, 44.9508777], [18.7463101, 44.9517726], [18.7464781, 44.9522029], [18.7466808, 44.9536359], [18.7466894, 44.9536653], [18.7467379, 44.9538002], [18.7466929, 44.9538185], [18.746757, 44.9538443], [18.7470705, 44.9540147], [18.747436, 44.9538516], [18.7478552, 44.9537082], [18.7481376, 44.9536334], [18.7494486, 44.9533165], [18.7508939, 44.9530252], [18.7524833, 44.9557984], [18.752213, 44.9558867], [18.7534602, 44.9575586], [18.7541947, 44.9572301], [18.7553172, 44.9584804], [18.7560516, 44.9581421], [18.7572576, 44.9595595], [18.760249, 44.9582923], [18.7602625, 44.9583201], [18.7601939, 44.9583868], [18.7601951, 44.9584778], [18.7602613, 44.9586512], [18.760374, 44.9586035], [18.7605209, 44.958568], [18.7630956, 44.9577099], [18.7655502, 44.9610315], [18.7670421, 44.9623003], [18.7678799, 44.963004], [18.768262, 44.9633178], [18.7688867, 44.9638117], [18.7691415, 44.9640145], [18.769153, 44.9640265], [18.7693522, 44.9641356], [18.769534, 44.964203], [18.7700953, 44.9644095], [18.7702815, 44.9644788], [18.7709215, 44.9647165], [18.7721324, 44.9650094], [18.7743357, 44.9654972], [18.7747168, 44.9655781], [18.7756591, 44.9657056], [18.7769768, 44.965583], [18.7793212, 44.9654826], [18.7795081, 44.9655565], [18.7797628, 44.9656521], [18.7798347, 44.9656631], [18.7799975, 44.9656631], [18.7806808, 44.9656864], [18.7811122, 44.9657232], [18.7812689, 44.9657421], [18.7813235, 44.9657562], [18.7814655, 44.9657973], [18.7815686, 44.9658175], [18.78137, 44.9668222], [18.7813718, 44.9671384], [18.7824717, 44.9672695], [18.7825792, 44.9669238], [18.7826699, 44.966565], [18.7827801, 44.9659895], [18.7827923, 44.9659514], [18.7827949, 44.9659467], [18.78384, 44.9661595], [18.785769, 44.9663321], [18.7845496, 44.9718275], [18.7845263, 44.9729312], [18.7846414, 44.9739212], [18.7849194, 44.975234], [18.7853885, 44.9763666], [18.7867728, 44.9780368], [18.7935205, 44.9838499], [18.796004, 44.9878668], [18.7962836, 44.9892129], [18.7964905, 44.9902126], [18.7962175, 44.9914389], [18.7958217, 44.992394], [18.7948432, 44.9936582], [18.7938944, 44.9944337], [18.792449, 44.9949884], [18.7873523, 44.9956103], [18.7789353, 44.9965417], [18.7670935, 44.9993564], [18.7566825, 44.9995876], [18.7508731, 44.9967528], [18.7498514, 44.9961607], [18.7437084, 44.9926007], [18.7379014, 44.9920131], [18.73475, 44.9921661], [18.7317216, 44.9926657], [18.7291798, 44.9939379], [18.7275267, 44.9962847], [18.7273979, 44.9979387], [18.7277867, 44.9990748], [18.7285716, 45.0001424], [18.7372401, 45.0099102], [18.7374762, 45.0106127], [18.7383427, 45.0131916], [18.7384344, 45.0160306], [18.7376897, 45.0174048], [18.736245, 45.0185629], [18.7293787, 45.0206027], [18.7232092, 45.0241196], [18.7216738, 45.0253228], [18.721219, 45.026722], [18.7202588, 45.0305495], [18.7195282, 45.0323405], [18.7188571, 45.0336591], [18.7178158, 45.0352186], [18.7170566, 45.0360043], [18.7158668, 45.0368115], [18.714484, 45.0375226], [18.7135026, 45.0378777], [18.7119483, 45.0381532], [18.7102806, 45.0382235], [18.7086378, 45.0381896], [18.7064608, 45.0380381], [18.7045353, 45.0378422], [18.7027743, 45.0378178], [18.7016973, 45.0378388], [18.6999021, 45.0379276], [18.6981585, 45.0382286], [18.6967664, 45.0385423], [18.6953992, 45.0388804], [18.6939634, 45.0393822], [18.6929456, 45.0399492], [18.6921022, 45.0405393], [18.6905842, 45.0419456], [18.6879628, 45.0447274], [18.6841553, 45.047776], [18.6821293, 45.0491687], [18.6784296, 45.0517118], [18.6705374, 45.0585988], [18.6679065, 45.0620968], [18.668153, 45.0638939], [18.6688351, 45.0651573], [18.6706098, 45.0671005], [18.6745904, 45.0689407], [18.6799771, 45.0706221], [18.6836868, 45.0718496], [18.6860969, 45.0738108], [18.6873253, 45.0757609], [18.6878851, 45.0784821], [18.6876537, 45.0802933], [18.6855479, 45.0843909], [18.6832267, 45.0878871], [18.6796086, 45.0919329], [18.6771405, 45.0935512], [18.6752352, 45.0944902], [18.6731864, 45.0949392], [18.6711211, 45.0949115], [18.6689503, 45.0947523], [18.6670908, 45.0942583], [18.6651104, 45.0933223], [18.6605027, 45.0896741], [18.6561022, 45.0827565], [18.6535149, 45.0784903], [18.6534744, 45.0771601], [18.6538787, 45.0755295], [18.6554647, 45.0728963], [18.6587764, 45.0685455], [18.6610314, 45.0641914], [18.660425, 45.0599928], [18.6598264, 45.0585464], [18.6589968, 45.057304], [18.6583724, 45.0568188], [18.6576915, 45.0565347], [18.6566931, 45.0563118], [18.6557123, 45.0561839], [18.6548036, 45.056107], [18.6541412, 45.0561469], [18.6530904, 45.0562675], [18.6519397, 45.0565598], [18.6507878, 45.0570547], [18.646551, 45.0594734], [18.6432585, 45.0612821], [18.6407084, 45.0619874], [18.6383493, 45.0623155], [18.6307667, 45.0619875], [18.6220803, 45.061205], [18.6185039, 45.0611609], [18.6152917, 45.0616596], [18.6091121, 45.0631115], [18.60609, 45.0657326], [18.6058156, 45.0671446], [18.6062821, 45.0692823], [18.607666, 45.0710673], [18.6131253, 45.0745564], [18.6182396, 45.0772262], [18.6243505, 45.0794295], [18.6309215, 45.0811129], [18.6338617, 45.0832983], [18.6363377, 45.0859206], [18.636802, 45.0879964], [18.636183, 45.0906185], [18.6356082, 45.0920533], [18.634326, 45.0929128], [18.6303214, 45.0952253], [18.6276519, 45.0960341], [18.6258146, 45.0962994], [18.6243153, 45.0961553], [18.6228743, 45.0954255], [18.6219549, 45.0942694], [18.621327, 45.0924758], [18.6209607, 45.0887048], [18.6204631, 45.0856867], [18.6181618, 45.0827344], [18.6130461, 45.0804321], [18.6084124, 45.0806854], [18.60248, 45.0815369], [18.6015691, 45.0798845], [18.6017891, 45.0798148], [18.6004462, 45.0774853], [18.6003507, 45.0763442], [18.6004872, 45.0726904], [18.6005783, 45.0699098], [18.6007528, 45.0691811], [18.6005707, 45.0677505], [18.6005403, 45.0672308], [18.6013066, 45.0657037], [18.6019211, 45.0644445], [18.602601, 45.0634164], [18.6025113, 45.063184], [18.6029962, 45.0630714], [18.6045272, 45.0612915], [18.6047441, 45.0609941], [18.604642, 45.0606832], [18.604355, 45.0603272], [18.6040369, 45.0595547], [18.6036847, 45.0589402], [18.6035291, 45.0586375], [18.6034997, 45.058279], [18.6034411, 45.0580575], [18.6033577, 45.0578472], [18.6028604, 45.0569729], [18.6027242, 45.0562701], [18.6026938, 45.0560316], [18.6026956, 45.0557688], [18.6027647, 45.0553512], [18.6027874, 45.0552023], [18.6032101, 45.0548603], [18.6039422, 45.0541931], [18.6049816, 45.0533838], [18.6053533, 45.0530622], [18.6056806, 45.052671], [18.6059006, 45.052135], [18.6059006, 45.0518992], [18.605656, 45.0510347], [18.6059227, 45.0508653], [18.6070771, 45.0503225], [18.6073121, 45.0501211], [18.6073114, 45.0499143], [18.6071328, 45.0496484], [18.6062524, 45.0492698], [18.60527, 45.0488912], [18.6047341, 45.0486929], [18.60416, 45.0486027], [18.6039112, 45.0485847], [18.6035775, 45.0474967], [18.6032879, 45.0467387], [18.6025583, 45.045973], [18.6020111, 45.0456319], [18.6003482, 45.0451619], [18.5981809, 45.0447905], [18.5973226, 45.0447147], [18.5963356, 45.0448511], [18.5958313, 45.0442144], [18.5954022, 45.0437899], [18.594458, 45.0432895], [18.5938465, 45.0428423], [18.5948979, 45.0424936], [18.5954451, 45.0420842], [18.5959042, 45.041507], [18.5969561, 45.0409215], [18.5970077, 45.0408282], [18.596868, 45.0407873], [18.5967294, 45.0407166], [18.5966494, 45.0406442], [18.5965161, 45.0402455], [18.5958401, 45.0386722], [18.5952221, 45.0382323], [18.594135, 45.0379104], [18.5930524, 45.0373175], [18.5925878, 45.0371007], [18.5921051, 45.0370689], [18.5916044, 45.037174], [18.5910676, 45.037123], [18.5908014, 45.0370338], [18.5906751, 45.0368521], [18.5907112, 45.0365716], [18.5910044, 45.0363229], [18.5918254, 45.0359946], [18.5919698, 45.0358002], [18.5919878, 45.0356567], [18.5917577, 45.0351722], [18.5917577, 45.0349172], [18.5922269, 45.0344486], [18.5928629, 45.0338174], [18.593084, 45.0334763], [18.5931236, 45.0329911], [18.5926585, 45.0321017], [18.5917643, 45.0314077], [18.590881, 45.0315818], [18.5899277, 45.0312828], [18.5893567, 45.0306898], [18.5890808, 45.0304145], [18.5881755, 45.0300073], [18.5871416, 45.0293638], [18.5866097, 45.029091], [18.5863475, 45.02885], [18.5860322, 45.0288986], [18.5850594, 45.028873], [18.5829651, 45.0289428], [18.5815073, 45.0289882], [18.5795522, 45.028893], [18.5784012, 45.0290169], [18.5770471, 45.029372], [18.5760558, 45.029669], [18.5752828, 45.0298963], [18.5746029, 45.0298951], [18.5736609, 45.0297949], [18.5730269, 45.0296352], [18.572319, 45.029238], [18.5718818, 45.028822], [18.5716066, 45.0284515], [18.5715282, 45.0277856], [18.5716298, 45.0271229], [18.5720779, 45.0263], [18.5728513, 45.0256627], [18.5734415, 45.0253146], [18.5749651, 45.0247997], [18.5751237, 45.0243027], [18.5751694, 45.0237331], [18.5750431, 45.0233878], [18.5747455, 45.0234008], [18.5743587, 45.0231344], [18.5736387, 45.0224473], [18.572779, 45.0218548], [18.5721781, 45.0213479], [18.571995, 45.0211519], [18.5719943, 45.0203913], [18.5717328, 45.019605], [18.5715461, 45.0191675], [18.5712065, 45.0188991], [18.5705247, 45.0183743], [18.5702759, 45.0184868], [18.5697158, 45.0178955], [18.569004, 45.01747], [18.5683056, 45.0170886]]]}}]}