{"type": "FeatureCollection", "features": [{"type": "Feature", "properties": {"name": "Opština Osmaci, Република Српска / Republika Srpska, Bosna i Hercegovina / Босна и Херцеговина", "source": "OpenStreetMap relation 2528246", "licence": "ODbL 1.0"}, "geometry": {"type": "Polygon", "coordinates": [[[18.8214174, 44.3793135], [18.8221038, 44.3795428], [18.8245446, 44.3795102], [18.8265293, 44.3793634], [18.8281355, 44.3788384], [18.8349848, 44.3792982], [18.8351445, 44.3791895], [18.8352586, 44.3791352], [18.8353878, 44.3790917], [18.8355703, 44.3790808], [18.8357148, 44.3790808], [18.8360266, 44.3790591], [18.8361178, 44.3790156], [18.8362167, 44.3788961], [18.8363155, 44.3788254], [18.8364676, 44.3787819], [18.8366425, 44.3788254], [18.8367337, 44.3788743], [18.8368478, 44.3789993], [18.8368934, 44.3791189], [18.8370075, 44.3792167], [18.8371367, 44.3792602], [18.8373116, 44.379233], [18.8374485, 44.3791243], [18.837555, 44.3789721], [18.8376082, 44.3788308], [18.8376994, 44.3786298], [18.8394255, 44.3784124], [18.8404825, 44.3783689], [18.8405053, 44.3785265], [18.840627, 44.3786895], [18.8408094, 44.3788417], [18.8410148, 44.3789939], [18.8414254, 44.379195], [18.8417827, 44.3793363], [18.8420717, 44.379445], [18.8424595, 44.3795537], [18.8428397, 44.3796569], [18.843448, 44.3796732], [18.8443681, 44.3801352], [18.8445582, 44.380271], [18.8448547, 44.3803634], [18.8452197, 44.3803906], [18.84579, 44.3804558], [18.8461398, 44.3805482], [18.8464059, 44.3805917], [18.8468926, 44.380521], [18.8472196, 44.3803797], [18.8473412, 44.3802982], [18.8474173, 44.3801243], [18.8473564, 44.3799721], [18.8472804, 44.379896], [18.8471739, 44.3797384], [18.8471891, 44.37957], [18.8473488, 44.3792928], [18.8475389, 44.3787113], [18.847691, 44.3781189], [18.8477062, 44.3779776], [18.8477594, 44.3776026], [18.8478811, 44.3772928], [18.8479647, 44.3771243], [18.8480864, 44.3769504], [18.8482461, 44.3767493], [18.8483678, 44.3765862], [18.8484362, 44.3762601], [18.8482917, 44.3757982], [18.8480864, 44.3755155], [18.8475296, 44.3750303], [18.8474107, 44.3735178], [18.8476896, 44.3731803], [18.8476498, 44.3717225], [18.8519729, 44.3693451], [18.8529089, 44.3687585], [18.8541269, 44.3680419], [18.8541698, 44.3678118], [18.8561221, 44.3661912], [18.8557386, 44.3660187], [18.8542128, 44.3661858], [18.8529897, 44.3668147], [18.8528824, 44.3652117], [18.8526301, 44.3651022], [18.8525416, 44.3622815], [18.8519033, 44.3616834], [18.8488646, 44.3595587], [18.8483977, 44.3590064], [18.8485775, 44.3589232], [18.8487625, 44.3588376], [18.8496852, 44.3588836], [18.850809, 44.3592904], [18.8514821, 44.3596279], [18.852131, 44.35963], [18.852818, 44.3601877], [18.8537621, 44.3605865], [18.8548319, 44.3607652], [18.85638, 44.3618138], [18.8574528, 44.3619366], [18.8588047, 44.3618138], [18.8600707, 44.3617831], [18.8611028, 44.3614997], [18.8631276, 44.360861], [18.8648709, 44.3600248], [18.8658631, 44.3605252], [18.8665938, 44.3606632], [18.8684377, 44.3595875], [18.8719701, 44.3576775], [18.8729892, 44.3571235], [18.8766575, 44.3552169], [18.8770652, 44.3550788], [18.8771724, 44.3547719], [18.8766789, 44.3544957], [18.876121, 44.3541582], [18.8761245, 44.3536353], [18.8765716, 44.3531149], [18.8772107, 44.353014], [18.8783955, 44.3531456], [18.8798117, 44.3535138], [18.8811398, 44.354088], [18.8816786, 44.3541735], [18.8822206, 44.3545271], [18.8863376, 44.3544792], [18.8887755, 44.3544945], [18.8904007, 44.3546057], [18.8927851, 44.3545462], [18.8935013, 44.3544023], [18.8946283, 44.3537823], [18.894918, 44.3537132], [18.8951218, 44.3535905], [18.895154, 44.3533297], [18.8954329, 44.3530842], [18.8963234, 44.3530765], [18.8973098, 44.3524347], [18.8980713, 44.3507183], [18.9006943, 44.3495005], [18.9018595, 44.3494938], [18.9020595, 44.3492339], [18.9025354, 44.3492099], [18.9026964, 44.3490104], [18.9029194, 44.3488477], [18.9032221, 44.3486268], [18.9035976, 44.348857], [18.9042199, 44.3488723], [18.9064232, 44.3506225], [18.9074922, 44.3502303], [18.9079947, 44.3505763], [18.9107752, 44.3506215], [18.9119553, 44.35122], [18.9127662, 44.3512801], [18.9128438, 44.3515965], [18.9128888, 44.35178], [18.9126527, 44.3520945], [18.9126527, 44.3524014], [18.9132428, 44.3530458], [18.9132729, 44.3539977], [18.9140367, 44.3546415], [18.9149487, 44.3546568], [18.9160353, 44.3553823], [18.9160752, 44.3557845], [18.9166093, 44.3558004], [18.9173627, 44.3563522], [18.9177787, 44.3564848], [18.9187145, 44.3569812], [18.9203069, 44.3574724], [18.9239154, 44.3594686], [18.9270721, 44.3611024], [18.9296494, 44.3623853], [18.9320177, 44.3635721], [18.9348365, 44.3650236], [18.9365072, 44.3664098], [18.9374861, 44.3673704], [18.9384126, 44.3691463], [18.9389276, 44.3695451], [18.9398891, 44.3698763], [18.9414811, 44.3701587], [18.9428824, 44.3712989], [18.9430728, 44.3717589], [18.9431548, 44.3722754], [18.9428973, 44.3724441], [18.9430138, 44.3738658], [18.9432835, 44.3747141], [18.9438414, 44.3751436], [18.943305, 44.3761098], [18.9433384, 44.3775465], [18.9445495, 44.3771067], [18.9449474, 44.3765764], [18.9459155, 44.3757809], [18.9471459, 44.3750822], [18.9471223, 44.3743009], [18.9475751, 44.3739779], [18.9485678, 44.3738485], [18.9489913, 44.3736558], [18.9490771, 44.373257], [18.9490986, 44.3728276], [18.9494204, 44.3724748], [18.950386, 44.371938], [18.9505579, 44.3715249], [18.9506864, 44.3706189], [18.9513087, 44.3697906], [18.9527249, 44.3685328], [18.9526391, 44.3671829], [18.9532828, 44.3667841], [18.9538622, 44.3666614], [18.9549994, 44.3669068], [18.9557934, 44.3671062], [18.9551686, 44.3675525], [18.9555788, 44.3679039], [18.9568662, 44.3684561], [18.957231, 44.3680012], [18.9574778, 44.368272], [18.9587867, 44.3681876], [18.9587331, 44.3677351], [18.9601385, 44.3668454], [18.9601732, 44.3663638], [18.9603853, 44.3661858], [18.9605248, 44.365902], [18.9612114, 44.3655415], [18.9622307, 44.3661475], [18.9622414, 44.3664389], [18.9628315, 44.3668301], [18.9642096, 44.3661107], [18.9667897, 44.3650235], [18.968871, 44.364176], [18.9710221, 44.3638175], [18.9731195, 44.3637946], [18.9752891, 44.363647], [18.9769077, 44.3640689], [18.9776051, 44.3645214], [18.9782166, 44.3647592], [18.9782488, 44.36502], [18.9790535, 44.3653881], [18.9795899, 44.3654265], [18.9800942, 44.3657947], [18.9804912, 44.3656029], [18.9811563, 44.3655569], [18.9815997, 44.3653591], [18.9825618, 44.365833], [18.9832377, 44.3653191], [18.9835226, 44.3647819], [18.9849114, 44.3646672], [18.9863062, 44.3643834], [18.9879884, 44.3643581], [18.9892543, 44.3648854], [18.9897531, 44.3649811], [18.9905444, 44.3652956], [18.9917511, 44.3644598], [18.9924538, 44.3637312], [18.9927435, 44.3636547], [18.9928079, 44.362972], [18.9935695, 44.3627859], [18.9946961, 44.3622894], [18.9948031, 44.3618368], [18.9957476, 44.3617678], [18.9961445, 44.3620056], [18.9964664, 44.3617985], [18.9968526, 44.3620132], [18.997668, 44.3617985], [18.9980543, 44.3616144], [18.9987838, 44.3616067], [18.999277, 44.3612962], [19.001112, 44.3619519], [19.0013265, 44.3625195], [19.0017342, 44.3628723], [19.002388, 44.362368], [19.0046758, 44.3630985], [19.0055752, 44.3625348], [19.0065408, 44.3627496], [19.0073561, 44.3631792], [19.0082536, 44.3632078], [19.0091654, 44.3627995], [19.009695, 44.3628263], [19.0101886, 44.3632559], [19.0119573, 44.3632387], [19.012506, 44.3628417], [19.0136631, 44.3628897], [19.0156182, 44.3643719], [19.0176325, 44.3653191], [19.0180563, 44.3656603], [19.0178174, 44.3662413], [19.0182143, 44.3667071], [19.0169857, 44.3677251], [19.0173554, 44.3680266], [19.0176987, 44.3687475], [19.0184047, 44.3692897], [19.0174499, 44.3699337], [19.0178362, 44.370925], [19.0171253, 44.3713199], [19.0180206, 44.3719993], [19.0174687, 44.3727481], [19.0180905, 44.3733092], [19.0184068, 44.3735945], [19.0186, 44.374162], [19.0195012, 44.3748828], [19.0194368, 44.3755423], [19.0185123, 44.3761835], [19.0176773, 44.376938], [19.0175485, 44.3777049], [19.017334, 44.3780116], [19.0173536, 44.3791721], [19.0181073, 44.3796742], [19.0199983, 44.3811254], [19.0203363, 44.3815719], [19.0195119, 44.3829345], [19.0196299, 44.3831492], [19.0187502, 44.3839466], [19.0185178, 44.3843418], [19.0176129, 44.385043], [19.017688, 44.3853267], [19.0169916, 44.3862316], [19.0157738, 44.3872435], [19.0160358, 44.3878799], [19.0157783, 44.3883093], [19.0153921, 44.3886926], [19.0160894, 44.3891066], [19.0164149, 44.3888669], [19.0181073, 44.3897792], [19.0202289, 44.3907681], [19.0207565, 44.3907933], [19.0211596, 44.3910403], [19.0218186, 44.3904713], [19.0224409, 44.391008], [19.0224624, 44.391215], [19.022884, 44.3915405], [19.022428, 44.3919659], [19.0229559, 44.3922346], [19.0243292, 44.3917056], [19.0251553, 44.3917056], [19.0255365, 44.3922648], [19.0252197, 44.3926103], [19.025563, 44.3933156], [19.025228, 44.3936466], [19.025327, 44.3949945], [19.0245652, 44.3954851], [19.0245897, 44.3958581], [19.0240073, 44.3960984], [19.0237605, 44.3966427], [19.0226693, 44.397468], [19.022795, 44.3978769], [19.0200489, 44.3996257], [19.0200162, 44.4005522], [19.0197158, 44.4008588], [19.0197166, 44.4016012], [19.0208101, 44.4020546], [19.0217328, 44.4019473], [19.0223551, 44.4024225], [19.0223229, 44.4028441], [19.0220976, 44.4031124], [19.0226555, 44.4036336], [19.0201539, 44.4054126], [19.0201557, 44.4064159], [19.0195012, 44.4070291], [19.0191471, 44.4067378], [19.0190506, 44.4063393], [19.0187931, 44.4061706], [19.0187716, 44.4056034], [19.0179777, 44.4052815], [19.0169907, 44.4052892], [19.0164499, 44.405033], [19.0135317, 44.407267], [19.0102059, 44.4070811], [19.0081072, 44.4071287], [19.006176, 44.4076806], [19.0041177, 44.4073838], [19.003129, 44.4068681], [18.9994589, 44.4079432], [18.9998587, 44.4118595], [18.9999762, 44.4163326], [18.9999905, 44.4168751], [19.0006399, 44.417291], [19.0007257, 44.4178887], [18.9996743, 44.4178581], [18.9987302, 44.4185631], [18.9981587, 44.4183137], [18.9971985, 44.4190895], [18.9958763, 44.4193447], [18.9954257, 44.4194673], [18.9931511, 44.4209515], [18.9920783, 44.4211838], [18.9909277, 44.421189], [18.989501, 44.4223171], [18.988793, 44.4236368], [18.9880872, 44.4245859], [18.9871108, 44.4246855], [18.9862847, 44.4250763], [18.9858151, 44.4250969], [18.9849092, 44.4251365], [18.9831811, 44.4259564], [18.9826564, 44.4263395], [18.9825555, 44.4269883], [18.9818001, 44.4275051], [18.9812806, 44.4281227], [18.9802079, 44.4290171], [18.9789108, 44.4291513], [18.9774507, 44.4293024], [18.9765644, 44.4295738], [18.9755881, 44.430225], [18.9753199, 44.4307], [18.9753399, 44.4316448], [18.9751375, 44.4318569], [18.9750945, 44.432171], [18.9753091, 44.4323396], [18.975332, 44.4332651], [18.9749765, 44.4339561], [18.9736891, 44.434523], [18.9729985, 44.4350098], [18.9729595, 44.435427], [18.9723372, 44.4354729], [18.9713609, 44.4350975], [18.9695039, 44.4348182], [18.9687753, 44.4347528], [18.9680457, 44.4347988], [18.9670069, 44.435544], [18.9664256, 44.435741], [18.9664142, 44.4370453], [18.9648077, 44.438089], [18.9624191, 44.439212], [18.9617705, 44.4395551], [18.9560784, 44.4324385], [18.9536592, 44.4291754], [18.9513753, 44.4256193], [18.9445186, 44.4190605], [18.9434772, 44.4180643], [18.9406111, 44.4167614], [18.9390487, 44.4146259], [18.9381599, 44.4141127], [18.9367358, 44.4128434], [18.9363741, 44.409728], [18.9360551, 44.4089973], [18.9354084, 44.4077644], [18.9343264, 44.4070395], [18.933194, 44.406992], [18.9327198, 44.4070928], [18.9307033, 44.4075214], [18.9288166, 44.4078242], [18.9265228, 44.4083079], [18.9259111, 44.4086337], [18.9216309, 44.4090627], [18.9206404, 44.4088562], [18.9194239, 44.4082317], [18.9167586, 44.4087323], [18.9157084, 44.40826], [18.9142269, 44.4079952], [18.9124201, 44.4074609], [18.9109323, 44.4075273], [18.9091343, 44.4082232], [18.9084864, 44.4088541], [18.9078415, 44.4093824], [18.9044781, 44.4102287], [18.9033273, 44.4103781], [18.9014687, 44.4104029], [18.8994619, 44.4101455], [18.8953439, 44.4099172], [18.8938011, 44.4098317], [18.8885833, 44.40925], [18.8775866, 44.4084645], [18.8748871, 44.4084565], [18.8721719, 44.4084075], [18.8712571, 44.4001512], [18.8707809, 44.3992984], [18.8707056, 44.3958699], [18.8678032, 44.3954236], [18.8666917, 44.3953381], [18.8612434, 44.3949192], [18.8590432, 44.394985], [18.8499699, 44.39409], [18.8487152, 44.3930197], [18.8473845, 44.3901725], [18.8465937, 44.3888195], [18.8462743, 44.3876404], [18.8446243, 44.38363], [18.8433316, 44.3809182], [18.8375907, 44.380641], [18.831979, 44.3809617], [18.8243243, 44.3809421], [18.823497, 44.380695], [18.8214174, 44.3793135]]]}}]}