{"type": "FeatureCollection", "features": [{"type": "Feature", "properties": {"name": "Општина Пале (РС) / Opština Pale (RS), Град Источно Сарајево / Grad Istočno Sarajevo, Република Српска / Republika Srpska, Bosna i Hercegovina / Босна и Херцеговина", "source": "OpenStreetMap relation 2528248", "licence": "ODbL 1.0"}, "geometry": {"type": "Polygon", "coordinates": [[[18.4654133, 43.7932092], [18.4710617, 43.7826717], [18.470231, 43.7786862], [18.4701516, 43.7779191], [18.4700819, 43.7779141], [18.4696425, 43.777753], [18.4691612, 43.77734], [18.468841, 43.7769688], [18.4722964, 43.7633056], [18.4729741, 43.7607577], [18.478015, 43.7523393], [18.484046, 43.7456234], [18.4841419, 43.7455003], [18.4841899, 43.7455542], [18.4842485, 43.7456081], [18.4843231, 43.7456581], [18.484387, 43.7457043], [18.4844669, 43.745762], [18.4845575, 43.7458236], [18.4846321, 43.7458659], [18.4847067, 43.745916], [18.4847919, 43.7459698], [18.4848825, 43.7460237], [18.4849624, 43.7460661], [18.4851222, 43.7461507], [18.4852075, 43.7461854], [18.4852874, 43.7462239], [18.4853833, 43.7462739], [18.4854738, 43.7463201], [18.4855591, 43.7463624], [18.485639, 43.7464009], [18.4864382, 43.7467781], [18.4865181, 43.7468204], [18.4866033, 43.7468512], [18.4866939, 43.746882], [18.4867738, 43.7469166], [18.4868644, 43.7469513], [18.4869549, 43.7469821], [18.4870349, 43.7470244], [18.4871201, 43.747059], [18.4872, 43.747086], [18.4872959, 43.7471052], [18.4873971, 43.7471283], [18.4874824, 43.7471437], [18.4875836, 43.7471591], [18.4876689, 43.7471784], [18.48785, 43.7472168], [18.4879459, 43.7472361], [18.4880418, 43.7472553], [18.4882443, 43.7472784], [18.4883402, 43.7472861], [18.488452, 43.7472977], [18.4885533, 43.7473054], [18.4886492, 43.7473169], [18.4887557, 43.7473285], [18.4888569, 43.74734], [18.4889475, 43.7473515], [18.4890647, 43.7473592], [18.4893577, 43.7473592], [18.4894483, 43.7473554], [18.4896454, 43.7473015], [18.4897413, 43.7472938], [18.4898319, 43.7473015], [18.4899012, 43.7473515], [18.4899065, 43.747417], [18.4898958, 43.7474824], [18.4898905, 43.747544], [18.4898905, 43.7476094], [18.4899065, 43.7476748], [18.4899385, 43.7477518], [18.4899704, 43.7478095], [18.4900237, 43.7478634], [18.490093, 43.7479135], [18.4901676, 43.7479481], [18.4902528, 43.7479789], [18.4904339, 43.7480174], [18.4905192, 43.7480366], [18.4906098, 43.7480674], [18.490695, 43.7480943], [18.4907802, 43.7481136], [18.4908708, 43.7481328], [18.4909667, 43.7481367], [18.4910573, 43.7481328], [18.4911532, 43.7481174], [18.4912384, 43.7480905], [18.4913183, 43.7480559], [18.4913876, 43.7480058], [18.4914462, 43.7479519], [18.4915101, 43.7479019], [18.4915901, 43.7478673], [18.4916753, 43.7478365], [18.4917819, 43.7478403], [18.4918671, 43.7478634], [18.4919683, 43.7478942], [18.4920536, 43.7479365], [18.4921122, 43.7479904], [18.4921495, 43.7480559], [18.4921441, 43.7481559], [18.4921548, 43.7482213], [18.4921601, 43.7482829], [18.4921601, 43.7484715], [18.4921654, 43.7485408], [18.4921654, 43.7486024], [18.4921761, 43.7486716], [18.4921921, 43.7487371], [18.4922241, 43.7488063], [18.4922613, 43.7488641], [18.492304, 43.7489218], [18.4923413, 43.7489795], [18.4923945, 43.7490296], [18.4924691, 43.7490757], [18.492549, 43.7491104], [18.4926449, 43.749145], [18.4927408, 43.7491835], [18.4928261, 43.7492143], [18.4929113, 43.7492489], [18.4929859, 43.7492836], [18.4930552, 43.7493298], [18.4931298, 43.7493682], [18.4932097, 43.7494029], [18.4932843, 43.7494452], [18.4933589, 43.7494798], [18.4934441, 43.7495145], [18.4935507, 43.7495453], [18.4936466, 43.7495645], [18.4938277, 43.7495876], [18.4939289, 43.7495953], [18.4940088, 43.7496184], [18.4940941, 43.7496492], [18.4941847, 43.7496761], [18.4943658, 43.7497223], [18.4944564, 43.7497377], [18.4945576, 43.7497492], [18.4946482, 43.7497569], [18.4947547, 43.7497646], [18.4948453, 43.7497646], [18.4952076, 43.7497877], [18.4953141, 43.7497916], [18.4954047, 43.7497993], [18.4954953, 43.7497993], [18.4956817, 43.7497916], [18.4957776, 43.7497916], [18.4958735, 43.7497954], [18.4959829, 43.7497998], [18.49606, 43.7498147], [18.4961452, 43.7498378], [18.4962305, 43.7498686], [18.4963104, 43.7499032], [18.496385, 43.749934], [18.4964596, 43.7499686], [18.4965342, 43.7500071], [18.4966141, 43.7500456], [18.4966993, 43.7500764], [18.4967899, 43.7500995], [18.4968805, 43.7501264], [18.4969817, 43.7501533], [18.4970669, 43.7501803], [18.4971628, 43.7502072], [18.4972534, 43.750238], [18.4973387, 43.7502611], [18.4974186, 43.7502957], [18.4975411, 43.7503573], [18.497637, 43.7504073], [18.4978927, 43.7505074], [18.4979673, 43.7505459], [18.4980366, 43.7505844], [18.4981005, 43.7506383], [18.4981538, 43.7506883], [18.4982124, 43.7507383], [18.4982657, 43.750796], [18.4983296, 43.7508538], [18.4983776, 43.7509077], [18.4984308, 43.7509615], [18.4984894, 43.7510193], [18.498548, 43.751077], [18.4986013, 43.751127], [18.4986493, 43.751177], [18.4987185, 43.7512194], [18.4987985, 43.7512617], [18.498873, 43.7513002], [18.498953, 43.7513348], [18.4990329, 43.7513695], [18.4991181, 43.7513964], [18.4992087, 43.7514195], [18.4992993, 43.7514349], [18.4994005, 43.7514503], [18.4994911, 43.7514618], [18.4996722, 43.7514772], [18.4997681, 43.7514849], [18.499864, 43.7514849], [18.4999599, 43.7514888], [18.5000611, 43.7514926], [18.500157, 43.7514965], [18.5002529, 43.7514965], [18.5003435, 43.7515003], [18.5004447, 43.7515042], [18.5005513, 43.7515042], [18.5006472, 43.7515119], [18.5007537, 43.7515234], [18.500839, 43.7515542], [18.5009082, 43.7515965], [18.5009828, 43.7516389], [18.5010574, 43.751685], [18.5011426, 43.7517197], [18.5012439, 43.7517235], [18.5013344, 43.7517081], [18.501473, 43.7516235], [18.5015422, 43.7515773], [18.5016008, 43.7515234], [18.5016807, 43.7514849], [18.5017713, 43.7514695], [18.5018672, 43.7514618], [18.5019631, 43.7514618], [18.5020537, 43.7514657], [18.5021496, 43.7514811], [18.5022455, 43.7514811], [18.5023414, 43.7514657], [18.5024373, 43.7514695], [18.5025438, 43.7514772], [18.5026397, 43.7514811], [18.502741, 43.7514811], [18.5029168, 43.7514772], [18.503018, 43.751458], [18.5030926, 43.7514157], [18.5031352, 43.7513541], [18.5031885, 43.7513002], [18.5032737, 43.7512733], [18.5033696, 43.7512656], [18.5034709, 43.751254], [18.5036147, 43.7512232], [18.5036999, 43.7511886], [18.5037799, 43.7511578], [18.5038651, 43.7511232], [18.5039443, 43.7510946], [18.5040356, 43.7510616], [18.5041315, 43.7510462], [18.5042274, 43.7510308], [18.5043286, 43.7510308], [18.5044671, 43.7510347], [18.5045577, 43.7510385], [18.5046483, 43.7510385], [18.5047442, 43.7510116], [18.5047761, 43.7509461], [18.5047802, 43.7509213], [18.5047868, 43.7508807], [18.5048507, 43.750696], [18.5048561, 43.7506306], [18.5049093, 43.7505767], [18.5049786, 43.7505267], [18.5050532, 43.7504112], [18.5050958, 43.7503535], [18.5051917, 43.7503265], [18.5052823, 43.7503227], [18.5053835, 43.7503073], [18.5054687, 43.7502727], [18.505538, 43.7502303], [18.5056073, 43.7501803], [18.5056712, 43.7501303], [18.5057351, 43.7500802], [18.5057991, 43.7500225], [18.5058683, 43.7499609], [18.5059323, 43.749907], [18.5060015, 43.749857], [18.5060868, 43.7498147], [18.5061773, 43.7497877], [18.5062732, 43.7497646], [18.5065183, 43.7497685], [18.5066089, 43.7497877], [18.5066994, 43.7497954], [18.5067953, 43.7497954], [18.5068912, 43.7497916], [18.5069818, 43.7497762], [18.5071736, 43.7497762], [18.5072748, 43.7497839], [18.5073654, 43.7498108], [18.5074453, 43.7498493], [18.5075093, 43.7498955], [18.5075785, 43.7499417], [18.5076478, 43.749984], [18.5077384, 43.7500109], [18.5078289, 43.7500109], [18.5079088, 43.749984], [18.5080047, 43.749984], [18.5081006, 43.7499917], [18.5081912, 43.7499917], [18.5082764, 43.7499648], [18.508367, 43.7499378], [18.5084629, 43.7499263], [18.5086547, 43.7499263], [18.5087613, 43.7499186], [18.5088572, 43.7498955], [18.5089477, 43.7498647], [18.5090223, 43.7498224], [18.5090809, 43.7497646], [18.5091395, 43.7497069], [18.5092035, 43.7496607], [18.5092781, 43.7496184], [18.509374, 43.7496069], [18.5097576, 43.7496069], [18.509928, 43.7495876], [18.5100346, 43.7495684], [18.5101784, 43.7495376], [18.5103862, 43.7494568], [18.5104768, 43.7494414], [18.5105727, 43.7494414], [18.5106686, 43.7494491], [18.5107645, 43.7494683], [18.5108551, 43.7494952], [18.5109456, 43.7494991], [18.5110415, 43.7495068], [18.5111428, 43.7495299], [18.5112227, 43.7495607], [18.5113505, 43.7496492], [18.5114464, 43.7496646], [18.5116382, 43.7496646], [18.5117341, 43.7496684], [18.5118354, 43.7496877], [18.5119259, 43.7497108], [18.5120005, 43.7497416], [18.5120858, 43.7497762], [18.512155, 43.7498185], [18.5122296, 43.7498609], [18.5122989, 43.7499032], [18.5123735, 43.7499455], [18.5125226, 43.7500263], [18.5126026, 43.7500533], [18.5126878, 43.7500764], [18.5127837, 43.7500879], [18.5128796, 43.7500956], [18.5129755, 43.7500956], [18.5130714, 43.7500841], [18.5131566, 43.7500533], [18.5132259, 43.7500071], [18.5132952, 43.7499609], [18.5133697, 43.7499186], [18.5134603, 43.7498839], [18.5135456, 43.7498609], [18.5136415, 43.7498609], [18.5137374, 43.7498647], [18.5138439, 43.7498916], [18.5139238, 43.7499224], [18.5139984, 43.7499532], [18.5140783, 43.7499802], [18.5141636, 43.7500071], [18.5142701, 43.7500186], [18.5143607, 43.7500186], [18.5144566, 43.7499994], [18.5145365, 43.7499571], [18.5146218, 43.749907], [18.514707, 43.7498686], [18.5147976, 43.7498301], [18.5148935, 43.7497954], [18.5149787, 43.7497723], [18.5150693, 43.7497608], [18.5152664, 43.7497416], [18.515357, 43.7497223], [18.5154529, 43.7497031], [18.5155541, 43.7496838], [18.51565, 43.7496723], [18.5157459, 43.7496723], [18.5158418, 43.7496877], [18.5159612, 43.7498317], [18.5160784, 43.7498701], [18.5165366, 43.750255], [18.5166272, 43.7502858], [18.5167178, 43.7502973], [18.5168083, 43.7503127], [18.5168936, 43.750332], [18.5169895, 43.7503551], [18.5170854, 43.7503551], [18.5171813, 43.7503589], [18.5172772, 43.7503666], [18.5173731, 43.7503782], [18.5174636, 43.7503974], [18.5175489, 43.7504243], [18.5176288, 43.7504513], [18.5177034, 43.7504898], [18.5177939, 43.7505052], [18.5178898, 43.7505052], [18.5179857, 43.750509], [18.5180763, 43.7505205], [18.5182681, 43.7505667], [18.5183587, 43.7505706], [18.5184493, 43.7505552], [18.5185505, 43.7505513], [18.5186464, 43.750559], [18.5187423, 43.7505821], [18.5188329, 43.7505975], [18.5191685, 43.7506514], [18.5193496, 43.7506514], [18.5194402, 43.7506283], [18.5195255, 43.7506091], [18.5196214, 43.7505937], [18.5200263, 43.7505937], [18.5201381, 43.7506014], [18.5202287, 43.7506091], [18.5204205, 43.7506552], [18.5205058, 43.7506745], [18.5205963, 43.7506976], [18.5206762, 43.7507284], [18.5207615, 43.7507592], [18.5208414, 43.7507899], [18.5209213, 43.7508169], [18.5210012, 43.7508477], [18.5211131, 43.7508515], [18.5212197, 43.7508438], [18.5213209, 43.7508323], [18.5214115, 43.7508284], [18.5215979, 43.7508284], [18.5216832, 43.7508438], [18.5217631, 43.7508785], [18.5218483, 43.7508977], [18.5219389, 43.7508939], [18.5220508, 43.75089], [18.522152, 43.75089], [18.5222479, 43.7508939], [18.5224397, 43.7509092], [18.5225356, 43.7509092], [18.5226315, 43.7508977], [18.5227221, 43.7508862], [18.522802, 43.7508554], [18.5228713, 43.7508053], [18.5229299, 43.7507515], [18.5229885, 43.7506937], [18.5230417, 43.7506322], [18.5231003, 43.7505629], [18.5231536, 43.7505052], [18.5232122, 43.7504474], [18.5232762, 43.7503974], [18.5233294, 43.7503397], [18.5233987, 43.7502781], [18.5234573, 43.7502165], [18.5235266, 43.7501703], [18.5235905, 43.7501165], [18.5236651, 43.750078], [18.5237503, 43.7500395], [18.5238356, 43.7500048], [18.5239315, 43.7499818], [18.5240274, 43.7499818], [18.5241233, 43.7499933], [18.5242138, 43.7500164], [18.5243044, 43.750051], [18.5243843, 43.7500895], [18.5244696, 43.750128], [18.5245442, 43.7501665], [18.5246241, 43.7502011], [18.524704, 43.7502319], [18.5247892, 43.7502512], [18.5248851, 43.7502627], [18.524981, 43.7502627], [18.5250663, 43.7502358], [18.5251409, 43.7501973], [18.5252261, 43.7501703], [18.5253167, 43.7501472], [18.5254179, 43.7501357], [18.5255138, 43.7501626], [18.525599, 43.7501973], [18.5256949, 43.7502088], [18.5258228, 43.7502165], [18.5262863, 43.7498932], [18.5263609, 43.7497701], [18.5264089, 43.7497047], [18.5264781, 43.7496546], [18.526558, 43.7496238], [18.5266433, 43.7495931], [18.5267232, 43.7495661], [18.5267978, 43.7495315], [18.5269789, 43.749466], [18.5270588, 43.7494391], [18.5271494, 43.749416], [18.5272347, 43.7493852], [18.5273199, 43.7493583], [18.5274158, 43.7493313], [18.5275064, 43.7493083], [18.5275969, 43.7492813], [18.5276928, 43.7492659], [18.5277834, 43.749239], [18.5278633, 43.7492082], [18.5279432, 43.7491659], [18.5280018, 43.7491158], [18.5280764, 43.7490466], [18.5281244, 43.7489888], [18.5282309, 43.7488811], [18.5282895, 43.7488272], [18.5284334, 43.7486809], [18.5284813, 43.7486194], [18.5285346, 43.7485616], [18.5286731, 43.7484539], [18.528801, 43.7483538], [18.5289448, 43.7482576], [18.5290354, 43.7482075], [18.5291153, 43.7481537], [18.5291899, 43.7481113], [18.5292592, 43.748069], [18.5293284, 43.7480113], [18.5293764, 43.7479458], [18.5293977, 43.7478804], [18.5294084, 43.7478073], [18.5294457, 43.7477226], [18.5294723, 43.7476572], [18.5296321, 43.7474609], [18.5296854, 43.7473993], [18.5297334, 43.7473454], [18.5298026, 43.7472839], [18.5298772, 43.7472338], [18.5299571, 43.7471953], [18.5300317, 43.7471492], [18.5300903, 43.7470953], [18.5301436, 43.7470375], [18.5301862, 43.7469798], [18.5302395, 43.7469144], [18.5302928, 43.7468567], [18.5303727, 43.7468182], [18.5304526, 43.746772], [18.5305325, 43.7467373], [18.5306284, 43.7467181], [18.530719, 43.746695], [18.5307882, 43.746645], [18.5308682, 43.7466026], [18.53098, 43.7465757], [18.5310866, 43.7465603], [18.5311878, 43.7465449], [18.5313956, 43.7465449], [18.5315075, 43.7465488], [18.5316087, 43.7465564], [18.5317046, 43.7465718], [18.5317952, 43.7465911], [18.5322214, 43.7466873], [18.5323173, 43.746695], [18.5324079, 43.7467027], [18.532589, 43.7467027], [18.5326956, 43.7466989], [18.5327861, 43.7466989], [18.5329779, 43.7466758], [18.5330738, 43.7466604], [18.5331751, 43.7466488], [18.533271, 43.7466334], [18.5336759, 43.7465064], [18.5337558, 43.7464795], [18.533841, 43.7464333], [18.5339049, 43.7463871], [18.5339742, 43.7463409], [18.5340328, 43.7462909], [18.5340914, 43.7462332], [18.5341873, 43.7461177], [18.5342353, 43.7460561], [18.5342885, 43.7459945], [18.5343471, 43.7459368], [18.5344058, 43.7458868], [18.5344857, 43.7458444], [18.5345603, 43.7458098], [18.5346402, 43.7457828], [18.5347307, 43.7457597], [18.5348213, 43.7457328], [18.535093, 43.7456751], [18.5351836, 43.745652], [18.5352688, 43.745625], [18.5353434, 43.745575], [18.5353914, 43.7455134], [18.5354447, 43.7454557], [18.5355033, 43.745398], [18.5355725, 43.7453479], [18.5356418, 43.7453017], [18.5357324, 43.7452748], [18.5358283, 43.7452748], [18.5359188, 43.7452786], [18.5360787, 43.7453479], [18.5361159, 43.7454018], [18.5361692, 43.7454595], [18.5362385, 43.7455096], [18.5363291, 43.745525], [18.536425, 43.7455211], [18.5365155, 43.745498], [18.5366008, 43.7454711], [18.53667, 43.7454249], [18.5367233, 43.7453672], [18.5368991, 43.7451555], [18.5369471, 43.7450939], [18.5370856, 43.7450092], [18.5371708, 43.7449823], [18.5372614, 43.7449823], [18.537352, 43.7449977], [18.5374159, 43.7450516], [18.5374745, 43.7451054], [18.5375278, 43.7451593], [18.537613, 43.7451978], [18.5377036, 43.7452286], [18.5377729, 43.7452671], [18.5378368, 43.745321], [18.5379061, 43.7453633], [18.5379913, 43.7454018], [18.5380712, 43.7454326], [18.5381565, 43.7454634], [18.5382364, 43.7454942], [18.5383163, 43.7455327], [18.5384069, 43.7455519], [18.5384974, 43.7455404], [18.538588, 43.7455134], [18.5387372, 43.7454441], [18.5388171, 43.7454134], [18.5388917, 43.7453672], [18.5389769, 43.7453364], [18.5390835, 43.7453094], [18.5391687, 43.7452863], [18.5392486, 43.7452594], [18.5393445, 43.7452325], [18.5394351, 43.7451978], [18.5395204, 43.745167], [18.5396109, 43.7451401], [18.5396962, 43.7451131], [18.5397867, 43.7450977], [18.5398826, 43.7450862], [18.5399732, 43.7450862], [18.5400691, 43.7450901], [18.5401703, 43.7451054], [18.5402556, 43.7451324], [18.5403302, 43.745167], [18.5404101, 43.7452055], [18.54049, 43.7452402], [18.5405752, 43.7452632], [18.5406711, 43.7452786], [18.5407617, 43.7452748], [18.5408576, 43.7452632], [18.5409482, 43.7452363], [18.5410334, 43.7452094], [18.541124, 43.7451824], [18.5411986, 43.7451478], [18.5412785, 43.7450977], [18.5413584, 43.7450554], [18.5414437, 43.7450208], [18.5415342, 43.7449938], [18.5416301, 43.7449746], [18.5417314, 43.7449592], [18.5418326, 43.7449399], [18.5419125, 43.7449092], [18.5419871, 43.7448668], [18.5420563, 43.7448245], [18.5421256, 43.7447783], [18.5421949, 43.744736], [18.5422695, 43.7446898], [18.542344, 43.7446474], [18.5424293, 43.7446128], [18.5425145, 43.744582], [18.5425998, 43.7445474], [18.5426744, 43.744505], [18.5427489, 43.744455], [18.5427756, 43.7443896], [18.5427963, 43.7443452], [18.542826, 43.7443144], [18.5428741, 43.7442742], [18.5429353, 43.7442457], [18.5430332, 43.7442225], [18.5430963, 43.744213], [18.543166, 43.744213], [18.5432385, 43.7442042], [18.5433082, 43.7441838], [18.5433855, 43.7441361], [18.5434391, 43.7440831], [18.543474, 43.7439742], [18.5435135, 43.7438891], [18.5435964, 43.7437837], [18.5436671, 43.7437252], [18.5437443, 43.7436871], [18.543959, 43.7436544], [18.544251, 43.7436], [18.5444375, 43.7435122], [18.5445938, 43.743404], [18.5448076, 43.7432679], [18.5449621, 43.7431944], [18.5451909, 43.7431346], [18.5453096, 43.7431135], [18.5455337, 43.7430461], [18.5456298, 43.7429971], [18.5461224, 43.7427372], [18.546501, 43.7425344], [18.5467553, 43.7423643], [18.5468513, 43.74225], [18.5469785, 43.7420609], [18.5470322, 43.7419336], [18.5470482, 43.7418411], [18.5470745, 43.7417867], [18.547116, 43.7417084], [18.5471989, 43.7415771], [18.5472412, 43.7414968], [18.5472714, 43.7413702], [18.5473138, 43.741277], [18.5473693, 43.7412001], [18.5474814, 43.7410906], [18.5475794, 43.7409803], [18.5476622, 43.7408354], [18.547715, 43.7407749], [18.5479222, 43.7406068], [18.5480597, 43.7404911], [18.5481303, 43.7404067], [18.5481991, 43.7402183], [18.5482471, 43.7401767], [18.54833, 43.7401278], [18.5484496, 43.7400822], [18.5485231, 43.740057], [18.548669, 43.7399821], [18.5488075, 43.739861], [18.5488612, 43.7397991], [18.5488885, 43.7397079], [18.5489243, 43.7395637], [18.5489959, 43.73948], [18.5490881, 43.7393235], [18.5491767, 43.7392473], [18.5559666, 43.7395749], [18.5566899, 43.7387856], [18.5575846, 43.7378044], [18.5586149, 43.7366734], [18.5594287, 43.7357656], [18.5602895, 43.7348143], [18.5605871, 43.7344563], [18.5617277, 43.734383], [18.5617475, 43.7343223], [18.5617388, 43.7342789], [18.5617423, 43.734255], [18.561701, 43.7341672], [18.5616836, 43.7340324], [18.5616818, 43.7337928], [18.5616166, 43.7335951], [18.5614578, 43.7331208], [18.5614124, 43.732871], [18.5614027, 43.7327251], [18.5613877, 43.732611], [18.5614217, 43.7324563], [18.5614461, 43.7324269], [18.5614984, 43.7323639], [18.5617173, 43.7321875], [18.5619172, 43.7320179], [18.5620622, 43.7318949], [18.5623596, 43.7316907], [18.5625913, 43.7315886], [18.5629718, 43.7315069], [18.5633975, 43.7314797], [18.5640643, 43.731447], [18.5640831, 43.7310877], [18.5641227, 43.7308727], [18.5641698, 43.7307896], [18.5642753, 43.730693], [18.5644844, 43.730527], [18.5646976, 43.7304262], [18.5648725, 43.7303325], [18.5649609, 43.7302711], [18.5654393, 43.7300356], [18.5655279, 43.7299226], [18.5656296, 43.7297443], [18.5657445, 43.7295987], [18.5658085, 43.7294544], [18.5658443, 43.729306], [18.5658575, 43.7291767], [18.5658669, 43.7290937], [18.5658971, 43.728978], [18.5659649, 43.7288459], [18.5660459, 43.7287575], [18.5660741, 43.7286772], [18.5660704, 43.7285832], [18.5660289, 43.7284989], [18.5659705, 43.7284104], [18.5659498, 43.7283165], [18.5659781, 43.7282103], [18.5660289, 43.7280769], [18.5660289, 43.7280061], [18.566012, 43.7279353], [18.5659517, 43.7278509], [18.5658632, 43.7277489], [18.5657671, 43.7276631], [18.5656691, 43.7275542], [18.5656032, 43.7274453], [18.5655768, 43.7273636], [18.5655712, 43.7272833], [18.5655787, 43.7272234], [18.5656145, 43.7271336], [18.5656258, 43.7270737], [18.5656239, 43.7270111], [18.5655655, 43.7269485], [18.5654582, 43.7268995], [18.565332, 43.72686], [18.5652208, 43.7268369], [18.5651097, 43.7268028], [18.5650136, 43.7267579], [18.5648724, 43.7266885], [18.5647729, 43.7266673], [18.5646652, 43.7266449], [18.564554, 43.726649], [18.5644617, 43.7266613], [18.5643732, 43.726664], [18.5642941, 43.726649], [18.5642018, 43.7266041], [18.5641603, 43.7265197], [18.5641585, 43.7264258], [18.5642884, 43.7259194], [18.564392, 43.7257942], [18.5644598, 43.7256608], [18.564473, 43.7254933], [18.5644429, 43.7253477], [18.5643468, 43.7251775], [18.5642413, 43.7250727], [18.5639211, 43.724893], [18.5636555, 43.7247297], [18.5635501, 43.7246494], [18.5635067, 43.7245881], [18.5634935, 43.7245323], [18.5635086, 43.724486], [18.5635689, 43.7244357], [18.5636424, 43.7243758], [18.5637968, 43.7241416], [18.5638382, 43.724094], [18.5639061, 43.7240368], [18.563923, 43.7239756], [18.5638684, 43.7238408], [18.5638175, 43.7237333], [18.5638006, 43.7236666], [18.5638232, 43.7235794], [18.563955, 43.7232051], [18.5641453, 43.7227545], [18.5643092, 43.7225231], [18.5646162, 43.7221814], [18.5649665, 43.721773], [18.5651342, 43.7214558], [18.5650984, 43.7213088], [18.5650852, 43.7212013], [18.5651116, 43.7210379], [18.5651022, 43.7208813], [18.5650532, 43.7206826], [18.5649967, 43.7205369], [18.5649402, 43.7204212], [18.5648441, 43.7203205], [18.5647688, 43.7202007], [18.5647462, 43.7200809], [18.5647518, 43.7199543], [18.5648309, 43.7197678], [18.5648799, 43.7196289], [18.5648535, 43.7195173], [18.564814, 43.7194574], [18.5649063, 43.7194288], [18.565057, 43.7194056], [18.5652736, 43.7193975], [18.5656089, 43.7193879], [18.5659121, 43.7193757], [18.566093, 43.7193553], [18.5662003, 43.7193267], [18.566338, 43.7193092], [18.566409, 43.7192712], [18.5665162, 43.7191933], [18.566576, 43.7191444], [18.566637, 43.719062], [18.5668163, 43.7187787], [18.5669044, 43.7186848], [18.5664976, 43.7184567], [18.5663058, 43.7182642], [18.5659222, 43.7180717], [18.5657784, 43.7178637], [18.5656239, 43.7175056], [18.5656203, 43.7173642], [18.5656132, 43.717082], [18.5654694, 43.7162407], [18.5653975, 43.7159692], [18.5653202, 43.7159114], [18.5653175, 43.7158517], [18.5651977, 43.7156531], [18.5761918, 43.7097827], [18.5890011, 43.7028416], [18.5955017, 43.6993187], [18.5987637, 43.6970268], [18.5988208, 43.6971022], [18.5990412, 43.6970538], [18.5994038, 43.697], [18.5997494, 43.6969598], [18.6001751, 43.6969428], [18.6003399, 43.6970661], [18.6007722, 43.6969891], [18.6010444, 43.6970123], [18.6011537, 43.697254], [18.6013504, 43.6972453], [18.6016999, 43.6972179], [18.6020013, 43.6971634], [18.6019565, 43.6970213], [18.6017794, 43.6969], [18.601916, 43.6968762], [18.6020601, 43.6968646], [18.6024575, 43.6967611], [18.6026412, 43.6967516], [18.6028465, 43.6967468], [18.6031168, 43.6967434], [18.6032477, 43.6967223], [18.6034577, 43.6967121], [18.6038288, 43.6966781], [18.6041622, 43.6965964], [18.6045954, 43.6965099], [18.6047913, 43.6964513], [18.605023, 43.6963941], [18.6052745, 43.6963049], [18.6055043, 43.6962225], [18.6061617, 43.695929], [18.6065356, 43.6956764], [18.6068492, 43.6954074], [18.6072674, 43.6951841], [18.607452, 43.6951085], [18.6078475, 43.6947741], [18.6080349, 43.6946754], [18.6081847, 43.694563], [18.6083684, 43.6944119], [18.6085068, 43.6943335], [18.6086387, 43.6942477], [18.6091048, 43.6940012], [18.6092207, 43.6939236], [18.6092753, 43.6938644], [18.6093215, 43.6938061], [18.6094015, 43.6936464], [18.6095409, 43.6935068], [18.6096492, 43.6934006], [18.6097425, 43.6933175], [18.6099911, 43.6931875], [18.6101079, 43.6931337], [18.6102284, 43.6930479], [18.6103669, 43.6928626], [18.6104516, 43.6927149], [18.6105383, 43.6925937], [18.6105801, 43.6925588], [18.6109932, 43.6922137], [18.6111241, 43.6920979], [18.6115272, 43.6917758], [18.6116864, 43.6916273], [18.6120094, 43.6913801], [18.6122251, 43.6912664], [18.612372, 43.6911663], [18.6125208, 43.6910866], [18.6127252, 43.6909164], [18.6129578, 43.6907951], [18.6131019, 43.6907836], [18.613295, 43.6906726], [18.6134692, 43.6905261], [18.6138205, 43.6902701], [18.6139816, 43.6901945], [18.6141916, 43.6901121], [18.6145128, 43.6899228], [18.6149479, 43.6895986], [18.6150731, 43.6894794], [18.6151984, 43.6893943], [18.6160272, 43.6887242], [18.61624, 43.6885846], [18.6165179, 43.6884409], [18.6167872, 43.688321], [18.6171489, 43.6882086], [18.6175058, 43.6881208], [18.6178618, 43.6880166], [18.6181474, 43.6879049], [18.6182492, 43.6879294], [18.6185298, 43.6877836], [18.6187201, 43.6876719], [18.6189367, 43.6875616], [18.6193059, 43.6873423], [18.6194001, 43.6872075], [18.6194716, 43.6870413], [18.6195809, 43.6867348], [18.6197316, 43.6864638], [18.619773, 43.6860851], [18.6198615, 43.6857146], [18.6199124, 43.6854803], [18.6200593, 43.6851479], [18.6201215, 43.68493], [18.6201422, 43.6847243], [18.6201554, 43.6845622], [18.6203023, 43.684332], [18.6205066, 43.6842203], [18.6209375, 43.6840741], [18.6212379, 43.6839598], [18.6214296, 43.6838663], [18.6215767, 43.6837946], [18.6218891, 43.6835491], [18.6231834, 43.6826385], [18.6247584, 43.6827838], [18.6264878, 43.6830264], [18.6274181, 43.6834078], [18.6308372, 43.6839947], [18.6384375, 43.6830871], [18.6400037, 43.6836478], [18.6405002, 43.6837067], [18.6407439, 43.6837052], [18.640984, 43.6837056], [18.6411862, 43.6837282], [18.6412663, 43.6837666], [18.6413389, 43.6838046], [18.6416175, 43.6837792], [18.6417286, 43.6836383], [18.6417899, 43.6835225], [18.6418523, 43.6832517], [18.6418594, 43.6830665], [18.641906, 43.68298], [18.642116, 43.68284], [18.6421363, 43.6827678], [18.6421315, 43.6826827], [18.6421002, 43.6825834], [18.6421392, 43.6825088], [18.6422194, 43.6824847], [18.6424415, 43.6825322], [18.6427225, 43.6827202], [18.6429942, 43.6828997], [18.6431435, 43.6829787], [18.6432198, 43.682993], [18.64354, 43.6828908], [18.6437336, 43.6827859], [18.6438249, 43.6827808], [18.6439135, 43.6827798], [18.6440298, 43.6827914], [18.6440952, 43.6828139], [18.6441343, 43.6828619], [18.6441579, 43.6829406], [18.6441767, 43.6830267], [18.6442436, 43.6830451], [18.6443128, 43.6829586], [18.6444169, 43.6828568], [18.6445299, 43.6827798], [18.6447211, 43.6827761], [18.6448859, 43.68282], [18.6449655, 43.6827979], [18.6452084, 43.6829245], [18.6450138, 43.6833594], [18.6449248, 43.6834329], [18.6447374, 43.6835004], [18.6447407, 43.6835474], [18.6447783, 43.6835841], [18.6448998, 43.6836168], [18.6449092, 43.6837251], [18.6449469, 43.6838307], [18.6451579, 43.6838184], [18.6451767, 43.6837803], [18.6451372, 43.6837169], [18.645059, 43.6836509], [18.6450345, 43.6835773], [18.6450854, 43.6835072], [18.6450354, 43.6834391], [18.6466533, 43.6837134], [18.6470921, 43.6836916], [18.6475164, 43.6836922], [18.6488856, 43.6837866], [18.6496448, 43.683748], [18.6504467, 43.6835901], [18.6514057, 43.6835014], [18.6523886, 43.6834494], [18.6527349, 43.6833627], [18.6534568, 43.6829948], [18.6534622, 43.6828127], [18.6540649, 43.6825757], [18.6544078, 43.6821514], [18.6557127, 43.6823474], [18.6583635, 43.6809236], [18.6630075, 43.6807304], [18.6657767, 43.6804479], [18.666166, 43.680609], [18.6670135, 43.6801491], [18.6684126, 43.6796499], [18.6701632, 43.6789835], [18.6731787, 43.6784337], [18.6742012, 43.6780259], [18.6743846, 43.6780477], [18.6747709, 43.6780091], [18.674952, 43.6780361], [18.6751278, 43.6780091], [18.6755381, 43.6781074], [18.6756846, 43.6780978], [18.6758231, 43.6781421], [18.6759243, 43.6781228], [18.6760975, 43.6781536], [18.6783005, 43.678013], [18.6832313, 43.6777047], [18.6835882, 43.6776508], [18.6837427, 43.6775968], [18.683836, 43.6775179], [18.6839159, 43.6774042], [18.6839239, 43.6772924], [18.6839159, 43.6771229], [18.6839505, 43.6769861], [18.6839985, 43.6768628], [18.6841583, 43.6767202], [18.6844913, 43.6765218], [18.6847284, 43.67636], [18.6848909, 43.6761634], [18.6850321, 43.6759631], [18.6851866, 43.6757588], [18.6852851, 43.6756741], [18.6854077, 43.6755642], [18.6854902, 43.6753908], [18.6855568, 43.6752059], [18.6856368, 43.6750903], [18.6857646, 43.6749959], [18.6859005, 43.6748899], [18.6861517, 43.6747373], [18.686204, 43.67468], [18.6862388, 43.6746375], [18.686265, 43.6745989], [18.6862933, 43.6745487], [18.6863343, 43.6744609], [18.6864177, 43.6743092], [18.6864292, 43.6742619], [18.6864499, 43.6742116], [18.6880475, 43.6736596], [18.6892536, 43.6733665], [18.6939541, 43.6728397], [18.6951704, 43.6723261], [18.6973579, 43.6724351], [18.7036401, 43.6728664], [18.7015513, 43.6780382], [18.6993271, 43.6831404], [18.7002908, 43.6860962], [18.7008789, 43.6878395], [18.7013709, 43.6897904], [18.7121295, 43.6996736], [18.7215104, 43.7038964], [18.7213935, 43.7054057], [18.7199251, 43.7243594], [18.724045, 43.732667], [18.7279982, 43.741045], [18.7323941, 43.7446944], [18.7338274, 43.7459385], [18.7343519, 43.746394], [18.7353222, 43.7471723], [18.7466995, 43.749132], [18.7532205, 43.7501179], [18.7538395, 43.7532939], [18.7555039, 43.7618326], [18.7578724, 43.7735954], [18.7706378, 43.7696595], [18.7890029, 43.769763], [18.7925707, 43.7697831], [18.8013678, 43.7701801], [18.8197075, 43.7710078], [18.8202839, 43.7710338], [18.8266349, 43.7692797], [18.8307196, 43.7681516], [18.8309839, 43.7680809], [18.8361622, 43.7666961], [18.8497852, 43.7634816], [18.8535994, 43.7623296], [18.8562026, 43.761596], [18.8591265, 43.7616507], [18.8627371, 43.761798], [18.8632827, 43.7618802], [18.8640687, 43.7621774], [18.8705247, 43.7646186], [18.8715591, 43.7650177], [18.8718832, 43.7651472], [18.8670366, 43.7723947], [18.8583606, 43.7749697], [18.856085, 43.7800681], [18.8527256, 43.7875845], [18.8429713, 43.7854007], [18.8383215, 43.7860329], [18.8379712, 43.7860392], [18.8375684, 43.7862289], [18.837367, 43.7862541], [18.8370518, 43.786134], [18.8367102, 43.7861151], [18.8359659, 43.7861783], [18.835747, 43.7860455], [18.8354668, 43.7861024], [18.8351165, 43.7862036], [18.8347663, 43.7865196], [18.8346524, 43.7868168], [18.8348188, 43.7871139], [18.8347925, 43.7877271], [18.8346524, 43.7879736], [18.8345036, 43.7881064], [18.8342584, 43.7881885], [18.8341708, 43.7883466], [18.833733, 43.7890672], [18.8336979, 43.789358], [18.8337155, 43.789554], [18.8338643, 43.7897247], [18.8340132, 43.78987], [18.8341183, 43.7899206], [18.8342584, 43.7899775], [18.8296786, 43.7953757], [18.829261, 43.7955441], [18.8168588, 43.8005458], [18.8201201, 43.8054181], [18.8205549, 43.8060676], [18.8260628, 43.8142951], [18.823968, 43.8172392], [18.8172045, 43.829526], [18.811104, 43.8291974], [18.8017412, 43.8279309], [18.7893963, 43.8284102], [18.7879252, 43.8283723], [18.7870921, 43.8286301], [18.7860473, 43.8289534], [18.7799215, 43.8308486], [18.7719354, 43.8327058], [18.7684678, 43.83263], [18.7639668, 43.8353461], [18.7591758, 43.8370747], [18.7584501, 43.8373548], [18.7567338, 43.8466137], [18.7506916, 43.849986], [18.7347369, 43.8532444], [18.7335495, 43.8625068], [18.7333884, 43.8637637], [18.7250345, 43.8657082], [18.7167857, 43.8695087], [18.6980223, 43.8695296], [18.6941583, 43.8695339], [18.6785363, 43.8811737], [18.6600659, 43.8816815], [18.6597094, 43.8816913], [18.6496742, 43.8838372], [18.6495254, 43.883995], [18.6489474, 43.8844368], [18.6487986, 43.8845882], [18.6486585, 43.8848786], [18.6484833, 43.8851058], [18.6481768, 43.8855034], [18.6480017, 43.8858063], [18.6478441, 43.8861155], [18.6478353, 43.8862607], [18.6478266, 43.8863743], [18.6476777, 43.8865258], [18.6476427, 43.8868476], [18.647415, 43.8872326], [18.6473537, 43.8874535], [18.6473537, 43.8877312], [18.647415, 43.8878321], [18.6476427, 43.8879584], [18.6477653, 43.8880215], [18.6478704, 43.8880972], [18.6479667, 43.8881793], [18.648028, 43.8882739], [18.6480893, 43.8883749], [18.6481681, 43.8884696], [18.6482819, 43.8885453], [18.648422, 43.8885895], [18.6485359, 43.8886526], [18.6485972, 43.8887472], [18.6486147, 43.8888545], [18.6487198, 43.8889429], [18.6488423, 43.8890186], [18.6489299, 43.8891069], [18.6490087, 43.8891953], [18.6490175, 43.8893089], [18.6495954, 43.8895108], [18.6496917, 43.8895866], [18.6497706, 43.8896875], [18.6498231, 43.8897885], [18.6498494, 43.8899021], [18.6498494, 43.8900094], [18.6499107, 43.890104], [18.6499982, 43.890205], [18.650077, 43.8902997], [18.6501383, 43.8904006], [18.6501559, 43.8905142], [18.6501646, 43.890773], [18.6501121, 43.8908929], [18.650042, 43.8909938], [18.649972, 43.8911074], [18.6500946, 43.8913283], [18.6501559, 43.8914293], [18.6501996, 43.8915366], [18.6502347, 43.8916438], [18.6502522, 43.8917511], [18.6503047, 43.8918458], [18.6503923, 43.8919278], [18.6505061, 43.8919909], [18.6506287, 43.8920856], [18.6507426, 43.8921487], [18.6508301, 43.8922433], [18.6508914, 43.8923506], [18.650944, 43.8924579], [18.6509615, 43.8925652], [18.6509615, 43.8926788], [18.650944, 43.8927923], [18.6509527, 43.8929059], [18.6510403, 43.8930006], [18.6511804, 43.8929943], [18.6513205, 43.892969], [18.6514869, 43.8929817], [18.6516357, 43.892988], [18.6517408, 43.8930574], [18.6517671, 43.893171], [18.6517846, 43.8932846], [18.6518809, 43.8933666], [18.652021, 43.8933855], [18.6521436, 43.893537], [18.6511804, 43.8940102], [18.65033, 43.8942756], [18.6505813, 43.8944309], [18.6509431, 43.8946271], [18.6510913, 43.8946856], [18.6512186, 43.8947201], [18.6513468, 43.8947675], [18.651503, 43.8947868], [18.6516619, 43.8948236], [18.6517663, 43.8948683], [18.6518722, 43.8949126], [18.6520034, 43.8949714], [18.6522184, 43.8950493], [18.6522719, 43.8951633], [18.6521943, 43.8952532], [18.652008, 43.8953618], [18.6518425, 43.8953896], [18.6517299, 43.8954372], [18.6516182, 43.8955184], [18.6516182, 43.8956257], [18.651627, 43.8957329], [18.6516708, 43.8958339], [18.6517145, 43.8959349], [18.6517408, 43.8960484], [18.6517321, 43.8961683], [18.6516795, 43.8962693], [18.6516445, 43.8963829], [18.6516445, 43.8964964], [18.6516795, 43.8966037], [18.6518021, 43.8966479], [18.651951, 43.8966794], [18.6520998, 43.8967047], [18.6522399, 43.8967425], [18.6523713, 43.896793], [18.6525114, 43.896875], [18.6505849, 43.897525], [18.6500157, 43.8979604], [18.6498056, 43.8979982], [18.6495516, 43.8981623], [18.6492276, 43.8982254], [18.649035, 43.8982254], [18.6484658, 43.8983642], [18.6479492, 43.8983579], [18.6475814, 43.8984778], [18.6471173, 43.8984462], [18.6459701, 43.8988311], [18.6455848, 43.8991908], [18.6452521, 43.8993422], [18.6449981, 43.8997271], [18.6449981, 43.9000741], [18.6450419, 43.9002508], [18.6449369, 43.9004275], [18.6450244, 43.9005978], [18.644858, 43.9016515], [18.6446654, 43.9030964], [18.6446391, 43.9032036], [18.6445778, 43.9033046], [18.6445078, 43.9034055], [18.6444027, 43.9034875], [18.6439736, 43.9039418], [18.6439473, 43.9040743], [18.6439386, 43.9041879], [18.6439298, 43.9043204], [18.6439298, 43.9044276], [18.6439386, 43.9045412], [18.6439824, 43.9046484], [18.6440349, 43.9047494], [18.6440962, 43.9048503], [18.643886, 43.9050838], [18.6440174, 43.9065979], [18.64414, 43.9067935], [18.6442276, 43.9068818], [18.6443151, 43.9069639], [18.6443852, 43.9070648], [18.6444465, 43.9071657], [18.6444815, 43.907273], [18.6445078, 43.9073866], [18.6445253, 43.9075001], [18.6445516, 43.90762], [18.6445778, 43.9077462], [18.6446129, 43.9078597], [18.6446654, 43.907967], [18.6447267, 43.9080679], [18.6448055, 43.9081625], [18.6449193, 43.9082572], [18.6450332, 43.9083266], [18.6451558, 43.9084023], [18.6453046, 43.9084717], [18.6454097, 43.9085411], [18.6455411, 43.9086105], [18.6456724, 43.9086609], [18.645795, 43.9087177], [18.6459176, 43.9087808], [18.6460227, 43.9088502], [18.6461015, 43.9089385], [18.6461278, 43.9090584], [18.6461453, 43.9091656], [18.6461978, 43.9092666], [18.6463029, 43.909336], [18.6464343, 43.9093864], [18.6465919, 43.909418], [18.6467407, 43.9094369], [18.6468896, 43.9094621], [18.6470209, 43.9095126], [18.6471435, 43.9095883], [18.6472574, 43.9096703], [18.6473187, 43.9097713], [18.6473712, 43.9098722], [18.64745, 43.9101182], [18.6475113, 43.9102192], [18.6475814, 43.9103075], [18.6476339, 43.9104147], [18.6476952, 43.9105157], [18.6477653, 43.9106103], [18.6478266, 43.9107239], [18.6479054, 43.9108311], [18.6479842, 43.9109194], [18.6481418, 43.9110204], [18.648352, 43.9110834], [18.6485271, 43.9111087], [18.6486409, 43.9111655], [18.6487285, 43.9112664], [18.648781, 43.9113736], [18.6488161, 43.9114809], [18.6488599, 43.9115881], [18.6490087, 43.912137], [18.6490525, 43.9125533], [18.6492714, 43.9131841], [18.6489387, 43.9140421], [18.6490437, 43.9141745], [18.6491751, 43.9141998], [18.6497355, 43.914881], [18.6502347, 43.9153415], [18.6511541, 43.9154046], [18.651627, 43.9155245], [18.6521261, 43.9153541], [18.6522312, 43.9152154], [18.6586674, 43.922753], [18.6509615, 43.9216555], [18.6508476, 43.9218132], [18.6508214, 43.9219267], [18.6507951, 43.9220403], [18.6507863, 43.9221538], [18.6507863, 43.9222736], [18.6507951, 43.9223872], [18.6508301, 43.9224944], [18.6508827, 43.9225953], [18.6509527, 43.9226962], [18.6510315, 43.9227971], [18.6511278, 43.9228854], [18.6512154, 43.9229674], [18.651338, 43.9230368], [18.6514518, 43.9231062], [18.6539563, 43.9312419], [18.652599, 43.9355742], [18.6525289, 43.9356688], [18.6524063, 43.9357319], [18.652275, 43.9357823], [18.6521261, 43.9358265], [18.651986, 43.9358958], [18.6518984, 43.9359904], [18.6518371, 43.9360913], [18.6517846, 43.9361922], [18.6517058, 43.9362868], [18.6515832, 43.9363751], [18.6514606, 43.9364318], [18.6513468, 43.9365075], [18.6512855, 43.9366084], [18.651268, 43.9367156], [18.651303, 43.9368354], [18.6514256, 43.937157], [18.6514869, 43.9372768], [18.6515307, 43.937384], [18.6515569, 43.9374912], [18.6515657, 43.9376047], [18.6515657, 43.9377119], [18.6515307, 43.9378191], [18.6514518, 43.9379137], [18.6513555, 43.938002], [18.6512242, 43.9381092], [18.6511191, 43.9381848], [18.6510053, 43.9382605], [18.6508914, 43.9383362], [18.6507863, 43.9384307], [18.6507163, 43.9385379], [18.6506988, 43.9386577], [18.65069, 43.9387839], [18.65069, 43.9389037], [18.6506813, 43.9390109], [18.6506462, 43.9391243], [18.6505937, 43.9392252], [18.6505149, 43.9393135], [18.6504448, 43.9393892], [18.6496042, 43.9502336], [18.6441312, 43.9593049], [18.6436058, 43.9609815], [18.6405497, 43.9690869], [18.6399893, 43.9699566], [18.6399981, 43.97082], [18.6398142, 43.9713053], [18.6389298, 43.9727925], [18.6388597, 43.9728871], [18.6387546, 43.9729753], [18.6386495, 43.9730572], [18.6385182, 43.9731139], [18.6383868, 43.973177], [18.6382467, 43.9732274], [18.6380979, 43.97324], [18.635068, 43.9735047], [18.6351469, 43.9737882], [18.6340347, 43.9740781], [18.6338684, 43.9740907], [18.6337195, 43.9741096], [18.6335619, 43.9741159], [18.6334305, 43.9740655], [18.6333605, 43.9739773], [18.6333079, 43.9738765], [18.6332642, 43.973763], [18.6332466, 43.9736622], [18.6331128, 43.9724808], [18.6330803, 43.9721938], [18.6329577, 43.9721434], [18.6328263, 43.972093], [18.6326687, 43.9720741], [18.6325111, 43.9720741], [18.6323535, 43.9721119], [18.6322046, 43.9721308], [18.6320557, 43.9721119], [18.6319331, 43.9720426], [18.6318543, 43.9719481], [18.6318543, 43.9718409], [18.6318981, 43.9717401], [18.6319944, 43.9716645], [18.6321258, 43.9716015], [18.6322834, 43.9715573], [18.6324323, 43.9715258], [18.6325724, 43.9715006], [18.6326862, 43.9714439], [18.632765, 43.9713557], [18.6327738, 43.9712422], [18.6327738, 43.9711351], [18.6328176, 43.9710343], [18.6328876, 43.9709334], [18.6329664, 43.9708515], [18.6329927, 43.9707507], [18.6329314, 43.9706624], [18.6328351, 43.9705805], [18.6327037, 43.9705175], [18.6325811, 43.9704671], [18.6318631, 43.9694524], [18.6316617, 43.9694461], [18.6315041, 43.9694272], [18.6313902, 43.9693579], [18.6313289, 43.969257], [18.6312764, 43.9691625], [18.6311625, 43.9690932], [18.63104, 43.9690365], [18.6310312, 43.9689293], [18.63111, 43.9688411], [18.631145, 43.9687592], [18.6271257, 43.9613597], [18.6186842, 43.9631309], [18.6185354, 43.9631687], [18.6183778, 43.9632002], [18.6182201, 43.9632065], [18.6180625, 43.9631876], [18.6179224, 43.9631372], [18.6178086, 43.9630679], [18.617721, 43.9629796], [18.6176685, 43.9628788], [18.6176685, 43.9627779], [18.6176947, 43.9626708], [18.6177385, 43.9625699], [18.6178786, 43.962406], [18.6152779, 43.9607231], [18.6152166, 43.9606159], [18.6151203, 43.960534], [18.6150064, 43.9604458], [18.6148751, 43.9603827], [18.6147437, 43.9603386], [18.6145773, 43.9603134], [18.6144285, 43.9602945], [18.6142796, 43.9602567], [18.6142358, 43.9601621], [18.6141132, 43.9601054], [18.6139731, 43.9600676], [18.6138418, 43.9600171], [18.6136929, 43.9599604], [18.6135528, 43.95991], [18.6134215, 43.9598532], [18.6133076, 43.959765], [18.6132113, 43.9596768], [18.6131062, 43.9595885], [18.6129924, 43.9595129], [18.6128961, 43.9594246], [18.6128085, 43.9593427], [18.6127297, 43.9592418], [18.6126771, 43.959141], [18.6126158, 43.9590338], [18.612537, 43.9589519], [18.6124582, 43.958851], [18.6123794, 43.9587565], [18.6124144, 43.9586493], [18.6124057, 43.9585484], [18.612467, 43.9584539], [18.6125896, 43.9583972], [18.6126421, 43.9583215], [18.6126071, 43.9582144], [18.6125721, 43.9581072], [18.6126158, 43.9580064], [18.6126946, 43.9578992], [18.6127034, 43.957792], [18.6126771, 43.9576849], [18.6126158, 43.9575966], [18.6125808, 43.9574895], [18.6125983, 43.9573697], [18.6126509, 43.9572688], [18.6126859, 43.9571617], [18.6126859, 43.9570545], [18.6126421, 43.956941], [18.6125633, 43.9568339], [18.6124757, 43.9567393], [18.6124057, 43.9566448], [18.6123444, 43.9565439], [18.6123356, 43.9564368], [18.6122743, 43.9563233], [18.6121868, 43.9562413], [18.6120817, 43.9561657], [18.6119416, 43.9561216], [18.6117927, 43.9560901], [18.6116701, 43.9560333], [18.6115825, 43.9559451], [18.6115388, 43.9558442], [18.6115125, 43.9557307], [18.6114862, 43.9556236], [18.6114162, 43.9555227], [18.6112585, 43.9555038], [18.6111009, 43.9554723], [18.6110484, 43.9553714], [18.6110134, 43.9552706], [18.6111535, 43.9552201], [18.6111009, 43.9551256], [18.6110834, 43.9550247], [18.6110597, 43.954982], [18.6110309, 43.9549302], [18.6109345, 43.9548419], [18.6107944, 43.9547726], [18.6106718, 43.9546906], [18.6106806, 43.9545898], [18.6107857, 43.9545078], [18.6108995, 43.9544448], [18.6110309, 43.9544069], [18.6111535, 43.9543628], [18.6112148, 43.9542683], [18.6112323, 43.9541611], [18.6112323, 43.9540539], [18.6111885, 43.9539468], [18.6111097, 43.9538585], [18.6109345, 43.953537], [18.6108995, 43.9534298], [18.6108557, 43.9533164], [18.6108032, 43.9532218], [18.6107419, 43.9531209], [18.6106368, 43.9530516], [18.610488, 43.9530264], [18.6103654, 43.952957], [18.6102953, 43.9528625], [18.6102428, 43.9527616], [18.6102253, 43.9526607], [18.610234, 43.9525536], [18.6103128, 43.9524653], [18.6104354, 43.952396], [18.6105493, 43.9523455], [18.6106368, 43.9522573], [18.6111535, 43.9514377], [18.6112148, 43.9513369], [18.6114424, 43.9510406], [18.6116526, 43.9501454], [18.6117489, 43.9498806], [18.6118452, 43.949786], [18.6119241, 43.9497041], [18.6119678, 43.9496032], [18.6119678, 43.9494897], [18.6119241, 43.9493762], [18.6118452, 43.949288], [18.6117139, 43.9492375], [18.6116438, 43.949143], [18.6117051, 43.9490295], [18.6118015, 43.9489601], [18.6119241, 43.9489034], [18.6120029, 43.9488151], [18.6120116, 43.948708], [18.6120116, 43.9486008], [18.6120379, 43.9484873], [18.6122481, 43.9483234], [18.5978345, 43.9398432], [18.5970814, 43.9394333], [18.596556, 43.9393009], [18.5963721, 43.9392252], [18.5938852, 43.9381974], [18.5922477, 43.9377876], [18.5896295, 43.9367787], [18.5891128, 43.9369615], [18.5889377, 43.9370057], [18.5887801, 43.9370309], [18.5886225, 43.9370498], [18.5883685, 43.9370624], [18.5882196, 43.9370624], [18.588062, 43.9370561], [18.5878869, 43.9370498], [18.5877205, 43.9370309], [18.5875541, 43.9370246], [18.5873965, 43.9370057], [18.58709, 43.9369426], [18.5869499, 43.9368985], [18.5868098, 43.9368543], [18.5866697, 43.9368039], [18.5865033, 43.9367534], [18.5863457, 43.936703], [18.5862144, 43.9366399], [18.5860743, 43.9365895], [18.5859341, 43.9365138], [18.5858203, 43.9364318], [18.585724, 43.9363751], [18.5855839, 43.9363877], [18.5854263, 43.9363877], [18.5852599, 43.9363814], [18.585111, 43.9363751], [18.5849621, 43.9363436], [18.5848308, 43.9362994], [18.5847082, 43.9362364], [18.5846031, 43.9361544], [18.5845068, 43.9360724], [18.5844192, 43.9359778], [18.5843229, 43.9358958], [18.5842266, 43.9358076], [18.584174, 43.935713], [18.5841215, 43.9356121], [18.584104, 43.9355112], [18.5834735, 43.9307311], [18.5832371, 43.9308509], [18.5831408, 43.9309392], [18.5830094, 43.9310086], [18.5828693, 43.9310591], [18.5827467, 43.9311284], [18.5826066, 43.9311915], [18.5824577, 43.931305], [18.5823264, 43.9313807], [18.5821775, 43.9314059], [18.5820111, 43.9314248], [18.5818623, 43.9314374], [18.5817047, 43.931469], [18.5813544, 43.9316582], [18.5812581, 43.9317528], [18.581153, 43.9318537], [18.5810479, 43.9319356], [18.5809165, 43.9320239], [18.580794, 43.9320996], [18.5806538, 43.9321564], [18.5805225, 43.9322257], [18.5803911, 43.9322888], [18.5802686, 43.9323708], [18.5801635, 43.9324591], [18.5800321, 43.9325158], [18.5776153, 43.9343257], [18.5775365, 43.9344329], [18.5774489, 43.9345338], [18.5773526, 43.9346284], [18.5773, 43.9347292], [18.5772738, 43.9348364], [18.5772562, 43.9349436], [18.5772475, 43.9350572], [18.5772387, 43.9351644], [18.5772387, 43.9352779], [18.5772475, 43.9353851], [18.5772387, 43.9356058], [18.5772037, 43.935713], [18.5771424, 43.9358076], [18.5770373, 43.9358895], [18.5769235, 43.9359715], [18.5768184, 43.9360598], [18.5767133, 43.9361418], [18.5766345, 43.936249], [18.5765732, 43.9363688], [18.5765207, 43.9364697], [18.5764594, 43.9365706], [18.5763543, 43.9366651], [18.5762317, 43.9367345], [18.5759515, 43.9368732], [18.5758289, 43.93693], [18.5756888, 43.9369994], [18.5755399, 43.9370624], [18.5754173, 43.9371381], [18.5752947, 43.9372137], [18.5751984, 43.9373083], [18.5751284, 43.9374092], [18.5751196, 43.9375227], [18.5751371, 43.9376299], [18.5751459, 43.9377434], [18.5751021, 43.9378443], [18.5749795, 43.9379137], [18.5748394, 43.937983], [18.5730092, 43.9388532], [18.5728947, 43.9389], [18.5728575, 43.9389], [18.5727884, 43.9388645], [18.5726562, 43.9387924], [18.5709391, 43.939391], [18.5708935, 43.9393135], [18.5708362, 43.9393002], [18.5707872, 43.9392685], [18.5705639, 43.9392826], [18.570461, 43.9392094], [18.5701598, 43.9388464], [18.5699379, 43.9387301], [18.569806, 43.9385215], [18.5698048, 43.9383093], [18.569769, 43.9382081], [18.569589, 43.9380288], [18.5693856, 43.9378894], [18.5685176, 43.9374268], [18.5672398, 43.9366053], [18.5578773, 43.9349407], [18.5585973, 43.9225309], [18.5549775, 43.9197318], [18.5550564, 43.9193162], [18.5550515, 43.91862], [18.555017, 43.9181901], [18.5549183, 43.9178171], [18.5547161, 43.9175187], [18.5544794, 43.9172772], [18.5543512, 43.9171244], [18.5543808, 43.9169752], [18.5545534, 43.9168367], [18.5547507, 43.9165596], [18.5548986, 43.916286], [18.555663, 43.9155969], [18.5539172, 43.9128436], [18.5531775, 43.9118595], [18.5523095, 43.9111134], [18.5517868, 43.9105627], [18.5519545, 43.9104846], [18.551846, 43.9104135], [18.5517967, 43.9103744], [18.5517227, 43.9102643], [18.5516586, 43.9101435], [18.5515797, 43.9099907], [18.5513528, 43.9098238], [18.5510668, 43.9096426], [18.5508005, 43.9095324], [18.5505835, 43.9094898], [18.5504849, 43.9094152], [18.5504553, 43.9093121], [18.5505243, 43.909202], [18.5506082, 43.9091167], [18.5507462, 43.9089924], [18.5508301, 43.9088787], [18.5508399, 43.9087472], [18.5509583, 43.9086229], [18.5511703, 43.9085234], [18.5512986, 43.9083173], [18.5512788, 43.9080509], [18.5512049, 43.9078732], [18.551052, 43.9076991], [18.550549, 43.9072692], [18.5503123, 43.9070667], [18.5499868, 43.9069352], [18.5496416, 43.906818], [18.549035, 43.9067469], [18.5483396, 43.9066616], [18.5477133, 43.9066581], [18.5474026, 43.9066119], [18.5470722, 43.9063561], [18.5471166, 43.9065941], [18.5472054, 43.9067327], [18.5475605, 43.9069672], [18.5476985, 43.9071377], [18.5477183, 43.9074469], [18.5476246, 43.907724], [18.5472991, 43.9080793], [18.5471314, 43.9082676], [18.546944, 43.9083742], [18.5467961, 43.9084133], [18.5462487, 43.907859], [18.5455977, 43.9072728], [18.5453018, 43.9066616], [18.5445917, 43.9057343], [18.5457062, 43.9047963], [18.5462141, 43.9044694], [18.5461648, 43.9044303], [18.5461155, 43.9043272], [18.5461155, 43.9041425], [18.5462289, 43.9039115], [18.5463226, 43.9039648], [18.5465988, 43.903542], [18.5467172, 43.9033963], [18.5467172, 43.9030765], [18.5466481, 43.9027318], [18.5464509, 43.9022699], [18.5460021, 43.9017156], [18.5454695, 43.9010724], [18.5452969, 43.9007988], [18.5452278, 43.9006105], [18.5451982, 43.9003866], [18.5451144, 43.9003689], [18.545001, 43.9002409], [18.5449122, 43.8999958], [18.544858, 43.899843], [18.5448086, 43.8995658], [18.5447741, 43.8992709], [18.5448037, 43.8988729], [18.5447445, 43.8987236], [18.5447002, 43.8985388], [18.5447297, 43.8983221], [18.5447741, 43.8981053], [18.5447495, 43.8978672], [18.5446903, 43.8976753], [18.54471, 43.8975012], [18.5446952, 43.8973555], [18.5444881, 43.8971672], [18.5442711, 43.8969539], [18.5441034, 43.8967763], [18.5440393, 43.8966163], [18.5440689, 43.8964564], [18.5442859, 43.8963498], [18.5443796, 43.8963214], [18.5446065, 43.8962645], [18.5447593, 43.8962041], [18.5449023, 43.8960797], [18.5450158, 43.8958736], [18.5451884, 43.8955858], [18.5452821, 43.8953512], [18.545435, 43.8948288], [18.5455188, 43.8946902], [18.5456519, 43.8945517], [18.5457752, 43.8943704], [18.545938, 43.8942673], [18.5460711, 43.8941572], [18.5461599, 43.8940292], [18.5462782, 43.8938835], [18.5465002, 43.8937414], [18.5464361, 43.8937023], [18.5463966, 43.8936063], [18.5464065, 43.8934535], [18.5463818, 43.8933043], [18.5462585, 43.8931763], [18.5459922, 43.8930697], [18.5457062, 43.8929773], [18.5453955, 43.8928103], [18.545144, 43.8924869], [18.5449714, 43.8921599], [18.5447485, 43.8919656], [18.5445986, 43.8916439], [18.5444033, 43.891365], [18.5441662, 43.8911137], [18.5439604, 43.8908372], [18.5438872, 43.8906487], [18.5438454, 43.8905683], [18.5436815, 43.8904251], [18.543542, 43.8902291], [18.5436117, 43.8902014], [18.5431723, 43.8897817], [18.5428449, 43.8894642], [18.5426981, 43.8893218], [18.5421192, 43.8887966], [18.5420355, 43.8887614], [18.5418856, 43.8886458], [18.5418333, 43.8885076], [18.5418089, 43.8883593], [18.54191, 43.8881407], [18.542175, 43.8875677], [18.5422448, 43.8874495], [18.5422831, 43.8873063], [18.5422064, 43.8869997], [18.5421088, 43.8868263], [18.5419937, 43.8867081], [18.5418298, 43.8866126], [18.5414741, 43.8865146], [18.5407366, 43.8863839], [18.5405378, 43.8863374], [18.5403948, 43.8863035], [18.5403512, 43.8862784], [18.5403338, 43.8862545], [18.540346, 43.8862306], [18.5403722, 43.8862181], [18.5404123, 43.886213], [18.5405012, 43.8862093], [18.5406128, 43.886208], [18.5408046, 43.8861879], [18.5411149, 43.8861502], [18.5415194, 43.8860886], [18.5414741, 43.8859777], [18.5414692, 43.8858711], [18.5415283, 43.8857396], [18.5416566, 43.8855974], [18.5416862, 43.8855299], [18.5417207, 43.8853273], [18.5417059, 43.8851425], [18.5415925, 43.884947], [18.5415136, 43.8847551], [18.5415431, 43.8842681], [18.5413557, 43.8840548], [18.5411881, 43.8836852], [18.5411388, 43.8833724], [18.5407837, 43.8824838], [18.5406456, 43.8822279], [18.5404582, 43.8820786], [18.5403497, 43.8818084], [18.5399059, 43.8814956], [18.5396297, 43.8813748], [18.5394719, 43.8812113], [18.5393141, 43.8812184], [18.5390083, 43.8811615], [18.5377261, 43.8805217], [18.5376965, 43.8804293], [18.5376867, 43.8802231], [18.5376965, 43.8799245], [18.5379135, 43.8797254], [18.5378248, 43.8795904], [18.5374598, 43.8793344], [18.5368187, 43.8790145], [18.5364341, 43.878723], [18.5360593, 43.8782396], [18.5359803, 43.8777064], [18.5357436, 43.8773153], [18.5355345, 43.8771227], [18.5353886, 43.8769883], [18.5351617, 43.876839], [18.5349053, 43.8761991], [18.5345699, 43.8758436], [18.5342839, 43.8754882], [18.5339979, 43.8753104], [18.5338203, 43.8750402], [18.5337414, 43.8746065], [18.5334357, 43.8740093], [18.5335047, 43.8720185], [18.5327878, 43.8667455], [18.5327255, 43.8662874], [18.5303682, 43.8633363], [18.5303189, 43.8631585], [18.5304373, 43.8628029], [18.5306543, 43.8625469], [18.5305556, 43.8622482], [18.5306937, 43.862106], [18.530605, 43.8612455], [18.5305852, 43.8608046], [18.5303781, 43.8602712], [18.5301118, 43.8598588], [18.5297469, 43.8594178], [18.5296039, 43.8586391], [18.52952, 43.8584862], [18.5294066, 43.8581199], [18.5291995, 43.8578853], [18.529091, 43.8576897], [18.5291058, 43.8575581], [18.5290762, 43.857359], [18.5289775, 43.8569251], [18.5289036, 43.8568611], [18.5287211, 43.8566869], [18.5286915, 43.8564984], [18.5286274, 43.8562779], [18.528514, 43.8560539], [18.5284499, 43.8558121], [18.528154, 43.8554778], [18.5280504, 43.8553818], [18.5278679, 43.8552858], [18.52772, 43.855236], [18.5274192, 43.8551471], [18.5272071, 43.8550902], [18.5270148, 43.8549835], [18.5269803, 43.8548875], [18.5269014, 43.8548164], [18.5268175, 43.8547275], [18.5268225, 43.854571], [18.5266548, 43.8545355], [18.5263983, 43.8545106], [18.5262307, 43.8544394], [18.526137, 43.8543007], [18.5260235, 43.854219], [18.5259644, 43.8541123], [18.5257129, 43.8538171], [18.5256537, 43.8537602], [18.525412, 43.8537104], [18.5252444, 43.8537567], [18.5251112, 43.8537815], [18.5249238, 43.8537567], [18.5248077, 43.8535742], [18.5247401, 43.8534579], [18.5244849, 43.8532623], [18.5243506, 43.8532066], [18.5242161, 43.85311], [18.5241044, 43.8529969], [18.5240016, 43.8529174], [18.5238191, 43.852864], [18.523628, 43.8528408], [18.5232717, 43.8528285], [18.5230153, 43.8526898], [18.5225468, 43.8524693], [18.5220702, 43.8522867], [18.5216765, 43.852212], [18.521232, 43.8521863], [18.5208846, 43.8522163], [18.5204382, 43.8522666], [18.5200292, 43.8522457], [18.5195303, 43.8522366], [18.5188792, 43.8522759], [18.5185691, 43.8522063], [18.5184017, 43.8519146], [18.5183899, 43.8509503], [18.518184, 43.8506383], [18.5175509, 43.8504359], [18.5172789, 43.8504611], [18.5170069, 43.8504862], [18.5166861, 43.8506673], [18.5164768, 43.8509288], [18.5162258, 43.8510998], [18.5154447, 43.8512909], [18.5147054, 43.8513211], [18.514259, 43.8513513], [18.5140498, 43.8513814], [18.5136592, 43.8513714], [18.5130873, 43.85114], [18.5127805, 43.8508986], [18.5124039, 43.8503353], [18.512097, 43.8500034], [18.5116925, 43.8497519], [18.5113298, 43.8494702], [18.5112601, 43.8491986], [18.5112601, 43.8488264], [18.5110648, 43.8484442], [18.51073, 43.8482329], [18.5103255, 43.8481726], [18.5098373, 43.8481525], [18.5096979, 43.848082], [18.5094886, 43.8478104], [18.5094328, 43.8475388], [18.5094607, 43.8473376], [18.5094886, 43.8469353], [18.5094607, 43.8467542], [18.5091678, 43.8465128], [18.5085262, 43.8465027], [18.508303, 43.8465429], [18.507759, 43.846553], [18.507229, 43.8463417], [18.5071334, 43.8461564], [18.5070513, 43.8459343], [18.506974, 43.8457321], [18.5068357, 43.8455416], [18.5066614, 43.8454611], [18.5064805, 43.8454032], [18.5062107, 43.8453559], [18.5058234, 43.8452758], [18.5054961, 43.8454256], [18.5052408, 43.8455211], [18.5050111, 43.8454867], [18.5046485, 43.8453358], [18.5044183, 43.8452333], [18.5040069, 43.8451648], [18.5036367, 43.8452193], [18.5031292, 43.8452766], [18.5024446, 43.8452955], [18.5018309, 43.8452754], [18.5012032, 43.8452955], [18.500715, 43.8454464], [18.5004639, 43.8454364], [18.4998641, 43.845205], [18.4995991, 43.8447724], [18.4995015, 43.8443801], [18.4990551, 43.844038], [18.4984414, 43.8439978], [18.4981485, 43.8441286], [18.4975905, 43.8442594], [18.4970047, 43.8441386], [18.4967536, 43.8437664], [18.4965862, 43.8432131], [18.4965444, 43.8428409], [18.4966978, 43.8424787], [18.4967536, 43.842197], [18.4965304, 43.8418751], [18.4960841, 43.8416437], [18.4956656, 43.8413016], [18.4954564, 43.8409294], [18.4950379, 43.8405068], [18.4947032, 43.8401447], [18.4944939, 43.8397623], [18.4945916, 43.8392191], [18.4947869, 43.8387764], [18.494759, 43.8383941], [18.4944661, 43.837891], [18.494215, 43.8374785], [18.493657, 43.8369251], [18.4931967, 43.8361605], [18.4929317, 43.835919], [18.4925272, 43.835758], [18.4921506, 43.835748], [18.491774, 43.8357077], [18.4913974, 43.8354763], [18.4910766, 43.8352147], [18.4906302, 43.834943], [18.4903791, 43.8349128], [18.4900304, 43.8348726], [18.4896538, 43.834772], [18.4892997, 43.8347147], [18.4890522, 43.8347287], [18.4888678, 43.8347043], [18.4889703, 43.8344701], [18.4891656, 43.8343595], [18.489333, 43.834279], [18.489877, 43.8341381], [18.490156, 43.834118], [18.4906581, 43.8340978], [18.4910626, 43.8340375], [18.4918856, 43.8338463], [18.4927504, 43.8336048], [18.4938384, 43.8333633], [18.4942987, 43.8331621], [18.495289, 43.8326489], [18.4957075, 43.8324879], [18.4962096, 43.8324376], [18.4968652, 43.832337], [18.4974371, 43.8320855], [18.4980229, 43.8313207], [18.4985901, 43.8308903], [18.4993594, 43.8303068], [18.5000103, 43.8298693], [18.5010065, 43.8293392], [18.5014997, 43.8290225], [18.501761, 43.8288091], [18.5018893, 43.8286312], [18.5019632, 43.8284391], [18.5019682, 43.8278947], [18.5020619, 43.8276564], [18.5022887, 43.8274714], [18.5025304, 43.8272935], [18.5026093, 43.8271369], [18.5025994, 43.8268808], [18.5024811, 43.8265712], [18.502486, 43.8261621], [18.5013764, 43.8260732], [18.5013419, 43.8259273], [18.5012432, 43.8259308], [18.5012679, 43.8260838], [18.5009473, 43.8260838], [18.5009473, 43.8267221], [18.5009572, 43.8272202], [18.5009079, 43.8275689], [18.5004838, 43.8279318], [18.4998723, 43.8286362], [18.4995862, 43.8288995], [18.4990339, 43.8291414], [18.4984816, 43.8291556], [18.4972289, 43.8301518], [18.4965681, 43.8306996], [18.4960059, 43.8309914], [18.4953845, 43.831155], [18.4945758, 43.8312262], [18.492978, 43.8313187], [18.4925144, 43.8312973], [18.4919522, 43.8311977], [18.4913012, 43.83097], [18.4907686, 43.8308846], [18.4900683, 43.830906], [18.48995, 43.8310341], [18.4897527, 43.8310839], [18.4896344, 43.8309985], [18.4896245, 43.8308704], [18.4895259, 43.8306641], [18.4895357, 43.8304435], [18.4894174, 43.8299525], [18.4893779, 43.8297106], [18.488796, 43.8287501], [18.4883522, 43.8286006], [18.4879971, 43.8283943], [18.4877209, 43.8281524], [18.487573, 43.8278678], [18.4875237, 43.8274906], [18.4874941, 43.8270708], [18.4873757, 43.8268858], [18.4870404, 43.8268004], [18.4864486, 43.8262739], [18.4861428, 43.8261244], [18.4861132, 43.8259465], [18.4854228, 43.8252136], [18.4854228, 43.82505], [18.4849592, 43.8245163], [18.4849987, 43.8242672], [18.4851664, 43.823947], [18.4852058, 43.8237406], [18.4851664, 43.8235129], [18.4854623, 43.8232923], [18.4854721, 43.8230433], [18.485334, 43.8225878], [18.4848409, 43.8219545], [18.4849592, 43.8218264], [18.4850579, 43.8216272], [18.4850973, 43.8214492], [18.4851368, 43.8212998], [18.4853439, 43.8212429], [18.4854919, 43.8212429], [18.485768, 43.8212571], [18.4860245, 43.8210863], [18.4870995, 43.8209725], [18.4870404, 43.820517], [18.4872771, 43.8204174], [18.4873954, 43.8200473], [18.4872968, 43.8196488], [18.4870404, 43.8191934], [18.4867642, 43.8188375], [18.4867247, 43.8184248], [18.4868234, 43.8180689], [18.4870206, 43.8178981], [18.4870009, 43.8174142], [18.487139, 43.8167168], [18.4871982, 43.8157916], [18.4875335, 43.8154215], [18.487386, 43.8145808], [18.4863602, 43.8144099], [18.4856106, 43.8141893], [18.4849892, 43.8138406], [18.4841607, 43.8140114], [18.4839635, 43.8139402], [18.4838747, 43.8138121], [18.4840128, 43.8135061], [18.4847328, 43.8129652], [18.4846782, 43.8126153], [18.4828794, 43.8107653], [18.4827213, 43.8099549], [18.4823657, 43.8081324], [18.4749338, 43.8050325], [18.4723495, 43.8026656], [18.4721769, 43.8023824], [18.4717079, 43.802249], [18.4712615, 43.8020829], [18.4710907, 43.8019596], [18.4708623, 43.8016878], [18.4705031, 43.8014877], [18.4703165, 43.8013354], [18.4697269, 43.8008355], [18.4694706, 43.800776], [18.4693381, 43.8007301], [18.4691747, 43.8006068], [18.4690191, 43.8002064], [18.4689461, 43.8002348], [18.4687723, 43.800163], [18.4684965, 43.8001761], [18.4683708, 43.8001233], [18.4683223, 43.8000837], [18.4681935, 43.8000035], [18.4681324, 43.7999661], [18.4679199, 43.7998475], [18.4672982, 43.7995799], [18.4675353, 43.799447], [18.467762, 43.7992529], [18.4669513, 43.7989781], [18.4669914, 43.7988302], [18.4671241, 43.7984204], [18.4668898, 43.7977012], [18.4654133, 43.7932092]]]}}]}