{"type": "FeatureCollection", "features": [{"type": "Feature", "properties": {"name": "Općina Pale (FBiH), Bosansko-podrinjski kanton Goražde, Federacija Bosne i Hercegovine, 73290, Bosna i Hercegovina / Босна и Херцеговина", "source": "OpenStreetMap relation 2528249", "licence": "ODbL 1.0"}, "geometry": {"type": "Polygon", "coordinates": [[[18.6820155, 43.6756208], [18.6837607, 43.6710616], [18.6881264, 43.668765], [18.6889202, 43.6667554], [18.6909046, 43.665607], [18.6913015, 43.6647457], [18.6920952, 43.6638844], [18.6944765, 43.6633102], [18.6964609, 43.6621617], [18.6980485, 43.6613004], [18.7000329, 43.6618746], [18.7024142, 43.6633102], [18.7047955, 43.6650328], [18.7071767, 43.6661812], [18.7091612, 43.6667554], [18.7119393, 43.6696262], [18.7139237, 43.6710616], [18.716305, 43.6736452], [18.7174957, 43.6750805], [18.7178926, 43.6768027], [18.7178926, 43.6828303], [18.7174957, 43.6848394], [18.7190832, 43.6865614], [18.7210676, 43.6868484], [18.7234489, 43.6894313], [18.7250364, 43.692875], [18.7270208, 43.6951707], [18.7305928, 43.6963185], [18.7325772, 43.6977533], [18.7345616, 43.7037788], [18.7353554, 43.7043526], [18.7373398, 43.7075085], [18.7393242, 43.7098037], [18.7405148, 43.7112381], [18.7409117, 43.7135331], [18.743293, 43.7155411], [18.7460712, 43.7172622], [18.7512306, 43.7172622], [18.7524213, 43.7169754], [18.7551994, 43.7169754], [18.7616464, 43.7168061], [18.7627772, 43.7168128], [18.764932, 43.7164773], [18.7667199, 43.7161617], [18.7681221, 43.7157841], [18.769706, 43.7152878], [18.7711401, 43.7145667], [18.7729093, 43.7136778], [18.7770279, 43.7132462], [18.780203, 43.7129593], [18.7829812, 43.7129593], [18.7849656, 43.7143937], [18.7861562, 43.7172622], [18.7889344, 43.7186965], [18.7905219, 43.719557], [18.7913157, 43.7198438], [18.7944907, 43.719557], [18.796872, 43.7186965], [18.8000471, 43.7186965], [18.8017432, 43.7193282], [18.803445, 43.7190589], [18.8048472, 43.7191968], [18.8068999, 43.7189534], [18.8082441, 43.7193319], [18.8083991, 43.719823], [18.8098275, 43.7200174], [18.8101531, 43.7203871], [18.8099481, 43.7206815], [18.8098728, 43.7208349], [18.8098965, 43.7210905], [18.8104021, 43.7213306], [18.8125124, 43.721343], [18.813972, 43.7210108], [18.8161977, 43.721531], [18.8169588, 43.7224833], [18.818999, 43.7226661], [18.8202229, 43.722811], [18.8212181, 43.7233547], [18.822347, 43.7235764], [18.8228598, 43.7234755], [18.8231375, 43.7234459], [18.8234825, 43.7235135], [18.8241053, 43.7236002], [18.8243012, 43.7238902], [18.8262554, 43.7242039], [18.8291759, 43.7252913], [18.8310885, 43.7255658], [18.831621, 43.7256422], [18.8333129, 43.7259044], [18.8334731, 43.7259292], [18.8350127, 43.7261677], [18.8378331, 43.726622], [18.8400354, 43.7262675], [18.8401792, 43.7262234], [18.840279, 43.7262206], [18.8404609, 43.7262405], [18.8405654, 43.7261785], [18.8406646, 43.7261223], [18.8406802, 43.7260597], [18.8407775, 43.7259918], [18.8409716, 43.7260414], [18.8410777, 43.7261102], [18.8413866, 43.7262993], [18.8415416, 43.7264216], [18.8417307, 43.7264693], [18.8419057, 43.7264511], [18.8420807, 43.7264552], [18.8424416, 43.7265046], [18.8425977, 43.7266219], [18.8427299, 43.7267473], [18.8428268, 43.726783], [18.8429501, 43.7268028], [18.8431544, 43.7267633], [18.84324, 43.7266856], [18.8432663, 43.7266055], [18.8433806, 43.7265539], [18.843497, 43.7265866], [18.8435871, 43.7266352], [18.8438396, 43.7265308], [18.8441273, 43.7265949], [18.8443093, 43.726756], [18.8444278, 43.7267727], [18.8444916, 43.7267492], [18.8445609, 43.7266644], [18.8446301, 43.726624], [18.8447475, 43.7266455], [18.8448765, 43.7265994], [18.845048, 43.7263975], [18.8451272, 43.7264832], [18.8452525, 43.7264848], [18.8453735, 43.7264451], [18.8455209, 43.7264881], [18.845722, 43.7265439], [18.8459144, 43.7265551], [18.8461628, 43.7264694], [18.8463807, 43.7265561], [18.846549, 43.7266336], [18.8467392, 43.7266603], [18.8468963, 43.726609], [18.8476769, 43.7259877], [18.8478455, 43.725865], [18.848055, 43.725843], [18.8483185, 43.7259231], [18.8486189, 43.7259796], [18.8488701, 43.7259769], [18.8493181, 43.7258022], [18.8495257, 43.7256942], [18.8497497, 43.7257399], [18.8504351, 43.725725], [18.8506427, 43.7256465], [18.850793, 43.7255326], [18.8505053, 43.7251233], [18.8509963, 43.724848], [18.8515059, 43.7247138], [18.8521267, 43.7248007], [18.8525899, 43.7244806], [18.8528633, 43.7243474], [18.8531181, 43.7242811], [18.8532614, 43.7241829], [18.8532935, 43.72381], [18.8536775, 43.7238715], [18.8536489, 43.7235829], [18.8539522, 43.7235258], [18.8542276, 43.7234719], [18.854335, 43.723233], [18.8543219, 43.7230276], [18.8545552, 43.7226838], [18.8552475, 43.7225611], [18.8553804, 43.7228615], [18.8556801, 43.7228738], [18.8563275, 43.7226217], [18.8568667, 43.7224371], [18.8571456, 43.7223682], [18.8574245, 43.7223194], [18.8579462, 43.72263], [18.8582117, 43.7227117], [18.8584586, 43.7226995], [18.8588184, 43.7224424], [18.8589241, 43.722277], [18.8591596, 43.7221585], [18.8594684, 43.722367], [18.8597215, 43.7226491], [18.8605359, 43.7231084], [18.8609418, 43.7234039], [18.8612715, 43.7237434], [18.8615844, 43.7236501], [18.8617852, 43.7239219], [18.8621092, 43.7239544], [18.8622961, 43.7241741], [18.8626089, 43.724173], [18.8630211, 43.7239506], [18.8640742, 43.7241939], [18.8649445, 43.7245362], [18.8662605, 43.7254948], [18.8673053, 43.7263429], [18.8677172, 43.7272542], [18.8684187, 43.7274718], [18.8686923, 43.7271496], [18.8688409, 43.7267231], [18.8692932, 43.7261481], [18.8699805, 43.7256855], [18.8707829, 43.7251075], [18.8720623, 43.7239933], [18.8746666, 43.7210614], [18.8751531, 43.7209964], [18.8756462, 43.7209337], [18.8763386, 43.72103], [18.8773444, 43.721033], [18.8769748, 43.7192783], [18.8798634, 43.7191143], [18.8839726, 43.7155111], [18.8852195, 43.7177238], [18.8885367, 43.7200701], [18.8896062, 43.7211257], [18.889968, 43.7216428], [18.8905573, 43.7216739], [18.8913898, 43.7220544], [18.8921384, 43.7222084], [18.893472, 43.7222212], [18.8940133, 43.7226176], [18.895199, 43.7233295], [18.8962428, 43.7241029], [18.8966902, 43.7242807], [18.8971103, 43.7244148], [18.8976956, 43.7246144], [18.8983672, 43.7245173], [18.89905, 43.7244356], [18.8996749, 43.7242338], [18.9001221, 43.724248], [18.9005466, 43.7242617], [18.9009567, 43.7242023], [18.9012944, 43.7240593], [18.9016177, 43.7238849], [18.9018533, 43.7237203], [18.9022263, 43.7236184], [18.9028451, 43.7237882], [18.903153, 43.7238221], [18.9039637, 43.7237326], [18.9043798, 43.7237009], [18.9045771, 43.7237138], [18.9047743, 43.7237005], [18.9052091, 43.7234484], [18.9055354, 43.7231389], [18.9058671, 43.7229064], [18.9059787, 43.7227248], [18.9061265, 43.7226112], [18.9063995, 43.7226169], [18.9081278, 43.7227928], [18.9091542, 43.7234341], [18.9092449, 43.723556], [18.9094324, 43.7236244], [18.9096217, 43.7236296], [18.9097067, 43.7234996], [18.9095429, 43.7229533], [18.9095716, 43.7226257], [18.9097837, 43.7222715], [18.9099385, 43.7220928], [18.9101803, 43.7220335], [18.9104341, 43.7221028], [18.9106027, 43.7221906], [18.910667, 43.7222305], [18.9107898, 43.7222282], [18.9108477, 43.7221767], [18.9108203, 43.7221077], [18.9107433, 43.722017], [18.9106182, 43.721438], [18.9107939, 43.7210228], [18.9118197, 43.7205239], [18.9150237, 43.7211386], [18.9223, 43.7221807], [18.9259829, 43.7214349], [18.9290337, 43.721278], [18.9310181, 43.721278], [18.9366083, 43.7213305], [18.9363144, 43.722126], [18.9360036, 43.722268], [18.935979, 43.7226136], [18.9365953, 43.7225649], [18.9373183, 43.7220167], [18.9376883, 43.7219585], [18.9380754, 43.7219865], [18.9387942, 43.7224669], [18.9390118, 43.7231066], [18.9336557, 43.7240805], [18.9311525, 43.7259503], [18.9294153, 43.7306487], [18.9260055, 43.739287], [18.9227386, 43.7473254], [18.9222775, 43.7500265], [18.9208046, 43.7666785], [18.9168846, 43.7684323], [18.91443, 43.7695274], [18.9143059, 43.7695828], [18.914, 43.7697193], [18.907587, 43.7686234], [18.9039548, 43.7689754], [18.9005636, 43.7690344], [18.8958012, 43.7720007], [18.8949233, 43.7725475], [18.8915555, 43.7731869], [18.8903476, 43.7731802], [18.8846748, 43.7703996], [18.8832005, 43.7697943], [18.8809552, 43.7688723], [18.8786159, 43.7679118], [18.8782145, 43.767747], [18.8769128, 43.7672125], [18.8742363, 43.7661135], [18.8718832, 43.7651472], [18.8715591, 43.7650177], [18.8705247, 43.7646186], [18.8640687, 43.7621774], [18.8632827, 43.7618802], [18.8627371, 43.761798], [18.8591265, 43.7616507], [18.8562026, 43.761596], [18.8535994, 43.7623296], [18.8497852, 43.7634816], [18.8361622, 43.7666961], [18.8309839, 43.7680809], [18.8307196, 43.7681516], [18.8266349, 43.7692797], [18.8202839, 43.7710338], [18.8197075, 43.7710078], [18.8013678, 43.7701801], [18.7925707, 43.7697831], [18.7890029, 43.769763], [18.7706378, 43.7696595], [18.7578724, 43.7735954], [18.7555039, 43.7618326], [18.7538395, 43.7532939], [18.7532205, 43.7501179], [18.7466995, 43.749132], [18.7353222, 43.7471723], [18.7343519, 43.746394], [18.7338274, 43.7459385], [18.7323941, 43.7446944], [18.7279982, 43.741045], [18.724045, 43.732667], [18.7199251, 43.7243594], [18.7213935, 43.7054057], [18.7215104, 43.7038964], [18.7121295, 43.6996736], [18.7013709, 43.6897904], [18.7008789, 43.6878395], [18.7002908, 43.6860962], [18.6993271, 43.6831404], [18.7015513, 43.6780382], [18.7036401, 43.6728664], [18.6973579, 43.6724351], [18.6951704, 43.6723261], [18.6939541, 43.6728397], [18.6892536, 43.6733665], [18.6880475, 43.6736596], [18.6864499, 43.6742116], [18.6849852, 43.6747182], [18.6834623, 43.6744074], [18.6820155, 43.6756208]]]}}]}