{"type": "FeatureCollection", "features": [{"type": "Feature", "properties": {"name": "Општина Петрово / Opština Petrovo, Република Српска / Republika Srpska, 74317, Bosna i Hercegovina / Босна и Херцеговина", "source": "OpenStreetMap relation 2528252", "licence": "ODbL 1.0"}, "geometry": {"type": "Polygon", "coordinates": [[[18.2379824, 44.6608847], [18.2381606, 44.6608988], [18.2383124, 44.6608753], [18.2386885, 44.66065], [18.2390118, 44.6604717], [18.2392164, 44.6603778], [18.2395067, 44.6600352], [18.2396057, 44.6597817], [18.2396783, 44.6593874], [18.2398762, 44.6588524], [18.2399818, 44.6586552], [18.2400148, 44.6583971], [18.2399488, 44.6581765], [18.2398499, 44.6579324], [18.2399818, 44.6576132], [18.2403513, 44.6572424], [18.2406417, 44.6569984], [18.2408726, 44.6567778], [18.2410508, 44.6565149], [18.2411036, 44.6562802], [18.2409914, 44.6560314], [18.2407473, 44.6558155], [18.2405955, 44.6556184], [18.2406153, 44.6553649], [18.2407833, 44.6551831], [18.2409581, 44.6550798], [18.2410868, 44.6548826], [18.2410868, 44.6546691], [18.2409812, 44.6540964], [18.2408888, 44.653803], [18.2406843, 44.6536153], [18.2405259, 44.6534252], [18.2405226, 44.6532562], [18.2406117, 44.6531013], [18.2408064, 44.6529722], [18.2409977, 44.6529323], [18.2412221, 44.6529299], [18.2415091, 44.6529182], [18.2419083, 44.6528407], [18.2421327, 44.652721], [18.2424395, 44.6524535], [18.2426309, 44.6522939], [18.2426573, 44.6520991], [18.2425088, 44.6518831], [18.242489, 44.6515804], [18.2426573, 44.6514348], [18.2428552, 44.6512635], [18.2430532, 44.6510875], [18.2432116, 44.6509091], [18.2433204, 44.650733], [18.2433501, 44.6505617], [18.243294, 44.6502941], [18.2432379, 44.6501791], [18.2432412, 44.6500852], [18.2432907, 44.6499984], [18.2433732, 44.6499374], [18.2435382, 44.649881], [18.2436306, 44.6498388], [18.2437328, 44.6497191], [18.2437757, 44.6495102], [18.2437823, 44.6493271], [18.2437592, 44.6491839], [18.2437691, 44.6489727], [18.2438186, 44.6488929], [18.2439704, 44.6488295], [18.2441618, 44.6487943], [18.2443729, 44.6487825], [18.2444719, 44.6487778], [18.2447325, 44.6487403], [18.2448117, 44.6486417], [18.244815, 44.6484586], [18.2447193, 44.6482098], [18.2445478, 44.6479821], [18.2444521, 44.6478249], [18.2444257, 44.647684], [18.2444257, 44.6475807], [18.2444686, 44.6474962], [18.2444653, 44.6474141], [18.2444422, 44.6473132], [18.2445313, 44.6472287], [18.2445742, 44.647123], [18.2446336, 44.6470503], [18.2447688, 44.6469587], [18.2448084, 44.646893], [18.2449569, 44.6467428], [18.2451219, 44.6466324], [18.2452505, 44.6465268], [18.245399, 44.6464071], [18.2455013, 44.6462827], [18.2455838, 44.6462264], [18.245653, 44.6461512], [18.2456662, 44.6460409], [18.2456695, 44.6459588], [18.2457322, 44.6458625], [18.2457718, 44.6457874], [18.2457718, 44.645724], [18.2457322, 44.6456442], [18.2456497, 44.6455808], [18.2456365, 44.6454705], [18.2456926, 44.6453156], [18.2457388, 44.6452053], [18.2458015, 44.645109], [18.245818, 44.6449987], [18.245785, 44.6448438], [18.2457553, 44.6446795], [18.2458081, 44.6445292], [18.2458939, 44.644487], [18.2459566, 44.6444776], [18.2460622, 44.6444635], [18.246105, 44.6444189], [18.2460886, 44.644379], [18.2459764, 44.6443133], [18.2458675, 44.6442687], [18.2457223, 44.6441912], [18.2455904, 44.6440245], [18.2455805, 44.6438978], [18.2455508, 44.6437475], [18.2453891, 44.6436302], [18.2449371, 44.643548], [18.2444851, 44.6434799], [18.2442079, 44.6433931], [18.2440628, 44.6432874], [18.2440298, 44.6431841], [18.2440463, 44.6430996], [18.2441288, 44.6430292], [18.2442541, 44.6429588], [18.2444191, 44.6428884], [18.2445082, 44.642832], [18.2445511, 44.6425104], [18.2445577, 44.6424447], [18.244683, 44.6423461], [18.2448216, 44.6423038], [18.2450955, 44.6423273], [18.2453297, 44.6423555], [18.2454122, 44.6423837], [18.245531, 44.642386], [18.2455772, 44.6423508], [18.2455805, 44.6422968], [18.2455211, 44.6422076], [18.2453462, 44.642109], [18.2451417, 44.6420151], [18.2448183, 44.6418954], [18.2445247, 44.6417663], [18.2443399, 44.6416583], [18.2440661, 44.6415104], [18.2438648, 44.6414353], [18.2436405, 44.6412921], [18.2434755, 44.6411231], [18.2433864, 44.6409705], [18.2433435, 44.6408625], [18.2432643, 44.6407827], [18.2431225, 44.6406864], [18.2430961, 44.6405902], [18.2431324, 44.6404704], [18.2431357, 44.6403319], [18.2430895, 44.640177], [18.2430037, 44.6400056], [18.2429212, 44.6399446], [18.2428684, 44.6398249], [18.2429278, 44.6397403], [18.2430301, 44.6397098], [18.2431258, 44.639691], [18.2432643, 44.6396065], [18.2433633, 44.6395549], [18.2434458, 44.6394985], [18.2434095, 44.6394352], [18.2432808, 44.6393812], [18.2431126, 44.6393412], [18.2430334, 44.6392966], [18.2429839, 44.6391769], [18.2429905, 44.639083], [18.2430493, 44.638875], [18.2430493, 44.6385298], [18.2429933, 44.6381048], [18.2429933, 44.6378923], [18.2430213, 44.6376134], [18.2433106, 44.6374275], [18.2434693, 44.6374009], [18.2436466, 44.6374142], [18.2438799, 44.637474], [18.2441132, 44.6374806], [18.2442905, 44.6373544], [18.2445331, 44.6371486], [18.2446544, 44.6368896], [18.2445331, 44.6360264], [18.2444118, 44.6357873], [18.2443744, 44.6355416], [18.2445238, 44.6354885], [18.2447011, 44.6354487], [18.245121, 44.6353424], [18.2453076, 44.6351764], [18.245289, 44.6349373], [18.2451863, 44.6347049], [18.2451117, 44.6344393], [18.2448037, 44.6339745], [18.2447291, 44.6337819], [18.2447664, 44.633669], [18.244981, 44.6336557], [18.245205, 44.6336092], [18.2453356, 44.633483], [18.2453263, 44.6333702], [18.2452796, 44.6332307], [18.245233, 44.6330448], [18.245345, 44.6328655], [18.2454289, 44.6326795], [18.2453916, 44.6324471], [18.2453263, 44.6321682], [18.2453263, 44.6320619], [18.2452516, 44.6318494], [18.244981, 44.6317299], [18.2446731, 44.6316435], [18.2444491, 44.6314045], [18.2442438, 44.6310658], [18.2440385, 44.6306607], [18.2438239, 44.6303751], [18.2435812, 44.6301427], [18.2433759, 44.6299833], [18.243152, 44.6298372], [18.24304, 44.6296579], [18.2427414, 44.6294919], [18.2423588, 44.6294254], [18.2420135, 44.6292129], [18.2417709, 44.6288941], [18.2416495, 44.6286285], [18.2415936, 44.628323], [18.2413789, 44.6279644], [18.2411055, 44.6277105], [18.2407602, 44.6275378], [18.2405923, 44.6273917], [18.2405269, 44.6271127], [18.2405269, 44.627033], [18.2404243, 44.6265681], [18.2402283, 44.626256], [18.2401537, 44.625904], [18.2400044, 44.6253129], [18.2397151, 44.6247218], [18.2400697, 44.624662], [18.2405176, 44.6246487], [18.2410402, 44.624569], [18.2422253, 44.6245956], [18.2427946, 44.624662], [18.2435878, 44.624755], [18.244381, 44.6248878], [18.2450716, 44.6250871], [18.2456875, 44.6252199], [18.2462194, 44.625293], [18.246714, 44.6253461], [18.2470872, 44.6254657], [18.2473579, 44.6255786], [18.2481417, 44.6256848], [18.2484217, 44.6257446], [18.248711, 44.6258841], [18.2492242, 44.6263158], [18.2494575, 44.6265947], [18.2497655, 44.6269467], [18.2499988, 44.6271393], [18.2502507, 44.6272389], [18.2505307, 44.6272323], [18.2510346, 44.6271592], [18.2517905, 44.6269002], [18.2523877, 44.626701], [18.2525922, 44.6266019], [18.2528263, 44.6264884], [18.2531156, 44.6263025], [18.2534609, 44.6260568], [18.2538622, 44.6256583], [18.2539633, 44.625542], [18.2543008, 44.6251535], [18.254954, 44.6244893], [18.2554859, 44.6238384], [18.2557192, 44.6234864], [18.2561111, 44.6231875], [18.2564844, 44.6229816], [18.2569417, 44.6226363], [18.2574549, 44.6224237], [18.2577722, 44.6223241], [18.2580522, 44.6222975], [18.2584908, 44.6222909], [18.259032, 44.6221912], [18.2593773, 44.6221115], [18.2599465, 44.6220318], [18.2602451, 44.6219654], [18.2608611, 44.6217794], [18.261365, 44.6217064], [18.2621115, 44.6215138], [18.2625781, 44.6214938], [18.2630727, 44.6215669], [18.2635113, 44.6215868], [18.2639592, 44.621527], [18.2642392, 44.6214075], [18.2648831, 44.6210953], [18.265275, 44.6207898], [18.2660869, 44.620172], [18.2665255, 44.6198067], [18.2670294, 44.6193086], [18.267244, 44.6190229], [18.2676546, 44.6187107], [18.2678879, 44.6186111], [18.2683172, 44.6184318], [18.2685132, 44.6182524], [18.2688678, 44.6177675], [18.2692037, 44.6173822], [18.2694464, 44.6172228], [18.2696237, 44.6170169], [18.2699596, 44.6166781], [18.2705662, 44.6162596], [18.2718446, 44.6150573], [18.2721339, 44.6117624], [18.2700436, 44.6077963], [18.2695303, 44.6073445], [18.2693904, 44.6070455], [18.2695957, 44.6067997], [18.2712748, 44.6035253], [18.2733434, 44.602433], [18.277616, 44.6002107], [18.2778833, 44.6000321], [18.2780845, 44.5998653], [18.2782561, 44.5996891], [18.2784937, 44.5990525], [18.2786652, 44.5984582], [18.2787213, 44.5980799], [18.2787345, 44.5978661], [18.2787972, 44.597697], [18.278916, 44.5975443], [18.279071, 44.597408], [18.2793152, 44.5972506], [18.2794439, 44.5971825], [18.279655, 44.5971144], [18.2799685, 44.5970298], [18.2804238, 44.5969194], [18.2810902, 44.5966656], [18.2814795, 44.5964965], [18.2818029, 44.5963367], [18.2820239, 44.5962357], [18.2824429, 44.5961018], [18.2828685, 44.5959045], [18.2834228, 44.5956037], [18.2831391, 44.5943515], [18.2827993, 44.5935903], [18.2826673, 44.5931204], [18.2826211, 44.5922487], [18.2825452, 44.5917765], [18.2825023, 44.5914687], [18.2824693, 44.5912784], [18.2822516, 44.5906957], [18.2821988, 44.5905876], [18.2822219, 44.5904302], [18.2823176, 44.590301], [18.2825683, 44.5901224], [18.2826871, 44.5900331], [18.2827729, 44.5899344], [18.282852, 44.5898122], [18.2829015, 44.5897065], [18.2830269, 44.589589], [18.2831952, 44.5895326], [18.2833337, 44.5894457], [18.2834888, 44.5892953], [18.2836373, 44.5890721], [18.2837693, 44.5887455], [18.2839177, 44.5884189], [18.2839408, 44.588339], [18.2840036, 44.5882521], [18.284053, 44.5881839], [18.2843268, 44.5879043], [18.2845941, 44.5877187], [18.2848811, 44.5876106], [18.2851154, 44.5874767], [18.2856136, 44.5871642], [18.2865803, 44.5863371], [18.2876855, 44.5855029], [18.2885071, 44.584986], [18.2896189, 44.5828288], [18.2890218, 44.5818089], [18.287349, 44.5789232], [18.286831, 44.5780278], [18.2866924, 44.5778092], [18.2866001, 44.5776118], [18.2865539, 44.5774403], [18.286544, 44.5773321], [18.2864417, 44.5771935], [18.2863262, 44.5769608], [18.2862074, 44.576512], [18.2861745, 44.5763427], [18.2861613, 44.5762229], [18.2861712, 44.576096], [18.2861942, 44.5759385], [18.2861942, 44.5758328], [18.2861942, 44.5757105], [18.2861811, 44.5755742], [18.2861547, 44.5753909], [18.2861382, 44.575257], [18.2861811, 44.5751818], [18.2862272, 44.5750995], [18.2861942, 44.5749185], [18.286214, 44.5748198], [18.2862107, 44.5747235], [18.2861778, 44.5745848], [18.2861217, 44.5743968], [18.2861217, 44.5742793], [18.2860986, 44.5742088], [18.2859798, 44.5741101], [18.2859237, 44.5740372], [18.2859006, 44.5739573], [18.2859006, 44.5738868], [18.2858907, 44.5737834], [18.2858511, 44.5737105], [18.2857983, 44.573633], [18.2858082, 44.5735577], [18.2858049, 44.5734261], [18.2857296, 44.5732311], [18.2905032, 44.5737773], [18.2923008, 44.5741721], [18.2975255, 44.5760722], [18.3009253, 44.5772238], [18.3036677, 44.5779902], [18.3071513, 44.5787362], [18.3091963, 44.5789992], [18.3105225, 44.5793931], [18.3132555, 44.5791716], [18.3163924, 44.5787467], [18.3190967, 44.5780093], [18.3214663, 44.5780239], [18.3301322, 44.5753304], [18.3331122, 44.5742658], [18.3344727, 44.5744734], [18.3361423, 44.5745769], [18.3372463, 44.5747924], [18.3388295, 44.5748481], [18.3419844, 44.5752395], [18.3442397, 44.5752886], [18.3454915, 44.5752669], [18.3534276, 44.574084], [18.3553024, 44.574671], [18.3606686, 44.5756382], [18.3655736, 44.5766581], [18.3690874, 44.5773713], [18.3761739, 44.5785679], [18.38411, 44.5814423], [18.4005239, 44.5824174], [18.401633, 44.5827901], [18.4030545, 44.5831556], [18.4056756, 44.5840162], [18.407972, 44.5848332], [18.4090223, 44.5851463], [18.4100818, 44.5856183], [18.4115253, 44.5859674], [18.4126127, 44.5865476], [18.4135866, 44.587232], [18.4149426, 44.588417], [18.4150499, 44.5892994], [18.4150093, 44.5903761], [18.4148572, 44.5915385], [18.4148452, 44.5917875], [18.4149601, 44.5926304], [18.4164171, 44.5932503], [18.4182365, 44.5935749], [18.4195292, 44.5939979], [18.4201867, 44.5948652], [18.4202951, 44.5955994], [18.4202502, 44.5964002], [18.4194507, 44.597036], [18.4184906, 44.5973951], [18.4172577, 44.5975255], [18.4165105, 44.5977915], [18.4163573, 44.5984433], [18.4169058, 44.5988802], [18.4195626, 44.5999], [18.4211991, 44.6026578], [18.4231697, 44.6044842], [18.4241041, 44.6055969], [18.4244325, 44.6062622], [18.4245323, 44.6072806], [18.4245684, 44.607649], [18.4247496, 44.608161], [18.4243136, 44.6087576], [18.4225751, 44.6094954], [18.4214935, 44.6101122], [18.4209046, 44.6111401], [18.4209103, 44.6121036], [18.4205006, 44.6127568], [18.4181042, 44.6139104], [18.4169204, 44.6146605], [18.4158145, 44.6150587], [18.4146047, 44.6150633], [18.4143135, 44.6146829], [18.4137151, 44.6139381], [18.4130984, 44.6117792], [18.4126907, 44.610661], [18.4112745, 44.6102822], [18.4106222, 44.6104349], [18.4103089, 44.6108596], [18.409236, 44.6114584], [18.4080473, 44.6122436], [18.4076052, 44.6127782], [18.4075108, 44.614211], [18.4070817, 44.6145531], [18.4060388, 44.6147425], [18.4029232, 44.6143271], [18.4009061, 44.6140918], [18.3995243, 44.614046], [18.3983784, 44.6133098], [18.398623, 44.6123199], [18.3980222, 44.6116417], [18.3967133, 44.6110215], [18.3944989, 44.6104319], [18.3940569, 44.6109665], [18.3939077, 44.6117881], [18.3938075, 44.613265], [18.3937517, 44.6159228], [18.3942152, 44.6173768], [18.3947988, 44.6183819], [18.39564, 44.6193258], [18.3962022, 44.620511], [18.3966464, 44.6210441], [18.3988096, 44.6222855], [18.3991663, 44.6231198], [18.3994721, 44.6241113], [18.3990757, 44.6263964], [18.3981244, 44.6282664], [18.396771, 44.6294834], [18.3956827, 44.6309909], [18.3939719, 44.6328657], [18.3936464, 44.6331296], [18.3932239, 44.633472], [18.3927035, 44.6345274], [18.3927165, 44.6353143], [18.3916626, 44.6357128], [18.3907455, 44.6360595], [18.3900365, 44.6367261], [18.3896267, 44.6378878], [18.3895487, 44.6391144], [18.3892755, 44.6400123], [18.3887031, 44.6404797], [18.3877208, 44.6408269], [18.3860751, 44.6411092], [18.3837464, 44.6410259], [18.3818405, 44.6405168], [18.3802079, 44.6401789], [18.3774108, 44.639082], [18.3757391, 44.6378138], [18.3738137, 44.6366381], [18.3727664, 44.636365], [18.3699108, 44.6361012], [18.3685709, 44.6365687], [18.3683692, 44.6375962], [18.3682001, 44.6386978], [18.3671333, 44.6389431], [18.3663267, 44.6388182], [18.3657088, 44.638957], [18.363959, 44.6401095], [18.3628597, 44.6404705], [18.361188, 44.6404011], [18.360544, 44.639966], [18.3602578, 44.6391792], [18.3598285, 44.6384571], [18.3590284, 44.6382905], [18.357129, 44.6393921], [18.3562704, 44.6395494], [18.3551906, 44.6393273], [18.3547613, 44.6387811], [18.3533758, 44.6382442], [18.3529595, 44.638633], [18.3531806, 44.6394337], [18.3547873, 44.6412897], [18.3551125, 44.6420117], [18.3546052, 44.6425301], [18.3536034, 44.6427707], [18.3525301, 44.643738], [18.3517886, 44.6452282], [18.3512812, 44.6460797], [18.3503706, 44.6461307], [18.349616, 44.6460011], [18.3487964, 44.6454827], [18.3483996, 44.6447145], [18.3479118, 44.6441684], [18.3468572, 44.6444374], [18.3467026, 44.6451413], [18.3469067, 44.6463962], [18.3468552, 44.6475748], [18.3467093, 44.6484113], [18.3462201, 44.6492296], [18.3454648, 44.6496753], [18.3440743, 44.6499623], [18.343113, 44.6498646], [18.3432933, 44.6492174], [18.3429328, 44.6484846], [18.3418255, 44.6481976], [18.3410359, 44.6475198], [18.3401948, 44.6474282], [18.3389437, 44.6479834], [18.3375941, 44.6485823], [18.3364611, 44.6492968], [18.336813, 44.6508782], [18.3364869, 44.6517453], [18.3346844, 44.6529359], [18.3339635, 44.6539006], [18.333397, 44.6545906], [18.3328562, 44.6548775], [18.3320323, 44.65525], [18.3313113, 44.6558849], [18.330968, 44.6566909], [18.3311997, 44.6573319], [18.3328219, 44.6581622], [18.3335, 44.6586629], [18.3334742, 44.6593711], [18.3333111, 44.6610011], [18.3328648, 44.6618436], [18.3315859, 44.6637055], [18.3303414, 44.6644991], [18.3293887, 44.6649753], [18.3288994, 44.6654881], [18.3293029, 44.6660009], [18.3305474, 44.6662206], [18.3321267, 44.6663366], [18.3349591, 44.6660436], [18.3358002, 44.6660985], [18.3359461, 44.6666723], [18.3352338, 44.6673926], [18.333706, 44.667942], [18.3312255, 44.6689553], [18.3301011, 44.6701883], [18.3301268, 44.67111], [18.3294573, 44.6719157], [18.3272257, 44.6723918], [18.3275262, 44.6747906], [18.3273202, 44.6754314], [18.326376, 44.6751934], [18.3258095, 44.6744243], [18.3255086, 44.6742375], [18.3252001, 44.6740459], [18.3235779, 44.6744732], [18.322239, 44.6745891], [18.3211747, 44.6742412], [18.3196126, 44.6733013], [18.3187972, 44.6732708], [18.3170376, 44.6743633], [18.3157763, 44.6759661], [18.3159001, 44.6769459], [18.3169734, 44.6787036], [18.3169019, 44.6793372], [18.3161408, 44.679587], [18.3137406, 44.6792678], [18.3130836, 44.6795777], [18.312947, 44.6799847], [18.313025, 44.6805675], [18.3124461, 44.6814972], [18.3128039, 44.6821724], [18.3133958, 44.6825655], [18.3132527, 44.6832038], [18.3126738, 44.6835969], [18.3115289, 44.6837495], [18.3110021, 44.6835738], [18.3109881, 44.682878], [18.3108004, 44.6818348], [18.310267, 44.6807063], [18.3104492, 44.679587], [18.3102605, 44.6788654], [18.3096751, 44.678167], [18.3076391, 44.6773622], [18.3066179, 44.6774547], [18.3050437, 44.6783844], [18.3042892, 44.6785186], [18.3035997, 44.6782503], [18.3033265, 44.6779774], [18.3029817, 44.6764973], [18.3024353, 44.675896], [18.3019019, 44.6757896], [18.3014141, 44.6759006], [18.3000416, 44.6755537], [18.2997814, 44.674957], [18.2997033, 44.6743649], [18.2996253, 44.6742169], [18.299235, 44.6741244], [18.2973876, 44.6757202], [18.2966591, 44.6767794], [18.296568, 44.6775981], [18.297264, 44.6781994], [18.2975502, 44.6787036], [18.2971404, 44.6792678], [18.2948052, 44.680364], [18.2940117, 44.6805814], [18.2928798, 44.6805814], [18.2913967, 44.6808589], [18.2905359, 44.6811249], [18.2894664, 44.6813444], [18.2881866, 44.6812759], [18.2856157, 44.6808491], [18.2849362, 44.6808572], [18.2842284, 44.6815457], [18.2840868, 44.6825321], [18.284234, 44.6831481], [18.2855081, 44.6841587], [18.2854119, 44.6848794], [18.2845681, 44.6852578], [18.2831241, 44.6854229], [18.2821502, 44.6859825], [18.2819859, 44.686518], [18.2832261, 44.6871702], [18.284268, 44.6879029], [18.2840019, 44.6883699], [18.2830052, 44.6885591], [18.2805476, 44.688845], [18.278039, 44.6885994], [18.2775237, 44.6889295], [18.2773482, 44.6893885], [18.2777842, 44.6898313], [18.2770141, 44.6902258], [18.2768499, 44.6910873], [18.2763119, 44.6916751], [18.2750661, 44.6919287], [18.2741827, 44.6925647], [18.2739958, 44.6939414], [18.2741261, 44.6950847], [18.273741, 44.6957851], [18.2734829, 44.6959377], [18.272767, 44.6963607], [18.2717138, 44.697206], [18.2705982, 44.6977977], [18.2692958, 44.6980513], [18.2673478, 44.6980634], [18.266119, 44.6979869], [18.2645731, 44.6980916], [18.2631064, 44.6978984], [18.2618437, 44.6977051], [18.2605526, 44.6974475], [18.262398, 44.6970426], [18.2622954, 44.6969697], [18.2622114, 44.6968171], [18.2621554, 44.6966712], [18.2620341, 44.6964423], [18.2619454, 44.6962101], [18.2619081, 44.6959514], [18.2618101, 44.6956496], [18.2617401, 44.6953876], [18.2617355, 44.6951952], [18.2618148, 44.6949829], [18.2619548, 44.6948436], [18.2619828, 44.694774], [18.2619501, 44.6945086], [18.2617775, 44.6942997], [18.2614508, 44.694094], [18.2608816, 44.6938353], [18.260695, 44.6937889], [18.2604103, 44.6936529], [18.2601444, 44.6934472], [18.2599158, 44.6932416], [18.2595658, 44.6930824], [18.2591785, 44.6930293], [18.2588566, 44.693016], [18.2590852, 44.6920607], [18.2577368, 44.6922763], [18.2574708, 44.6905714], [18.2566449, 44.6906775], [18.2566029, 44.6903425], [18.2568689, 44.6895364], [18.2576948, 44.6877286], [18.2576108, 44.6876092], [18.2574241, 44.6877087], [18.2571815, 44.6878082], [18.2568036, 44.6879177], [18.2565749, 44.6879674], [18.2564256, 44.6879873], [18.256141, 44.687984], [18.2558377, 44.6879143], [18.2545453, 44.6874002], [18.2542746, 44.6872741], [18.2538967, 44.6871746], [18.2536821, 44.687085], [18.2534161, 44.6868827], [18.2533368, 44.6867069], [18.2533835, 44.6866107], [18.2534814, 44.6864879], [18.2535701, 44.6862856], [18.2536121, 44.6862325], [18.2536121, 44.6861927], [18.2536447, 44.6860799], [18.2537427, 44.6859804], [18.2540507, 44.6857216], [18.254228, 44.6855524], [18.2545779, 44.6853965], [18.255973, 44.6837511], [18.2559311, 44.6837345], [18.2558004, 44.683635], [18.2557071, 44.6835222], [18.2553758, 44.6832534], [18.2550585, 44.6831838], [18.2547552, 44.6831572], [18.2544053, 44.6831075], [18.2541487, 44.6829814], [18.2539247, 44.682789], [18.2538221, 44.6825402], [18.2538174, 44.6823312], [18.2539107, 44.6819563], [18.2540787, 44.6816245], [18.2541767, 44.6814155], [18.254396, 44.6811269], [18.2545406, 44.6810274], [18.2546992, 44.6809079], [18.2548532, 44.6807918], [18.2551332, 44.6806856], [18.2552685, 44.6805563], [18.2554691, 44.6803506], [18.2557911, 44.6801913], [18.2561177, 44.680125], [18.2564023, 44.6800785], [18.256519, 44.6800387], [18.2567103, 44.6799292], [18.2568736, 44.6798098], [18.2569762, 44.6797534], [18.2572048, 44.6796638], [18.2575175, 44.6795676], [18.2576901, 44.6794316], [18.2578114, 44.6792391], [18.2578581, 44.6790732], [18.2578394, 44.6788543], [18.2578068, 44.6786685], [18.2578161, 44.6784528], [18.2578814, 44.6780912], [18.25811, 44.6775039], [18.2582127, 44.6771622], [18.258208, 44.6769167], [18.25818, 44.6766811], [18.25811, 44.6764555], [18.2580167, 44.6761702], [18.2579794, 44.6759313], [18.2579794, 44.6756758], [18.2577274, 44.6750985], [18.2576015, 44.6749027], [18.2575128, 44.6746306], [18.2574335, 44.6742822], [18.2572468, 44.6740201], [18.2570135, 44.6738078], [18.2567849, 44.6736054], [18.2565516, 44.6732205], [18.256421, 44.6730579], [18.256337, 44.6729052], [18.2563183, 44.6726896], [18.256337, 44.6724739], [18.2562857, 44.6721952], [18.2561364, 44.6719397], [18.2558891, 44.6717771], [18.2554831, 44.6717107], [18.2553431, 44.6716941], [18.2550958, 44.6716477], [18.2547786, 44.6715747], [18.254438, 44.6714386], [18.2541393, 44.671276], [18.2538874, 44.6710504], [18.2536961, 44.6707982], [18.2534954, 44.670629], [18.2530102, 44.6703868], [18.2525296, 44.670254], [18.2522076, 44.6702043], [18.2519277, 44.6701445], [18.2515684, 44.6701047], [18.2512185, 44.6700616], [18.2508499, 44.6699355], [18.2505886, 44.6697828], [18.2504253, 44.6695671], [18.2503833, 44.6691889], [18.2504579, 44.6689632], [18.2505419, 44.6686646], [18.2506725, 44.6684091], [18.2508125, 44.6682597], [18.2509898, 44.6681071], [18.2512651, 44.6679743], [18.2513724, 44.6678615], [18.2513538, 44.6677122], [18.2511531, 44.6674932], [18.2508825, 44.667231], [18.2507099, 44.6669656], [18.2506772, 44.6666868], [18.2507939, 44.6661393], [18.2508592, 44.665668], [18.2508452, 44.6654026], [18.2508732, 44.6652101], [18.2509292, 44.6650242], [18.2511111, 44.664699], [18.2512698, 44.6644169], [18.2512931, 44.6642809], [18.2511905, 44.6641714], [18.2509012, 44.6641083], [18.250122, 44.6639988], [18.2500287, 44.6639557], [18.25001, 44.6638959], [18.2500426, 44.6638362], [18.2501593, 44.6637532], [18.2504766, 44.6636271], [18.2505326, 44.6633417], [18.2505606, 44.663063], [18.2506399, 44.6627742], [18.2507892, 44.662459], [18.2508779, 44.6620508], [18.2507099, 44.6620474], [18.2504952, 44.6620109], [18.2502806, 44.6618715], [18.2501453, 44.6616558], [18.2500473, 44.6614998], [18.249842, 44.6613737], [18.2495341, 44.6614036], [18.2492028, 44.661533], [18.2489742, 44.6616824], [18.2485775, 44.6618616], [18.2482043, 44.6620308], [18.2478403, 44.6621868], [18.247747, 44.6622864], [18.247733, 44.662376], [18.2474484, 44.6625917], [18.2472205, 44.6628418], [18.2470555, 44.6629216], [18.2464287, 44.6631093], [18.2461251, 44.6631797], [18.2458348, 44.6632361], [18.2455972, 44.6632314], [18.2451551, 44.6632877], [18.2448846, 44.6633111], [18.2445547, 44.6633018], [18.2442313, 44.6632924], [18.2439014, 44.6632361], [18.2435781, 44.663175], [18.2432151, 44.6631703], [18.2429446, 44.6632126], [18.2426741, 44.663222], [18.2424101, 44.6631328], [18.2421594, 44.6629592], [18.2414863, 44.6627151], [18.2410112, 44.662579], [18.2404305, 44.6626025], [18.2399884, 44.6625743], [18.2395133, 44.6625133], [18.2388799, 44.6621988], [18.2385961, 44.6619736], [18.238319, 44.661584], [18.238121, 44.6612085], [18.2379824, 44.6608847]]]}}]}