{"type": "FeatureCollection", "features": [{"type": "Feature", "properties": {"name": "Općina Posušje, Županija Zapadnohercegovačka, Federacija Bosne i Hercegovine, Bosna i Hercegovina / Босна и Херцеговина", "source": "OpenStreetMap relation 2528253", "licence": "ODbL 1.0"}, "geometry": {"type": "Polygon", "coordinates": [[[17.08442, 43.5382603], [17.0848185, 43.5378861], [17.0851618, 43.5370383], [17.0854625, 43.5369688], [17.0858137, 43.5368876], [17.0859021, 43.5368672], [17.0864278, 43.5365833], [17.0868248, 43.5364161], [17.0868945, 43.5361944], [17.0874309, 43.5350783], [17.0895647, 43.5343752], [17.0897913, 43.5343005], [17.0922267, 43.5334683], [17.0930052, 43.5328207], [17.0952093, 43.530987], [17.1001446, 43.530178], [17.1018183, 43.529233], [17.1026884, 43.5290765], [17.1034182, 43.5287852], [17.1036189, 43.5287821], [17.1036182, 43.5286543], [17.1037144, 43.5285236], [17.1037944, 43.5283119], [17.1038201, 43.5281522], [17.104758, 43.5269732], [17.1059918, 43.5261331], [17.1105838, 43.523138], [17.1142122, 43.5215497], [17.1144411, 43.5214496], [17.114543, 43.5214049], [17.1147229, 43.5213262], [17.1148721, 43.5212779], [17.1180134, 43.5202614], [17.1182716, 43.5201779], [17.1186377, 43.5200594], [17.118928, 43.5199427], [17.1208821, 43.519157], [17.1235928, 43.5180672], [17.123732, 43.5180112], [17.1238446, 43.5179295], [17.1240818, 43.5178843], [17.124253, 43.5178516], [17.1244989, 43.5175996], [17.1246345, 43.5174606], [17.1250421, 43.5170429], [17.1253185, 43.5167596], [17.1265579, 43.5154893], [17.1268975, 43.5151412], [17.1284849, 43.5135142], [17.1288488, 43.5131412], [17.1320055, 43.5101865], [17.1338013, 43.5091947], [17.133995, 43.5090877], [17.1346011, 43.508753], [17.1353396, 43.5083451], [17.1354514, 43.508299], [17.1355717, 43.5082494], [17.1392125, 43.5067488], [17.1401433, 43.5063651], [17.1406708, 43.5061477], [17.1413419, 43.5058711], [17.1422897, 43.5054804], [17.1426275, 43.5049742], [17.144572, 43.5020595], [17.1460493, 43.4997118], [17.1461973, 43.4994766], [17.1474033, 43.4975601], [17.1493277, 43.4956884], [17.1504175, 43.4953256], [17.1543926, 43.4940024], [17.1591193, 43.4937298], [17.1614593, 43.4930099], [17.1660044, 43.4921911], [17.1716361, 43.4908708], [17.1751362, 43.4900372], [17.1771144, 43.491462], [17.1798489, 43.4933037], [17.1841786, 43.4964726], [17.1866461, 43.4967131], [17.1871767, 43.4971654], [17.1936943, 43.4973923], [17.1944705, 43.4974612], [17.1986031, 43.4992677], [17.1999875, 43.4990954], [17.205827, 43.4974055], [17.2120154, 43.4963067], [17.2124988, 43.4962677], [17.212706, 43.4962543], [17.2151735, 43.4971826], [17.2195524, 43.4973155], [17.2200538, 43.4974844], [17.2202407, 43.4973824], [17.2206946, 43.4974198], [17.2232553, 43.4986278], [17.2234511, 43.4985403], [17.2235638, 43.4984294], [17.2237006, 43.4982115], [17.2237837, 43.49812], [17.223832, 43.4980791], [17.224009, 43.4980266], [17.2240849, 43.4980158], [17.2241592, 43.4980052], [17.224296, 43.4980052], [17.2244731, 43.4979896], [17.2247252, 43.4979216], [17.2248968, 43.4978184], [17.2251141, 43.497655], [17.2254065, 43.4974993], [17.2255889, 43.4974429], [17.2259241, 43.4974935], [17.2262406, 43.4975344], [17.2264257, 43.497513], [17.2265035, 43.4974877], [17.2268844, 43.4973009], [17.2273403, 43.4970771], [17.2274362, 43.4970468], [17.2275925, 43.4969973], [17.2277109, 43.4969631], [17.2279492, 43.4968942], [17.2283086, 43.4968106], [17.228483, 43.496832], [17.2285742, 43.4968611], [17.2287297, 43.4970907], [17.2288048, 43.4971258], [17.2289121, 43.4971374], [17.2290945, 43.4970654], [17.2292769, 43.4969526], [17.229361, 43.496858], [17.2294275, 43.4967831], [17.2294861, 43.4967172], [17.2295241, 43.4966461], [17.229588, 43.4965265], [17.2298107, 43.4965518], [17.2299769, 43.496544], [17.2301701, 43.496474], [17.2305161, 43.4962307], [17.230647, 43.4961443], [17.2308755, 43.4959934], [17.2310632, 43.495863], [17.2314146, 43.4954952], [17.2317687, 43.4951781], [17.2320825, 43.4950166], [17.2324499, 43.494859], [17.2325048, 43.4947889], [17.2325277, 43.4947597], [17.2338152, 43.4944153], [17.2339736, 43.4944074], [17.2341666, 43.4943978], [17.2344352, 43.4943818], [17.2345129, 43.4943772], [17.2347218, 43.4943648], [17.2347399, 43.4943617], [17.2348543, 43.4943423], [17.2349735, 43.494322], [17.2351172, 43.4942976], [17.2351804, 43.4942869], [17.2352105, 43.4942732], [17.2352463, 43.4942568], [17.2353313, 43.4942181], [17.2354192, 43.494178], [17.2355578, 43.4941039], [17.2356839, 43.4940364], [17.2357866, 43.4939814], [17.2361943, 43.4937596], [17.2366342, 43.4934891], [17.2370177, 43.4933646], [17.237235, 43.4932751], [17.2372836, 43.4931743], [17.2373289, 43.4930805], [17.2374174, 43.4929151], [17.2376883, 43.4927906], [17.238104, 43.4925727], [17.2383508, 43.4924034], [17.2386968, 43.4921173], [17.2388041, 43.4922146], [17.2392252, 43.4919939], [17.2396555, 43.4917683], [17.2401673, 43.4916914], [17.2402554, 43.4916671], [17.2403681, 43.491636], [17.2406041, 43.4915709], [17.2406956, 43.4915456], [17.241136, 43.4914242], [17.2416908, 43.4912711], [17.243261, 43.4910188], [17.2433377, 43.4910065], [17.2433924, 43.4909858], [17.2438312, 43.4908197], [17.2439061, 43.4907797], [17.2440724, 43.4906909], [17.2441632, 43.4906424], [17.2443158, 43.4905767], [17.2451884, 43.4902009], [17.2459329, 43.4897835], [17.2460394, 43.4897238], [17.2462714, 43.4895565], [17.2465235, 43.4894223], [17.2472799, 43.4890623], [17.2481838, 43.4886692], [17.2485317, 43.4885374], [17.2486719, 43.4884843], [17.2490814, 43.4882754], [17.2491413, 43.4882449], [17.2494632, 43.4876339], [17.2497663, 43.4874821], [17.2498924, 43.4876086], [17.2505844, 43.4872564], [17.2515634, 43.4867524], [17.2528669, 43.4862639], [17.2539452, 43.4857521], [17.2548652, 43.4851897], [17.2550878, 43.4851546], [17.2552997, 43.4850087], [17.255812, 43.4847343], [17.2567854, 43.4842163], [17.2576198, 43.4839305], [17.257719, 43.4839052], [17.2579014, 43.4839909], [17.2579497, 43.4840493], [17.2580945, 43.4839558], [17.2584701, 43.4836756], [17.2588482, 43.4834615], [17.2592184, 43.4833292], [17.2592398, 43.4832825], [17.2591728, 43.4831832], [17.2597548, 43.4828407], [17.260817, 43.4823542], [17.2614714, 43.4820681], [17.2620374, 43.4818384], [17.2626355, 43.4816808], [17.2631998, 43.4815147], [17.2635368, 43.4814013], [17.2637004, 43.4813674], [17.2640303, 43.4812526], [17.2641952, 43.4811733], [17.2644514, 43.4810502], [17.2650066, 43.4808614], [17.265889, 43.4804839], [17.2658408, 43.4803885], [17.2661814, 43.4802153], [17.2662377, 43.4800966], [17.2661385, 43.4799331], [17.2663753, 43.4798394], [17.2666696, 43.4797229], [17.2667527, 43.4797015], [17.2668305, 43.4797346], [17.2670381, 43.4796252], [17.2671086, 43.479588], [17.2672757, 43.4798552], [17.2675627, 43.4797657], [17.2677445, 43.4796965], [17.2682118, 43.4795185], [17.2682843, 43.47961], [17.2687134, 43.4794095], [17.2690083, 43.4792088], [17.2694739, 43.4788676], [17.2694939, 43.4788529], [17.2696348, 43.4786799], [17.2696683, 43.4786388], [17.2697385, 43.4784956], [17.2698534, 43.4782612], [17.2693142, 43.4779323], [17.2692659, 43.4775216], [17.2694812, 43.4774303], [17.2696012, 43.4773795], [17.2704381, 43.4767937], [17.2711676, 43.4763402], [17.271637, 43.476237], [17.271527, 43.4759023], [17.2716146, 43.4758762], [17.2718275, 43.4758127], [17.2717812, 43.4756431], [17.2720263, 43.4756016], [17.2727317, 43.4754248], [17.2729611, 43.4753231], [17.2731351, 43.475199], [17.273632, 43.4747317], [17.2738336, 43.4744821], [17.2738693, 43.474359], [17.2739004, 43.4742517], [17.273764, 43.4741193], [17.2741395, 43.4737923], [17.2749066, 43.4733719], [17.2755128, 43.4730566], [17.2758055, 43.4729311], [17.2762209, 43.4727529], [17.2768164, 43.4726011], [17.2773045, 43.4724804], [17.2777229, 43.4722468], [17.2780985, 43.4720055], [17.278415, 43.4716707], [17.2786326, 43.4714627], [17.2814727, 43.4687469], [17.2815692, 43.4685133], [17.2827172, 43.46703], [17.2835487, 43.4661773], [17.28423, 43.4653403], [17.2839671, 43.4650989], [17.2856998, 43.4636232], [17.2863382, 43.4631755], [17.2860753, 43.4628718], [17.2857964, 43.4624629], [17.2854263, 43.4620969], [17.2852921, 43.4620113], [17.2856972, 43.4617465], [17.2857025, 43.4616316], [17.2856623, 43.4615596], [17.2854584, 43.4614642], [17.2853833, 43.4614233], [17.2852224, 43.4613844], [17.2851205, 43.4610963], [17.2852841, 43.4609892], [17.2854209, 43.4608198], [17.2854531, 43.4606251], [17.2854531, 43.460557], [17.2854057, 43.4601427], [17.2853975, 43.460072], [17.2853731, 43.4598608], [17.2853672, 43.4598095], [17.2856945, 43.4598736], [17.2858178, 43.4594833], [17.2859547, 43.459418], [17.2858715, 43.4592039], [17.2858769, 43.458795], [17.2859466, 43.4585147], [17.2861773, 43.4579423], [17.2862524, 43.4573815], [17.2863328, 43.4568325], [17.2859091, 43.4548309], [17.2854209, 43.4539431], [17.2848469, 43.4535108], [17.2845411, 43.4532071], [17.2844607, 43.4530513], [17.2844338, 43.4528332], [17.2843909, 43.4526969], [17.2843158, 43.4526736], [17.2843051, 43.4525022], [17.2845143, 43.4523971], [17.2844499, 43.4523075], [17.2843748, 43.4521907], [17.284348, 43.4519843], [17.2843748, 43.451848], [17.2843909, 43.4516727], [17.2862095, 43.4492582], [17.2865206, 43.4489194], [17.2862792, 43.4481989], [17.2859573, 43.4476498], [17.2855067, 43.4466293], [17.2848952, 43.4462555], [17.2855638, 43.444697], [17.2932073, 43.4440257], [17.2984672, 43.4406352], [17.2988909, 43.4408066], [17.2991162, 43.4409234], [17.299583, 43.4412467], [17.2998083, 43.4413013], [17.2999585, 43.4412935], [17.3000497, 43.441235], [17.3009455, 43.4405612], [17.3015624, 43.4400393], [17.3021471, 43.4396264], [17.3024744, 43.4393304], [17.3025924, 43.4391239], [17.3026943, 43.4386175], [17.3028123, 43.4380333], [17.3028123, 43.4375152], [17.3030537, 43.4372581], [17.3034507, 43.4370322], [17.3039764, 43.4366972], [17.3063528, 43.4354585], [17.3071361, 43.4349131], [17.3073506, 43.4346755], [17.3079944, 43.4336588], [17.3086917, 43.4328407], [17.3095286, 43.4320889], [17.3102103, 43.4315487], [17.3163307, 43.4362804], [17.3169529, 43.4362298], [17.3173606, 43.4362181], [17.3177952, 43.4362103], [17.3179668, 43.4362453], [17.318117, 43.4364284], [17.318058, 43.4366699], [17.3179775, 43.436779], [17.3177201, 43.4370166], [17.3175752, 43.437149], [17.3178863, 43.4373165], [17.3212016, 43.4394667], [17.3264399, 43.4347826], [17.3268181, 43.4349248], [17.3270997, 43.4346034], [17.3268905, 43.4342373], [17.3282477, 43.4328154], [17.327435, 43.4301644], [17.3273224, 43.430032], [17.3279124, 43.4279594], [17.3284221, 43.4275815], [17.3297363, 43.4262335], [17.3319679, 43.4247725], [17.3279393, 43.4227076], [17.3429704, 43.4184762], [17.3503049, 43.4209689], [17.3574918, 43.4187022], [17.3600185, 43.4173735], [17.3612738, 43.4134885], [17.3622394, 43.4101294], [17.3605666, 43.4040959], [17.3652403, 43.402914], [17.3656565, 43.4030286], [17.3655023, 43.4032878], [17.3657209, 43.4034252], [17.3658992, 43.4035606], [17.3661433, 43.4037604], [17.3663297, 43.4039085], [17.3664665, 43.4040702], [17.3664705, 43.404155], [17.3664142, 43.4042495], [17.3662654, 43.4044093], [17.3662613, 43.4044736], [17.3663525, 43.4045818], [17.3664075, 43.404688], [17.3665269, 43.4049315], [17.3666248, 43.4051167], [17.3672578, 43.4052667], [17.3673356, 43.4053866], [17.368948, 43.405875], [17.3694746, 43.4061621], [17.3696046, 43.4063398], [17.3698609, 43.4065226], [17.3701264, 43.4065976], [17.3701452, 43.4067126], [17.3705113, 43.4068061], [17.3708117, 43.4067964], [17.3718739, 43.4064564], [17.3776252, 43.4059381], [17.3802571, 43.4057139], [17.3802799, 43.4056827], [17.3803255, 43.4056662], [17.3803711, 43.4056818], [17.3803833, 43.4057047], [17.3849813, 43.4051747], [17.3851092, 43.4051137], [17.3853121, 43.4050796], [17.3855799, 43.4051021], [17.3858415, 43.4051586], [17.3863327, 43.4055502], [17.3875151, 43.4069551], [17.3876801, 43.4069932], [17.3878464, 43.4069874], [17.3879805, 43.4069864], [17.3881495, 43.4070215], [17.388238, 43.4070897], [17.3882782, 43.4073079], [17.3898843, 43.4106297], [17.3920027, 43.4097753], [17.3921889, 43.4097299], [17.3924008, 43.4095273], [17.3927012, 43.4091668], [17.3930338, 43.4088804], [17.3931357, 43.4087537], [17.3931894, 43.4086466], [17.3932806, 43.4086719], [17.39342, 43.4087342], [17.3936373, 43.4087654], [17.3938841, 43.4085862], [17.394104, 43.40829], [17.3948792, 43.4084049], [17.3951313, 43.4081672], [17.3955487, 43.4079271], [17.3963732, 43.4076372], [17.3965579, 43.4074984], [17.3972154, 43.40738], [17.3976684, 43.4071373], [17.398012, 43.4068539], [17.3983741, 43.4066064], [17.3989508, 43.4064505], [17.3995033, 43.4062673], [17.4000156, 43.4060822], [17.4002087, 43.4060432], [17.4003938, 43.4063589], [17.4005198, 43.4063921], [17.4010992, 43.4062323], [17.4016913, 43.4059705], [17.4021962, 43.4057587], [17.4043125, 43.404989], [17.4043876, 43.4048546], [17.4045056, 43.4046967], [17.4047202, 43.4046597], [17.4051949, 43.4046246], [17.40571, 43.4045411], [17.4060962, 43.4045136], [17.4063697, 43.4044473], [17.4065736, 43.4043596], [17.4067265, 43.404194], [17.4069035, 43.4038315], [17.4072114, 43.4036403], [17.4074721, 43.4035334], [17.4076974, 43.4034885], [17.4077806, 43.4033112], [17.4079683, 43.4031475], [17.4083251, 43.4029799], [17.408655, 43.4028377], [17.4089795, 43.402674], [17.4089259, 43.4025863], [17.4091351, 43.4023602], [17.4093416, 43.4022628], [17.4093175, 43.4021829], [17.4094623, 43.4021517], [17.4096259, 43.4021459], [17.4096665, 43.4022133], [17.4101678, 43.4023544], [17.4105835, 43.4027578], [17.410554, 43.4030345], [17.4104923, 43.4032605], [17.4106666, 43.4034846], [17.4106908, 43.4035431], [17.4106482, 43.4038186], [17.4107927, 43.4043655], [17.4107444, 43.4045252], [17.4111199, 43.404837], [17.4111602, 43.4049656], [17.4111521, 43.4050845], [17.4110556, 43.4051508], [17.4109617, 43.4051819], [17.4114899, 43.4074209], [17.4115048, 43.407492], [17.4114033, 43.407968], [17.4113728, 43.4081113], [17.4113562, 43.4081894], [17.4112272, 43.4087947], [17.4112084, 43.4088862], [17.4104059, 43.4108265], [17.4152956, 43.4142512], [17.4169143, 43.4153849], [17.4158055, 43.4173982], [17.4157917, 43.4174233], [17.4157809, 43.4174863], [17.4156011, 43.4185309], [17.4152304, 43.4206848], [17.4155601, 43.4209243], [17.4157881, 43.4210899], [17.4191594, 43.4235384], [17.4196743, 43.4239124], [17.4208432, 43.4247613], [17.4253334, 43.4259843], [17.4281398, 43.4267995], [17.4287011, 43.4276148], [17.4331913, 43.4292452], [17.4365589, 43.4296529], [17.438804, 43.4308757], [17.4427329, 43.432506], [17.4472232, 43.4341364], [17.4483457, 43.4378045], [17.4472232, 43.4402498], [17.4461006, 43.44351], [17.4461006, 43.4463625], [17.4472232, 43.4492149], [17.4472232, 43.4520672], [17.444978, 43.4549193], [17.4444168, 43.4630676], [17.4427329, 43.467956], [17.4410491, 43.4699927], [17.4382427, 43.4724367], [17.4371202, 43.4765097], [17.4371631, 43.4780922], [17.4391329, 43.4776112], [17.4410491, 43.4781389], [17.444978, 43.476917], [17.4494683, 43.4756951], [17.4528359, 43.4748805], [17.4556423, 43.4736586], [17.4595712, 43.4724367], [17.4635001, 43.4708074], [17.4679904, 43.4695854], [17.4702355, 43.4712147], [17.4741644, 43.472844], [17.4797771, 43.476917], [17.4848286, 43.4789535], [17.487635, 43.4801753], [17.4915639, 43.4838406], [17.4949316, 43.486284], [17.4994218, 43.486284], [17.503912, 43.4846551], [17.5067184, 43.4834333], [17.5084022, 43.4826188], [17.5156988, 43.4805825], [17.5173826, 43.4801753], [17.5213115, 43.4781389], [17.5235566, 43.4761024], [17.5269243, 43.4748805], [17.5308532, 43.4740659], [17.5336596, 43.4752878], [17.5375885, 43.4765097], [17.5381498, 43.4785462], [17.5381498, 43.4805825], [17.5387111, 43.4822116], [17.5387111, 43.4887273], [17.5392724, 43.4915777], [17.5415175, 43.494428], [17.5448851, 43.4984996], [17.5460077, 43.5013495], [17.544149, 43.5161435], [17.5417274, 43.5181707], [17.5344211, 43.5239238], [17.5299525, 43.5292329], [17.5234187, 43.5329977], [17.5194758, 43.5346038], [17.5178772, 43.53509], [17.5154579, 43.5357239], [17.5117081, 43.5361516], [17.5113434, 43.5375711], [17.5120246, 43.539356], [17.5007728, 43.5415803], [17.498686, 43.5459605], [17.4980476, 43.5477433], [17.4943703, 43.5504921], [17.4914331, 43.5529319], [17.4942319, 43.5533285], [17.4963444, 43.5536279], [17.5134537, 43.5485577], [17.5179439, 43.5493713], [17.5241179, 43.5514052], [17.5308532, 43.5522188], [17.5342209, 43.5522188], [17.5375885, 43.5534392], [17.5403949, 43.5546595], [17.5443238, 43.5558797], [17.5443238, 43.5627942], [17.5448851, 43.5656411], [17.548814, 43.5656411], [17.5549881, 43.5668612], [17.5622847, 43.5668612], [17.5662136, 43.5648278], [17.5684587, 43.5640144], [17.5729489, 43.5619808], [17.5780004, 43.5603539], [17.5819293, 43.558727], [17.5841744, 43.5579135], [17.5886646, 43.5595405], [17.5909097, 43.5615741], [17.5953999, 43.5656411], [17.597645, 43.5688946], [17.5998901, 43.5701146], [17.6038191, 43.5729612], [17.6083093, 43.5762142], [17.6060642, 43.5782473], [17.6032578, 43.5806869], [17.5987676, 43.5835329], [17.5942774, 43.5863789], [17.5909097, 43.5880051], [17.5886646, 43.5884116], [17.5841744, 43.5892247], [17.5796842, 43.5896312], [17.5780004, 43.5908508], [17.5768778, 43.5936964], [17.5785617, 43.5957288], [17.5802455, 43.5989807], [17.581368, 43.6026388], [17.5824906, 43.6058902], [17.5858582, 43.6095479], [17.5886646, 43.6144244], [17.5896995, 43.6185449], [17.5897133, 43.6185999], [17.5897872, 43.6188943], [17.5898715, 43.6195047], [17.5899958, 43.6204048], [17.5900461, 43.6207686], [17.590097, 43.6211373], [17.5902896, 43.622532], [17.5903061, 43.6226514], [17.5903447, 43.6229304], [17.5903484, 43.6229574], [17.5903913, 43.6231334], [17.5905678, 43.6238574], [17.5908014, 43.6248155], [17.5914202, 43.6273537], [17.5920263, 43.6298397], [17.5920323, 43.6298642], [17.5918518, 43.6300993], [17.5915819, 43.6304511], [17.5911234, 43.6310484], [17.5904987, 43.6318622], [17.5903907, 43.632003], [17.5902593, 43.6321741], [17.5898858, 43.6326606], [17.5894588, 43.6332169], [17.5894119, 43.6332781], [17.5892259, 43.6335204], [17.5891097, 43.6335277], [17.588571, 43.6335616], [17.5852955, 43.6337676], [17.5835583, 43.6338768], [17.5826355, 43.6345902], [17.5735102, 43.6416446], [17.5697314, 43.6443848], [17.5611937, 43.6456501], [17.5573164, 43.6497242], [17.5545373, 43.6508878], [17.5542909, 43.6510051], [17.5541246, 43.6510905], [17.5540173, 43.6511992], [17.5539154, 43.6513739], [17.5537115, 43.6515757], [17.5524294, 43.6537726], [17.5520088, 43.6545814], [17.5518179, 43.6549486], [17.551378, 43.6550029], [17.5510186, 43.6550689], [17.5501174, 43.655325], [17.5490606, 43.6555812], [17.5481325, 43.655752], [17.5475049, 43.6558762], [17.5462657, 43.6560043], [17.5460994, 43.6560469], [17.5457936, 43.6560625], [17.5453913, 43.6559422], [17.5446832, 43.6555502], [17.5440663, 43.6553639], [17.5437391, 43.6553639], [17.5418884, 43.6552824], [17.5409871, 43.6552164], [17.5402254, 43.6550456], [17.5388253, 43.6545139], [17.5383747, 43.6544479], [17.5379938, 43.6544595], [17.5370979, 43.6547545], [17.5355718, 43.6550844], [17.5355127, 43.6550146], [17.5350648, 43.6545216], [17.5348343, 43.6542334], [17.5343967, 43.653796], [17.533257, 43.652713], [17.532651, 43.6521369], [17.5324078, 43.6519058], [17.5289226, 43.6489328], [17.5283251, 43.6484232], [17.5273255, 43.6475704], [17.52693, 43.6472299], [17.5259364, 43.6463742], [17.5255779, 43.6460536], [17.524397, 43.6449979], [17.5233563, 43.64371], [17.5226033, 43.643199], [17.5221688, 43.6428186], [17.522072, 43.6427183], [17.5215357, 43.6421625], [17.5209403, 43.6414366], [17.5203556, 43.6408193], [17.519925, 43.6403502], [17.5195777, 43.6398992], [17.5189447, 43.6390646], [17.5185328, 43.6384706], [17.5183764, 43.6382334], [17.518207, 43.6379862], [17.517609, 43.6370613], [17.5172156, 43.6364865], [17.5163644, 43.6354889], [17.5157046, 43.6346969], [17.5152276, 43.6339241], [17.5145809, 43.6331397], [17.5140082, 43.6324452], [17.5139503, 43.6323746], [17.5111506, 43.6289583], [17.5106393, 43.6282764], [17.5102229, 43.6277211], [17.5094756, 43.6268755], [17.5092643, 43.6266365], [17.5087041, 43.6262285], [17.5082481, 43.6257936], [17.5077385, 43.6251374], [17.5074702, 43.6246986], [17.5071733, 43.6240892], [17.5067548, 43.6235584], [17.5055282, 43.6218927], [17.5037844, 43.6194367], [17.5033706, 43.6189569], [17.503077, 43.6185647], [17.5026315, 43.6179182], [17.5020381, 43.617392], [17.5010759, 43.616757], [17.5003602, 43.616148], [17.5001317, 43.6158249], [17.5000191, 43.6155608], [17.499885, 43.6153316], [17.499743, 43.6150969], [17.4998367, 43.6150093], [17.4990486, 43.6144456], [17.4825498, 43.6025061], [17.4822575, 43.6022069], [17.4820697, 43.6021254], [17.4818551, 43.6017991], [17.4817747, 43.6016281], [17.4818444, 43.6015854], [17.4816406, 43.6014417], [17.4810954, 43.6010634], [17.4807375, 43.6007607], [17.4803335, 43.6004972], [17.479932, 43.600227], [17.4790712, 43.5996121], [17.4787002, 43.5993461], [17.4783698, 43.5990598], [17.4781832, 43.5989098], [17.4779338, 43.5987486], [17.4777499, 43.5986019], [17.4776427, 43.598564], [17.4775408, 43.5985524], [17.477408, 43.5985379], [17.4771664, 43.5984604], [17.4770272, 43.59833], [17.4770379, 43.5982134], [17.4771613, 43.5980114], [17.4773008, 43.5977278], [17.4771559, 43.5975841], [17.4766731, 43.5971606], [17.4762708, 43.5966517], [17.476126, 43.5965429], [17.4759865, 43.5964069], [17.4758792, 43.5963603], [17.4757692, 43.5963331], [17.4755734, 43.5962282], [17.4754661, 43.5960884], [17.4754339, 43.5959252], [17.4755251, 43.5957309], [17.4757451, 43.595595], [17.475847, 43.5954745], [17.4758623, 43.595338], [17.4757531, 43.5950452], [17.475582, 43.5947189], [17.4750078, 43.59423], [17.4747574, 43.5940659], [17.4743138, 43.5937616], [17.4739212, 43.5936602], [17.4737656, 43.5936252], [17.4736744, 43.5935087], [17.4736798, 43.593431], [17.473771, 43.5931357], [17.4738085, 43.5928793], [17.4737549, 43.5927044], [17.4735779, 43.5924946], [17.4733805, 43.5922858], [17.4733531, 43.5920773], [17.4733311, 43.5918788], [17.4732646, 43.5916222], [17.4735044, 43.5908233], [17.4738743, 43.5904464], [17.4738605, 43.5898599], [17.4708849, 43.5882246], [17.4669903, 43.5832898], [17.4711864, 43.5816106], [17.4705175, 43.5808029], [17.4704973, 43.5807669], [17.4698663, 43.5799942], [17.4696015, 43.5796654], [17.4692034, 43.579171], [17.4674918, 43.5770454], [17.4670133, 43.5764513], [17.4665885, 43.5759237], [17.4643434, 43.5742972], [17.4618083, 43.5742972], [17.4615371, 43.5742972], [17.4614352, 43.5743218], [17.4564856, 43.575517], [17.4542405, 43.5763303], [17.4508728, 43.5767369], [17.4475052, 43.5779567], [17.4407699, 43.5808029], [17.4374022, 43.5828359], [17.4334733, 43.5832424], [17.4284218, 43.5844621], [17.4289831, 43.5856818], [17.4294526, 43.5880629], [17.4295443, 43.5885277], [17.4289435, 43.5893981], [17.4288351, 43.5895551], [17.4285315, 43.5899949], [17.4284602, 43.5900982], [17.4284218, 43.5901538], [17.4281931, 43.5903195], [17.4281413, 43.5903088], [17.4275346, 43.5907964], [17.4273495, 43.5909305], [17.426738, 43.5913734], [17.426738, 43.5922665], [17.426738, 43.592819], [17.426738, 43.5952015], [17.426738, 43.5965351], [17.426738, 43.5970092], [17.426738, 43.5970643], [17.422809, 43.6007225], [17.4211286, 43.6016352], [17.4205639, 43.6019419], [17.4204275, 43.6019419], [17.4192095, 43.6019419], [17.4184263, 43.6019419], [17.4159908, 43.6019419], [17.4149512, 43.6019419], [17.4131473, 43.6012888], [17.4128061, 43.6011652], [17.410461, 43.6003161], [17.4101933, 43.6002579], [17.4084287, 43.5998746], [17.4065701, 43.5994708], [17.4048482, 43.5990967], [17.4020418, 43.5982838], [17.3980043, 43.5975617], [17.3971637, 43.5974113], [17.3968793, 43.5973605], [17.3965631, 43.5973039], [17.3955482, 43.5971224], [17.3946382, 43.5969596], [17.3929536, 43.5966583], [17.3908163, 43.5946254], [17.3885712, 43.5934059], [17.3863261, 43.5889342], [17.3846423, 43.5877146], [17.3801521, 43.5856818], [17.3784683, 43.5832424], [17.3756619, 43.5808029], [17.371733, 43.57877], [17.3689266, 43.5779567], [17.3649976, 43.5767369], [17.36163, 43.5763303], [17.360365, 43.5741919], [17.3599462, 43.5734839], [17.3593849, 43.572264], [17.3577011, 43.568604], [17.3560172, 43.5665706], [17.3537721, 43.563317], [17.3520883, 43.5608768], [17.3508263, 43.5592307], [17.3492819, 43.5572161], [17.3487506, 43.5568311], [17.3485896, 43.5567144], [17.3480451, 43.5563199], [17.3475981, 43.5559959], [17.3442304, 43.5535553], [17.3437974, 43.5534507], [17.341583, 43.5529157], [17.3408628, 43.5527417], [17.3406526, 43.5526547], [17.3404444, 43.5525684], [17.3369339, 43.5511146], [17.3364291, 43.5507081], [17.3362506, 43.5505644], [17.3350935, 43.5496325], [17.3348076, 43.5494023], [17.3346728, 43.5492937], [17.3344948, 43.5491504], [17.3343539, 43.5490369], [17.3341286, 43.5488555], [17.333952, 43.5487133], [17.3329163, 43.5478791], [17.3325597, 43.5475919], [17.3324503, 43.5475039], [17.3318824, 43.5470465], [17.3279534, 43.5458261], [17.3262157, 43.5463299], [17.3260353, 43.5463822], [17.3251471, 43.5466397], [17.3248547, 43.5466397], [17.3247233, 43.5466397], [17.3231944, 43.5466397], [17.3229369, 43.5466397], [17.3200563, 43.5466397], [17.3139216, 43.5466397], [17.3105539, 43.5458261], [17.306625, 43.5466397], [17.302696, 43.5470465], [17.2993284, 43.5490806], [17.2970833, 43.5507078], [17.2909093, 43.553962], [17.2875416, 43.5523349], [17.285159, 43.5506081], [17.2849471, 43.5504545], [17.2848411, 43.5503777], [17.2846171, 43.5502154], [17.2844857, 43.5501202], [17.2836395, 43.5495068], [17.2830514, 43.5490806], [17.2824573, 43.548773], [17.2791225, 43.5470465], [17.2785612, 43.5458261], [17.2779999, 43.5454192], [17.2769129, 43.5534041], [17.2764221, 43.5535247], [17.276296, 43.5534877], [17.2733134, 43.5494074], [17.2732839, 43.5490944], [17.2734207, 43.5488514], [17.2733912, 43.5485734], [17.2732785, 43.5481029], [17.2731632, 43.5474322], [17.273308, 43.546987], [17.2716263, 43.5438492], [17.2714895, 43.5438472], [17.2705936, 43.5441661], [17.2649127, 43.5458692], [17.2603516, 43.5496245], [17.2601737, 43.5497709], [17.2600403, 43.5498807], [17.2599106, 43.5499875], [17.2598809, 43.550012], [17.2591415, 43.5500441], [17.2587624, 43.5500606], [17.2586283, 43.5500567], [17.2549725, 43.5498001], [17.252875, 43.5509859], [17.2524648, 43.5513673], [17.252183, 43.5516293], [17.2520032, 43.5518335], [17.2520488, 43.5519443], [17.2522768, 43.5520512], [17.2540329, 43.5527175], [17.254326, 43.5528287], [17.2545594, 43.5528968], [17.2548062, 43.5530465], [17.2551951, 43.5534527], [17.2553403, 43.5539555], [17.2553641, 43.5540378], [17.255533, 43.5542789], [17.2557235, 43.5544227], [17.2559139, 43.554518], [17.2561634, 43.5545899], [17.2567642, 43.5546812], [17.2574133, 43.5547512], [17.2574723, 43.5548912], [17.257483, 43.5551517], [17.2573811, 43.5555521], [17.2573495, 43.5556709], [17.2573113, 43.5558145], [17.2573556, 43.556143], [17.2575568, 43.5564423], [17.2578438, 43.5565434], [17.258061, 43.5567533], [17.2582528, 43.5571236], [17.2584245, 43.5574298], [17.2582726, 43.557447], [17.2581093, 43.5574619], [17.2580932, 43.5576397], [17.2573703, 43.5578866], [17.2565979, 43.5581431], [17.2545379, 43.559321], [17.2455499, 43.5604931], [17.2428301, 43.5607846], [17.2426933, 43.5608857], [17.2425941, 43.5609537], [17.2423848, 43.5609693], [17.2371143, 43.5610101], [17.2362024, 43.5610567], [17.2359288, 43.5610878], [17.2357759, 43.5611073], [17.2357249, 43.561047], [17.2357464, 43.560977], [17.2359556, 43.5608624], [17.2361353, 43.5606524], [17.2361729, 43.5606019], [17.2362043, 43.5605033], [17.236248, 43.5603745], [17.2361568, 43.5602812], [17.2360629, 43.5602015], [17.2360307, 43.5600674], [17.2360441, 43.5598478], [17.2359824, 43.5597409], [17.2358885, 43.5596514], [17.2358, 43.559562], [17.2357061, 43.5594998], [17.2355425, 43.5591305], [17.2355345, 43.5590139], [17.2354674, 43.5589323], [17.2353467, 43.5588643], [17.2352394, 43.5587923], [17.2351778, 43.5586582], [17.2350919, 43.5585338], [17.2349793, 43.5584425], [17.2348237, 43.5583939], [17.2346467, 43.5583511], [17.2343892, 43.5582267], [17.2330695, 43.558563], [17.2314441, 43.558423], [17.2305644, 43.5583025], [17.2269112, 43.5584464], [17.2262406, 43.5584969], [17.2236925, 43.5586096], [17.218194, 43.5583919], [17.2180277, 43.5583725], [17.2173035, 43.5580265], [17.2154367, 43.5583492], [17.2151363, 43.5584464], [17.2146159, 43.5586679], [17.2144926, 43.5588176], [17.2143692, 43.5590256], [17.2144684, 43.5592549], [17.2145945, 43.5596514], [17.2128645, 43.5597117], [17.2128913, 43.5596534], [17.2083771, 43.5591772], [17.2003359, 43.5599352], [17.2002447, 43.5598614], [17.1946013, 43.5603939], [17.1887594, 43.559461], [17.1881694, 43.5594415], [17.187826, 43.5594376], [17.1870911, 43.5593288], [17.1866995, 43.5592666], [17.1800637, 43.5586602], [17.1724007, 43.5570663], [17.1692142, 43.5564287], [17.164979, 43.5574959], [17.1616101, 43.5581354], [17.1577236, 43.5587515], [17.1556959, 43.5590314], [17.1522455, 43.558154], [17.1519518, 43.5580793], [17.1518141, 43.5580443], [17.1516296, 43.5579974], [17.1506437, 43.5580557], [17.1503449, 43.5580734], [17.149805, 43.5581053], [17.1490584, 43.5581494], [17.1490332, 43.5581509], [17.1485755, 43.558174], [17.1471932, 43.5582438], [17.1467239, 43.5582675], [17.1423036, 43.5583842], [17.1417216, 43.5583936], [17.1413046, 43.5584003], [17.1397689, 43.558425], [17.1395267, 43.5583466], [17.1375105, 43.5576941], [17.1341658, 43.5566348], [17.1340368, 43.5566832], [17.133832, 43.5567599], [17.1331726, 43.5570072], [17.1330276, 43.5570616], [17.132704, 43.5571829], [17.132181, 43.5570664], [17.1312287, 43.5568544], [17.131189, 43.5568485], [17.1311432, 43.5568416], [17.1310585, 43.5568289], [17.1303437, 43.5567218], [17.1283105, 43.5564171], [17.1281737, 43.5564579], [17.125285, 43.5566484], [17.123225, 43.5567689], [17.1215889, 43.5568467], [17.1199554, 43.5586368], [17.1198589, 43.5586407], [17.1188585, 43.5579532], [17.117992, 43.5577855], [17.1167958, 43.55756], [17.1160018, 43.5574784], [17.1150362, 43.5573812], [17.1143711, 43.5574356], [17.1137005, 43.5576494], [17.1132928, 43.5578827], [17.1130543, 43.5580454], [17.112928, 43.5581315], [17.1124077, 43.5583181], [17.111603, 43.5584425], [17.1107769, 43.5585708], [17.1101761, 43.5585824], [17.1092695, 43.558909], [17.1083951, 43.5595465], [17.1075743, 43.5601996], [17.106834, 43.5606466], [17.1062547, 43.5608682], [17.105509, 43.5609187], [17.1053573, 43.5615331], [17.1052623, 43.5619177], [17.1051404, 43.5619009], [17.1043879, 43.5617972], [17.1041465, 43.5619139], [17.1040446, 43.5616573], [17.1037693, 43.5617634], [17.1028644, 43.5621121], [17.1030575, 43.5624814], [17.1020704, 43.5628973], [17.1000963, 43.5623725], [17.0983046, 43.5627729], [17.0941678, 43.5627119], [17.096647, 43.5603317], [17.0927846, 43.5583919], [17.0885333, 43.555425], [17.0878547, 43.5549514], [17.0872783, 43.5542002], [17.0871775, 43.5540688], [17.0866585, 43.5533925], [17.0866907, 43.5533303], [17.086623, 43.5533101], [17.0865995, 43.5533031], [17.0852471, 43.5518235], [17.0863903, 43.5499984], [17.0850491, 43.5451965], [17.0849967, 43.5448926], [17.0845181, 43.5421169], [17.0847756, 43.5413858], [17.0854407, 43.5385199], [17.08442, 43.5382603]]]}}]}