{"type": "FeatureCollection", "features": [{"type": "Feature", "properties": {"name": "Općina Prozor-Rama, Hercegovačko-neretvanska županija (kanton), Federacija Bosne i Hercegovine, Bosna i Hercegovina / Босна и Херцеговина", "source": "OpenStreetMap relation 2528256", "licence": "ODbL 1.0"}, "geometry": {"type": "Polygon", "coordinates": [[[17.3693848, 43.7638341], [17.3856389, 43.7667164], [17.3977947, 43.7628655], [17.4104333, 43.7639503], [17.4107122, 43.7638341], [17.4108839, 43.7637643], [17.4115598, 43.7634777], [17.4119568, 43.7635086], [17.4123859, 43.7637411], [17.4130404, 43.7639581], [17.4137056, 43.7641905], [17.4142527, 43.7644849], [17.4146068, 43.7646012], [17.4146819, 43.7648104], [17.41907, 43.7638806], [17.4205828, 43.76285], [17.4241125, 43.7603085], [17.4373412, 43.7591616], [17.4415576, 43.7507612], [17.4458492, 43.7447624], [17.4459779, 43.7445144], [17.4547434, 43.7354142], [17.4541425, 43.7277702], [17.4571466, 43.7243743], [17.4733043, 43.7155658], [17.4772095, 43.709005], [17.4797201, 43.7067365], [17.4798328, 43.7069905], [17.4800473, 43.7073318], [17.4806875, 43.7081652], [17.4811174, 43.7084242], [17.4814471, 43.7085186], [17.4817084, 43.708676], [17.4818577, 43.7087345], [17.4799921, 43.7005051], [17.4880242, 43.6873169], [17.4913201, 43.683859], [17.4916486, 43.6835144], [17.4916808, 43.6834807], [17.4918255, 43.6833288], [17.491885, 43.6832664], [17.4924323, 43.6826922], [17.4933617, 43.6817171], [17.4936408, 43.6814242], [17.4937963, 43.681304], [17.4941357, 43.6811084], [17.4942005, 43.681071], [17.4943535, 43.6809828], [17.4951597, 43.6805181], [17.4952668, 43.6804563], [17.4955026, 43.6803204], [17.4991555, 43.6782145], [17.5081738, 43.678889], [17.5092964, 43.6801067], [17.5109802, 43.6817304], [17.5121027, 43.6821363], [17.5160317, 43.6837599], [17.5199606, 43.6866011], [17.5222057, 43.6878187], [17.522767, 43.6906597], [17.5250121, 43.6926889], [17.5278185, 43.6943122], [17.5300636, 43.6991819], [17.5339925, 43.6999934], [17.5371622, 43.7016303], [17.5379214, 43.7020223], [17.5384827, 43.7028339], [17.5407278, 43.7064856], [17.5424116, 43.7068914], [17.5440955, 43.7077028], [17.545218, 43.7101372], [17.545218, 43.7121657], [17.5469018, 43.7150056], [17.5474631, 43.7154112], [17.5485857, 43.7186566], [17.5502695, 43.7219018], [17.5519533, 43.722713], [17.5558822, 43.725958], [17.5598112, 43.7275804], [17.5637401, 43.727986], [17.5665465, 43.7283916], [17.5755269, 43.7283916], [17.5800171, 43.7292028], [17.5850686, 43.7312307], [17.587875, 43.7316362], [17.5912426, 43.7316362], [17.5946103, 43.7328529], [17.5974166, 43.7344752], [17.6024681, 43.7344752], [17.6061713, 43.7360041], [17.6063971, 43.7360973], [17.610326, 43.7356918], [17.6125711, 43.7360973], [17.6153775, 43.7365029], [17.6193064, 43.7344752], [17.6193064, 43.7275804], [17.6209902, 43.7231187], [17.6237966, 43.7206849], [17.6282868, 43.7174396], [17.6361447, 43.7190623], [17.6372672, 43.7178453], [17.6406349, 43.7150056], [17.6423187, 43.7145999], [17.6513922, 43.7152129], [17.6517194, 43.7148407], [17.6520252, 43.7143832], [17.6523417, 43.7136309], [17.6524222, 43.7134875], [17.6526153, 43.7133789], [17.6530606, 43.7130842], [17.6533341, 43.7128516], [17.6538974, 43.712363], [17.6544338, 43.7120761], [17.6544974, 43.7120611], [17.6549274, 43.7119598], [17.6554316, 43.7118318], [17.6557857, 43.7114634], [17.6561236, 43.7109438], [17.6565528, 43.7103002], [17.657057, 43.7095556], [17.6575221, 43.7089815], [17.6576073, 43.7088694], [17.6579965, 43.7085932], [17.6582043, 43.7084426], [17.6582597, 43.7083681], [17.6591149, 43.7080135], [17.6599967, 43.7076478], [17.6621854, 43.7073764], [17.6624215, 43.7074151], [17.6625287, 43.7076013], [17.6627004, 43.7078727], [17.6628506, 43.7081286], [17.6630545, 43.7082527], [17.6634407, 43.708214], [17.663784, 43.7080511], [17.6642239, 43.7076866], [17.6644814, 43.7074384], [17.6649964, 43.7072212], [17.6657581, 43.7069963], [17.6797271, 43.704848], [17.6957372, 43.7046592], [17.6958472, 43.7046579], [17.6961851, 43.7055382], [17.6964748, 43.7061044], [17.6969039, 43.7067869], [17.6974511, 43.7072096], [17.6978159, 43.7072484], [17.6978695, 43.7073337], [17.6977569, 43.7075431], [17.6980144, 43.7078378], [17.6984006, 43.708404], [17.6986688, 43.7087375], [17.6988351, 43.7089624], [17.699098, 43.7091097], [17.6993501, 43.7089817], [17.6994137, 43.7090192], [17.699554, 43.709102], [17.6996559, 43.7093579], [17.7007019, 43.7102963], [17.7013993, 43.7106491], [17.702322, 43.7110873], [17.7027243, 43.7112502], [17.7033949, 43.7116961], [17.704221, 43.7122467], [17.7047253, 43.7126073], [17.7051651, 43.7129369], [17.7062809, 43.7136348], [17.7072519, 43.713945], [17.7072573, 43.7141777], [17.7075523, 43.7142281], [17.7078474, 43.7142824], [17.7106583, 43.7146197], [17.7126753, 43.7151237], [17.7128309, 43.714957], [17.7129221, 43.7148252], [17.713016, 43.7146255], [17.7131098, 43.7144336], [17.7132842, 43.7144743], [17.713338, 43.7144792], [17.7135363, 43.7144975], [17.7136973, 43.7146352], [17.7137884, 43.714703], [17.7136915, 43.7154253], [17.714065, 43.7152877], [17.7142671, 43.715197], [17.7143956, 43.7150895], [17.7147594, 43.7153467], [17.7149767, 43.7152943], [17.7155989, 43.7152653], [17.715674, 43.7152808], [17.715784, 43.7153409], [17.7159771, 43.7155657], [17.7158564, 43.7155987], [17.7160522, 43.7160562], [17.7161086, 43.7161221], [17.7162802, 43.7161939], [17.716409, 43.7163683], [17.7164841, 43.7165506], [17.7165806, 43.7166824], [17.7166933, 43.7167677], [17.7169669, 43.7168375], [17.7174228, 43.7169267], [17.7178681, 43.7169538], [17.718206, 43.7174258], [17.7186707, 43.7180748], [17.7199273, 43.7175406], [17.7208142, 43.7164276], [17.721923, 43.7150297], [17.7229947, 43.7143529], [17.7243375, 43.7138098], [17.7266289, 43.7132399], [17.7284521, 43.7125365], [17.7292898, 43.7115659], [17.7299797, 43.7100431], [17.7298688, 43.7089033], [17.7294869, 43.7080662], [17.7283289, 43.7060982], [17.7284398, 43.7053857], [17.7292282, 43.7043705], [17.7311747, 43.7024201], [17.7321972, 43.7011643], [17.7323819, 43.698911], [17.7320124, 43.6975661], [17.7315566, 43.6961499], [17.7314334, 43.694805], [17.7323468, 43.6935826], [17.7327382, 43.6936085], [17.7333435, 43.6941271], [17.73466, 43.6960544], [17.7356306, 43.696655], [17.737461, 43.6972294], [17.7412966, 43.6975398], [17.7469928, 43.6983883], [17.7467877, 43.7003726], [17.7469379, 43.7020441], [17.7469861, 43.7025715], [17.7469432, 43.7030912], [17.7466643, 43.7040103], [17.7466214, 43.704371], [17.7467126, 43.7048169], [17.746895, 43.7054995], [17.7469808, 43.7056391], [17.7469057, 43.7057864], [17.7466965, 43.7060695], [17.7462941, 43.7065736], [17.7460796, 43.7068877], [17.7458328, 43.7076672], [17.7455431, 43.7085087], [17.7454734, 43.7089546], [17.7454519, 43.7095595], [17.7453339, 43.7098155], [17.7450925, 43.7100791], [17.7445936, 43.7106647], [17.7441323, 43.7111571], [17.7440947, 43.711413], [17.7441966, 43.7118318], [17.7441966, 43.7124522], [17.744202, 43.7131734], [17.7442288, 43.7133595], [17.7442503, 43.7136814], [17.7442717, 43.7138946], [17.7443576, 43.7140226], [17.7446526, 43.7144491], [17.7447814, 43.7145887], [17.7449423, 43.7147825], [17.7450389, 43.7150307], [17.7451461, 43.7149686], [17.745291, 43.7149182], [17.7458382, 43.7148717], [17.7467018, 43.7147903], [17.7473885, 43.7147282], [17.7483594, 43.7147244], [17.7491748, 43.7147438], [17.7499849, 43.714767], [17.7510577, 43.7146972], [17.7518249, 43.7146042], [17.7522057, 43.714608], [17.7527314, 43.7146856], [17.7545232, 43.7150307], [17.7550274, 43.7151082], [17.7549684, 43.7153137], [17.755022, 43.7154456], [17.7551454, 43.7155619], [17.7554297, 43.715651], [17.7555585, 43.7156743], [17.7556068, 43.7155813], [17.755655, 43.7154611], [17.7557731, 43.7153564], [17.7564114, 43.7157247], [17.7565455, 43.7156239], [17.7575755, 43.7160349], [17.757656, 43.7159069], [17.7584392, 43.7160814], [17.7611053, 43.7167677], [17.767025, 43.721584], [17.769475, 43.723754], [17.7678194, 43.7242297], [17.7651191, 43.7259035], [17.7636023, 43.729505], [17.7628051, 43.7320444], [17.7621874, 43.7330693], [17.7620881, 43.737071], [17.7617741, 43.7410438], [17.761352, 43.7418015], [17.7615237, 43.7424991], [17.7611375, 43.7431812], [17.759335, 43.7446849], [17.7589702, 43.745987], [17.7589181, 43.7467254], [17.7586269, 43.7470101], [17.7574467, 43.7479556], [17.7574038, 43.7486222], [17.7569532, 43.7491027], [17.756288, 43.7504202], [17.7561218, 43.7516644], [17.7559662, 43.7521252], [17.7556014, 43.7525747], [17.7554512, 43.7535202], [17.7560091, 43.7540781], [17.7568683, 43.7544762], [17.7572751, 43.7551166], [17.7576828, 43.755504], [17.7582407, 43.7557985], [17.7586774, 43.7560669], [17.759099, 43.756527], [17.7595177, 43.7570856], [17.7595603, 43.7575847], [17.7594387, 43.7580955], [17.7593179, 43.7587635], [17.7589917, 43.7598591], [17.7585929, 43.7604804], [17.7581119, 43.7617653], [17.7572309, 43.7627478], [17.7569103, 43.7639038], [17.7561807, 43.7651745], [17.7559774, 43.7652778], [17.7556443, 43.7653915], [17.7550864, 43.7660113], [17.75455, 43.7660733], [17.7539706, 43.7663677], [17.7537024, 43.7667784], [17.7533698, 43.7671115], [17.753284, 43.767375], [17.7536756, 43.767805], [17.7537399, 43.7679173], [17.7537569, 43.7681329], [17.753579, 43.768665], [17.7533912, 43.7688625], [17.7526585, 43.7696884], [17.7514923, 43.770474], [17.7512455, 43.770966], [17.7510416, 43.7710222], [17.7508593, 43.7709912], [17.7507895, 43.7709486], [17.7507165, 43.770897], [17.7498293, 43.7710318], [17.7489924, 43.7713572], [17.7468145, 43.7714889], [17.745944, 43.7717981], [17.7450979, 43.7717524], [17.7446687, 43.7715819], [17.7433383, 43.7714502], [17.7428728, 43.7711041], [17.738843, 43.7706755], [17.736448, 43.7707356], [17.7361822, 43.770598], [17.7355385, 43.7699549], [17.7341437, 43.7694514], [17.7340364, 43.7690252], [17.7340143, 43.768583], [17.7331245, 43.7682272], [17.7313864, 43.768049], [17.7310002, 43.7679096], [17.7302062, 43.7678243], [17.7300453, 43.7672742], [17.7295027, 43.7668552], [17.7283609, 43.7668946], [17.7281769, 43.7670379], [17.7266094, 43.7668753], [17.7258181, 43.7665072], [17.7247682, 43.7658014], [17.7226317, 43.7657944], [17.7216875, 43.7656239], [17.7210653, 43.765252], [17.7197456, 43.7654767], [17.7177924, 43.7652575], [17.7173316, 43.7659571], [17.7163339, 43.7664917], [17.7159476, 43.7669566], [17.715874, 43.7673076], [17.7157603, 43.7693066], [17.7163017, 43.770505], [17.716409, 43.771365], [17.7166021, 43.7720855], [17.7168354, 43.7724908], [17.7160442, 43.7733638], [17.715733, 43.7742779], [17.7150357, 43.7745336], [17.7142095, 43.7751068], [17.7135551, 43.7752075], [17.7127197, 43.7755647], [17.7123642, 43.7762379], [17.7120638, 43.7764935], [17.7120101, 43.7767956], [17.7121174, 43.7769351], [17.712332, 43.7772217], [17.7122354, 43.7774773], [17.711699, 43.7778104], [17.7115488, 43.7783682], [17.7115703, 43.7789259], [17.7112055, 43.779321], [17.711066, 43.779871], [17.7100146, 43.7803048], [17.7097356, 43.7809942], [17.7093494, 43.7812266], [17.7090919, 43.7821716], [17.7082121, 43.7822568], [17.7078903, 43.7825976], [17.7075255, 43.7835658], [17.708652, 43.784658], [17.7089846, 43.7854635], [17.7097571, 43.7860754], [17.7100146, 43.7868654], [17.7107656, 43.7873921], [17.7107978, 43.787942], [17.7110445, 43.7882363], [17.7116346, 43.7882983], [17.7122284, 43.7882357], [17.7128899, 43.7878491], [17.7132654, 43.7873611], [17.7142968, 43.7874469], [17.7152073, 43.7872527], [17.7173102, 43.7872682], [17.7193032, 43.7873943], [17.7198851, 43.7870126], [17.7201962, 43.7865014], [17.7206898, 43.7861761], [17.7216124, 43.7860832], [17.7225607, 43.786049], [17.7231789, 43.7859128], [17.7238655, 43.7857346], [17.7247023, 43.7858663], [17.7261362, 43.7860022], [17.7269125, 43.785541], [17.727803, 43.7852002], [17.7291334, 43.785084], [17.7307641, 43.785479], [17.7315473, 43.7858276], [17.7315418, 43.7870222], [17.7326524, 43.7870901], [17.733636, 43.7870017], [17.7340042, 43.7867493], [17.7344656, 43.7866176], [17.7347553, 43.7861684], [17.7354305, 43.7859329], [17.736783, 43.7861451], [17.7392126, 43.7862476], [17.7399695, 43.7865556], [17.7411969, 43.7865729], [17.7422867, 43.787376], [17.7445614, 43.7874231], [17.7468627, 43.7875962], [17.7480812, 43.7874015], [17.748338, 43.7875431], [17.7486384, 43.787578], [17.7489388, 43.787578], [17.7492119, 43.787448], [17.7497277, 43.7880347], [17.7502595, 43.7886258], [17.7511844, 43.7893588], [17.7514226, 43.7898414], [17.7522433, 43.7904979], [17.7527904, 43.7910865], [17.7528772, 43.7913275], [17.7542391, 43.7925609], [17.754432, 43.7935106], [17.7544356, 43.7944676], [17.7545822, 43.7956558], [17.754271, 43.7958726], [17.7541852, 43.7961359], [17.7544105, 43.7964999], [17.7546039, 43.796671], [17.7552152, 43.7972278], [17.7554941, 43.797948], [17.7559769, 43.798219], [17.7560563, 43.7986705], [17.7560627, 43.7992412], [17.7565026, 43.7997058], [17.7571034, 43.8002866], [17.7574789, 43.8011616], [17.7576077, 43.8022147], [17.7580129, 43.8027786], [17.7578437, 43.8035621], [17.7581549, 43.8040267], [17.7589166, 43.8047855], [17.7590024, 43.8059005], [17.7594852, 43.8064425], [17.7592346, 43.8072416], [17.7593458, 43.8080297], [17.7590132, 43.8089356], [17.7590346, 43.8095163], [17.7589917, 43.8098028], [17.7589702, 43.8101899], [17.7590561, 43.8105305], [17.7591419, 43.8111499], [17.7593258, 43.8114613], [17.7598447, 43.8117886], [17.7608156, 43.8121525], [17.7616149, 43.812439], [17.7627799, 43.8129726], [17.7629721, 43.8131358], [17.7633583, 43.8133951], [17.7642435, 43.8140338], [17.7649645, 43.8147556], [17.764973, 43.815106], [17.7650642, 43.8152299], [17.7659869, 43.8159692], [17.7661639, 43.8160389], [17.7665019, 43.8160699], [17.7668291, 43.8160699], [17.7673023, 43.8159992], [17.7674031, 43.8162247], [17.7674353, 43.816546], [17.7675962, 43.8167395], [17.7678269, 43.8168479], [17.7683687, 43.8168673], [17.7685524, 43.8169429], [17.7710301, 43.8187844], [17.7721238, 43.8196657], [17.7722311, 43.819898], [17.7721452, 43.8201457], [17.7721023, 43.8204863], [17.772274, 43.8208733], [17.77251, 43.8209817], [17.7731108, 43.8211056], [17.7736044, 43.8213378], [17.7744198, 43.8220809], [17.7749511, 43.8223387], [17.7748758, 43.8224834], [17.7746826, 43.822557], [17.7746129, 43.8229169], [17.7746719, 43.8232846], [17.7747501, 43.8233335], [17.7747845, 43.8246972], [17.7754717, 43.8259392], [17.7762437, 43.8266478], [17.7768445, 43.82688], [17.7776885, 43.8272647], [17.7782178, 43.8276231], [17.7785182, 43.8279946], [17.7789044, 43.8281494], [17.7797627, 43.8286447], [17.7806362, 43.8288893], [17.7808903, 43.8289846], [17.7805567, 43.8292639], [17.7799129, 43.8296974], [17.7796554, 43.8300534], [17.7794838, 43.8304868], [17.7795267, 43.8310131], [17.7794379, 43.8314091], [17.7789902, 43.8318799], [17.7786255, 43.8320038], [17.7780032, 43.8321121], [17.7775311, 43.8324062], [17.777338, 43.8327777], [17.7773237, 43.8333586], [17.7775311, 43.8338612], [17.7777242, 43.8343565], [17.7781963, 43.8348364], [17.778368, 43.8351459], [17.7781963, 43.8354864], [17.7781105, 43.8360282], [17.7783251, 43.8364461], [17.7789259, 43.8368795], [17.7792289, 43.8369747], [17.7801275, 43.8370033], [17.7800631, 43.837901], [17.7804923, 43.8383653], [17.7808571, 43.838582], [17.7813961, 43.8388384], [17.7816939, 43.8390463], [17.7818441, 43.8394332], [17.7819514, 43.8396499], [17.7823376, 43.8399904], [17.7823376, 43.8402071], [17.7819085, 43.8405166], [17.7817368, 43.8409964], [17.7817368, 43.8414607], [17.7818656, 43.8418321], [17.7823516, 43.8422555], [17.7826381, 43.8429464], [17.7831885, 43.8435106], [17.7840757, 43.8442309], [17.7843976, 43.8448035], [17.7846551, 43.8458713], [17.7848267, 43.8464904], [17.7851915, 43.8469701], [17.7854275, 43.8471867], [17.785964, 43.8473724], [17.7852344, 43.8474343], [17.784934, 43.8475736], [17.7849897, 43.8478682], [17.7853417, 43.84827], [17.7853203, 43.848564], [17.7851701, 43.8488271], [17.7853203, 43.8492449], [17.7854919, 43.8496008], [17.7853632, 43.8499258], [17.7853203, 43.8502662], [17.7858152, 43.8508954], [17.7866721, 43.8514732], [17.78723, 43.8517362], [17.787466, 43.8521386], [17.7874856, 43.8525347], [17.7877879, 43.8528968], [17.787981, 43.8531753], [17.7879757, 43.8536325], [17.7883672, 43.8539335], [17.7891826, 43.8541656], [17.7898264, 43.8547226], [17.7899551, 43.8552642], [17.7895903, 43.8555117], [17.7887964, 43.8558676], [17.7880454, 43.8556665], [17.7868008, 43.8558986], [17.7863931, 43.8563782], [17.7862859, 43.8570745], [17.7866292, 43.8576934], [17.7876377, 43.8583277], [17.7883458, 43.8587455], [17.7889681, 43.8588074], [17.7891344, 43.8590031], [17.7889728, 43.8611321], [17.7883359, 43.8660432], [17.7883051, 43.8665026], [17.785774, 43.8661546], [17.7849802, 43.8655823], [17.7818051, 43.8644377], [17.7794239, 43.8621485], [17.7730737, 43.8615762], [17.7691049, 43.8610039], [17.7667236, 43.8592869], [17.7611673, 43.8552804], [17.7571985, 43.8558528], [17.7532297, 43.8587146], [17.7524359, 43.8587146], [17.7508484, 43.8581422], [17.7492608, 43.8535633], [17.7484671, 43.8518461], [17.7468795, 43.8507012], [17.7444982, 43.8489839], [17.7444982, 43.8432593], [17.7437045, 43.8426868], [17.7405294, 43.8421143], [17.7381481, 43.8421143], [17.7349731, 43.8409693], [17.731798, 43.8392517], [17.7278292, 43.8392517], [17.7254479, 43.8409693], [17.7222729, 43.8421143], [17.7206853, 43.8421143], [17.7167165, 43.8403968], [17.7159228, 43.8369615], [17.715129, 43.836389], [17.7127477, 43.8340987], [17.7111602, 43.832381], [17.7079851, 43.8318084], [17.7056038, 43.8318084], [17.7024288, 43.832381], [17.7000475, 43.832381], [17.7000352, 43.832386], [17.6936974, 43.8358164], [17.6913161, 43.8375341], [17.6905223, 43.8386792], [17.6873473, 43.8421143], [17.6833784, 43.8438318], [17.6817909, 43.8449767], [17.6786159, 43.8449767], [17.6730595, 43.8472666], [17.6706782, 43.8478391], [17.6643281, 43.8489839], [17.6627406, 43.8507012], [17.6587718, 43.8518461], [17.654803, 43.8529909], [17.6524217, 43.8535633], [17.6500404, 43.854708], [17.644484, 43.8575699], [17.6436903, 43.8587146], [17.641309, 43.8615762], [17.6397214, 43.8627209], [17.6373402, 43.8615762], [17.6333713, 43.8587146], [17.6294025, 43.8587146], [17.6270212, 43.8604316], [17.6238462, 43.8615762], [17.6235284, 43.8616679], [17.6198774, 43.8627209], [17.6167023, 43.8638654], [17.6151148, 43.8644377], [17.6119397, 43.8661546], [17.6079709, 43.8661546], [17.6079281, 43.8662071], [17.6052689, 43.8694667], [17.6012295, 43.868554], [17.6007575, 43.8688827], [17.5991803, 43.8695517], [17.5983864, 43.8700042], [17.5979197, 43.8703368], [17.5967073, 43.8712727], [17.5962728, 43.871555], [17.5958115, 43.8718953], [17.5933438, 43.8726958], [17.5933009, 43.8724985], [17.5931561, 43.8724521], [17.5929683, 43.8723825], [17.5927913, 43.8723013], [17.592625, 43.8722008], [17.5918901, 43.8716671], [17.5916487, 43.8713384], [17.5914234, 43.8711605], [17.5911874, 43.8710522], [17.5909084, 43.870913], [17.5906992, 43.8707545], [17.5905168, 43.8705495], [17.5903988, 43.8702594], [17.5902486, 43.8699385], [17.5899857, 43.8696987], [17.5899422, 43.869661], [17.5896907, 43.8694434], [17.5889182, 43.8688556], [17.5887304, 43.8687125], [17.5884998, 43.8686584], [17.5882423, 43.8686738], [17.5878507, 43.8687976], [17.5874752, 43.8688285], [17.5863486, 43.8684689], [17.5847661, 43.8680009], [17.5845569, 43.8678888], [17.5844067, 43.8677186], [17.5841385, 43.8671849], [17.5839239, 43.8670418], [17.5835752, 43.8669064], [17.5830871, 43.8669296], [17.5824219, 43.8669412], [17.5814992, 43.866949], [17.5805604, 43.8666976], [17.5798631, 43.8665197], [17.5796592, 43.8669451], [17.5545537, 43.8709517], [17.5442326, 43.8752557], [17.5424919, 43.8772704], [17.542288, 43.8772665], [17.5420305, 43.8772878], [17.5415826, 43.8772027], [17.5413573, 43.8771486], [17.5411883, 43.8770809], [17.5410032, 43.8769494], [17.5408369, 43.8768238], [17.5406572, 43.8767329], [17.5405258, 43.8766923], [17.5403193, 43.8766826], [17.5401798, 43.8766034], [17.5400135, 43.8764738], [17.5399357, 43.8762824], [17.5399411, 43.8760891], [17.5398472, 43.875685], [17.5395763, 43.8749773], [17.5394717, 43.8747956], [17.5394636, 43.8746699], [17.53952, 43.8745694], [17.5396138, 43.874463], [17.5397024, 43.8743238], [17.5397238, 43.8742039], [17.539697, 43.8740144], [17.5395602, 43.8737495], [17.5395736, 43.8732043], [17.5394288, 43.8731734], [17.5393698, 43.8723632], [17.5385651, 43.8720693], [17.5328493, 43.8712611], [17.5208673, 43.8732135], [17.5186926, 43.8735678], [17.5054505, 43.8748555], [17.5050831, 43.8750373], [17.5050053, 43.8750875], [17.5048353, 43.8752122], [17.5046915, 43.8753176], [17.5046056, 43.8753756], [17.5045091, 43.8754124], [17.5042248, 43.875482], [17.5040558, 43.8754994], [17.5038385, 43.875511], [17.5037098, 43.8755245], [17.5035971, 43.8755574], [17.503463, 43.8756424], [17.5032431, 43.8757623], [17.5030768, 43.8757758], [17.5027764, 43.8757623], [17.5022963, 43.875714], [17.5022125, 43.8757054], [17.5019744, 43.8756811], [17.5016874, 43.8756618], [17.5015157, 43.8756618], [17.5013146, 43.8756792], [17.5008398, 43.8756888], [17.5004724, 43.8757004], [17.5003785, 43.8757352], [17.5002846, 43.8757855], [17.5001934, 43.875859], [17.5000915, 43.8759634], [17.4999869, 43.8762727], [17.4999547, 43.8764158], [17.4998694, 43.8764832], [17.499842, 43.8765048], [17.4997294, 43.8765724], [17.4995711, 43.876615], [17.4993083, 43.8765898], [17.4990116, 43.8765527], [17.4989837, 43.8765492], [17.4987853, 43.8764912], [17.4984258, 43.8763056], [17.4982515, 43.8762128], [17.4981174, 43.8761335], [17.4979135, 43.876149], [17.4977622, 43.8761659], [17.4973771, 43.8762089], [17.4972135, 43.8762031], [17.4970177, 43.8762399], [17.496838, 43.876294], [17.4967478, 43.8763792], [17.4966127, 43.8765067], [17.4964732, 43.876615], [17.4962452, 43.8767542], [17.4960532, 43.8768145], [17.4959931, 43.8768334], [17.4957973, 43.8768566], [17.4956283, 43.8769011], [17.4954006, 43.8770074], [17.4953386, 43.8770364], [17.4950972, 43.8771041], [17.4946761, 43.8771389], [17.494137, 43.8771273], [17.4936354, 43.8771022], [17.4934691, 43.8771041], [17.4932787, 43.8771408], [17.4931499, 43.8771814], [17.4927744, 43.8772627], [17.492246, 43.8773265], [17.4919376, 43.8773245], [17.4917337, 43.8772549], [17.4915513, 43.8771505], [17.4913233, 43.877021], [17.4910605, 43.8769011], [17.4907064, 43.8769146], [17.4903926, 43.8769514], [17.4901593, 43.8769069], [17.4900144, 43.8768257], [17.4898964, 43.8767348], [17.4896443, 43.8761413], [17.4896255, 43.8760369], [17.4895477, 43.8759518], [17.4893546, 43.8759112], [17.4890891, 43.875828], [17.4888986, 43.8757739], [17.4881047, 43.8754162], [17.4879304, 43.8753814], [17.4877989, 43.8753833], [17.4876755, 43.8754317], [17.4874663, 43.8755245], [17.4872598, 43.875598], [17.4869943, 43.8756598], [17.486254, 43.8757294], [17.4860501, 43.8757623], [17.4859402, 43.8757971], [17.4858597, 43.875857], [17.4857712, 43.8759731], [17.4772632, 43.8761374], [17.4745542, 43.8770422], [17.4713033, 43.8781907], [17.4656707, 43.8802787], [17.4599844, 43.8791032], [17.4493779, 43.8815851], [17.4484244, 43.8775989], [17.448413, 43.8775913], [17.4436618, 43.874738], [17.4412805, 43.874738], [17.4373117, 43.8741659], [17.4333429, 43.8730215], [17.4325491, 43.871877], [17.4301678, 43.8690159], [17.4269928, 43.8632932], [17.4246115, 43.8610039], [17.4198489, 43.8564252], [17.411384, 43.855041], [17.411088, 43.8549303], [17.410813, 43.855119], [17.4107006, 43.8552228], [17.4095696, 43.8550359], [17.4093282, 43.8550205], [17.408883, 43.8551172], [17.4087006, 43.8551636], [17.4083304, 43.8551094], [17.408132, 43.8549663], [17.4078584, 43.854564], [17.4072736, 43.8550089], [17.4058628, 43.8547652], [17.4056214, 43.8550514], [17.4053961, 43.8551597], [17.4051332, 43.8551558], [17.4045968, 43.8551326], [17.4038243, 43.8550127], [17.4035829, 43.8549973], [17.4031645, 43.8550553], [17.4029124, 43.8545988], [17.4027353, 43.8543783], [17.4024135, 43.8539412], [17.4021721, 43.8538522], [17.4016947, 43.8537517], [17.39986, 43.8536201], [17.3992538, 43.8535273], [17.3986155, 43.8532913], [17.3979932, 43.8529045], [17.3971403, 43.8526801], [17.3964322, 43.852448], [17.395606, 43.8519993], [17.3932911, 43.8496539], [17.392559, 43.8489122], [17.3900476, 43.8467571], [17.3880958, 43.8450821], [17.3866689, 43.845322], [17.3866119, 43.8452833], [17.3861217, 43.8449505], [17.3858642, 43.8448035], [17.3854673, 43.8446952], [17.3853278, 43.8444863], [17.3852849, 43.8441226], [17.3854351, 43.8437899], [17.385478, 43.8435732], [17.3854458, 43.843403], [17.3843729, 43.8425053], [17.3841209, 43.8422024], [17.3839223, 43.8419637], [17.3836112, 43.841778], [17.3828709, 43.8414684], [17.3822808, 43.8412131], [17.3820233, 43.8409345], [17.3818302, 43.8407565], [17.3817382, 43.84066], [17.3815942, 43.8405089], [17.3813259, 43.8403541], [17.3811468, 43.8402878], [17.3799172, 43.8398328], [17.3795967, 43.8397142], [17.3793621, 43.8396274], [17.3792292, 43.8395782], [17.3788583, 43.839441], [17.3786875, 43.8393725], [17.3785686, 43.8393249], [17.3784721, 43.8389921], [17.3785794, 43.8387368], [17.378751, 43.8385355], [17.3789013, 43.8385423], [17.3790897, 43.8385508], [17.3794377, 43.8385665], [17.380178, 43.8386826], [17.3810685, 43.8389147], [17.3817551, 43.8392398], [17.3817384, 43.8391433], [17.3816693, 43.8387445], [17.3799527, 43.8345345], [17.3798664, 43.8342997], [17.3789107, 43.8319435], [17.3779464, 43.8295658], [17.3780626, 43.8294756], [17.3781288, 43.8288382], [17.3792767, 43.8225221], [17.3799527, 43.8177459], [17.3804247, 43.8136583], [17.3809934, 43.8102363], [17.3817336, 43.806729], [17.382313, 43.8040112], [17.3828065, 43.8008906], [17.3834932, 43.7958803], [17.3842013, 43.791497], [17.3874628, 43.7862148], [17.3921299, 43.7814899], [17.3864812, 43.7785347], [17.3815727, 43.7763308], [17.377646, 43.7744019], [17.3754573, 43.7730616], [17.3693848, 43.7638341]]]}}]}