{"type": "FeatureCollection", "features": [{"type": "Feature", "properties": {"name": "Općina Ravno, Hercegovačko-neretvanska županija (kanton), Federacija Bosne i Hercegovine, 88370, Bosna i Hercegovina / Босна и Херцеговина", "source": "OpenStreetMap relation 2528257", "licence": "ODbL 1.0"}, "geometry": {"type": "Polygon", "coordinates": [[[17.8441638, 42.9026232], [17.8469873, 42.8996845], [17.8484006, 42.898275], [17.8506173, 42.8959992], [17.851425, 42.8949209], [17.8530641, 42.8927932], [17.8539466, 42.8916645], [17.8546303, 42.89073], [17.8557759, 42.8893334], [17.8575695, 42.8874007], [17.8587878, 42.8846633], [17.8586637, 42.8840107], [17.8566686, 42.8807734], [17.8563589, 42.88068], [17.8555216, 42.8799321], [17.8552135, 42.8794966], [17.8543479, 42.8785613], [17.8545093, 42.8771837], [17.8546086, 42.8763364], [17.854763, 42.8758915], [17.8552778, 42.8739357], [17.8554022, 42.8734655], [17.8560491, 42.8707929], [17.856615, 42.8687032], [17.8567881, 42.8682753], [17.8573066, 42.8676516], [17.8581962, 42.8661334], [17.8593147, 42.863392], [17.8597042, 42.8626838], [17.861609, 42.8599658], [17.861993, 42.859374], [17.8625258, 42.8587153], [17.8631528, 42.8581125], [17.8631738, 42.8574963], [17.8635831, 42.8569052], [17.8640477, 42.8564648], [17.8643602, 42.8558655], [17.8648156, 42.8548615], [17.8661302, 42.8530051], [17.8665771, 42.8521669], [17.8668695, 42.8519313], [17.8675536, 42.8507493], [17.8687006, 42.8491016], [17.869723, 42.8475561], [17.8703161, 42.8465141], [17.8738731, 42.8436215], [17.8737539, 42.8433824], [17.8737395, 42.8429771], [17.8741609, 42.8429647], [17.8745556, 42.8427841], [17.8755868, 42.8417876], [17.8774506, 42.8390549], [17.8783463, 42.8376761], [17.8790617, 42.8374387], [17.8847376, 42.837478], [17.8888858, 42.8357536], [17.8909416, 42.8348646], [17.8949728, 42.8338105], [17.8999639, 42.8324739], [17.8999382, 42.8322127], [17.900075, 42.8318887], [17.8998425, 42.8316687], [17.8987692, 42.8296967], [17.898046, 42.829117], [17.8971553, 42.82856], [17.8965062, 42.8268156], [17.8952925, 42.8260053], [17.893808, 42.824363], [17.8932793, 42.823934], [17.8920665, 42.8231364], [17.8906482, 42.8220918], [17.889145, 42.8186731], [17.8873694, 42.8146799], [17.8875512, 42.8144556], [17.8876792, 42.8140618], [17.8878992, 42.8139591], [17.8887268, 42.8131805], [17.8900417, 42.8114661], [17.8909388, 42.8101932], [17.8912887, 42.8096753], [17.8912962, 42.8096644], [17.8913432, 42.8095955], [17.8917347, 42.8096386], [17.8923225, 42.809571], [17.8925042, 42.809625], [17.8980873, 42.8096451], [17.9020032, 42.8096395], [17.9096053, 42.8106999], [17.9098723, 42.810605], [17.9103916, 42.8105014], [17.9105364, 42.8103322], [17.9143271, 42.8081738], [17.919528, 42.8066822], [17.9237813, 42.8054486], [17.9398776, 42.8009091], [17.9448624, 42.7999339], [17.9487191, 42.7992181], [17.9494785, 42.7990783], [17.950074, 42.7990242], [17.9501772, 42.7988369], [17.9523681, 42.7971253], [17.9570865, 42.7933915], [17.9593208, 42.7907674], [17.9601537, 42.7899852], [17.9618077, 42.7886993], [17.9632525, 42.7875437], [17.9648338, 42.7862481], [17.9656022, 42.785972], [17.9662581, 42.7857929], [17.9672486, 42.784647], [17.9702796, 42.7833233], [17.9729108, 42.782097], [17.973956, 42.7813066], [17.9745924, 42.7803608], [17.9762757, 42.77964], [17.9807852, 42.7780737], [17.9852442, 42.7781844], [17.9894841, 42.7776029], [17.9929409, 42.7770948], [17.994512, 42.7765358], [17.9956516, 42.7762242], [17.9964945, 42.7759058], [17.996479, 42.7739376], [17.9965628, 42.7733486], [17.9966669, 42.7727455], [17.9967892, 42.7717706], [17.9967857, 42.7697196], [17.9967834, 42.7683388], [17.9968845, 42.7672663], [17.9970102, 42.7651739], [17.9972846, 42.7646099], [17.9976424, 42.764214], [17.9986944, 42.763356], [17.9990101, 42.7629839], [17.9994212, 42.7623906], [18.0007502, 42.7606898], [18.0023858, 42.7584639], [18.0030188, 42.7578503], [18.0045333, 42.756725], [18.0060525, 42.7560313], [18.0080918, 42.7549763], [18.0085537, 42.7546426], [18.010185, 42.7525816], [18.0109094, 42.752316], [18.0158855, 42.7522271], [18.0187442, 42.7521832], [18.023093, 42.7521525], [18.0253188, 42.752149], [18.0284845, 42.7512109], [18.0319284, 42.7502305], [18.0341124, 42.7500867], [18.0359997, 42.7495459], [18.0411725, 42.7484922], [18.0417566, 42.7482221], [18.0442797, 42.7460647], [18.0501271, 42.7420146], [18.05065, 42.7420022], [18.0524621, 42.7416868], [18.056853, 42.7398247], [18.0573869, 42.7395412], [18.0593226, 42.7383657], [18.0621377, 42.7366001], [18.0642884, 42.7346027], [18.0653736, 42.7337773], [18.0695031, 42.7309457], [18.0734208, 42.7283469], [18.0732129, 42.7276255], [18.0740129, 42.72548], [18.0744878, 42.7248206], [18.075781, 42.7240896], [18.0769437, 42.7241998], [18.0789272, 42.7245051], [18.0797609, 42.7244214], [18.0799667, 42.7242443], [18.082325, 42.7231032], [18.0982462, 42.7173261], [18.1012593, 42.7156316], [18.1057364, 42.7122437], [18.1061139, 42.7116158], [18.1072193, 42.7093982], [18.1089348, 42.7044825], [18.1082775, 42.702978], [18.1082438, 42.7028403], [18.1080782, 42.7021627], [18.1075441, 42.6999749], [18.1060486, 42.6978748], [18.105594, 42.6970632], [18.105002, 42.6941234], [18.1046023, 42.6934261], [18.103462, 42.6914367], [18.102577, 42.6898295], [18.1029355, 42.6872206], [18.1028336, 42.6866981], [18.1047651, 42.6864836], [18.1063777, 42.6863045], [18.109501, 42.6859575], [18.1115962, 42.6861973], [18.1127239, 42.6861666], [18.1140006, 42.6863732], [18.1178663, 42.6842132], [18.1180523, 42.6841701], [18.1278978, 42.6822869], [18.1280497, 42.682289], [18.1321951, 42.6822957], [18.1376431, 42.6798568], [18.1393775, 42.6800277], [18.1410651, 42.6802164], [18.1413814, 42.6801311], [18.1421428, 42.6798673], [18.1431901, 42.6794109], [18.1437403, 42.6789445], [18.1448573, 42.6755846], [18.1457115, 42.6728561], [18.1460905, 42.6715137], [18.1461667, 42.6710789], [18.1473398, 42.6695935], [18.1492113, 42.6681446], [18.1499596, 42.6674493], [18.1501675, 42.667229], [18.1517119, 42.665219], [18.1536218, 42.6628777], [18.1543568, 42.6616236], [18.1550424, 42.6600203], [18.1550689, 42.659555], [18.1550566, 42.6571802], [18.1572948, 42.6538688], [18.1571746, 42.6547174], [18.1580784, 42.6559298], [18.1585959, 42.6561377], [18.1593217, 42.6564754], [18.1594281, 42.6565223], [18.1603604, 42.6572817], [18.1605081, 42.657407], [18.1610452, 42.6576263], [18.1612329, 42.657635], [18.1624786, 42.6586255], [18.1632775, 42.6586644], [18.165991, 42.6588132], [18.1669041, 42.658886], [18.168512, 42.6592203], [18.169056, 42.6594199], [18.1716003, 42.6594559], [18.1721107, 42.6593142], [18.1744874, 42.65887], [18.1749349, 42.6594167], [18.1752294, 42.6597966], [18.1754193, 42.66031], [18.1756991, 42.6611291], [18.1769149, 42.6618162], [18.1784247, 42.6608033], [18.178867, 42.6604052], [18.1829061, 42.6568046], [18.1837591, 42.656329], [18.1842561, 42.6560176], [18.1856479, 42.6554578], [18.1862835, 42.6551949], [18.1866089, 42.6553901], [18.1876994, 42.6556333], [18.1890293, 42.6555171], [18.1905843, 42.6550206], [18.1914553, 42.6546152], [18.1918198, 42.6542032], [18.19179, 42.6536014], [18.1915304, 42.6530158], [18.1941345, 42.6523021], [18.1945349, 42.6519488], [18.1949832, 42.6508016], [18.1954942, 42.6497929], [18.1969141, 42.6486964], [18.1980267, 42.647162], [18.1999148, 42.6462084], [18.2005312, 42.6453679], [18.2016773, 42.6429487], [18.2035142, 42.6409175], [18.204285, 42.639802], [18.2057676, 42.638552], [18.2098789, 42.6360066], [18.2100773, 42.6358582], [18.210117, 42.6358285], [18.2101768, 42.6357838], [18.210847, 42.6352826], [18.2117241, 42.6342537], [18.2120785, 42.6337633], [18.2123706, 42.6332821], [18.2145467, 42.6309232], [18.2154104, 42.6298333], [18.2156731, 42.6293422], [18.2161537, 42.6288872], [18.216834, 42.6286437], [18.2172814, 42.6282889], [18.2174554, 42.6281154], [18.2177528, 42.6275753], [18.2193478, 42.6259391], [18.2202834, 42.6249792], [18.2217219, 42.6233029], [18.22358, 42.6221498], [18.2278044, 42.6195281], [18.2285048, 42.6195967], [18.2313172, 42.6193256], [18.2325732, 42.6192474], [18.2339765, 42.6184645], [18.2341802, 42.6179633], [18.2343325, 42.6171831], [18.2348542, 42.6151429], [18.2357558, 42.6149137], [18.2360414, 42.6151154], [18.2391729, 42.6159365], [18.2411325, 42.6160057], [18.2423354, 42.6146379], [18.2430912, 42.6134635], [18.2431745, 42.6127216], [18.2433905, 42.6116628], [18.2434658, 42.6065612], [18.2435721, 42.6044145], [18.2438122, 42.6032397], [18.2443299, 42.602625], [18.2448909, 42.6029158], [18.2462945, 42.6030106], [18.2479087, 42.6030439], [18.249919, 42.6031332], [18.252608, 42.6038722], [18.25486, 42.604414], [18.2600354, 42.6057016], [18.2615089, 42.606056], [18.2621982, 42.6062028], [18.2630708, 42.6064454], [18.2648356, 42.6070032], [18.26684, 42.6090674], [18.2697289, 42.6103317], [18.2713469, 42.6109495], [18.2746692, 42.6102747], [18.2753637, 42.6107808], [18.2754049, 42.6109961], [18.2756947, 42.6115169], [18.2769194, 42.6134311], [18.2773632, 42.6138495], [18.2791243, 42.6151516], [18.2818519, 42.6172957], [18.2825339, 42.6174699], [18.2830654, 42.6173658], [18.2873118, 42.6172263], [18.2917497, 42.6158592], [18.299142, 42.6155816], [18.3078307, 42.615112], [18.3113995, 42.614966], [18.3124922, 42.6151824], [18.3236619, 42.616952], [18.3252903, 42.61721], [18.3279038, 42.6178813], [18.3100255, 42.6186232], [18.2906376, 42.6194276], [18.2831781, 42.6234874], [18.2792373, 42.6286032], [18.276535, 42.6317926], [18.2746765, 42.633627], [18.2678046, 42.6404091], [18.2554797, 42.6529004], [18.2496245, 42.6588338], [18.2460218, 42.6629387], [18.242933, 42.6664578], [18.2405042, 42.6692248], [18.2319511, 42.6737324], [18.2292728, 42.6751439], [18.2191673, 42.6841251], [18.2185145, 42.6846318], [18.2156486, 42.6868564], [18.2020958, 42.701573], [18.1969577, 42.7071515], [18.1893097, 42.7148415], [18.1864172, 42.7177496], [18.1862611, 42.7179066], [18.181335, 42.722539], [18.1692872, 42.7323817], [18.1652896, 42.7342922], [18.1605047, 42.7365789], [18.1486821, 42.7410652], [18.1418701, 42.742719], [18.1372305, 42.749235], [18.1357617, 42.7512977], [18.1280771, 42.7547081], [18.1193227, 42.757023], [18.1180809, 42.7574528], [18.1173523, 42.757705], [18.1112439, 42.7600818], [18.1070216, 42.7622931], [18.106565, 42.7625536], [18.1028555, 42.7646697], [18.0989034, 42.7674785], [18.0975635, 42.7684307], [18.0945516, 42.7707451], [18.0930315, 42.7746711], [18.0840234, 42.7819354], [18.0825269, 42.7825283], [18.075164, 42.7854454], [18.0683837, 42.7884758], [18.0651142, 42.7899971], [18.0630503, 42.7940092], [18.0552995, 42.7979244], [18.053757, 42.7987277], [18.048187, 42.8016285], [18.0449159, 42.8033114], [18.0409764, 42.8080591], [18.0394272, 42.8116997], [18.0379319, 42.815428], [18.0361075, 42.8199767], [18.0356566, 42.8211007], [18.0310022, 42.8247673], [18.0259523, 42.8275329], [18.0232964, 42.8294569], [18.0177002, 42.8341517], [18.0159911, 42.8377399], [18.0145427, 42.8404736], [18.010801, 42.8436861], [18.0078856, 42.8454057], [18.003607, 42.8479401], [17.9998553, 42.8509969], [17.9975001, 42.8530719], [17.9971584, 42.8537189], [17.9945393, 42.8586776], [17.9901248, 42.8673173], [17.9879474, 42.8692951], [17.9850078, 42.8721769], [17.9918519, 42.8829554], [17.9923655, 42.8873424], [17.9928797, 42.8917346], [17.9909768, 42.9030093], [17.9901615, 42.9078395], [17.9856192, 42.9146165], [17.9814571, 42.9208257], [17.9790282, 42.9245692], [17.978813, 42.9265625], [17.9773688, 42.9312942], [17.9741883, 42.9391227], [17.9740543, 42.9394519], [17.9695718, 42.9463863], [17.9617279, 42.9479445], [17.9572377, 42.9497933], [17.9541507, 42.9504095], [17.9535894, 42.9514366], [17.9521862, 42.9518474], [17.9499411, 42.9518474], [17.9488185, 42.9510258], [17.9471347, 42.9499987], [17.9457315, 42.9489716], [17.9432058, 42.9485608], [17.9409607, 42.9475337], [17.9389962, 42.9463012], [17.9373124, 42.9446577], [17.934506, 42.9434251], [17.9331028, 42.9430143], [17.9311384, 42.9419871], [17.9286126, 42.9409599], [17.9277707, 42.9395218], [17.9274901, 42.9382891], [17.9274901, 42.9368509], [17.9276316, 42.9366438], [17.9280513, 42.9360291], [17.9288932, 42.9345908], [17.928332, 42.9317143], [17.9266481, 42.9300705], [17.9258062, 42.9280156], [17.9258062, 42.9267827], [17.9249643, 42.9255498], [17.9235611, 42.9243168], [17.9218773, 42.9226728], [17.9215967, 42.9206177], [17.9215967, 42.9197957], [17.9199128, 42.9185626], [17.918229, 42.9173295], [17.9162645, 42.9163018], [17.9148614, 42.917535], [17.9126163, 42.9187681], [17.9095292, 42.9197957], [17.9084067, 42.9204122], [17.9058809, 42.9214397], [17.901952, 42.9228783], [17.8997069, 42.9239058], [17.8977425, 42.9247278], [17.8949361, 42.9255498], [17.892691, 42.9261662], [17.8898846, 42.9276047], [17.8884814, 42.9296595], [17.885675, 42.9300705], [17.8828686, 42.9300705], [17.8809042, 42.929865], [17.8789397, 42.9296595], [17.8766946, 42.9296595], [17.8744495, 42.9288376], [17.8708012, 42.9284266], [17.866311, 42.9271937], [17.8643465, 42.9276047], [17.8606983, 42.9280156], [17.8576112, 42.9261662], [17.8548049, 42.9261662], [17.853121, 42.9259607], [17.850034, 42.9247278], [17.8497534, 42.9230838], [17.8517178, 42.9212342], [17.8511566, 42.9185626], [17.8505953, 42.9173295], [17.8522791, 42.9154797], [17.8525598, 42.9138355], [17.853121, 42.9130133], [17.853121, 42.9119857], [17.8550855, 42.9101358], [17.8553661, 42.9089025], [17.8534017, 42.9066414], [17.8517178, 42.9054081], [17.8503147, 42.9045858], [17.8480696, 42.9033524], [17.8459918, 42.9018787], [17.8441638, 42.9026232]]]}}]}