{"type": "FeatureCollection", "features": [{"type": "Feature", "properties": {"name": "Opština Rogatica, Република Српска / Republika Srpska, Bosna i Hercegovina / Босна и Херцеговина", "source": "OpenStreetMap relation 2528259", "licence": "ODbL 1.0"}, "geometry": {"type": "Polygon", "coordinates": [[[18.815933, 43.830383], [18.8160761, 43.8302086], [18.8163057, 43.8301102], [18.8166314, 43.8299345], [18.8169884, 43.829793], [18.8171081, 43.8295954], [18.8172045, 43.829526], [18.823968, 43.8172392], [18.8260628, 43.8142951], [18.8205549, 43.8060676], [18.8201201, 43.8054181], [18.8168588, 43.8005458], [18.829261, 43.7955441], [18.8296786, 43.7953757], [18.8342584, 43.7899775], [18.8341183, 43.7899206], [18.8340132, 43.78987], [18.8338643, 43.7897247], [18.8337155, 43.789554], [18.8336979, 43.789358], [18.833733, 43.7890672], [18.8341708, 43.7883466], [18.8342584, 43.7881885], [18.8345036, 43.7881064], [18.8346524, 43.7879736], [18.8347925, 43.7877271], [18.8348188, 43.7871139], [18.8346524, 43.7868168], [18.8347663, 43.7865196], [18.8351165, 43.7862036], [18.8354668, 43.7861024], [18.835747, 43.7860455], [18.8359659, 43.7861783], [18.8367102, 43.7861151], [18.8370518, 43.786134], [18.837367, 43.7862541], [18.8375684, 43.7862289], [18.8379712, 43.7860392], [18.8383215, 43.7860329], [18.8429713, 43.7854007], [18.8527256, 43.7875845], [18.856085, 43.7800681], [18.8583606, 43.7749697], [18.8670366, 43.7723947], [18.8718832, 43.7651472], [18.8742363, 43.7661135], [18.8769128, 43.7672125], [18.8782145, 43.767747], [18.8786159, 43.7679118], [18.8809552, 43.7688723], [18.8832005, 43.7697943], [18.8846748, 43.7703996], [18.8903476, 43.7731802], [18.8915555, 43.7731869], [18.8949233, 43.7725475], [18.8958012, 43.7720007], [18.9005636, 43.7690344], [18.9039548, 43.7689754], [18.907587, 43.7686234], [18.914, 43.7697193], [18.9143059, 43.7695828], [18.91443, 43.7695274], [18.9168846, 43.7684323], [18.9208046, 43.7666785], [18.9222775, 43.7500265], [18.9227386, 43.7473254], [18.9260055, 43.739287], [18.9294153, 43.7306487], [18.9311525, 43.7259503], [18.9336557, 43.7240805], [18.9390118, 43.7231066], [18.938987, 43.7234393], [18.9416995, 43.7239512], [18.943301, 43.7243914], [18.9440657, 43.7245807], [18.944869, 43.7247732], [18.944942, 43.7247856], [18.9450193, 43.7248043], [18.945088, 43.7248291], [18.9451482, 43.724857], [18.9452771, 43.7249191], [18.9453329, 43.7249533], [18.9453887, 43.7249905], [18.9454489, 43.7250278], [18.9455047, 43.7250588], [18.9455606, 43.7250899], [18.945625, 43.7251147], [18.945698, 43.7251147], [18.9457711, 43.7251054], [18.9458398, 43.7250774], [18.9458956, 43.7250433], [18.9459601, 43.7250185], [18.9460331, 43.7250091], [18.9461104, 43.725006], [18.9461834, 43.7249936], [18.9462522, 43.7249688], [18.9463252, 43.7249533], [18.9464068, 43.7249502], [18.9464798, 43.7249626], [18.94654, 43.7249905], [18.9465915, 43.7250247], [18.9466302, 43.7250712], [18.9466688, 43.7251178], [18.9467204, 43.7251582], [18.9467805, 43.7251861], [18.9468536, 43.7251892], [18.9469309, 43.725183], [18.9470555, 43.7251209], [18.9471199, 43.7250868], [18.9471843, 43.7250495], [18.9472488, 43.7250216], [18.9473132, 43.7249936], [18.9473819, 43.7249688], [18.947455, 43.7249502], [18.947528, 43.7249471], [18.947601, 43.7249315], [18.9476697, 43.7249098], [18.9477428, 43.7248943], [18.9479146, 43.7248819], [18.9502347, 43.7276896], [18.9529195, 43.7295831], [18.9556945, 43.7298749], [18.9592685, 43.7297228], [18.9614765, 43.7293969], [18.9627093, 43.7288257], [18.9638348, 43.7284036], [18.9651364, 43.7274133], [18.965785, 43.7270346], [18.9721598, 43.7256657], [18.9728213, 43.7255539], [18.9771642, 43.7253118], [18.979093, 43.7256129], [18.9806781, 43.7258364], [18.9834067, 43.7262522], [18.9840803, 43.7263548], [18.9848105, 43.726361], [18.9856439, 43.7260568], [18.9864644, 43.7250572], [18.9869841, 43.7241538], [18.9870743, 43.7237875], [18.9874953, 43.7233063], [18.9877488, 43.7231325], [18.987796, 43.7229804], [18.9878175, 43.7227538], [18.9881826, 43.7217914], [18.9882556, 43.7207793], [18.9884833, 43.7207234], [18.9891534, 43.7206427], [18.9911681, 43.7219621], [18.9926544, 43.7219466], [18.9932257, 43.7215523], [18.9934062, 43.7214002], [18.9935608, 43.7212077], [18.9938228, 43.7209718], [18.9944543, 43.7205371], [18.9944543, 43.7203571], [18.9947851, 43.7194257], [18.9948581, 43.7193015], [18.9948581, 43.7191308], [18.9950815, 43.7186464], [18.9952919, 43.7185036], [18.9953822, 43.7183794], [18.9955798, 43.7179945], [18.9955497, 43.7177864], [18.9957117, 43.7176847], [18.9963014, 43.7173145], [18.9974441, 43.7168488], [18.9981915, 43.7164731], [18.9997423, 43.7156224], [19.00064, 43.7153213], [19.0019245, 43.7150636], [19.0035783, 43.7141973], [19.0059409, 43.7131944], [19.0075647, 43.7132223], [19.0092197, 43.7133496], [19.0095315, 43.7133243], [19.0099928, 43.7132723], [19.01174, 43.7127752], [19.0127023, 43.7126976], [19.0157694, 43.713095], [19.0158123, 43.7131447], [19.0158381, 43.7131913], [19.0158983, 43.7132255], [19.0159756, 43.7132286], [19.0160486, 43.7132255], [19.016113, 43.7132534], [19.0161603, 43.7132938], [19.0162075, 43.7133372], [19.0162548, 43.7133776], [19.0163106, 43.7134118], [19.0163751, 43.7134428], [19.0164438, 43.7134707], [19.0165125, 43.7134956], [19.016577, 43.7135235], [19.0166328, 43.7135608], [19.0166715, 43.7136043], [19.0166929, 43.7136601], [19.0167316, 43.7137005], [19.0168003, 43.7137253], [19.016882, 43.7137533], [19.0169421, 43.7137781], [19.0170065, 43.7138123], [19.0170796, 43.7139023], [19.0170946, 43.7139256], [19.0171075, 43.7139505], [19.0171182, 43.7139815], [19.0171375, 43.7140048], [19.0172149, 43.714011], [19.0172535, 43.7140234], [19.017275, 43.7140467], [19.0172986, 43.7140669], [19.0173266, 43.7140855], [19.0173631, 43.714101], [19.0174017, 43.7141057], [19.017434, 43.7141197], [19.0174855, 43.7141647], [19.0175199, 43.7141787], [19.0175564, 43.7141787], [19.0175929, 43.7141678], [19.0176294, 43.7141631], [19.0176659, 43.7141693], [19.0177003, 43.7141787], [19.0177282, 43.7141957], [19.017754, 43.7142159], [19.0177733, 43.7142377], [19.0177948, 43.7142594], [19.0178077, 43.7142842], [19.0178528, 43.7143215], [19.0178871, 43.7143665], [19.0178979, 43.7143929], [19.0178828, 43.7144162], [19.0178592, 43.7144395], [19.0178506, 43.7144659], [19.0178657, 43.7144907], [19.0178957, 43.7145062], [19.0179301, 43.7145233], [19.017943, 43.7145481], [19.0179301, 43.7145714], [19.0179065, 43.7145932], [19.0178743, 43.714604], [19.017842, 43.7146149], [19.0178034, 43.7146258], [19.017769, 43.7146366], [19.0177389, 43.7146522], [19.0177282, 43.714677], [19.0177346, 43.7147018], [19.017754, 43.7147236], [19.017784, 43.7147391], [19.0178184, 43.7147531], [19.0178485, 43.714767], [19.0178828, 43.7147795], [19.0179237, 43.7147841], [19.0179602, 43.714781], [19.0179924, 43.714767], [19.0179988, 43.7147406], [19.0179816, 43.7146863], [19.0179838, 43.7146599], [19.018001, 43.7146366], [19.018031, 43.7146211], [19.0180676, 43.7146196], [19.0181041, 43.7146242], [19.0181384, 43.714632], [19.0181707, 43.7146459], [19.0182029, 43.714663], [19.0182222, 43.7146848], [19.0182329, 43.7147096], [19.0182329, 43.7147888], [19.0182394, 43.7148152], [19.0182523, 43.71484], [19.018278, 43.7148602], [19.0183382, 43.7148974], [19.0183597, 43.7149176], [19.0183854, 43.7149378], [19.0184198, 43.7150108], [19.0184284, 43.7151427], [19.0184069, 43.7152561], [19.018452, 43.7153461], [19.0185265, 43.7154285], [19.0185608, 43.7154751], [19.0185823, 43.7155247], [19.0185909, 43.7155775], [19.0185909, 43.71568], [19.0186038, 43.7157328], [19.0186553, 43.71577], [19.0187284, 43.71577], [19.0187971, 43.7157545], [19.0188615, 43.7157296], [19.0189345, 43.7157203], [19.0190076, 43.7157328], [19.0190591, 43.71577], [19.0191364, 43.7158197], [19.0192009, 43.7158414], [19.0192739, 43.7158538], [19.0193426, 43.7158725], [19.0194028, 43.7158973], [19.0194586, 43.7159408], [19.0195915, 43.7160893], [19.0195915, 43.7163089], [19.019713, 43.716423], [19.0196765, 43.7166162], [19.0196258, 43.7170909], [19.0197977, 43.7172648], [19.0199523, 43.7174511], [19.0201241, 43.7176249], [19.0203132, 43.7177864], [19.020485, 43.7179851], [19.0206224, 43.7181589], [19.0205193, 43.7183452], [19.020674, 43.7185191], [19.0209145, 43.7186433], [19.0210864, 43.7188047], [19.0220658, 43.7202328], [19.0218768, 43.720506], [19.022083, 43.7206551], [19.0225297, 43.7247033], [19.0282, 43.7266279], [19.0322207, 43.7288629], [19.0322723, 43.7287512], [19.0322723, 43.7285277], [19.0322551, 43.7283042], [19.0321864, 43.7281055], [19.0321864, 43.7278696], [19.0322207, 43.7276461], [19.0323066, 43.7274226], [19.0324269, 43.7272239], [19.0324613, 43.7270004], [19.0324613, 43.7258829], [19.0324957, 43.7256594], [19.0326675, 43.7254731], [19.0329424, 43.7253862], [19.0333892, 43.725262], [19.0336984, 43.7252], [19.0340249, 43.7251006], [19.0345748, 43.7249019], [19.0348669, 43.7248026], [19.0351418, 43.7246908], [19.0353995, 43.7245667], [19.0356401, 43.7244425], [19.0358978, 43.7243059], [19.0361212, 43.7241569], [19.0363987, 43.7239861], [19.0370147, 43.7234739], [19.0372209, 43.7233001], [19.0374099, 43.7231138], [19.0375302, 43.7229275], [19.0377536, 43.7227661], [19.0380628, 43.7226792], [19.0383549, 43.7226295], [19.0385717, 43.7225658], [19.038647, 43.7225426], [19.0388876, 43.722406], [19.039111, 43.7222446], [19.0392828, 43.7220707], [19.0394203, 43.7218844], [19.0395749, 43.7216982], [19.0398155, 43.7215492], [19.0400388, 43.7214001], [19.0424101, 43.7197982], [19.0426678, 43.7196616], [19.0429427, 43.7195622], [19.043252, 43.7195126], [19.0435785, 43.7194753], [19.0438878, 43.7194629], [19.044197, 43.7194132], [19.044472, 43.7193387], [19.0447469, 43.7192518], [19.0450562, 43.7191649], [19.0453483, 43.7190903], [19.0456404, 43.7190407], [19.0459497, 43.7190158], [19.0466026, 43.7190158], [19.0469119, 43.7190655], [19.0472384, 43.7191028], [19.0475477, 43.7191152], [19.047857, 43.7191028], [19.0481491, 43.7190903], [19.0486989, 43.7189662], [19.048991, 43.7189041], [19.0492831, 43.7188047], [19.0495409, 43.7187178], [19.0497814, 43.718606], [19.0500563, 43.7184818], [19.0503484, 43.7183949], [19.0506234, 43.7182955], [19.0508639, 43.7181838], [19.0513794, 43.7179602], [19.0516543, 43.7178485], [19.0519464, 43.717774], [19.0522557, 43.7177119], [19.0528743, 43.7176374], [19.0531664, 43.7175877], [19.0534929, 43.7175132], [19.053785, 43.7174511], [19.0540427, 43.7173517], [19.0542833, 43.7172275], [19.0545926, 43.7170785], [19.0548675, 43.7169667], [19.0551596, 43.7169295], [19.0554517, 43.7169295], [19.0557782, 43.7169419], [19.0560703, 43.7169667], [19.0565434, 43.7171085], [19.0567499, 43.71717], [19.05692, 43.7172666], [19.0570172, 43.7173983], [19.0570537, 43.7175476], [19.0571266, 43.7176968], [19.0572602, 43.7178022], [19.057406, 43.7179076], [19.0574668, 43.7180569], [19.0574668, 43.7183467], [19.0574789, 43.7184872], [19.0576004, 43.7186101], [19.057807, 43.718654], [19.0580257, 43.7186628], [19.0582444, 43.718654], [19.0584995, 43.7186189], [19.0587182, 43.7185662], [19.0589126, 43.7185047], [19.0590949, 43.7184433], [19.0593014, 43.7183642], [19.0594472, 43.7182501], [19.0595687, 43.7181271], [19.0596781, 43.7179866], [19.0597874, 43.7178549], [19.0599454, 43.7177408], [19.0601155, 43.7176442], [19.0604921, 43.7174422], [19.0606865, 43.7173456], [19.0608566, 43.717249], [19.0610267, 43.71717], [19.0612211, 43.7170558], [19.0613912, 43.7169592], [19.0615735, 43.7168538], [19.06178, 43.7168187], [19.0619987, 43.7168363], [19.0621688, 43.7169065], [19.0623146, 43.7170207], [19.062424, 43.7171348], [19.0625333, 43.7172753], [19.0626062, 43.7174158], [19.0626791, 43.7175651], [19.0627399, 43.7176968], [19.0628492, 43.7178286], [19.0630315, 43.7178813], [19.0632502, 43.7178725], [19.0634689, 43.7178373], [19.0636754, 43.7177847], [19.0638698, 43.7177144], [19.0640035, 43.7176002], [19.064125, 43.7174773], [19.0642586, 43.7173544], [19.0643801, 43.7172314], [19.0645138, 43.7171085], [19.0646596, 43.7170031], [19.0648297, 43.7168977], [19.0650119, 43.7168099], [19.065182, 43.7167221], [19.0653886, 43.7166606], [19.0655708, 43.7165904], [19.0657531, 43.7165201], [19.0660082, 43.716406], [19.0661783, 43.7163006], [19.0663363, 43.7161864], [19.0665185, 43.7160723], [19.0667737, 43.715923], [19.0670653, 43.7156946], [19.0671868, 43.7155717], [19.0678125, 43.7149701], [19.0678915, 43.7149043], [19.0679765, 43.7148428], [19.0680737, 43.7148033], [19.0681952, 43.7147726], [19.0683349, 43.7147462], [19.0683732, 43.7147472], [19.068505, 43.7147506], [19.0686691, 43.7147638], [19.0687723, 43.7147682], [19.0688938, 43.7147769], [19.0690032, 43.7147813], [19.0691125, 43.7147901], [19.0697504, 43.7147901], [19.0698719, 43.7147813], [19.070042, 43.7147594], [19.0701453, 43.714733], [19.0702607, 43.7146979], [19.0703761, 43.7146672], [19.0704794, 43.714632], [19.0705827, 43.7145881], [19.0709897, 43.7143027], [19.0717187, 43.7137143], [19.0724052, 43.7132094], [19.0726482, 43.7129898], [19.0728608, 43.712621], [19.0733772, 43.7115012], [19.0736536, 43.7106647], [19.0736813, 43.7104704], [19.0737052, 43.7103024], [19.0743522, 43.7103419], [19.0743644, 43.710421], [19.0743856, 43.7105], [19.0744008, 43.7105703], [19.0745891, 43.7105747], [19.0745983, 43.7106318], [19.0745952, 43.7106801], [19.0776366, 43.7108167], [19.077774, 43.7108539], [19.0779029, 43.710916], [19.0780403, 43.7109719], [19.0781864, 43.7110278], [19.0783239, 43.7110651], [19.0784785, 43.7110775], [19.0786246, 43.7110713], [19.0787706, 43.7110278], [19.0789167, 43.7110216], [19.0790627, 43.7110465], [19.0792002, 43.7110899], [19.0793548, 43.7110837], [19.0795009, 43.7110651], [19.0796555, 43.7110775], [19.079793, 43.7111024], [19.0799218, 43.7111645], [19.0799476, 43.71127], [19.0799304, 43.7113694], [19.0800421, 43.7114377], [19.0801882, 43.7114812], [19.0803428, 43.7115122], [19.0804889, 43.7115308], [19.0806349, 43.7115433], [19.0811504, 43.7115619], [19.0816057, 43.7115619], [19.0817776, 43.7115681], [19.0819236, 43.7115805], [19.0820783, 43.7115992], [19.0822501, 43.7116488], [19.0824047, 43.7116923], [19.0825336, 43.7117296], [19.0830147, 43.7118848], [19.0831522, 43.7119407], [19.0832982, 43.711978], [19.0834529, 43.711978], [19.0835989, 43.7119842], [19.0840457, 43.712245], [19.0841574, 43.7123133], [19.0842777, 43.7123816], [19.0844151, 43.7124251], [19.0845526, 43.7123754], [19.0847072, 43.712363], [19.0848619, 43.7123878], [19.0849993, 43.7124251], [19.085154, 43.7124499], [19.0852828, 43.712394], [19.0854289, 43.7124251], [19.0855148, 43.7125244], [19.0855835, 43.7126114], [19.0856866, 43.7126859], [19.0858413, 43.712717], [19.0860045, 43.712717], [19.0861592, 43.7127107], [19.0863052, 43.7127107], [19.0864598, 43.7126983], [19.0865887, 43.7126238], [19.0866489, 43.7125182], [19.0867863, 43.7124872], [19.086941, 43.7124623], [19.0870441, 43.7123878], [19.08713, 43.7123009], [19.0872159, 43.7122077], [19.0873362, 43.712127], [19.0876283, 43.7119904], [19.0877657, 43.7119469], [19.0879032, 43.7119097], [19.0880578, 43.7118786], [19.0882039, 43.7118351], [19.0883413, 43.7117668], [19.0884273, 43.7116675], [19.0884874, 43.7115681], [19.0885475, 43.7114625], [19.0886077, 43.7113632], [19.088685, 43.7112638], [19.0887451, 43.7111645], [19.0888225, 43.7110527], [19.0889084, 43.7109595], [19.0889857, 43.7108602], [19.0889771, 43.7107546], [19.0889943, 43.7106428], [19.0891232, 43.7105496], [19.0892692, 43.7105124], [19.0894153, 43.7104938], [19.0900854, 43.7101584], [19.0902229, 43.7100777], [19.0903345, 43.7100032], [19.0903861, 43.7099038], [19.0903947, 43.7097858], [19.0904634, 43.7096864], [19.0905923, 43.7096119], [19.0907383, 43.7095871], [19.0908758, 43.7095374], [19.0909187, 43.709438], [19.0910304, 43.7093573], [19.0911851, 43.7093635], [19.0913139, 43.7094132], [19.0914686, 43.7094008], [19.0915803, 43.7093262], [19.0916061, 43.7092145], [19.0917263, 43.7091461], [19.0918208, 43.7090592], [19.0919325, 43.7089847], [19.0920356, 43.7088977], [19.092027, 43.7087921], [19.0919927, 43.7086866], [19.0920528, 43.7085872], [19.0921215, 43.7084941], [19.0922246, 43.7084133], [19.0923707, 43.7083761], [19.0925597, 43.7083512], [19.0926972, 43.7082953], [19.0928432, 43.7082394], [19.0929549, 43.7081711], [19.0931525, 43.7081339], [19.0933071, 43.7081028], [19.0934704, 43.708109], [19.0936164, 43.7081214], [19.0937453, 43.7081649], [19.0938742, 43.7082208], [19.0940202, 43.7082456], [19.0941577, 43.7082022], [19.0942436, 43.7081028], [19.0943037, 43.707991], [19.0943553, 43.7078916], [19.0944154, 43.7077923], [19.0945529, 43.7077178], [19.0947075, 43.7076991], [19.0948708, 43.7076991], [19.0950426, 43.7077053], [19.0951972, 43.707724], [19.0953433, 43.7077178], [19.0954979, 43.7076991], [19.0956526, 43.7076494], [19.0958072, 43.7076184], [19.0959619, 43.707606], [19.0961165, 43.7075998], [19.0962797, 43.7075811], [19.0964172, 43.7075252], [19.0965031, 43.7074321], [19.0966406, 43.707401], [19.0967694, 43.7073265], [19.0968897, 43.707252], [19.09701, 43.7071712], [19.0971904, 43.7069601], [19.0972334, 43.7068545], [19.0972591, 43.7067427], [19.0973279, 43.7066495], [19.0974482, 43.706575], [19.0975083, 43.7064756], [19.0974739, 43.7063639], [19.0974482, 43.7062459], [19.0975169, 43.7061465], [19.0975598, 43.7060471], [19.0976028, 43.7059415], [19.0976715, 43.7058484], [19.0977918, 43.7057676], [19.0979035, 43.7056807], [19.0981784, 43.7052956], [19.0982729, 43.7052087], [19.0983588, 43.7051155], [19.0984791, 43.7050348], [19.0985994, 43.7049602], [19.0987283, 43.7048919], [19.0988829, 43.7048609], [19.0990376, 43.704836], [19.0991922, 43.7048174], [19.0993297, 43.7047863], [19.0994328, 43.7047118], [19.099553, 43.7046497], [19.0996991, 43.7046435], [19.099828, 43.7046994], [19.0999826, 43.7046994], [19.1001287, 43.7046683], [19.1002661, 43.7046373], [19.1004122, 43.7046], [19.100541, 43.7045441], [19.1006613, 43.7044696], [19.1008074, 43.7044696], [19.100962, 43.7044634], [19.1010823, 43.7043764], [19.1011338, 43.7042771], [19.101194, 43.7041839], [19.1012885, 43.7040845], [19.1013916, 43.7039976], [19.1015033, 43.7039168], [19.1016407, 43.7038671], [19.1017954, 43.7038547], [19.10195, 43.7038547], [19.1020961, 43.7038516], [19.1020832, 43.7032957], [19.1021347, 43.7029541], [19.102444, 43.7026188], [19.1027061, 43.7023765], [19.102938, 43.7020256], [19.1031872, 43.7017461], [19.1032001, 43.7016126], [19.1032344, 43.7015629], [19.1032817, 43.7015163], [19.1033375, 43.701479], [19.1033848, 43.7014356], [19.1034105, 43.7013828], [19.103432, 43.70133], [19.103475, 43.7012834], [19.1035265, 43.7012399], [19.103591, 43.7012026], [19.1036425, 43.7011592], [19.1036812, 43.7011095], [19.1037155, 43.7010567], [19.1037628, 43.7010132], [19.1038272, 43.7009821], [19.1039733, 43.7010008], [19.1040506, 43.701007], [19.1041279, 43.7010163], [19.1042095, 43.7010194], [19.1042912, 43.7010163], [19.1043685, 43.7010163], [19.1044415, 43.701007], [19.1045145, 43.7009946], [19.1045833, 43.7009728], [19.104652, 43.700948], [19.1047121, 43.7009107], [19.1047551, 43.7008455], [19.1044286, 43.6999418], [19.1041064, 43.6982305], [19.1039948, 43.6980877], [19.1040678, 43.6980753], [19.1041408, 43.6980597], [19.1042138, 43.698038], [19.1042869, 43.6980069], [19.104347, 43.6979728], [19.1044501, 43.697892], [19.104493, 43.6978485], [19.1045446, 43.6978019], [19.1046477, 43.6977212], [19.1046992, 43.6976839], [19.1047637, 43.6976436], [19.1048367, 43.6976094], [19.104914, 43.6975752], [19.1049956, 43.6975504], [19.1050644, 43.6975317], [19.1052061, 43.6975069], [19.1052835, 43.6975007], [19.1054381, 43.6975007], [19.1055884, 43.6975131], [19.1056572, 43.6975317], [19.1057302, 43.697538], [19.1058204, 43.6975473], [19.105902, 43.6975535], [19.1060524, 43.6975473], [19.1061254, 43.697538], [19.1062113, 43.6975255], [19.10628, 43.6975007], [19.1064089, 43.6974386], [19.1064733, 43.6974044], [19.1065335, 43.6973765], [19.1066108, 43.6973516], [19.1066838, 43.6973423], [19.1067655, 43.6973392], [19.1069845, 43.6973392], [19.1070619, 43.6973454], [19.1071435, 43.6973547], [19.1072208, 43.6973703], [19.1073583, 43.6974137], [19.107427, 43.6974417], [19.1074828, 43.6974758], [19.106744, 43.696569], [19.107616, 43.6954384], [19.1084747, 43.6950737], [19.1089176, 43.6948856], [19.113123, 43.6943265], [19.1142485, 43.6933326], [19.1141583, 43.6931618], [19.1141755, 43.693109], [19.1141669, 43.6930531], [19.1141669, 43.6929972], [19.1141583, 43.6928823], [19.1141583, 43.6927611], [19.1142872, 43.6926276], [19.1143946, 43.6922517], [19.1145234, 43.6920561], [19.1145836, 43.6919008], [19.1145922, 43.691848], [19.1146179, 43.6917952], [19.1146609, 43.6917455], [19.1147167, 43.6917113], [19.1147812, 43.6916771], [19.1148241, 43.6916274], [19.114837, 43.6915746], [19.1149959, 43.6912858], [19.1149874, 43.6910373], [19.1149874, 43.6909783], [19.1150088, 43.6909223], [19.1150561, 43.6908789], [19.1150905, 43.6908323], [19.1150862, 43.6907764], [19.1150518, 43.6907298], [19.115026, 43.6906801], [19.1150217, 43.6906273], [19.1150045, 43.6905745], [19.114691, 43.6902328], [19.1146523, 43.69018], [19.1146394, 43.6901272], [19.1146351, 43.6900588], [19.1146093, 43.690006], [19.1145019, 43.6897513], [19.1144676, 43.6897016], [19.1144289, 43.6896519], [19.1143989, 43.6896053], [19.1143946, 43.6895494], [19.1144031, 43.6894935], [19.1144203, 43.6894407], [19.1144289, 43.6893879], [19.1143989, 43.6889996], [19.1143989, 43.6889468], [19.1143903, 43.688894], [19.1143688, 43.6888443], [19.1143344, 43.6887977], [19.1142958, 43.6887543], [19.1142528, 43.6887108], [19.1142227, 43.6886642], [19.1142013, 43.6886145], [19.1141884, 43.6885586], [19.1141884, 43.6884467], [19.1141927, 43.6883939], [19.1143043, 43.6881951], [19.114459, 43.6880367], [19.1144977, 43.6879901], [19.1145277, 43.6879342], [19.1145234, 43.6878783], [19.1144375, 43.6874745], [19.1144891, 43.6873471], [19.1144461, 43.6871949], [19.1144566, 43.6870227], [19.1142657, 43.6863686], [19.1146179, 43.6862941], [19.1152236, 43.6860456], [19.1157133, 43.6859027], [19.1167958, 43.685707], [19.1174273, 43.6856697], [19.1181747, 43.6857412], [19.1185785, 43.6858468], [19.1193389, 43.6858375], [19.1197731, 43.6858455], [19.1207178, 43.6859275], [19.1208338, 43.6859089], [19.1210228, 43.6858685], [19.1221955, 43.6857256], [19.12415, 43.6854492], [19.1244077, 43.685356], [19.1258511, 43.6850453], [19.1272085, 43.6846663], [19.1280161, 43.6843557], [19.1286605, 43.6842563], [19.1291888, 43.6840979], [19.1293521, 43.6839922], [19.1304689, 43.6830572], [19.1309071, 43.6826534], [19.1312765, 43.6824017], [19.1317104, 43.6822899], [19.1320626, 43.6819854], [19.1325051, 43.6818053], [19.1335017, 43.6809944], [19.1338711, 43.6808609], [19.1349407, 43.6800811], [19.13525, 43.6798854], [19.1357096, 43.6797238], [19.1360232, 43.6796928], [19.1365946, 43.6795902], [19.1368362, 43.6795285], [19.1371659, 43.6794442], [19.1377458, 43.67932], [19.1382484, 43.6792516], [19.1389443, 43.6790186], [19.1394641, 43.6787701], [19.1398807, 43.6787421], [19.1400526, 43.6786178], [19.1403361, 43.6784687], [19.1407699, 43.6783382], [19.1411995, 43.6782575], [19.141861, 43.6782512], [19.1420844, 43.6781456], [19.1429865, 43.6780835], [19.1434204, 43.677981], [19.1438542, 43.677925], [19.1445072, 43.6777573], [19.1453105, 43.6776951], [19.1460493, 43.677661], [19.146539, 43.6777355], [19.1469815, 43.6778443], [19.1474153, 43.6779313], [19.1478062, 43.6780835], [19.1479867, 43.6782668], [19.1480339, 43.6784097], [19.1484721, 43.6789192], [19.1487642, 43.6792237], [19.1491293, 43.6797207], [19.1494721, 43.6800532], [19.1495477, 43.680122], [19.1496162, 43.6802079], [19.1497294, 43.6803241], [19.149837, 43.6804717], [19.1499872, 43.6806738], [19.1499817, 43.6807004], [19.1499822, 43.6807336], [19.1500157, 43.6808096], [19.1500384, 43.680839], [19.1500974, 43.680914], [19.1501418, 43.6810219], [19.1501827, 43.6811332], [19.151551, 43.6826692], [19.1538784, 43.683887], [19.1564762, 43.6843532], [19.1573989, 43.6845394], [19.1595769, 43.6845704], [19.1599928, 43.6847325], [19.1612828, 43.6848497], [19.1628063, 43.6852299], [19.1643303, 43.6857572], [19.1644612, 43.6858253], [19.1645986, 43.6858875], [19.1647651, 43.6859527], [19.1654921, 43.6861966], [19.1656586, 43.686261], [19.1660978, 43.6864598], [19.1668962, 43.6868109], [19.1671438, 43.6869708], [19.1674864, 43.6871688], [19.1681926, 43.6876238], [19.1689534, 43.6882828], [19.169314, 43.6886622], [19.1693506, 43.6886993], [19.169352, 43.6887042], [19.1693546, 43.6887087], [19.1694663, 43.6888269], [19.169664, 43.6890385], [19.1698791, 43.6893037], [19.1700211, 43.6894866], [19.1701419, 43.6896831], [19.1702973, 43.6899384], [19.1703315, 43.6900174], [19.1703631, 43.6901016], [19.1704222, 43.6902709], [19.1704993, 43.6904569], [19.1705543, 43.6905893], [19.1707863, 43.6909713], [19.1708809, 43.6911354], [19.1706276, 43.6915528], [19.1707349, 43.6928716], [19.1713357, 43.6939886], [19.1713571, 43.6950436], [19.1713357, 43.6954935], [19.1710138, 43.6958349], [19.1711855, 43.6970915], [19.1703915, 43.6971691], [19.1692094, 43.6986074], [19.1676207, 43.6999663], [19.1671085, 43.7031571], [19.1661599, 43.7044748], [19.1641507, 43.707005], [19.1635251, 43.7074849], [19.1605425, 43.7088964], [19.1572714, 43.7100073], [19.1538143, 43.7108219], [19.1530323, 43.7117659], [19.150629, 43.7121536], [19.1500497, 43.7125724], [19.1497922, 43.7130842], [19.1479039, 43.7134099], [19.1468096, 43.7138287], [19.1453953, 43.7147403], [19.144063, 43.715085], [19.1438484, 43.7156123], [19.1438699, 43.71676], [19.1443205, 43.7171942], [19.1436124, 43.7178921], [19.1421747, 43.7178766], [19.1413055, 43.7175877], [19.1409087, 43.7181247], [19.1409189, 43.7190166], [19.1423035, 43.7200943], [19.1428399, 43.7201253], [19.1448897, 43.7226717], [19.1453504, 43.7228701], [19.1460275, 43.7231149], [19.1429901, 43.7268554], [19.1441273, 43.7275842], [19.1437626, 43.7281579], [19.1427878, 43.7333079], [19.1421431, 43.7355034], [19.1412935, 43.7377079], [19.139564, 43.7420425], [19.1379046, 43.745677], [19.1356087, 43.7504512], [19.1354116, 43.7539251], [19.1350508, 43.7578288], [19.1348147, 43.7591927], [19.1336289, 43.7607394], [19.132587, 43.7654603], [19.130728, 43.7667334], [19.1274536, 43.769067], [19.1230601, 43.7720736], [19.1228843, 43.772194], [19.120134, 43.7745471], [19.1175413, 43.7768421], [19.1169446, 43.7776562], [19.1142818, 43.781384], [19.1116083, 43.7847896], [19.1116932, 43.785701], [19.1119623, 43.7859282], [19.1120052, 43.7866486], [19.1123485, 43.7868887], [19.1123593, 43.7873456], [19.111383, 43.7885152], [19.1117155, 43.7887475], [19.1117155, 43.7892277], [19.111222, 43.7896305], [19.1110396, 43.789979], [19.1098697, 43.7910417], [19.109838, 43.7918068], [19.1102242, 43.792163], [19.1101186, 43.7937846], [19.1150357, 43.7935525], [19.1152346, 43.7932628], [19.1154814, 43.7929917], [19.1159749, 43.7927594], [19.11772, 43.792538], [19.1203415, 43.7913343], [19.1229594, 43.7913188], [19.1245794, 43.7903817], [19.1261566, 43.7903125], [19.1268539, 43.7910633], [19.1282701, 43.7910323], [19.1289139, 43.7897776], [19.130237, 43.7877083], [19.1312527, 43.7873147], [19.1330512, 43.7860267], [19.1336453, 43.7859747], [19.1340423, 43.7862226], [19.1351366, 43.7861606], [19.1355443, 43.7858353], [19.1353834, 43.7855255], [19.1359734, 43.785022], [19.1360163, 43.7844411], [19.1391065, 43.7836473], [19.1449001, 43.7826156], [19.146372, 43.7823832], [19.1499048, 43.7802894], [19.1503915, 43.7801693], [19.1572165, 43.7784844], [19.1611887, 43.782416], [19.1632409, 43.784516], [19.1632676, 43.7851769], [19.1639328, 43.7860289], [19.1640186, 43.786788], [19.165864, 43.7870668], [19.1688653, 43.7871271], [19.1713165, 43.7876734], [19.1726546, 43.7879717], [19.1747703, 43.7882976], [19.1748762, 43.7888327], [19.1758632, 43.7893594], [19.1767645, 43.7887862], [19.1770863, 43.7887243], [19.177494, 43.7887088], [19.1781592, 43.789251], [19.1793394, 43.7892819], [19.1796827, 43.7888792], [19.1798218, 43.7888898], [19.1800904, 43.7889102], [19.1808573, 43.7893768], [19.1808629, 43.7897466], [19.1868473, 43.7948017], [19.1868496, 43.7958649], [19.1882872, 43.7967167], [19.1888651, 43.7967942], [19.1887891, 43.8064773], [19.1887777, 43.8079259], [19.1888022, 43.809586], [19.1849136, 43.8124108], [19.1848326, 43.8127448], [19.1839742, 43.8134571], [19.1839957, 43.8143087], [19.1835665, 43.8147577], [19.1835022, 43.8153461], [19.1831533, 43.8157955], [19.1832057, 43.8177097], [19.1840958, 43.8182156], [19.1840815, 43.8191393], [19.1844034, 43.8200992], [19.1850209, 43.8209039], [19.1858475, 43.8218271], [19.1873002, 43.8230717], [19.1889398, 43.8245816], [19.1897249, 43.8250688], [19.1907346, 43.8250776], [19.1934371, 43.8256725], [19.1946638, 43.8261544], [19.1977072, 43.8278398], [19.1986513, 43.8275766], [19.2018452, 43.8275328], [19.2072876, 43.8278046], [19.2078352, 43.8289853], [19.2078711, 43.8300028], [19.2100882, 43.8300224], [19.2115474, 43.8303939], [19.2143847, 43.8321865], [19.2149315, 43.8367482], [19.2137146, 43.8388606], [19.2128922, 43.8410062], [19.2110023, 43.8457901], [19.2087459, 43.8474249], [19.206213, 43.8491593], [19.2041419, 43.850152], [19.2065992, 43.8503166], [19.2091012, 43.8520148], [19.2119319, 43.8536757], [19.2154225, 43.8555095], [19.2189776, 43.8577623], [19.2191219, 43.8582349], [19.2198729, 43.8589312], [19.2195296, 43.8590859], [19.2189717, 43.8591632], [19.2177915, 43.8591632], [19.216547, 43.8592715], [19.2154097, 43.8594881], [19.2140097, 43.859984], [19.2137223, 43.86019], [19.2122056, 43.8612774], [19.2116761, 43.8634797], [19.2105079, 43.8654099], [19.2104737, 43.8662774], [19.2106247, 43.8677805], [19.2116332, 43.8689716], [19.2125773, 43.8696287], [19.215281, 43.8719262], [19.2163539, 43.8725604], [19.2179847, 43.8731328], [19.2179666, 43.8740082], [19.2173195, 43.8749889], [19.2164195, 43.8759433], [19.2156603, 43.8767484], [19.2134906, 43.8785518], [19.2097441, 43.8806342], [19.2059118, 43.8839526], [19.2043805, 43.8860783], [19.2037309, 43.8876134], [19.2020201, 43.888862], [19.2018699, 43.8895733], [19.201591, 43.8963771], [19.1993613, 43.8982562], [19.1993594, 43.8993149], [19.1971707, 43.9021597], [19.1967845, 43.902237], [19.1953254, 43.9033038], [19.1942739, 43.9035512], [19.1939276, 43.9036786], [19.1922569, 43.9042933], [19.1913225, 43.9043052], [19.1898729, 43.9053199], [19.1871714, 43.9083746], [19.1864419, 43.908823], [19.1853475, 43.9095805], [19.18509, 43.9095032], [19.1840172, 43.9104307], [19.1828744, 43.91183], [19.1829688, 43.9120625], [19.1803694, 43.9139242], [19.1802953, 43.914616], [19.1795322, 43.915452], [19.1776861, 43.918939], [19.1762252, 43.9208809], [19.1760993, 43.9215599], [19.1748976, 43.9225181], [19.1743183, 43.9235382], [19.1741954, 43.9242989], [19.1719518, 43.9266807], [19.1718507, 43.9274328], [19.1710402, 43.9284134], [19.170515, 43.930308], [19.1704531, 43.9316613], [19.1703587, 43.933702], [19.1710246, 43.9346185], [19.1725588, 43.9349971], [19.1737711, 43.9354143], [19.1756916, 43.9355302], [19.1770997, 43.9357578], [19.1792321, 43.9362873], [19.1803693, 43.93638], [19.1818822, 43.9364728], [19.1825795, 43.9367663], [19.1833687, 43.93657], [19.1882443, 43.937848], [19.1910324, 43.9382696], [19.1928167, 43.9384618], [19.1939735, 43.9383733], [19.1959905, 43.938018], [19.1988266, 43.9373333], [19.2040372, 43.9364728], [19.2065906, 43.9364728], [19.2088222, 43.9366737], [19.2098522, 43.9367509], [19.2107867, 43.93684], [19.2111186, 43.9369389], [19.2116465, 43.9371295], [19.2120118, 43.9372667], [19.2123555, 43.9374171], [19.2126929, 43.9376457], [19.2131991, 43.938057], [19.2134301, 43.9382186], [19.2128901, 43.9385378], [19.2128607, 43.9385592], [19.2066353, 43.9457034], [19.1986103, 43.9563741], [19.1984796, 43.9568658], [19.1976213, 43.9574836], [19.1973493, 43.9579834], [19.1960013, 43.9589201], [19.1960013, 43.9592136], [19.1957009, 43.9594607], [19.195492, 43.9593907], [19.1947245, 43.9599087], [19.1941496, 43.9600642], [19.1920125, 43.9615641], [19.189048, 43.9628627], [19.1864396, 43.9637975], [19.1854977, 43.9638009], [19.1854977, 43.9644959], [19.184978, 43.9647878], [19.1837095, 43.9663827], [19.1818625, 43.9687858], [19.1798232, 43.971652], [19.1775796, 43.974951], [19.1739507, 43.9804035], [19.1729413, 43.9816714], [19.1710729, 43.9838651], [19.1681727, 43.9876964], [19.1671213, 43.989079], [19.1662717, 43.9911627], [19.1638906, 43.9962394], [19.1608325, 44.0022332], [19.1622583, 44.0028294], [19.163568, 44.0038048], [19.1637826, 44.0042061], [19.1639757, 44.0049778], [19.1642976, 44.0053945], [19.1646409, 44.0056723], [19.1643619, 44.0066601], [19.1635465, 44.0076787], [19.1629886, 44.0080028], [19.163053, 44.0086819], [19.1634393, 44.0089442], [19.1630959, 44.0094226], [19.1620697, 44.010192], [19.1614705, 44.0155765], [19.1614419, 44.0161554], [19.1614148, 44.0161603], [19.149305, 44.0158495], [19.1387375, 44.0152374], [19.1374784, 44.0148263], [19.1202343, 44.0093341], [19.1179805, 44.0031798], [19.1179757, 44.0030225], [19.1169117, 44.0018541], [19.1168461, 44.0017816], [19.1167016, 44.0017596], [19.1165264, 44.0017092], [19.1163644, 44.0015958], [19.116093, 44.0014194], [19.1156946, 44.001347], [19.1155326, 44.0013627], [19.1153706, 44.0013879], [19.115121, 44.0013155], [19.1148714, 44.0012053], [19.1147269, 44.0010793], [19.1145474, 44.0008872], [19.1141665, 44.0005974], [19.1137549, 44.0004022], [19.113501, 44.0003549], [19.1132208, 44.0003896], [19.1130456, 44.0003959], [19.1129143, 44.0003045], [19.1128968, 44.0001911], [19.1128618, 44.0000557], [19.1127479, 43.9999297], [19.1125202, 43.99981], [19.1122926, 43.9997313], [19.1121612, 43.9996053], [19.1122006, 43.9995108], [19.1122181, 43.9993408], [19.1118723, 43.9992179], [19.1116796, 43.9990069], [19.1116271, 43.9989534], [19.1116183, 43.9988715], [19.1116183, 43.9987675], [19.1115964, 43.9987045], [19.1115307, 43.9986416], [19.1114432, 43.9985912], [19.1113644, 43.9985597], [19.1112199, 43.9985124], [19.1111104, 43.9984715], [19.1110272, 43.9983896], [19.1109659, 43.9982919], [19.1103486, 43.9978416], [19.1102479, 43.9977219], [19.1102085, 43.9976431], [19.1101997, 43.9975581], [19.1102085, 43.997473], [19.1101953, 43.9973471], [19.1101034, 43.9971801], [19.1100596, 43.9971234], [19.1099896, 43.9970352], [19.109972, 43.996947], [19.1099808, 43.9968557], [19.1100771, 43.996736], [19.1101603, 43.9966856], [19.1103136, 43.9966321], [19.1105193, 43.9966069], [19.1106376, 43.9965691], [19.1107689, 43.9965029], [19.1108302, 43.9964084], [19.1108214, 43.9962667], [19.1107996, 43.9961155], [19.1108696, 43.9956336], [19.1109397, 43.9954698], [19.1110579, 43.9953249], [19.1114257, 43.9951296], [19.1116446, 43.9950257], [19.1118066, 43.994947], [19.1118985, 43.9948651], [19.1119423, 43.9947517], [19.1119335, 43.9945532], [19.1119073, 43.9942383], [19.1118898, 43.9940934], [19.1119073, 43.9939579], [19.1119861, 43.993854], [19.1120649, 43.9937973], [19.1122006, 43.9937532], [19.1123232, 43.9937217], [19.1125378, 43.9936807], [19.1127041, 43.9936492], [19.1129362, 43.993624], [19.1131464, 43.9936209], [19.1132821, 43.9936146], [19.1134616, 43.9935831], [19.1135711, 43.993539], [19.1136718, 43.9934571], [19.1137374, 43.9933563], [19.1137943, 43.9932083], [19.1138075, 43.9931516], [19.1138162, 43.9930665], [19.1139345, 43.9929185], [19.1140308, 43.9928334], [19.1141796, 43.992761], [19.1143066, 43.992698], [19.1144205, 43.9925909], [19.1144161, 43.9924397], [19.1144467, 43.9923609], [19.1145518, 43.9922696], [19.1146832, 43.9920963], [19.1148101, 43.9919798], [19.1149415, 43.9919325], [19.1152173, 43.9918884], [19.1154537, 43.991775], [19.1156727, 43.9916837], [19.1156639, 43.9916175], [19.1156289, 43.9915451], [19.1155238, 43.9914726], [19.1153968, 43.991397], [19.1153574, 43.9912868], [19.1153968, 43.9912238], [19.1155107, 43.9911545], [19.1155676, 43.9910442], [19.115572, 43.9909182], [19.1154844, 43.9907733], [19.115318, 43.9906757], [19.1151122, 43.9906001], [19.1149108, 43.990556], [19.1147313, 43.9905434], [19.114635, 43.9904961], [19.1145693, 43.9902977], [19.1145168, 43.9901937], [19.1144423, 43.9901213], [19.1142628, 43.9900677], [19.1140746, 43.9900299], [19.1133215, 43.989737], [19.1131814, 43.9896299], [19.1131464, 43.9895385], [19.1131551, 43.9894598], [19.1130719, 43.9893117], [19.1127304, 43.9891164], [19.1125728, 43.9889652], [19.1124502, 43.9888014], [19.1124152, 43.9886691], [19.1124852, 43.9885242], [19.1126122, 43.9883352], [19.1127173, 43.9882092], [19.1127873, 43.9880296], [19.1127567, 43.9878249], [19.112691, 43.9874941], [19.1126954, 43.9873901], [19.1127654, 43.9872515], [19.1128793, 43.9871318], [19.1129581, 43.987009], [19.1129931, 43.9868577], [19.1129887, 43.9867349], [19.1129625, 43.98659], [19.1129406, 43.9864986], [19.1129231, 43.9863695], [19.1079843, 43.984914], [19.1001733, 43.9866467], [19.0955541, 43.9872531], [19.0955541, 43.987272], [19.0797116, 43.9893779], [19.0796941, 43.9894724], [19.0790239, 43.9896948], [19.0756286, 43.9908216], [19.0515507, 43.9988116], [19.0438448, 44.0020871], [19.0245448, 44.0074669], [19.0234356, 43.9975093], [19.0239129, 43.9952037], [19.0239129, 43.9948289], [19.0248236, 43.9939344], [19.025025, 43.9939344], [19.0249462, 43.9935217], [19.0251169, 43.9934713], [19.0253183, 43.9934241], [19.025581, 43.9933485], [19.0259401, 43.9932477], [19.026124, 43.9932067], [19.0264129, 43.9931595], [19.0265662, 43.9931563], [19.0267107, 43.9931437], [19.0269339, 43.9931091], [19.027166, 43.9930996], [19.0273368, 43.9931028], [19.0275425, 43.993128], [19.0277045, 43.9929925], [19.0276126, 43.992813], [19.0276608, 43.9921106], [19.0274112, 43.9915814], [19.027131, 43.9914365], [19.0270215, 43.9911435], [19.0274462, 43.9909388], [19.027779, 43.9906112], [19.0280723, 43.9902017], [19.0281249, 43.9899056], [19.028103, 43.9896], [19.0279191, 43.9891306], [19.0273718, 43.9893165], [19.0269865, 43.9891558], [19.0266844, 43.9888282], [19.0262334, 43.9884786], [19.0259007, 43.9879903], [19.0255942, 43.9876658], [19.0248586, 43.9873193], [19.0250294, 43.9869507], [19.0252833, 43.9869318], [19.0254015, 43.9869003], [19.025476, 43.9868531], [19.0257781, 43.98662], [19.0259313, 43.986516], [19.026124, 43.9863963], [19.0261896, 43.9863396], [19.0263166, 43.9861726], [19.0263823, 43.9859584], [19.026391, 43.9858324], [19.0263254, 43.9857064], [19.0262334, 43.9855363], [19.0262203, 43.9853945], [19.0263166, 43.9851456], [19.026518, 43.9848968], [19.0268617, 43.9846636], [19.0273105, 43.9844919], [19.0291242, 43.9840906], [19.0300623, 43.9838898], [19.0301312, 43.9838748], [19.0301499, 43.9838669], [19.0301641, 43.9838504], [19.0301717, 43.983822], [19.0299741, 43.9832833], [19.0298165, 43.9830155], [19.0297727, 43.9827729], [19.0298383, 43.9825114], [19.0299347, 43.9822594], [19.0298953, 43.9821239], [19.0296807, 43.9820263], [19.0293611, 43.9820011], [19.0289627, 43.9820042], [19.028446, 43.9818845], [19.0256745, 43.9807283], [19.0251842, 43.9804668], [19.0249433, 43.980095], [19.0248286, 43.9796111], [19.0248811, 43.9792756], [19.0249972, 43.979033], [19.0253058, 43.9786833], [19.0257787, 43.9782768], [19.026164, 43.9779649], [19.0263085, 43.9778987], [19.0264464, 43.9778846], [19.0265996, 43.9778735], [19.0267266, 43.9778404], [19.0268405, 43.9777932], [19.0271798, 43.9775868], [19.0273615, 43.9774639], [19.0274863, 43.9773615], [19.0275344, 43.9772954], [19.02753, 43.9772513], [19.0275235, 43.9772166], [19.0275038, 43.9771867], [19.0274687, 43.9771709], [19.0274315, 43.9771599], [19.027368, 43.9771662], [19.0272039, 43.9771977], [19.0269828, 43.9772591], [19.0267857, 43.9773363], [19.0260976, 43.9776585], [19.0251563, 43.9780177], [19.0235976, 43.9785753], [19.0223234, 43.9790345], [19.0222815, 43.9789495], [19.0205806, 43.9726398], [19.0163225, 43.9656112], [19.0151905, 43.9641207], [19.0150866, 43.9623064], [19.0151328, 43.9605977], [19.0151678, 43.9599108], [19.0153993, 43.9598905], [19.0153631, 43.9585557], [19.0153641, 43.9572697], [19.0152687, 43.9547186], [19.015231, 43.9498225], [19.0154671, 43.9491883], [19.0154457, 43.9471491], [19.01572, 43.9468474], [19.0169263, 43.9449862], [19.0155101, 43.9442755], [19.0154569, 43.9437762], [19.0141368, 43.9425605], [19.0139866, 43.9420661], [19.013536, 43.9414326], [19.0133858, 43.9408301], [19.0128171, 43.9407142], [19.0117764, 43.9399648], [19.0114116, 43.9399648], [19.0105319, 43.939594], [19.009974, 43.9392541], [19.0106709, 43.9387435], [19.0105964, 43.9372529], [19.0116591, 43.9359736], [19.0123343, 43.9351748], [19.0125918, 43.9345722], [19.0134287, 43.933985], [19.0148878, 43.9333823], [19.014287, 43.9327024], [19.0141797, 43.9321461], [19.0138793, 43.9317134], [19.0138149, 43.9312035], [19.0129351, 43.9312344], [19.0124631, 43.9304308], [19.0110797, 43.9295088], [19.0112078, 43.9292486], [19.0118408, 43.9293104], [19.0123987, 43.9291327], [19.012388, 43.9286304], [19.0118623, 43.9283445], [19.0117335, 43.9274096], [19.0114559, 43.9271988], [19.0114243, 43.9260918], [19.010627, 43.9254745], [19.0113687, 43.9252228], [19.0121841, 43.9248364], [19.011832, 43.9244757], [19.0117597, 43.923345], [19.0123954, 43.9222738], [19.012356, 43.9205865], [19.012348, 43.9202417], [19.0116477, 43.9198133], [19.0110683, 43.9189169], [19.0109498, 43.9182869], [19.0091157, 43.9170157], [19.0089983, 43.9166697], [19.0077209, 43.9155473], [19.0075076, 43.9148255], [19.0068584, 43.9140583], [19.0076136, 43.9139552], [19.0083217, 43.9134296], [19.0088426, 43.9133375], [19.0108323, 43.9119302], [19.0117764, 43.9120074], [19.01227, 43.9122393], [19.0134287, 43.9121929], [19.0099525, 43.9096887], [19.0090084, 43.9096114], [19.0080213, 43.9089466], [19.0086436, 43.9085833], [19.0083513, 43.9084235], [19.0075278, 43.90805], [19.0067768, 43.9069988], [19.0066695, 43.9063185], [19.0062833, 43.9061639], [19.0054679, 43.9057002], [19.005382, 43.9052982], [19.0047383, 43.9048808], [19.0048616, 43.9045472], [19.0048241, 43.9042314], [19.0042019, 43.9042624], [19.0036011, 43.9043551], [19.0026594, 43.9042153], [19.0004468, 43.9038604], [18.9984052, 43.90319], [18.9961534, 43.9022372], [18.9961365, 43.9001817], [18.9961479, 43.8992752], [18.9960237, 43.8974312], [18.9959526, 43.8944454], [18.9958453, 43.8903094], [18.9958977, 43.8842535], [18.995254, 43.8847174], [18.9948034, 43.8847793], [18.9944888, 43.8844183], [18.9941308, 43.8829857], [18.9923713, 43.8806948], [18.9915097, 43.8807195], [18.9895039, 43.8793268], [18.9894605, 43.8783376], [18.9891386, 43.8780979], [18.9890875, 43.8772004], [18.9887524, 43.8768102], [18.9887482, 43.8761436], [18.9874542, 43.8774251], [18.9871323, 43.8778659], [18.9858686, 43.8793838], [18.983209, 43.8823394], [18.9803813, 43.8853519], [18.9782649, 43.8863156], [18.9741134, 43.8881387], [18.9678073, 43.8912925], [18.9675117, 43.8913932], [18.9634492, 43.892777], [18.9579719, 43.8942794], [18.9553486, 43.8935347], [18.950637, 43.8924759], [18.9476161, 43.8917158], [18.947488, 43.891687], [18.9438588, 43.890871], [18.9425037, 43.8907775], [18.9401806, 43.8906171], [18.9361116, 43.8904625], [18.9274586, 43.890176], [18.9236498, 43.8897744], [18.9214825, 43.8891094], [18.9209728, 43.8893874], [18.9193797, 43.8894032], [18.918861, 43.8875552], [18.9187145, 43.886434], [18.9198947, 43.884671], [18.9196372, 43.8844081], [18.9201522, 43.8838823], [18.9201237, 43.8834937], [18.9198947, 43.8829698], [18.9186501, 43.8820573], [18.9185324, 43.8816646], [18.9172768, 43.880851], [18.916204, 43.8804024], [18.9165258, 43.8801086], [18.9164614, 43.8797064], [18.9171481, 43.8789795], [18.9160538, 43.8786702], [18.9156031, 43.8784691], [18.9157963, 43.8781907], [18.9176572, 43.8782092], [18.918457, 43.8777731], [18.9200234, 43.8767986], [18.9207744, 43.8767522], [18.9221692, 43.8765048], [18.9212894, 43.8762263], [18.9201093, 43.8762109], [18.9190578, 43.8755303], [18.9189505, 43.874726], [18.9179757, 43.8735413], [18.9173173, 43.8732121], [18.9180386, 43.8729085], [18.9179957, 43.8722201], [18.9177382, 43.8719804], [18.9174488, 43.8714157], [18.9165473, 43.87065], [18.9161181, 43.8705418], [18.9158441, 43.8702515], [18.9150131, 43.869691], [18.9148736, 43.8693042], [18.914659, 43.8691882], [18.9139402, 43.869049], [18.9133709, 43.8689973], [18.9120412, 43.8698766], [18.9107537, 43.8700545], [18.9101314, 43.8703252], [18.9094098, 43.8706488], [18.9086723, 43.8706887], [18.9065967, 43.8721557], [18.9045031, 43.8705939], [18.90378, 43.8700545], [18.9025819, 43.8696506], [18.8991216, 43.8685792], [18.8973701, 43.8681567], [18.8937811, 43.8671023], [18.8908212, 43.8661368], [18.8885512, 43.8675576], [18.8829016, 43.8710754], [18.8809275, 43.8701628], [18.879919, 43.869544], [18.8792511, 43.8698349], [18.8777947, 43.8698225], [18.8765931, 43.8692656], [18.8754988, 43.8687241], [18.8739109, 43.8684302], [18.8712599, 43.8680468], [18.8691902, 43.8677805], [18.8682246, 43.8675948], [18.867538, 43.8671308], [18.8672161, 43.8664655], [18.8667655, 43.8663108], [18.8660978, 43.8665796], [18.865478, 43.8658622], [18.8652634, 43.865692], [18.8646626, 43.865955], [18.8637996, 43.8654886], [18.863182, 43.8652279], [18.8616586, 43.8662026], [18.8603496, 43.8663108], [18.8596844, 43.8664191], [18.8588159, 43.8661325], [18.8570666, 43.8645627], [18.8561744, 43.8639187], [18.8544048, 43.8638756], [18.8515305, 43.8619636], [18.8515734, 43.8612828], [18.851273, 43.8610662], [18.8509297, 43.8578481], [18.850547, 43.8573629], [18.8505864, 43.8558057], [18.8503074, 43.8556046], [18.8502645, 43.8547381], [18.8498997, 43.8544132], [18.8495135, 43.8543667], [18.8492775, 43.8541501], [18.8491058, 43.8538406], [18.848277, 43.8531528], [18.8481617, 43.8518136], [18.8476681, 43.8515815], [18.8471532, 43.8510244], [18.847239, 43.8506531], [18.8479042, 43.8503745], [18.8484159, 43.8498504], [18.8488483, 43.8502043], [18.8504576, 43.8489354], [18.8520174, 43.8489155], [18.8521732, 43.8476571], [18.8526463, 43.847001], [18.8538999, 43.844751], [18.8547921, 43.844169], [18.8550496, 43.8436893], [18.8558942, 43.8432479], [18.8576419, 43.8432483], [18.8578598, 43.842872], [18.8585189, 43.8419675], [18.8580966, 43.8417393], [18.8574529, 43.8420333], [18.8569271, 43.8420952], [18.8566267, 43.8421339], [18.8564014, 43.8419714], [18.8562298, 43.8416309], [18.8560581, 43.8398047], [18.8555589, 43.8392983], [18.8550281, 43.8394023], [18.8544595, 43.8398821], [18.8524961, 43.8393636], [18.8512409, 43.8388141], [18.8512194, 43.8380248], [18.8506141, 43.8378051], [18.8501465, 43.8380325], [18.8498783, 43.8380248], [18.8495564, 43.8377617], [18.8491595, 43.8380403], [18.8484836, 43.8380171], [18.8480544, 43.8375373], [18.8473972, 43.8374805], [18.8462305, 43.8380558], [18.8457799, 43.8378391], [18.8444066, 43.8379165], [18.8412738, 43.8392166], [18.8406359, 43.8392213], [18.8402009, 43.839263], [18.8397932, 43.8390308], [18.8390207, 43.8389999], [18.8382482, 43.8395106], [18.8369837, 43.8395357], [18.8359947, 43.8402132], [18.834514, 43.8412275], [18.8301372, 43.841244], [18.8267898, 43.841275], [18.8247057, 43.8408928], [18.8241557, 43.8400522], [18.8233899, 43.8390588], [18.8208031, 43.8357031], [18.819344, 43.8348054], [18.8180136, 43.8339541], [18.8179127, 43.8329463], [18.8170051, 43.8327003], [18.8160395, 43.8311834], [18.815933, 43.830383]]]}}]}