{"type": "FeatureCollection", "features": [{"type": "Feature", "properties": {"name": "Općina Sanski Most, Unsko-sanski kanton, Federacija Bosne i Hercegovine, 79260, Bosna i Hercegovina / Босна и Херцеговина", "source": "OpenStreetMap relation 2528261", "licence": "ODbL 1.0"}, "geometry": {"type": "Polygon", "coordinates": [[[16.3149445, 44.7739061], [16.3169289, 44.7710886], [16.3169289, 44.764326], [16.3205009, 44.762917], [16.3208978, 44.7592536], [16.320104, 44.7578445], [16.3181196, 44.7561535], [16.3165321, 44.7527715], [16.3196973, 44.7525438], [16.3212848, 44.7514164], [16.3228724, 44.750289], [16.3248568, 44.7491616], [16.3264443, 44.7477522], [16.3276349, 44.7466247], [16.3292225, 44.7452153], [16.3304131, 44.7432421], [16.33081, 44.7415507], [16.3312069, 44.7409869], [16.3343819, 44.7381678], [16.3343819, 44.7364763], [16.3335882, 44.7342209], [16.3327944, 44.7328112], [16.3312069, 44.7311195], [16.3320006, 44.7280179], [16.3327944, 44.7260441], [16.3351757, 44.7232243], [16.3379539, 44.7209683], [16.340732, 44.7204043], [16.3454946, 44.7198403], [16.3482728, 44.7189943], [16.3498603, 44.7181482], [16.3534323, 44.7167382], [16.3558136, 44.7161741], [16.3585917, 44.7156101], [16.3613699, 44.7136358], [16.3625605, 44.7127897], [16.3669262, 44.7099692], [16.3724826, 44.7057383], [16.374467, 44.7046099], [16.3800233, 44.7006607], [16.3808171, 44.6981217], [16.3816109, 44.6947363], [16.3835953, 44.6930435], [16.3839922, 44.690222], [16.3851828, 44.6885291], [16.387961, 44.6862718], [16.3903423, 44.6848609], [16.3927236, 44.6842966], [16.3951049, 44.68345], [16.3974861, 44.6811925], [16.3998674, 44.6806281], [16.4034394, 44.6794993], [16.4066144, 44.677806], [16.4097895, 44.6769594], [16.4121708, 44.6761128], [16.4149489, 44.6749839], [16.4169334, 44.6735727], [16.4177271, 44.6715971], [16.4197115, 44.6693391], [16.4240772, 44.667081], [16.4272523, 44.6653874], [16.4292367, 44.6642583], [16.4324117, 44.6628469], [16.434793, 44.6611532], [16.438365, 44.6603063], [16.4443182, 44.6560717], [16.4463026, 44.6535308], [16.448287, 44.6515544], [16.4502714, 44.6504251], [16.4530496, 44.648731], [16.4562247, 44.6478839], [16.4605904, 44.6461897], [16.4637654, 44.6444955], [16.4669405, 44.6439308], [16.4717031, 44.6416717], [16.4760688, 44.6399774], [16.4800376, 44.6385654], [16.4824189, 44.6374357], [16.4848002, 44.6365885], [16.4891659, 44.6365885], [16.4911503, 44.6374357], [16.495516, 44.6388478], [16.4990879, 44.639695], [16.502263, 44.6399774], [16.5042474, 44.6391302], [16.5078193, 44.6374357], [16.5129788, 44.6337643], [16.5141694, 44.6315049], [16.5173445, 44.6323522], [16.5212105, 44.6322636], [16.5228943, 44.6334618], [16.5251394, 44.6346601], [16.5301909, 44.6362577], [16.5335585, 44.636657], [16.5363649, 44.6374558], [16.5402939, 44.6394527], [16.542539, 44.6406508], [16.5464679, 44.6446443], [16.5481517, 44.6474396], [16.5520806, 44.6510333], [16.5537645, 44.6526305], [16.5554483, 44.6554254], [16.5599385, 44.661414], [16.5633062, 44.6658052], [16.5683576, 44.6682003], [16.5801444, 44.6725911], [16.5851959, 44.6701962], [16.5896861, 44.6693978], [16.593615, 44.6685995], [16.5969827, 44.6678012], [16.6009116, 44.6666036], [16.6042793, 44.665406], [16.6070857, 44.6650069], [16.6104533, 44.6626116], [16.613821, 44.6602163], [16.6177499, 44.6590186], [16.6228014, 44.6586194], [16.6267303, 44.6574216], [16.6312205, 44.6586194], [16.6345882, 44.6586194], [16.6379558, 44.6562239], [16.6418848, 44.6558246], [16.6452524, 44.653429], [16.6474975, 44.6502347], [16.6514264, 44.6474396], [16.6531103, 44.6450436], [16.6559166, 44.644245], [16.658723, 44.645443], [16.6643358, 44.6450436], [16.6682647, 44.645443], [16.6716324, 44.6470403], [16.6761226, 44.6478389], [16.6822966, 44.6490368], [16.6839804, 44.6494361], [16.6918383, 44.6498354], [16.6963285, 44.6490368], [16.7019412, 44.6490368], [16.7058702, 44.6486375], [16.7086766, 44.6474396], [16.7114829, 44.6458423], [16.713728, 44.644245], [16.7199021, 44.6446443], [16.7221472, 44.6434463], [16.723831, 44.6406508], [16.7277599, 44.6390533], [16.730005, 44.6374558], [16.7367403, 44.6350595], [16.7417918, 44.6322636], [16.7440369, 44.6342606], [16.7468433, 44.6382546], [16.7490884, 44.6398521], [16.750211, 44.6418489], [16.750211, 44.6470403], [16.7479659, 44.6522312], [16.7479659, 44.6550261], [16.7485271, 44.6566231], [16.7490884, 44.6590186], [16.7507722, 44.6606155], [16.7530173, 44.6630108], [16.7547012, 44.6650069], [16.7569463, 44.6693978], [16.7603139, 44.6741876], [16.7603139, 44.6797752], [16.7614365, 44.6813716], [16.762559, 44.6829679], [16.7653654, 44.6821697], [16.7692943, 44.6805734], [16.7698556, 44.678977], [16.7687331, 44.6733894], [16.7704169, 44.6709945], [16.7732233, 44.6682003], [16.7737845, 44.6638093], [16.7732233, 44.6606155], [16.7743458, 44.6582201], [16.7760296, 44.6566231], [16.7765909, 44.653429], [16.7771522, 44.650634], [16.7805198, 44.6490368], [16.7827649, 44.6482382], [16.7861326, 44.6470403], [16.7900615, 44.6438456], [16.7911841, 44.6422482], [16.7924517, 44.6400345], [16.7940904, 44.636836], [16.7945165, 44.6362613], [16.7957433, 44.6353645], [16.797066, 44.634454], [16.797711, 44.6347677], [16.8141063, 44.6447033], [16.8314945, 44.644247], [16.8320806, 44.6440597], [16.8396904, 44.6461018], [16.8398049, 44.6462036], [16.8398879, 44.6463828], [16.8402027, 44.6466413], [16.840256, 44.6465311], [16.8403476, 44.6464348], [16.8406418, 44.6463371], [16.8410661, 44.6462171], [16.8413978, 44.6461488], [16.8418125, 44.6461852], [16.842832, 44.6464311], [16.843161, 44.6464274], [16.843531, 44.6462668], [16.8440931, 44.6460399], [16.8442651, 44.6460029], [16.8445676, 44.6460148], [16.8449045, 44.6460383], [16.8452642, 44.6459757], [16.8456511, 44.6456927], [16.8459461, 44.6454691], [16.8463046, 44.6453792], [16.8468786, 44.6454129], [16.8473233, 44.6455149], [16.8477039, 44.645617], [16.8482653, 44.6460643], [16.848532, 44.6461397], [16.8488879, 44.6461659], [16.8492919, 44.6460968], [16.8498178, 44.6459971], [16.850337, 44.645794], [16.8506705, 44.6458448], [16.8510284, 44.6458304], [16.8515002, 44.6456844], [16.8518145, 44.6455232], [16.8520753, 44.6453555], [16.852168, 44.6451373], [16.8521578, 44.6446585], [16.8522906, 44.6443994], [16.8526145, 44.6441966], [16.8530586, 44.6440182], [16.8534489, 44.6439424], [16.853513, 44.6438177], [16.8536151, 44.6434898], [16.8536229, 44.6433263], [16.8540292, 44.6431131], [16.8542318, 44.6430659], [16.854506, 44.6430432], [16.8549339, 44.6447491], [16.8552779, 44.646142], [16.8559746, 44.649172], [16.8566953, 44.6523808], [16.8577903, 44.6567907], [16.8583349, 44.6592556], [16.8577741, 44.6619302], [16.8541437, 44.6644903], [16.8390774, 44.6736238], [16.8226562, 44.6791982], [16.8141384, 44.6852546], [16.8111466, 44.6874468], [16.8060363, 44.6911911], [16.802076, 44.6939054], [16.7982942, 44.7053591], [16.795569, 44.7134328], [16.7958438, 44.7145586], [16.7985704, 44.7250042], [16.7990082, 44.726705], [16.7990544, 44.7271482], [16.799632, 44.7392108], [16.7997588, 44.7404682], [16.8008754, 44.7485203], [16.8011338, 44.751226], [16.7970663, 44.7579409], [16.7922221, 44.7639155], [16.7904609, 44.7666042], [16.7900279, 44.7671638], [16.7866554, 44.7722416], [16.7816522, 44.7799307], [16.7803874, 44.7815345], [16.7779431, 44.7853251], [16.7769886, 44.7888976], [16.7752199, 44.7954339], [16.7769808, 44.7978651], [16.7738823, 44.8005826], [16.7700759, 44.8027014], [16.7627431, 44.8063381], [16.7608697, 44.8070054], [16.7564504, 44.8083415], [16.7542351, 44.8092973], [16.752603, 44.810016], [16.7425181, 44.81401], [16.7384499, 44.8153428], [16.7347555, 44.8165068], [16.7310119, 44.8180934], [16.7293774, 44.8187586], [16.7262823, 44.8199765], [16.72459, 44.8207148], [16.7233401, 44.8213176], [16.7183197, 44.8227283], [16.7155825, 44.8231151], [16.7130813, 44.8232769], [16.7094893, 44.823391], [16.7034815, 44.8236328], [16.69916, 44.8238231], [16.6969039, 44.8238103], [16.6921504, 44.8240442], [16.6875973, 44.8241547], [16.6764449, 44.8246485], [16.6683842, 44.8251751], [16.6680935, 44.8212334], [16.6679002, 44.8201002], [16.6677712, 44.8180809], [16.667968, 44.8171491], [16.6679468, 44.8167926], [16.6678118, 44.8161713], [16.6675604, 44.8156469], [16.6665856, 44.8147235], [16.6652824, 44.8137961], [16.6638336, 44.8129737], [16.6622408, 44.8119271], [16.6600581, 44.8106299], [16.6588235, 44.8098467], [16.6572902, 44.80858], [16.654758, 44.8093323], [16.6532641, 44.8098443], [16.651267, 44.8108801], [16.6498906, 44.8114517], [16.6477929, 44.8127621], [16.6460763, 44.8136041], [16.6435355, 44.8153906], [16.6406289, 44.8184467], [16.63743, 44.8206903], [16.6357084, 44.8217587], [16.6328844, 44.8247929], [16.6285668, 44.8276868], [16.6266474, 44.8305598], [16.6249624, 44.8336774], [16.6222752, 44.8364794], [16.6211642, 44.839273], [16.6210341, 44.8400712], [16.6210117, 44.8410919], [16.6211095, 44.8418801], [16.6213455, 44.8429417], [16.621772, 44.8438494], [16.6223506, 44.8451286], [16.6247405, 44.8492563], [16.6235741, 44.8506455], [16.6189872, 44.8543837], [16.6176457, 44.8554867], [16.6145932, 44.8579754], [16.6116872, 44.8573541], [16.6072704, 44.8560957], [16.6014774, 44.8544329], [16.5950733, 44.8526696], [16.5926689, 44.8519222], [16.5875849, 44.850498], [16.5846945, 44.8498764], [16.5743616, 44.8494149], [16.5611397, 44.8487141], [16.5543434, 44.8491762], [16.5410564, 44.8501916], [16.5255559, 44.8476492], [16.5194523, 44.8477764], [16.517524, 44.8480406], [16.5097022, 44.8527482], [16.5051706, 44.8534371], [16.4949204, 44.8548367], [16.4903524, 44.8554194], [16.4896668, 44.8555068], [16.4622735, 44.8589409], [16.4550522, 44.8600276], [16.4535901, 44.860214], [16.4521582, 44.8603956], [16.4507329, 44.8605749], [16.4482559, 44.8608883], [16.4461607, 44.8611589], [16.4445261, 44.8613738], [16.4431946, 44.8615483], [16.4420725, 44.8616884], [16.440252, 44.8619258], [16.4388217, 44.862111], [16.4371101, 44.8623306], [16.4356631, 44.862517], [16.434489, 44.8626654], [16.4315431, 44.8630369], [16.4295111, 44.8632918], [16.4276056, 44.8635308], [16.424184, 44.8639557], [16.4188464, 44.8646169], [16.4155454, 44.8650217], [16.4119345, 44.8639142], [16.4099774, 44.8633236], [16.4079828, 44.8627254], [16.4062075, 44.8621805], [16.4048425, 44.8617484], [16.4033704, 44.8612747], [16.4016919, 44.8607456], [16.401039, 44.8605363], [16.3999136, 44.8597623], [16.3987479, 44.8589634], [16.3981349, 44.8585383], [16.3970664, 44.856716], [16.3962776, 44.8553697], [16.3956596, 44.8541967], [16.3948389, 44.8526532], [16.3945606, 44.8521914], [16.391165, 44.8501391], [16.3901197, 44.8495073], [16.38763, 44.8491155], [16.3864066, 44.8488868], [16.3843159, 44.848538], [16.3835655, 44.8458879], [16.3830398, 44.8446547], [16.3830608, 44.8435997], [16.3829798, 44.8426422], [16.3826884, 44.8421728], [16.3824312, 44.8418771], [16.3823048, 44.8414256], [16.3794287, 44.8415689], [16.3797145, 44.8404644], [16.3792275, 44.8395908], [16.3792068, 44.8385516], [16.3794448, 44.838102], [16.3790623, 44.837286], [16.3788173, 44.8362933], [16.3783253, 44.8352138], [16.3781251, 44.8349238], [16.3777142, 44.8344247], [16.3777556, 44.8341644], [16.376928, 44.8332455], [16.3758327, 44.8324758], [16.3762542, 44.832191], [16.3771175, 44.8316892], [16.3777272, 44.8312739], [16.3777761, 44.8310517], [16.3776754, 44.8302888], [16.3776824, 44.8298056], [16.377938, 44.8293767], [16.378196, 44.8291393], [16.3790835, 44.8289087], [16.3805045, 44.8287867], [16.3807466, 44.8286165], [16.3807987, 44.8278576], [16.3805792, 44.827532], [16.3804776, 44.8271929], [16.3808921, 44.8268623], [16.3812765, 44.8250566], [16.3817641, 44.824219], [16.3818836, 44.8235899], [16.382137, 44.8229201], [16.3816104, 44.8223029], [16.381052, 44.8210474], [16.3806497, 44.8204581], [16.3804173, 44.820079], [16.3804324, 44.8198883], [16.3810222, 44.8198578], [16.3814892, 44.8197272], [16.381937, 44.8194203], [16.382071, 44.8190269], [16.3828553, 44.81843], [16.3829399, 44.8182197], [16.3822444, 44.8172497], [16.3814938, 44.8166528], [16.3806658, 44.8162288], [16.3801231, 44.8155653], [16.3793151, 44.8152877], [16.3790122, 44.814934], [16.3789103, 44.8146496], [16.3788275, 44.8139487], [16.3776698, 44.8142291], [16.3775048, 44.8140313], [16.3772185, 44.8135946], [16.3768974, 44.8129365], [16.3766632, 44.8121448], [16.3766791, 44.811103], [16.3767861, 44.810748], [16.3772714, 44.81032], [16.3777716, 44.8100035], [16.3783382, 44.8096357], [16.378499, 44.8090912], [16.3784615, 44.8084481], [16.3783864, 44.8080852], [16.3788041, 44.8075993], [16.3794409, 44.807277], [16.3800959, 44.8068053], [16.3801893, 44.8064582], [16.3801585, 44.8061926], [16.3799034, 44.8060438], [16.3792435, 44.8059478], [16.3790908, 44.8058088], [16.3791665, 44.8054542], [16.3775226, 44.805716], [16.3771505, 44.8059248], [16.3765858, 44.806268], [16.3759748, 44.8067116], [16.3754164, 44.8068332], [16.3746975, 44.8068095], [16.3735798, 44.806615], [16.3725714, 44.8066507], [16.371901, 44.8065629], [16.3710987, 44.8063978], [16.3705116, 44.806471], [16.3692477, 44.8066811], [16.3684553, 44.8068889], [16.3682919, 44.8071242], [16.3677705, 44.8075524], [16.3674161, 44.8078461], [16.3670653, 44.807733], [16.3664722, 44.8076789], [16.3660024, 44.8078146], [16.3655899, 44.8079911], [16.3654671, 44.8082788], [16.3653635, 44.808718], [16.3653518, 44.8100144], [16.3651368, 44.8102477], [16.3649135, 44.8105888], [16.3643966, 44.8109347], [16.3639152, 44.8109646], [16.3635925, 44.810913], [16.3625029, 44.8106059], [16.3619309, 44.8105201], [16.3614662, 44.8106452], [16.3610724, 44.8108674], [16.3608597, 44.8110802], [16.3610223, 44.811895], [16.3606133, 44.8117535], [16.3601521, 44.8114823], [16.359801, 44.8115006], [16.3593546, 44.8114373], [16.3589014, 44.8114784], [16.3585135, 44.8115752], [16.3581428, 44.8118243], [16.3577802, 44.8118221], [16.3568069, 44.8119567], [16.3557783, 44.8120805], [16.355247, 44.8120658], [16.3552433, 44.8119467], [16.3543096, 44.811477], [16.3535799, 44.8114831], [16.3522431, 44.811357], [16.3519998, 44.8113971], [16.3516814, 44.8113852], [16.3520523, 44.8105822], [16.3513934, 44.8102885], [16.3510966, 44.8104522], [16.3508143, 44.8107264], [16.3505929, 44.8105923], [16.3499768, 44.8101564], [16.3497938, 44.8103008], [16.3489351, 44.8104292], [16.348132, 44.8099008], [16.3477819, 44.8091771], [16.3480594, 44.8088604], [16.3481278, 44.80859], [16.3479181, 44.8081602], [16.3474842, 44.8072826], [16.3469918, 44.8066239], [16.3468695, 44.806096], [16.347003, 44.8056587], [16.3469777, 44.805519], [16.3468739, 44.8053608], [16.3467776, 44.8049547], [16.3464103, 44.8044022], [16.3459906, 44.8035789], [16.3458177, 44.8028851], [16.3458886, 44.8023998], [16.3458396, 44.8019716], [16.3454548, 44.8015542], [16.3452757, 44.8011938], [16.3448922, 44.8008944], [16.3443011, 44.8002869], [16.34362, 44.8003853], [16.3428421, 44.8003434], [16.3421564, 44.8003433], [16.3410937, 44.8004276], [16.3398134, 44.800358], [16.339281, 44.7998209], [16.3391247, 44.7990023], [16.3387595, 44.7989222], [16.3385063, 44.7988194], [16.3378749, 44.798649], [16.3373471, 44.798389], [16.3365542, 44.797865], [16.3362542, 44.7975952], [16.3362546, 44.79733], [16.3363745, 44.7969837], [16.3363531, 44.7964614], [16.3359838, 44.7958783], [16.3354217, 44.7954255], [16.3317684, 44.793823], [16.331875, 44.7934533], [16.3302479, 44.7928157], [16.3297747, 44.7931904], [16.3295145, 44.7930896], [16.3295826, 44.7929786], [16.3289258, 44.7928195], [16.3279225, 44.7917346], [16.3267421, 44.789996], [16.3255072, 44.7887551], [16.3205009, 44.7868648], [16.3177227, 44.7843296], [16.3177227, 44.7786955], [16.3149445, 44.7739061]]]}}]}