{"type": "FeatureCollection", "features": [{"type": "Feature", "properties": {"name": "Opština Šekovići, Република Српска / Republika Srpska, 75450, Bosna i Hercegovina / Босна и Херцеговина", "source": "OpenStreetMap relation 2528263", "licence": "ODbL 1.0"}, "geometry": {"type": "Polygon", "coordinates": [[[18.7459936, 44.325168], [18.7465628, 44.3203717], [18.7470824, 44.3157568], [18.7474799, 44.3122262], [18.7477645, 44.3066369], [18.7490294, 44.302156], [18.7505157, 44.2972446], [18.7574096, 44.2893223], [18.7610463, 44.2847495], [18.7648361, 44.2776413], [18.7664539, 44.2746066], [18.7686359, 44.2659112], [18.7692368, 44.2628087], [18.7697181, 44.2553267], [18.7697744, 44.2544514], [18.7756563, 44.2473841], [18.7830878, 44.2431252], [18.7914659, 44.2370483], [18.7932705, 44.2357393], [18.8033063, 44.226151], [18.8069936, 44.2229146], [18.8119061, 44.2209983], [18.8121163, 44.2210587], [18.8122002, 44.2210832], [18.8122882, 44.2211205], [18.8123924, 44.2211498], [18.8130066, 44.2212208], [18.8152557, 44.2208078], [18.8160503, 44.220738], [18.816804, 44.2207673], [18.8176703, 44.2212762], [18.8198183, 44.2228743], [18.8208393, 44.2236127], [18.8213825, 44.2238596], [18.8227665, 44.2241518], [18.8247896, 44.2245439], [18.8266182, 44.224567], [18.8278842, 44.2244055], [18.8287532, 44.224098], [18.8300836, 44.2231523], [18.8307891, 44.2230683], [18.8313925, 44.2229831], [18.8318324, 44.2226525], [18.8323263, 44.2221377], [18.8336241, 44.2203766], [18.8340425, 44.2200306], [18.8344395, 44.2198384], [18.8348043, 44.2196923], [18.8352549, 44.2196923], [18.8354909, 44.2198461], [18.8356626, 44.2200691], [18.8359201, 44.2204151], [18.8361132, 44.2208226], [18.8363278, 44.2212608], [18.8356118, 44.2218215], [18.8356733, 44.2229524], [18.8352871, 44.2237059], [18.8356519, 44.2239365], [18.836832, 44.223875], [18.8371324, 44.2236136], [18.8383126, 44.2236443], [18.8394499, 44.2243209], [18.8406243, 44.2247432], [18.8439407, 44.2266118], [18.843963, 44.2271443], [18.8435483, 44.2275039], [18.8443637, 44.2279805], [18.8447714, 44.2277499], [18.8460588, 44.2276884], [18.8467026, 44.2273808], [18.8473344, 44.2276837], [18.8483763, 44.2275192], [18.8488912, 44.2273501], [18.8498139, 44.2273655], [18.8517134, 44.2282845], [18.851897, 44.228653], [18.8523674, 44.2286263], [18.8524961, 44.2280113], [18.8524961, 44.227181], [18.8520026, 44.2259201], [18.851952, 44.2249996], [18.8523245, 44.2243824], [18.8529467, 44.223875], [18.8534724, 44.2238212], [18.8541522, 44.2235767], [18.8547921, 44.2241825], [18.8554251, 44.22469], [18.8567877, 44.2256894], [18.8572168, 44.2263891], [18.8576352, 44.2268427], [18.8581288, 44.2270656], [18.8591441, 44.2270897], [18.860693, 44.2270579], [18.8618302, 44.2271348], [18.8626993, 44.2270887], [18.8634825, 44.2269964], [18.8656362, 44.2260656], [18.866979, 44.2255889], [18.8678062, 44.2252973], [18.868525, 44.2252358], [18.8690293, 44.225182], [18.8694477, 44.225305], [18.8697696, 44.2254819], [18.8699765, 44.2256759], [18.869909, 44.2259047], [18.8694584, 44.2263583], [18.8682353, 44.2268196], [18.8679671, 44.2272348], [18.8678276, 44.2277114], [18.8679027, 44.2279805], [18.8687006, 44.228645], [18.8693404, 44.2292413], [18.8695764, 44.2296565], [18.8696086, 44.2300562], [18.8694477, 44.2304714], [18.8685679, 44.2307942], [18.8682568, 44.2304944], [18.8681763, 44.2304099], [18.8679242, 44.2305405], [18.8677633, 44.2307865], [18.8679027, 44.2309557], [18.8683748, 44.2313016], [18.8685572, 44.2315937], [18.8685036, 44.2318782], [18.8682783, 44.2321319], [18.8680959, 44.2325624], [18.8680783, 44.2329525], [18.86957, 44.2341381], [18.8704292, 44.235138], [18.8704991, 44.2356065], [18.8713789, 44.2368825], [18.8715505, 44.2378049], [18.8721084, 44.238466], [18.8731599, 44.2379279], [18.8752413, 44.237974], [18.8760459, 44.2383891], [18.8766467, 44.2384429], [18.8769257, 44.2381124], [18.8775587, 44.2381124], [18.8779235, 44.2384198], [18.878417, 44.2384352], [18.8783741, 44.2380816], [18.8789856, 44.2376819], [18.8799405, 44.2381354], [18.8803572, 44.2380608], [18.8803804, 44.2376665], [18.8822265, 44.2362373], [18.8832128, 44.2368441], [18.8837707, 44.2367057], [18.885262, 44.2366519], [18.8856292, 44.2369278], [18.8872361, 44.2365289], [18.8882446, 44.2360984], [18.8895535, 44.2360984], [18.8914203, 44.2355757], [18.8934968, 44.2355285], [18.8965025, 44.2353189], [18.8977273, 44.2360949], [18.8987169, 44.2363108], [18.9008832, 44.2360523], [18.9024307, 44.2359055], [18.9041052, 44.2365069], [18.9045739, 44.2362214], [18.9051318, 44.2367134], [18.9060545, 44.2370055], [18.9068209, 44.2368309], [18.9077496, 44.23822], [18.9078493, 44.2385593], [18.9079213, 44.2388042], [18.9088225, 44.2389425], [18.908844, 44.2393576], [18.9083075, 44.2397727], [18.9082722, 44.2410456], [18.9092731, 44.2415713], [18.9093804, 44.2420478], [18.9102816, 44.2426012], [18.9101636, 44.2428472], [18.9109655, 44.2433061], [18.91011, 44.2439539], [18.9097881, 44.2447994], [18.9095073, 44.2452832], [18.9112901, 44.2464595], [18.9117408, 44.2486882], [18.9122343, 44.2492108], [18.9136934, 44.2499486], [18.9145833, 44.2502651], [18.9146805, 44.2517315], [18.915796, 44.2526117], [18.9180922, 44.2515625], [18.9188218, 44.2515932], [18.9190793, 44.2525922], [18.9202498, 44.2533912], [18.9208174, 44.2546978], [18.9221477, 44.2555431], [18.9225983, 44.2563884], [18.9224267, 44.2569724], [18.923006, 44.2575103], [18.9231562, 44.2584016], [18.9233494, 44.2588473], [18.9229011, 44.2603398], [18.9223762, 44.2613629], [18.9227378, 44.2615596], [18.9227056, 44.262351], [18.9220297, 44.2624048], [18.9218151, 44.2628735], [18.9206564, 44.262812], [18.9200663, 44.2623818], [18.9194226, 44.2628351], [18.9187252, 44.2628274], [18.918221, 44.2632423], [18.9177811, 44.2638877], [18.9180922, 44.2643718], [18.9190408, 44.2648591], [18.919208, 44.2655473], [18.9187574, 44.2664385], [18.9187428, 44.2666373], [18.9187145, 44.2670224], [18.9190364, 44.2678368], [18.9192509, 44.2684399], [18.9194816, 44.2684668], [18.9198142, 44.268509], [18.9204097, 44.2689431], [18.9205813, 44.2692658], [18.9211284, 44.2696784], [18.9216542, 44.2698189], [18.9227056, 44.2707562], [18.9229846, 44.2712017], [18.9235854, 44.2714629], [18.9248514, 44.2725384], [18.9249587, 44.2730762], [18.9261174, 44.2737522], [18.9262032, 44.2749045], [18.9269113, 44.2763487], [18.9290786, 44.2782076], [18.9291644, 44.2791293], [18.9295077, 44.2795288], [18.9292073, 44.2798821], [18.9292717, 44.2801279], [18.930645, 44.2801125], [18.931632, 44.2802815], [18.9350438, 44.2777774], [18.9377045, 44.2761336], [18.9376616, 44.2755651], [18.9384985, 44.274843], [18.9385872, 44.2744954], [18.9391468, 44.274241], [18.9394641, 44.2737522], [18.9400863, 44.2737676], [18.9415669, 44.2731837], [18.9418459, 44.2723387], [18.9426683, 44.2718042], [18.9434123, 44.273153], [18.9433694, 44.2735986], [18.9449128, 44.2744715], [18.9465984, 44.2742427], [18.9490892, 44.273477], [18.9513302, 44.2734296], [18.9522958, 44.2740749], [18.9540338, 44.2734756], [18.9549281, 44.27334], [18.9553857, 44.2741593], [18.9556539, 44.2746203], [18.9563835, 44.2751734], [18.9572525, 44.2756803], [18.9575927, 44.2762295], [18.9580893, 44.2771859], [18.9586043, 44.2775009], [18.9594841, 44.2777313], [18.9602458, 44.2777774], [18.9618541, 44.2772601], [18.9623809, 44.2775163], [18.962692, 44.2778926], [18.9627886, 44.2788298], [18.962971, 44.2789834], [18.9637649, 44.2792062], [18.9649773, 44.2788375], [18.9661896, 44.2786761], [18.9674373, 44.2786894], [18.9683247, 44.2788682], [18.9698052, 44.2793521], [18.9742122, 44.277783], [18.9769292, 44.2773012], [18.978281, 44.2777928], [18.9797401, 44.2777774], [18.980062, 44.2783459], [18.9810705, 44.2789296], [18.9822507, 44.2793137], [18.9834019, 44.2795042], [18.987658, 44.2806502], [18.9881413, 44.2808189], [18.9913764, 44.2819479], [18.9919495, 44.281956], [18.9928492, 44.2832777], [18.9933228, 44.2836304], [18.9934525, 44.28463], [18.9956188, 44.2861343], [18.9956403, 44.2867026], [18.997271, 44.2877932], [18.9982581, 44.2881772], [18.9991379, 44.2883462], [18.9996743, 44.2881465], [19.0019531, 44.2880032], [19.0042722, 44.2899944], [19.0046739, 44.2909113], [19.005521, 44.291821], [19.0053177, 44.2926315], [19.0057897, 44.2930155], [19.0057648, 44.2944903], [19.0065622, 44.295135], [19.0060472, 44.295396], [19.0060472, 44.2959182], [19.0067124, 44.2964097], [19.006691, 44.2979148], [19.0073347, 44.2981605], [19.0073776, 44.2991894], [19.0084487, 44.2998525], [19.0091157, 44.2999419], [19.0096736, 44.2997884], [19.0101671, 44.2997884], [19.01388, 44.3017733], [19.0165861, 44.3032414], [19.017055, 44.3035354], [19.01757, 44.3036429], [19.0176987, 44.3041036], [19.0193939, 44.305547], [19.0190077, 44.3058388], [19.0194154, 44.3062687], [19.0193361, 44.3067118], [19.0182572, 44.3074879], [19.0174019, 44.3079312], [19.0151024, 44.3092399], [19.0142119, 44.3093474], [19.0129351, 44.3090787], [19.0116048, 44.3084645], [19.0100721, 44.3080848], [19.0068537, 44.3081135], [19.0031148, 44.3087277], [18.999808, 44.3101077], [18.9984765, 44.3101518], [18.9974881, 44.3101845], [18.9940094, 44.3127601], [18.9899597, 44.3159573], [18.9888414, 44.3172447], [18.9874005, 44.3172622], [18.9861834, 44.3165596], [18.9847297, 44.3166746], [18.9819967, 44.3178489], [18.9807845, 44.3183132], [18.9769169, 44.3195777], [18.9765429, 44.3193962], [18.9748692, 44.320041], [18.9738648, 44.3197849], [18.9714349, 44.3215867], [18.9659151, 44.3225921], [18.9660793, 44.3227575], [18.9676809, 44.32437], [18.9684534, 44.3244314], [18.9694619, 44.3248612], [18.9697408, 44.3254906], [18.9711964, 44.3257753], [18.97033, 44.3281257], [18.9716291, 44.3286374], [18.9717381, 44.3320068], [18.9723279, 44.3329104], [18.9742241, 44.3350782], [18.9753735, 44.3356594], [18.9763605, 44.33602], [18.9783841, 44.3366493], [18.9795685, 44.3374474], [18.9800942, 44.3381457], [18.9804624, 44.3390145], [18.9822185, 44.3399182], [18.9827657, 44.3398261], [18.9838123, 44.3407332], [18.984375, 44.3416677], [18.9849386, 44.3430485], [18.9848685, 44.3433404], [18.9831948, 44.3440924], [18.9834952, 44.3445527], [18.9839458, 44.3457497], [18.9843163, 44.3462287], [18.9856842, 44.3468847], [18.9865959, 44.3481774], [18.991456, 44.3499387], [18.9918637, 44.3504758], [18.9925959, 44.3503697], [18.9955569, 44.3500262], [18.9968419, 44.3495091], [18.9976787, 44.3488493], [18.9988505, 44.3487641], [18.999331, 44.3481128], [19.0009343, 44.347665], [19.0005541, 44.3470847], [19.000597, 44.3461333], [19.0019917, 44.3461026], [19.0026569, 44.3463021], [19.0042233, 44.3462714], [19.0049314, 44.3468392], [19.0050173, 44.3473762], [19.0051889, 44.3476678], [19.0047812, 44.3483123], [19.004665, 44.3493931], [19.0039433, 44.3493738], [19.003365, 44.3500308], [19.0039808, 44.3508411], [19.0040829, 44.3529794], [19.0045471, 44.3535719], [19.0015164, 44.3556737], [19.0013661, 44.3563084], [19.0006399, 44.3563829], [18.9982818, 44.3582069], [18.9981723, 44.3589143], [18.998816, 44.3595587], [18.999277, 44.3612962], [18.9987838, 44.3616067], [18.9980543, 44.3616144], [18.997668, 44.3617985], [18.9968526, 44.3620132], [18.9964664, 44.3617985], [18.9961445, 44.3620056], [18.9957476, 44.3617678], [18.9948031, 44.3618368], [18.9946961, 44.3622894], [18.9935695, 44.3627859], [18.9928079, 44.362972], [18.9927435, 44.3636547], [18.9924538, 44.3637312], [18.9917511, 44.3644598], [18.9905444, 44.3652956], [18.9897531, 44.3649811], [18.9892543, 44.3648854], [18.9879884, 44.3643581], [18.9863062, 44.3643834], [18.9849114, 44.3646672], [18.9835226, 44.3647819], [18.9832377, 44.3653191], [18.9825618, 44.365833], [18.9815997, 44.3653591], [18.9811563, 44.3655569], [18.9804912, 44.3656029], [18.9800942, 44.3657947], [18.9795899, 44.3654265], [18.9790535, 44.3653881], [18.9782488, 44.36502], [18.9782166, 44.3647592], [18.9776051, 44.3645214], [18.9769077, 44.3640689], [18.9752891, 44.363647], [18.9731195, 44.3637946], [18.9710221, 44.3638175], [18.968871, 44.364176], [18.9667897, 44.3650235], [18.9642096, 44.3661107], [18.9628315, 44.3668301], [18.9622414, 44.3664389], [18.9622307, 44.3661475], [18.9612114, 44.3655415], [18.9605248, 44.365902], [18.9603853, 44.3661858], [18.9601732, 44.3663638], [18.9601385, 44.3668454], [18.9587331, 44.3677351], [18.9587867, 44.3681876], [18.9574778, 44.368272], [18.957231, 44.3680012], [18.9568662, 44.3684561], [18.9555788, 44.3679039], [18.9551686, 44.3675525], [18.9557934, 44.3671062], [18.9549994, 44.3669068], [18.9538622, 44.3666614], [18.9532828, 44.3667841], [18.9526391, 44.3671829], [18.9527249, 44.3685328], [18.9513087, 44.3697906], [18.9506864, 44.3706189], [18.9505579, 44.3715249], [18.950386, 44.371938], [18.9494204, 44.3724748], [18.9490986, 44.3728276], [18.9490771, 44.373257], [18.9489913, 44.3736558], [18.9485678, 44.3738485], [18.9475751, 44.3739779], [18.9471223, 44.3743009], [18.9471459, 44.3750822], [18.9459155, 44.3757809], [18.9449474, 44.3765764], [18.9445495, 44.3771067], [18.9433384, 44.3775465], [18.943305, 44.3761098], [18.9438414, 44.3751436], [18.9432835, 44.3747141], [18.9430138, 44.3738658], [18.9428973, 44.3724441], [18.9431548, 44.3722754], [18.9430728, 44.3717589], [18.9428824, 44.3712989], [18.9414811, 44.3701587], [18.9398891, 44.3698763], [18.9389276, 44.3695451], [18.9384126, 44.3691463], [18.9374861, 44.3673704], [18.9365072, 44.3664098], [18.9348365, 44.3650236], [18.9320177, 44.3635721], [18.9296494, 44.3623853], [18.9270721, 44.3611024], [18.9239154, 44.3594686], [18.9203069, 44.3574724], [18.9187145, 44.3569812], [18.9177787, 44.3564848], [18.9173627, 44.3563522], [18.9166093, 44.3558004], [18.9160752, 44.3557845], [18.9160353, 44.3553823], [18.9149487, 44.3546568], [18.9140367, 44.3546415], [18.9132729, 44.3539977], [18.9132428, 44.3530458], [18.9126527, 44.3524014], [18.9126527, 44.3520945], [18.9128888, 44.35178], [18.9128438, 44.3515965], [18.9127662, 44.3512801], [18.9119553, 44.35122], [18.9107752, 44.3506215], [18.9079947, 44.3505763], [18.9074922, 44.3502303], [18.9064232, 44.3506225], [18.9042199, 44.3488723], [18.9035976, 44.348857], [18.9032221, 44.3486268], [18.9029194, 44.3488477], [18.9026964, 44.3490104], [18.9025354, 44.3492099], [18.9020595, 44.3492339], [18.9018595, 44.3494938], [18.9006943, 44.3495005], [18.8980713, 44.3507183], [18.8973098, 44.3524347], [18.8963234, 44.3530765], [18.8954329, 44.3530842], [18.895154, 44.3533297], [18.8951218, 44.3535905], [18.894918, 44.3537132], [18.8946283, 44.3537823], [18.8935013, 44.3544023], [18.8927851, 44.3545462], [18.8904007, 44.3546057], [18.8887755, 44.3544945], [18.8863376, 44.3544792], [18.8822206, 44.3545271], [18.8816786, 44.3541735], [18.8811398, 44.354088], [18.8798117, 44.3535138], [18.8783955, 44.3531456], [18.8772107, 44.353014], [18.8765716, 44.3531149], [18.8761245, 44.3536353], [18.876121, 44.3541582], [18.8766789, 44.3544957], [18.8771724, 44.3547719], [18.8770652, 44.3550788], [18.8766575, 44.3552169], [18.8729892, 44.3571235], [18.8719701, 44.3576775], [18.8684377, 44.3595875], [18.8665938, 44.3606632], [18.8658631, 44.3605252], [18.8648709, 44.3600248], [18.8631276, 44.360861], [18.8611028, 44.3614997], [18.8600707, 44.3617831], [18.8588047, 44.3618138], [18.8574528, 44.3619366], [18.85638, 44.3618138], [18.8548319, 44.3607652], [18.8537621, 44.3605865], [18.852818, 44.3601877], [18.852131, 44.35963], [18.8514821, 44.3596279], [18.850809, 44.3592904], [18.8496852, 44.3588836], [18.8487625, 44.3588376], [18.8485775, 44.3589232], [18.8483977, 44.3590064], [18.8488646, 44.3595587], [18.8519033, 44.3616834], [18.8525416, 44.3622815], [18.8526301, 44.3651022], [18.8528824, 44.3652117], [18.8529897, 44.3668147], [18.8542128, 44.3661858], [18.8557386, 44.3660187], [18.8561221, 44.3661912], [18.8541698, 44.3678118], [18.8541269, 44.3680419], [18.8529089, 44.3687585], [18.8519729, 44.3693451], [18.8476498, 44.3717225], [18.8476896, 44.3731803], [18.8474107, 44.3735178], [18.8475296, 44.3750303], [18.8480864, 44.3755155], [18.8482917, 44.3757982], [18.8484362, 44.3762601], [18.8483678, 44.3765862], [18.8482461, 44.3767493], [18.8480864, 44.3769504], [18.8479647, 44.3771243], [18.8478811, 44.3772928], [18.8477594, 44.3776026], [18.8477062, 44.3779776], [18.847691, 44.3781189], [18.8475389, 44.3787113], [18.8473488, 44.3792928], [18.8471891, 44.37957], [18.8471739, 44.3797384], [18.8472804, 44.379896], [18.8473564, 44.3799721], [18.8474173, 44.3801243], [18.8473412, 44.3802982], [18.8472196, 44.3803797], [18.8468926, 44.380521], [18.8464059, 44.3805917], [18.8461398, 44.3805482], [18.84579, 44.3804558], [18.8452197, 44.3803906], [18.8448547, 44.3803634], [18.8445582, 44.380271], [18.8443681, 44.3801352], [18.843448, 44.3796732], [18.8428397, 44.3796569], [18.8424595, 44.3795537], [18.8420717, 44.379445], [18.8417827, 44.3793363], [18.8414254, 44.379195], [18.8410148, 44.3789939], [18.8408094, 44.3788417], [18.840627, 44.3786895], [18.8405053, 44.3785265], [18.8404825, 44.3783689], [18.8394255, 44.3784124], [18.8376994, 44.3786298], [18.8376082, 44.3788308], [18.837555, 44.3789721], [18.8374485, 44.3791243], [18.8373116, 44.379233], [18.8371367, 44.3792602], [18.8370075, 44.3792167], [18.8368934, 44.3791189], [18.8368478, 44.3789993], [18.8367337, 44.3788743], [18.8366425, 44.3788254], [18.8364676, 44.3787819], [18.8363155, 44.3788254], [18.8362167, 44.3788961], [18.8361178, 44.3790156], [18.8360266, 44.3790591], [18.8357148, 44.3790808], [18.8355703, 44.3790808], [18.8353878, 44.3790917], [18.8352586, 44.3791352], [18.8351445, 44.3791895], [18.8349848, 44.3792982], [18.8281355, 44.3788384], [18.8265293, 44.3793634], [18.8245446, 44.3795102], [18.8221038, 44.3795428], [18.8214174, 44.3793135], [18.820298, 44.37857], [18.8192682, 44.3782179], [18.8176672, 44.376785], [18.8143544, 44.3745319], [18.812403, 44.370778], [18.8058883, 44.3622353], [18.8016824, 44.3604039], [18.7972235, 44.358143], [18.7905924, 44.3572063], [18.7816964, 44.3559497], [18.7639873, 44.3511786], [18.7610779, 44.3502062], [18.7541208, 44.3464975], [18.7474482, 44.3370438], [18.7468905, 44.3324908], [18.7459936, 44.325168]]]}}]}