{"type": "FeatureCollection", "features": [{"type": "Feature", "properties": {"name": "Grad Široki Brijeg, Županija Zapadnohercegovačka, Federacija Bosne i Hercegovine, Bosna i Hercegovina / Босна и Херцеговина", "source": "OpenStreetMap relation 2528265", "licence": "ODbL 1.0"}, "geometry": {"type": "Polygon", "coordinates": [[[17.4104059, 43.4108265], [17.4112084, 43.4088862], [17.4112272, 43.4087947], [17.4113562, 43.4081894], [17.4113728, 43.4081113], [17.4114033, 43.407968], [17.4115048, 43.407492], [17.4114899, 43.4074209], [17.4135302, 43.4077125], [17.4137332, 43.4077415], [17.4177002, 43.4083083], [17.4192474, 43.4085294], [17.4209312, 43.40751], [17.4223344, 43.4071023], [17.4231763, 43.4050634], [17.4231763, 43.4030245], [17.4257021, 43.402209], [17.4261062, 43.4018596], [17.4262319, 43.4017509], [17.4263517, 43.4016584], [17.4265721, 43.4014716], [17.4273859, 43.4007817], [17.4285085, 43.3991504], [17.429631, 43.3971113], [17.4297165, 43.396987], [17.4299823, 43.3966008], [17.4304608, 43.3959054], [17.4304729, 43.3958878], [17.4312069, 43.3951767], [17.4321567, 43.3942565], [17.4321701, 43.3941201], [17.4324374, 43.3914015], [17.4338406, 43.3899739], [17.4344019, 43.3891581], [17.4386114, 43.3887503], [17.4400146, 43.3885463], [17.4402493, 43.388461], [17.4406602, 43.3883117], [17.4407718, 43.3882712], [17.4420743, 43.3877979], [17.4422277, 43.3877421], [17.4423093, 43.3877125], [17.4431622, 43.3874026], [17.4432863, 43.3873575], [17.4440688, 43.3870732], [17.4443198, 43.3869819], [17.4454013, 43.386589], [17.4458348, 43.3864315], [17.4461886, 43.3863029], [17.4473112, 43.3856911], [17.4481531, 43.3830396], [17.4482776, 43.3829233], [17.4483871, 43.382821], [17.4485015, 43.3827141], [17.4487555, 43.3824767], [17.4501176, 43.3812039], [17.4502177, 43.3802582], [17.4502489, 43.3799632], [17.4502807, 43.3796625], [17.4503591, 43.3789217], [17.4503905, 43.3786251], [17.4503982, 43.3785523], [17.4502627, 43.3782569], [17.4501691, 43.3780528], [17.4500701, 43.377837], [17.4495563, 43.3767165], [17.4475918, 43.3752886], [17.4464693, 43.3736567], [17.4472235, 43.3731583], [17.4495563, 43.3716167], [17.4525333, 43.3706179], [17.4532046, 43.3703927], [17.4534439, 43.3703202], [17.4536258, 43.3702651], [17.4560388, 43.3695343], [17.4560944, 43.3695174], [17.4565722, 43.3693727], [17.4587914, 43.3682434], [17.4593786, 43.3679446], [17.4596593, 43.3677406], [17.4629768, 43.3666151], [17.4638688, 43.3663125], [17.4661139, 43.3650884], [17.4681791, 43.3665897], [17.4683749, 43.366732], [17.4686397, 43.3669245], [17.4698687, 43.367087], [17.4717267, 43.3673326], [17.4722866, 43.3672919], [17.4745331, 43.3671285], [17.4759362, 43.3679446], [17.4796459, 43.3684136], [17.4806025, 43.3685345], [17.4823909, 43.3687606], [17.4842358, 43.3695057], [17.4849167, 43.3697807], [17.4871618, 43.3705967], [17.4880674, 43.3709917], [17.488565, 43.3712087], [17.4888337, 43.3712575], [17.4914503, 43.371733], [17.4917364, 43.3716148], [17.4919295, 43.3715446], [17.4928039, 43.3711898], [17.4931258, 43.3710182], [17.4932975, 43.3708934], [17.4932867, 43.370753], [17.4933672, 43.37048], [17.4936032, 43.3699146], [17.4940807, 43.369123], [17.4943473, 43.3684916], [17.4944347, 43.3682846], [17.4944562, 43.3681208], [17.4945259, 43.3679024], [17.4946171, 43.3677581], [17.4947298, 43.3676099], [17.4948853, 43.3674734], [17.4949819, 43.36706], [17.495057, 43.3666779], [17.4950945, 43.3665063], [17.4951428, 43.3663659], [17.4952447, 43.3662879], [17.4953628, 43.3662099], [17.4954754, 43.3661046], [17.4959153, 43.365738], [17.4966073, 43.365231], [17.4967468, 43.3651101], [17.4970955, 43.3647162], [17.4972335, 43.364454], [17.4972618, 43.3644003], [17.4973905, 43.3640611], [17.4975082, 43.3636575], [17.4975219, 43.3636106], [17.4974785, 43.3635739], [17.4972081, 43.3633337], [17.4971089, 43.3632212], [17.4970552, 43.3631602], [17.4969828, 43.3630549], [17.4969614, 43.3629574], [17.4969721, 43.3627429], [17.4971491, 43.3626102], [17.4972188, 43.3625829], [17.4973476, 43.3625478], [17.497471, 43.3624698], [17.4975018, 43.3624474], [17.49753, 43.3624269], [17.497566, 43.3624025], [17.4976909, 43.3623177], [17.4977875, 43.3622709], [17.4978787, 43.362189], [17.4978626, 43.362072], [17.4979269, 43.3619979], [17.498045, 43.3619238], [17.4982327, 43.3618419], [17.4983776, 43.3618107], [17.4984564, 43.3617858], [17.4986243, 43.3617327], [17.498796, 43.3616391], [17.4989784, 43.3615572], [17.4990696, 43.361526], [17.4989408, 43.3614402], [17.4988711, 43.3613661], [17.4987315, 43.3611893], [17.4986833, 43.3611282], [17.4988496, 43.3610034], [17.4989462, 43.3608903], [17.4990803, 43.3607811], [17.4992305, 43.3606485], [17.4993485, 43.3605237], [17.4993646, 43.3604301], [17.4992895, 43.3602585], [17.4992949, 43.3601298], [17.4992646, 43.3600257], [17.4992144, 43.3598528], [17.4992144, 43.3596656], [17.4994934, 43.3596071], [17.4998957, 43.3595642], [17.5001103, 43.3595252], [17.4999171, 43.3591469], [17.4998313, 43.3590377], [17.4996865, 43.358948], [17.4996006, 43.3588895], [17.4995524, 43.3588076], [17.4995524, 43.3587452], [17.4995738, 43.3586282], [17.4995563, 43.3584527], [17.4995524, 43.3584136], [17.4995324, 43.3583338], [17.4995202, 43.3582849], [17.4994826, 43.3581679], [17.4994129, 43.358164], [17.4992788, 43.3581796], [17.4992251, 43.358164], [17.4991956, 43.3581367], [17.4991554, 43.358086], [17.4990964, 43.3579788], [17.4990776, 43.3579164], [17.4990937, 43.3577662], [17.4991259, 43.3574834], [17.4991428, 43.3573512], [17.4991474, 43.3573157], [17.4991178, 43.3571441], [17.4990642, 43.3570017], [17.4990642, 43.3568613], [17.4992359, 43.356795], [17.4993914, 43.3567209], [17.4996006, 43.3566312], [17.4997616, 43.3565493], [17.4998903, 43.356483], [17.5000727, 43.3563815], [17.5002122, 43.356284], [17.5004911, 43.3561397], [17.5006413, 43.3560656], [17.5008398, 43.3560188], [17.5012261, 43.3558628], [17.5015372, 43.3557965], [17.5011939, 43.3556678], [17.5009525, 43.3555663], [17.5007111, 43.3554064], [17.5002766, 43.3551139], [17.500062, 43.3548603], [17.4999601, 43.3547394], [17.4997508, 43.3544625], [17.4995953, 43.3542597], [17.4997401, 43.3541777], [17.4999225, 43.354127], [17.5000566, 43.3538891], [17.50018, 43.3536629], [17.5001907, 43.3535536], [17.5002087, 43.353518], [17.5002658, 43.3534054], [17.5003892, 43.3532728], [17.5005448, 43.3525668], [17.5005984, 43.3523444], [17.5006046, 43.3522561], [17.5006199, 43.3520402], [17.5006306, 43.3518803], [17.5006149, 43.3517501], [17.5006038, 43.3516579], [17.5006387, 43.3515389], [17.5006816, 43.3514902], [17.500754, 43.351459], [17.5008479, 43.3514531], [17.5009042, 43.3514804], [17.5010383, 43.3513614], [17.5012529, 43.3507607], [17.5015157, 43.3501483], [17.5015344, 43.3497151], [17.5015372, 43.349649], [17.5016284, 43.3490131], [17.5015318, 43.3485021], [17.5015747, 43.3479677], [17.5016499, 43.3474059], [17.5017112, 43.3468136], [17.5017303, 43.3466296], [17.5014621, 43.3460445], [17.5011992, 43.3455412], [17.501151, 43.3450341], [17.5008935, 43.3448], [17.5005984, 43.3445035], [17.5002471, 43.3438559], [17.5001534, 43.3436761], [17.5001203, 43.343686], [17.5000086, 43.3437065], [17.4999359, 43.3435574], [17.499898, 43.3434969], [17.4999233, 43.3434684], [17.5000557, 43.3432695], [17.5001643, 43.3431519], [17.500349, 43.3425626], [17.5000164, 43.3422681], [17.4999252, 43.3422037], [17.4999118, 43.3419325], [17.499944, 43.3418194], [17.4999976, 43.3415151], [17.5000539, 43.341279], [17.5000647, 43.3411893], [17.500062, 43.3410918], [17.4999869, 43.3410996], [17.4998018, 43.3411171], [17.4993807, 43.3405475], [17.499193, 43.340292], [17.4992895, 43.3402354], [17.4993646, 43.3401944], [17.4994826, 43.3401223], [17.4997616, 43.3399662], [17.499842, 43.3398921], [17.5070117, 43.3357337], [17.5065258, 43.3348856], [17.5048419, 43.3326402], [17.5028775, 43.3320278], [17.5014743, 43.3310071], [17.5000711, 43.3291699], [17.497826, 43.3281492], [17.4961422, 43.3281492], [17.4944583, 43.3267201], [17.4919326, 43.3254952], [17.4899681, 43.3242703], [17.4882843, 43.3234536], [17.4863198, 43.3222286], [17.4866005, 43.3212078], [17.487723, 43.3191661], [17.4896875, 43.3173285], [17.4922132, 43.3152866], [17.494739, 43.3144698], [17.4967034, 43.3134489], [17.5000711, 43.3109985], [17.5023162, 43.3093648], [17.5042807, 43.3079354], [17.5062451, 43.3060974], [17.5084902, 43.3050763], [17.511016, 43.3038509], [17.5129804, 43.303034], [17.5167113, 43.3028609], [17.5214739, 43.2999726], [17.5254427, 43.2970841], [17.5302053, 43.29304], [17.5341741, 43.2895734], [17.5397305, 43.284951], [17.5500494, 43.281484], [17.5563995, 43.2791725], [17.5611621, 43.2785946], [17.5649607, 43.2772131], [17.5651431, 43.2779864], [17.5654381, 43.2787636], [17.5655508, 43.2793026], [17.5656956, 43.279822], [17.5658995, 43.2800758], [17.5672352, 43.2811576], [17.5685871, 43.2817668], [17.5705182, 43.2824073], [17.5714409, 43.2827275], [17.5720847, 43.2836257], [17.5730181, 43.284313], [17.5738227, 43.2848753], [17.5742841, 43.2849534], [17.5746488, 43.2851565], [17.5759041, 43.2862265], [17.5799221, 43.2891122], [17.5798416, 43.2892059], [17.5799382, 43.2892879], [17.5800937, 43.2892566], [17.5801742, 43.2892098], [17.5829422, 43.2915057], [17.5836074, 43.2922164], [17.5843048, 43.293337], [17.5844228, 43.2936571], [17.5845247, 43.2938524], [17.5847071, 43.2940554], [17.5850612, 43.2941335], [17.5852007, 43.2944224], [17.5855279, 43.2947738], [17.585603, 43.2949964], [17.5857049, 43.2950706], [17.5861019, 43.295133], [17.5859946, 43.2955547], [17.5860697, 43.2958436], [17.5863057, 43.2961325], [17.5865257, 43.2963043], [17.5869065, 43.296398], [17.5870782, 43.2964488], [17.5873089, 43.2966206], [17.5874484, 43.2969563], [17.5875717, 43.2972453], [17.5881833, 43.297745], [17.5884139, 43.2978856], [17.5890738, 43.2984087], [17.5912571, 43.3009386], [17.5978768, 43.2985258], [17.6029837, 43.2969485], [17.6063311, 43.2959959], [17.6070081, 43.2958764], [17.6081765, 43.2984009], [17.6083884, 43.2990139], [17.6083884, 43.2991368], [17.6084527, 43.2991856], [17.608646, 43.2991866], [17.6088528, 43.2991321], [17.6090405, 43.2990831], [17.6094065, 43.2990322], [17.6096154, 43.2990036], [17.609727, 43.2989782], [17.6099097, 43.2989265], [17.6099814, 43.2988911], [17.6102171, 43.2987654], [17.61032, 43.2987254], [17.61058, 43.2986047], [17.6109816, 43.2984522], [17.6111892, 43.2983833], [17.6113444, 43.298306], [17.6115353, 43.2982034], [17.6117086, 43.2981317], [17.6119406, 43.2980519], [17.6121725, 43.2979729], [17.612634, 43.297795], [17.6129931, 43.2976525], [17.6133261, 43.2975354], [17.6135631, 43.2974328], [17.6136622, 43.2973869], [17.6139409, 43.2972577], [17.6142614, 43.2971342], [17.6146643, 43.2970144], [17.6149573, 43.2969164], [17.6153165, 43.2967666], [17.6157106, 43.2965787], [17.6159775, 43.2964716], [17.6162419, 43.2963436], [17.6183903, 43.2984634], [17.6214051, 43.3022894], [17.6218557, 43.3032731], [17.622081, 43.3042491], [17.6221776, 43.305428], [17.6237547, 43.3074814], [17.6242268, 43.3072862], [17.6249778, 43.3070129], [17.6261365, 43.3067319], [17.6274133, 43.3066069], [17.6278961, 43.3065211], [17.6297843, 43.305834], [17.6315224, 43.305022], [17.6351702, 43.3033551], [17.6354706, 43.3035659], [17.635873, 43.3037104], [17.6362216, 43.3037572], [17.6372462, 43.3036518], [17.6378739, 43.3034917], [17.6383513, 43.3032614], [17.6390111, 43.302789], [17.6395959, 43.3026485], [17.6403469, 43.3023791], [17.6407546, 43.3022113], [17.6415217, 43.3014149], [17.642616, 43.3006263], [17.643882, 43.2996737], [17.6449656, 43.2989475], [17.6461136, 43.2979871], [17.6466393, 43.2977684], [17.6483238, 43.2971281], [17.6490426, 43.2969095], [17.6499438, 43.2965113], [17.6512957, 43.2958007], [17.6523685, 43.29534], [17.653377, 43.2950667], [17.6539671, 43.2948636], [17.6547825, 43.2945122], [17.6577008, 43.2930519], [17.6584947, 43.2925678], [17.6590311, 43.2922476], [17.6594388, 43.2920133], [17.6607692, 43.2914589], [17.6619065, 43.2909825], [17.6646209, 43.2907873], [17.6673467, 43.2903916], [17.668333, 43.2902484], [17.6684618, 43.2903734], [17.6686871, 43.2903656], [17.6690411, 43.2902719], [17.6692343, 43.2901782], [17.6707899, 43.2900298], [17.6710582, 43.2902094], [17.6711976, 43.290186], [17.6713264, 43.2900142], [17.67241, 43.2894597], [17.6726353, 43.2895612], [17.6727855, 43.2894675], [17.6728392, 43.2893035], [17.6763582, 43.2887178], [17.6765728, 43.2889091], [17.6774847, 43.2886553], [17.67874, 43.2884015], [17.6793301, 43.2882023], [17.6799041, 43.2880774], [17.6802313, 43.2884171], [17.6808, 43.2886436], [17.6810789, 43.2886592], [17.6823664, 43.2885811], [17.682656, 43.2890223], [17.6850003, 43.2887295], [17.6854294, 43.2889482], [17.6858479, 43.2893425], [17.6864326, 43.28912], [17.6866096, 43.2890887], [17.6872855, 43.289038], [17.6888305, 43.2888779], [17.6892489, 43.289077], [17.6896459, 43.2892762], [17.689957, 43.2893152], [17.6903379, 43.2892059], [17.6906115, 43.2890419], [17.6908261, 43.2888349], [17.6915234, 43.2883741], [17.6921886, 43.2881242], [17.6946402, 43.2875112], [17.6952459, 43.2874454], [17.6976711, 43.2872417], [17.6981056, 43.2871714], [17.6979768, 43.2869372], [17.6975745, 43.2858594], [17.698245, 43.2856212], [17.6987654, 43.2853674], [17.6993018, 43.2851213], [17.7015609, 43.2839603], [17.7017587, 43.2841295], [17.702263, 43.2845278], [17.7028263, 43.2849964], [17.7034217, 43.2855978], [17.7039635, 43.2860312], [17.7048755, 43.2866521], [17.705664, 43.2873823], [17.7058679, 43.2874409], [17.706435, 43.2869131], [17.706871, 43.2869684], [17.7075577, 43.2871558], [17.7077293, 43.2874096], [17.7078903, 43.2877494], [17.7092194, 43.2876981], [17.7094084, 43.2876908], [17.7099395, 43.2875854], [17.7132547, 43.2873979], [17.7150947, 43.2877259], [17.715556, 43.2877338], [17.7157974, 43.2878626], [17.7161193, 43.2880852], [17.7173209, 43.2886631], [17.7183026, 43.2890419], [17.7192789, 43.2894402], [17.7196491, 43.2895378], [17.7202499, 43.2896432], [17.7203572, 43.2897799], [17.7207806, 43.2907106], [17.7209043, 43.2909825], [17.7219236, 43.2923413], [17.7226961, 43.2931457], [17.7238762, 43.2944654], [17.7245414, 43.2949886], [17.7246871, 43.2953632], [17.7247023, 43.2954024], [17.7245736, 43.2959178], [17.7246165, 43.2963317], [17.724756, 43.2967143], [17.7252281, 43.2972531], [17.7253566, 43.2974945], [17.7255607, 43.2978777], [17.7258932, 43.2982604], [17.7265048, 43.298518], [17.726891, 43.2987601], [17.7269702, 43.2988466], [17.7274275, 43.2993457], [17.7279317, 43.299986], [17.7280712, 43.300189], [17.7282643, 43.3002319], [17.7286398, 43.3004701], [17.7290153, 43.3007317], [17.729305, 43.301126], [17.7292675, 43.3018326], [17.7352166, 43.3117986], [17.7348089, 43.3124075], [17.7345943, 43.3128369], [17.7339613, 43.3129852], [17.7331889, 43.3130398], [17.7315473, 43.3133521], [17.7309787, 43.3135472], [17.7305462, 43.3138299], [17.7303466, 43.3142019], [17.7299766, 43.3147433], [17.7298727, 43.3149762], [17.7298727, 43.3152152], [17.7299309, 43.3154783], [17.7299434, 43.3157959], [17.7299184, 43.3160772], [17.7297272, 43.3165581], [17.7296233, 43.3168393], [17.7295111, 43.3169936], [17.7294238, 43.3172809], [17.7294986, 43.3173959], [17.7296025, 43.3175047], [17.7296062, 43.317665], [17.7293204, 43.3180431], [17.7289047, 43.3183219], [17.7286513, 43.318407], [17.7282551, 43.3184022], [17.7272354, 43.3182274], [17.7266898, 43.3180951], [17.7261636, 43.3178446], [17.7259558, 43.3178352], [17.7257609, 43.3179344], [17.7254297, 43.3183928], [17.7252023, 43.3185298], [17.7249555, 43.3185818], [17.7245593, 43.3185724], [17.7240072, 43.3186007], [17.7233447, 43.3186811], [17.7228835, 43.3188417], [17.7218248, 43.3193994], [17.7212892, 43.3196622], [17.7210064, 43.319801], [17.7206296, 43.3198625], [17.7202724, 43.3198294], [17.7199346, 43.3196545], [17.7197528, 43.3194135], [17.7196078, 43.3189458], [17.7191448, 43.3187149], [17.7174067, 43.3185353], [17.7161944, 43.3184807], [17.7157009, 43.3187071], [17.7156687, 43.3189178], [17.7157116, 43.3191832], [17.7159583, 43.3196984], [17.7166235, 43.3200574], [17.7169868, 43.3202655], [17.7169963, 43.3202955], [17.7171859, 43.3203701], [17.7172393, 43.3203883], [17.7172731, 43.3204224], [17.7173156, 43.3204549], [17.717454, 43.3205207], [17.7175619, 43.3205897], [17.7176349, 43.3206396], [17.7178376, 43.3207046], [17.7179814, 43.3207411], [17.7180849, 43.320757], [17.7182244, 43.3207593], [17.7183203, 43.320776], [17.718462, 43.3208077], [17.7185764, 43.3208569], [17.7188521, 43.3210614], [17.7189774, 43.3211645], [17.7192444, 43.3214404], [17.7193872, 43.3215601], [17.7195321, 43.3216497], [17.7197599, 43.3217614], [17.7198438, 43.3218058], [17.7200868, 43.3219866], [17.7203374, 43.3222284], [17.7205467, 43.3224187], [17.720575, 43.3224789], [17.7205946, 43.322624], [17.7205543, 43.3228595], [17.7204965, 43.3230418], [17.7204442, 43.3231274], [17.7202971, 43.3232424], [17.720041, 43.3233779], [17.7198928, 43.3234199], [17.719762, 43.3234279], [17.71964, 43.3234104], [17.7195332, 43.3233549], [17.7194166, 43.3232535], [17.7193338, 43.3231425], [17.7192891, 43.3230093], [17.7191496, 43.3227762], [17.7190657, 43.3226906], [17.7189644, 43.3226422], [17.7186047, 43.3225994], [17.7178692, 43.3226113], [17.7177482, 43.3226462], [17.7175237, 43.3228143], [17.7174638, 43.322888], [17.7174093, 43.3230537], [17.7174039, 43.3232669], [17.717435, 43.3233151], [17.7181523, 43.3241481], [17.7183523, 43.3242782], [17.7185056, 43.3243881], [17.7186184, 43.3244918], [17.7186588, 43.3245708], [17.7186801, 43.3246792], [17.7186614, 43.3247654], [17.7186808, 43.3248754], [17.7186974, 43.324977], [17.7187676, 43.3250825], [17.7185478, 43.3253261], [17.7176346, 43.3267541], [17.7173464, 43.3269551], [17.7170917, 43.3270921], [17.7161705, 43.3274599], [17.7158313, 43.3275155], [17.7153989, 43.3275228], [17.7149633, 43.3275373], [17.714231, 43.3272967], [17.7138662, 43.3269143], [17.7138448, 43.3266567], [17.7140379, 43.3263835], [17.7146816, 43.3262509], [17.7152395, 43.3262352], [17.7158189, 43.3260401], [17.7161407, 43.3258528], [17.7170849, 43.325045], [17.7172351, 43.3247172], [17.7171814, 43.3245689], [17.7169347, 43.324483], [17.7162802, 43.324647], [17.7157438, 43.3247562], [17.7148962, 43.3248187], [17.7136946, 43.324686], [17.7131367, 43.3245299], [17.7127933, 43.3242879], [17.7122891, 43.324163], [17.7116239, 43.3241943], [17.7107227, 43.3243738], [17.7102291, 43.3245923], [17.7099717, 43.3246391], [17.7097464, 43.3245377], [17.7093816, 43.3244596], [17.708888, 43.3247016], [17.7089202, 43.3248187], [17.7091885, 43.3252713], [17.709403, 43.3254509], [17.7097034, 43.3256226], [17.7102721, 43.3257709], [17.7105403, 43.3258021], [17.7111518, 43.3256616], [17.7119136, 43.3255211], [17.7122247, 43.3255055], [17.7124822, 43.3256382], [17.7126753, 43.3258567], [17.7125895, 43.3260987], [17.7122784, 43.3263484], [17.7119672, 43.3265748], [17.7114844, 43.327004], [17.7109373, 43.327324], [17.710948, 43.3275738], [17.7110982, 43.3278313], [17.7112484, 43.3281669], [17.7110767, 43.328362], [17.7107119, 43.3284166], [17.710315, 43.3284635], [17.7098107, 43.3287288], [17.709403, 43.3289161], [17.7090168, 43.3288303], [17.7090168, 43.328604], [17.7088129, 43.3282059], [17.7085125, 43.3280654], [17.7080941, 43.3280889], [17.7080297, 43.3282371], [17.7079761, 43.3285493], [17.7079975, 43.3288303], [17.7079439, 43.3291581], [17.7078152, 43.3294156], [17.7075362, 43.3295483], [17.7069783, 43.3296419], [17.7064741, 43.3295483], [17.7063024, 43.3293532], [17.7063453, 43.3290644], [17.7065062, 43.3287913], [17.7065492, 43.3285103], [17.7063882, 43.3282215], [17.7060771, 43.3280342], [17.7056157, 43.3279718], [17.705133, 43.3280264], [17.7049398, 43.3282059], [17.7050257, 43.3284869], [17.7052939, 43.3286976], [17.7054548, 43.3288537], [17.7055192, 43.329119], [17.7054226, 43.3292829], [17.7050364, 43.329361], [17.7048755, 43.3292907], [17.7045107, 43.3292673], [17.7039206, 43.3292985], [17.7032125, 43.3295249], [17.7027941, 43.3298214], [17.7024186, 43.3303443], [17.7021503, 43.3306721], [17.7018714, 43.3308282], [17.7010775, 43.330797], [17.7006805, 43.3306799], [17.7006912, 43.330477], [17.7008629, 43.3302429], [17.7011311, 43.3300868], [17.7015173, 43.3298214], [17.7016353, 43.3296497], [17.701453, 43.3294546], [17.7007341, 43.3291425], [17.700305, 43.328963], [17.7000475, 43.3286664], [17.6998544, 43.3283854], [17.6995432, 43.3283152], [17.6992428, 43.3284635], [17.698406, 43.3289239], [17.6979124, 43.3294312], [17.6975477, 43.3295561], [17.697258, 43.3295561], [17.6964533, 43.3295171], [17.6955414, 43.3291034], [17.6953268, 43.3287913], [17.6950586, 43.3286352], [17.6948225, 43.3285961], [17.6943183, 43.3288459], [17.694093, 43.3290098], [17.6939106, 43.3293298], [17.6939428, 43.3299697], [17.6936853, 43.3310077], [17.6934171, 43.3317257], [17.6932561, 43.3319286], [17.693342, 43.3322017], [17.6936424, 43.3324905], [17.6938462, 43.3328572], [17.6937175, 43.3332709], [17.6935458, 43.3334503], [17.6932669, 43.3334894], [17.6930416, 43.3332943], [17.6925909, 43.3332084], [17.6917434, 43.3332865], [17.6911211, 43.333544], [17.6912391, 43.3336923], [17.6916897, 43.3338796], [17.6922798, 43.3340512], [17.6925051, 43.3342307], [17.6925909, 43.334418], [17.6925266, 43.3348706], [17.6921081, 43.3351359], [17.6915073, 43.3353623], [17.6914108, 43.3356276], [17.6916253, 43.3358773], [17.6917326, 43.3359943], [17.6917541, 43.3363767], [17.6917004, 43.3364938], [17.6914108, 43.3367045], [17.6909387, 43.3367435], [17.6905846, 43.3367435], [17.690295, 43.3368995], [17.6899409, 43.3370244], [17.6897693, 43.3369776], [17.6895654, 43.3370088], [17.6894688, 43.3371493], [17.689544, 43.3373287], [17.6896191, 43.3377813], [17.6894367, 43.3380544], [17.6945969, 43.3436569], [17.6944896, 43.343891], [17.694393, 43.3444372], [17.6945647, 43.3449131], [17.6945239, 43.3453021], [17.694157, 43.3455373], [17.6939532, 43.3458884], [17.6936742, 43.3459352], [17.6932687, 43.3458326], [17.6928266, 43.3457714], [17.6924082, 43.3459743], [17.6922365, 43.346419], [17.6917346, 43.3477261], [17.6932571, 43.3487731], [17.6933849, 43.348861], [17.6932107, 43.348994], [17.6927412, 43.3493525], [17.6919472, 43.3499376], [17.6921427, 43.3504641], [17.6921993, 43.3506164], [17.6923772, 43.3508785], [17.6926266, 43.351246], [17.6928055, 43.3515896], [17.6928887, 43.3518705], [17.6930737, 43.3528964], [17.6931811, 43.353376], [17.6932052, 43.3534834], [17.693238, 43.3535478], [17.6933663, 43.3537994], [17.6934591, 43.3540425], [17.6935539, 43.3542909], [17.6935834, 43.3545015], [17.6935458, 43.354716], [17.6935619, 43.3549345], [17.6936424, 43.3552348], [17.6938945, 43.3557029], [17.6941788, 43.3559837], [17.6943934, 43.3561202], [17.6947582, 43.3566351], [17.6953858, 43.3575634], [17.6959866, 43.3585502], [17.6962388, 43.3589675], [17.6965123, 43.3593458], [17.6971346, 43.3641391], [17.69324, 43.3682183], [17.6893508, 43.3717279], [17.6884174, 43.3726443], [17.6851022, 43.3753972], [17.6839006, 43.3763759], [17.6822323, 43.3781851], [17.6806229, 43.3799942], [17.6859766, 43.3827546], [17.6878005, 43.3838911], [17.6881385, 43.3840022], [17.6885251, 43.3840519], [17.6885784, 43.3840587], [17.6886306, 43.3840923], [17.6886722, 43.3841191], [17.6887393, 43.3842263], [17.6889029, 43.3843453], [17.6904827, 43.3852575], [17.6950479, 43.3878539], [17.6972634, 43.390844], [17.6978481, 43.3911831], [17.6983201, 43.3915495], [17.698819, 43.3918692], [17.6991999, 43.3920329], [17.7002728, 43.392376], [17.7013725, 43.3926488], [17.7024347, 43.3928048], [17.7032393, 43.3929334], [17.703529, 43.3929763], [17.7037865, 43.3931283], [17.7040869, 43.3932881], [17.7043498, 43.3935259], [17.7048379, 43.3938962], [17.7051008, 43.3940288], [17.7053207, 43.3940872], [17.7058035, 43.3942237], [17.7066296, 43.3942977], [17.7114952, 43.3943952], [17.7151054, 43.3970808], [17.7220792, 43.3993688], [17.7223527, 43.3995052], [17.720502, 43.4007642], [17.7178439, 43.4022297], [17.7154541, 43.4030813], [17.7114737, 43.4061212], [17.7111465, 43.4063239], [17.7110311, 43.4064057], [17.7109212, 43.4064895], [17.7107602, 43.4065967], [17.7104411, 43.4067525], [17.7100816, 43.4069513], [17.7098858, 43.4070117], [17.7097571, 43.4070487], [17.7095157, 43.4071091], [17.7091831, 43.4072338], [17.7089873, 43.4073274], [17.7087218, 43.4074794], [17.708424, 43.4076879], [17.7083892, 43.4076664], [17.7083194, 43.4076275], [17.7082497, 43.407608], [17.7080995, 43.4076138], [17.7079117, 43.4076664], [17.7077213, 43.4077405], [17.7071312, 43.4081224], [17.7066591, 43.4083114], [17.7062166, 43.4085277], [17.7063534, 43.4087401], [17.7064767, 43.409124], [17.7066591, 43.4098059], [17.7068683, 43.4105249], [17.7070373, 43.4109185], [17.707209, 43.4112731], [17.7072653, 43.4113219], [17.7072144, 43.4113589], [17.7070641, 43.4113764], [17.7069756, 43.4114017], [17.7068764, 43.4114212], [17.7066725, 43.4114427], [17.7065867, 43.4114855], [17.7064687, 43.411542], [17.7063695, 43.4116044], [17.706238, 43.4116804], [17.7060637, 43.4117193], [17.7058411, 43.4117505], [17.7056506, 43.41177], [17.7053609, 43.4117447], [17.7051866, 43.4117193], [17.7049908, 43.4117038], [17.7047145, 43.4116901], [17.7044302, 43.4117018], [17.7042612, 43.4116667], [17.704162, 43.4115985], [17.7040547, 43.4116473], [17.7039984, 43.4116921], [17.7038777, 43.4117797], [17.7034137, 43.4119999], [17.70336, 43.4120087], [17.7032018, 43.412033], [17.7030757, 43.4120077], [17.7029805, 43.4119707], [17.7029081, 43.4120145], [17.7026398, 43.4121207], [17.7025259, 43.4121577], [17.7024655, 43.4121529], [17.7023904, 43.4121509], [17.7022576, 43.4121568], [17.7019693, 43.412185], [17.7018392, 43.4121909], [17.7016474, 43.4121792], [17.7014369, 43.4120993], [17.7013122, 43.4121256], [17.7012263, 43.4121772], [17.7010721, 43.412262], [17.7009067, 43.412335], [17.7006302, 43.4123749], [17.7005665, 43.4123623], [17.7003989, 43.4123019], [17.7003278, 43.4123341], [17.7002406, 43.4123964], [17.7001159, 43.4125114], [17.7000448, 43.4125825], [17.6999415, 43.4126341], [17.6998034, 43.4126741], [17.6996706, 43.4127228], [17.6995566, 43.4127939], [17.6994762, 43.412865], [17.6994091, 43.4129371], [17.699334, 43.4130024], [17.6993313, 43.413056], [17.699334, 43.4131115], [17.6990712, 43.413396], [17.6988593, 43.4135557], [17.6984864, 43.4137934], [17.6984207, 43.4138275], [17.6983953, 43.4138304], [17.6981579, 43.4140311], [17.6976778, 43.4143692], [17.6976295, 43.4144052], [17.6975436, 43.4143448], [17.6974002, 43.414262], [17.6973009, 43.4142308], [17.6971802, 43.4141763], [17.6968262, 43.414148], [17.6966505, 43.4141032], [17.6964225, 43.414111], [17.6962146, 43.4140643], [17.695874, 43.4138801], [17.6958083, 43.4138304], [17.6956768, 43.4138636], [17.6956192, 43.4138684], [17.6955333, 43.4138343], [17.6954864, 43.4137496], [17.6953965, 43.4137282], [17.6953107, 43.4137369], [17.6952423, 43.4137545], [17.6951484, 43.4137944], [17.6950908, 43.413809], [17.6950063, 43.4138227], [17.6947381, 43.4138119], [17.694667, 43.4138266], [17.6944484, 43.4138879], [17.6940568, 43.4140418], [17.6933715, 43.4143984], [17.692768, 43.4147832], [17.6927076, 43.4148261], [17.692654, 43.4148757], [17.6926419, 43.4149459], [17.6926433, 43.4150228], [17.6926768, 43.4151797], [17.6880701, 43.4178157], [17.6878032, 43.4178937], [17.6877241, 43.4179355], [17.6876554, 43.4179902], [17.6875806, 43.4180505], [17.6875913, 43.4181469], [17.6876289, 43.4182171], [17.6815671, 43.4222206], [17.6806229, 43.4229063], [17.6784396, 43.423366], [17.6783296, 43.4235628], [17.6783055, 43.4236485], [17.6781768, 43.4238336], [17.6781177, 43.4239232], [17.6780051, 43.424044], [17.6779327, 43.4241005], [17.6778173, 43.4240673], [17.6776269, 43.4240245], [17.6770261, 43.4238375], [17.6768169, 43.4237829], [17.6767015, 43.4237966], [17.6763877, 43.4238609], [17.6759908, 43.4240264], [17.6756796, 43.4241238], [17.6754007, 43.4242427], [17.6752532, 43.4243303], [17.6750547, 43.424455], [17.6749662, 43.4245368], [17.6746926, 43.4246693], [17.6746067, 43.424716], [17.6745155, 43.4247609], [17.6743788, 43.424755], [17.6742956, 43.424831], [17.67425, 43.4249147], [17.67414, 43.4250005], [17.6739871, 43.4251134], [17.6738423, 43.4252167], [17.6735955, 43.425392], [17.6733166, 43.4257349], [17.6732469, 43.4258167], [17.672925, 43.4260543], [17.6726299, 43.4264634], [17.6724797, 43.4268959], [17.6691163, 43.4269504], [17.6689124, 43.4268666], [17.6681721, 43.4267205], [17.6678234, 43.4266309], [17.6673487, 43.4265998], [17.6670402, 43.4266387], [17.6642266, 43.4268861], [17.6600933, 43.4277335], [17.6574862, 43.4285828], [17.6545465, 43.42951], [17.6518643, 43.4304527], [17.6504052, 43.4309592], [17.6485598, 43.431637], [17.6469827, 43.4324707], [17.6446867, 43.4332498], [17.6432061, 43.4334212], [17.6409209, 43.4334368], [17.6380992, 43.4324707], [17.6362538, 43.4321746], [17.6327991, 43.4311617], [17.6243448, 43.4282243], [17.6240122, 43.4284698], [17.6239961, 43.428536], [17.6240659, 43.4355247], [17.6241302, 43.435961], [17.6252675, 43.4368257], [17.6256269, 43.4373944], [17.6253855, 43.4376087], [17.625187, 43.4378268], [17.6251012, 43.4379943], [17.6250315, 43.4382475], [17.6248598, 43.438489], [17.6244199, 43.4388474], [17.6239264, 43.4393498], [17.6286363, 43.4399808], [17.6301089, 43.447198], [17.6301357, 43.4472759], [17.6268232, 43.4503798], [17.6260614, 43.4505667], [17.6253319, 43.4509795], [17.624656, 43.4513768], [17.6245057, 43.4518051], [17.6249349, 43.4524827], [17.6250422, 43.4529501], [17.6252782, 43.4532304], [17.6255786, 43.4536744], [17.6253533, 43.4538535], [17.6237869, 43.4542429], [17.6234677, 43.4543403], [17.6231137, 43.4544785], [17.6226658, 43.454681], [17.6224485, 43.4547589], [17.6222447, 43.4548563], [17.6212093, 43.4553975], [17.6210833, 43.4555299], [17.6208177, 43.4557538], [17.6206675, 43.4558687], [17.6204771, 43.4560362], [17.6201713, 43.4563263], [17.619659, 43.4566164], [17.6195383, 43.4566397], [17.6191547, 43.4567001], [17.6186639, 43.4567663], [17.6188463, 43.4602435], [17.6187229, 43.4610378], [17.6185513, 43.4614739], [17.6183635, 43.4621359], [17.6182106, 43.462389], [17.6177305, 43.4626732], [17.617532, 43.4627686], [17.6173335, 43.4628893], [17.6171458, 43.4630178], [17.6169848, 43.4631657], [17.6169661, 43.463265], [17.6170197, 43.4635103], [17.6170412, 43.4636797], [17.6171029, 43.4639172], [17.6171324, 43.464145], [17.6171297, 43.4643085], [17.6170868, 43.4644506], [17.6169366, 43.4645791], [17.6168025, 43.464766], [17.6166147, 43.4649568], [17.6164591, 43.4651086], [17.6162311, 43.4652371], [17.6160702, 43.4653889], [17.6157349, 43.46586], [17.6157322, 43.4659204], [17.6156786, 43.4659827], [17.6155069, 43.466045], [17.6152602, 43.4660995], [17.614865, 43.4661815], [17.614662, 43.4662241], [17.6145333, 43.4662513], [17.6144716, 43.4662961], [17.6143063, 43.4664712], [17.6141632, 43.4666368], [17.6140183, 43.4667905], [17.6139593, 43.4668782], [17.6139271, 43.4669521], [17.6138306, 43.4670709], [17.6136884, 43.4671546], [17.6135141, 43.4672597], [17.6134095, 43.4673317], [17.6133531, 43.4672986], [17.6130393, 43.4673064], [17.6131332, 43.4667847], [17.6126665, 43.4667224], [17.6125672, 43.4666874], [17.6119477, 43.466481], [17.6117679, 43.4662046], [17.6116204, 43.4658153], [17.6111886, 43.4659029], [17.6110625, 43.4667964], [17.6109713, 43.4669833], [17.6102498, 43.4678359], [17.6099601, 43.4682155], [17.6095551, 43.4685114], [17.6093486, 43.4685834], [17.6088685, 43.4691363], [17.6083106, 43.4699032], [17.6076347, 43.4710556], [17.6072323, 43.471733], [17.6066744, 43.4723519], [17.6039269, 43.474896], [17.6037322, 43.4746133], [17.6035374, 43.4737088], [17.6033232, 43.4737017], [17.6017262, 43.4747546], [17.5989802, 43.4766343], [17.5984581, 43.4771489], [17.5980004, 43.4774457], [17.5964618, 43.4780887], [17.5952251, 43.4789437], [17.5930828, 43.4806254], [17.5927963, 43.4809225], [17.5929222, 43.4812873], [17.5928783, 43.4814167], [17.5925959, 43.4814097], [17.5923233, 43.4814591], [17.5919435, 43.4816852], [17.5914761, 43.481763], [17.5910282, 43.4819749], [17.5902394, 43.4821374], [17.5890417, 43.48295], [17.5886522, 43.4830771], [17.5881166, 43.4830348], [17.5877271, 43.4830842], [17.5867046, 43.4836565], [17.5846402, 43.4843984], [17.5843613, 43.4846577], [17.5840754, 43.4850696], [17.5827024, 43.4864261], [17.5821279, 43.4868712], [17.5817092, 43.4874505], [17.581008, 43.4879592], [17.5808251, 43.4883057], [17.5806575, 43.4886233], [17.5799113, 43.4948882], [17.5785166, 43.4989391], [17.5737637, 43.5013167], [17.5698209, 43.5040209], [17.5666934, 43.5073398], [17.5644565, 43.508118], [17.5603124, 43.5095205], [17.5598216, 43.5097151], [17.5594063, 43.5098713], [17.5591698, 43.5099602], [17.5588238, 43.5101664], [17.5584376, 43.5104562], [17.5583035, 43.5105866], [17.5581238, 43.5106916], [17.5580245, 43.5107461], [17.5578421, 43.5107636], [17.5577188, 43.5107033], [17.5575444, 43.5106566], [17.5573486, 43.5106935], [17.5570106, 43.5107889], [17.5568792, 43.5108219], [17.5565252, 43.5107733], [17.5559726, 43.5108317], [17.5557393, 43.5108861], [17.5555032, 43.5109581], [17.5552592, 43.5110087], [17.5549883, 43.5109951], [17.5545403, 43.5109717], [17.5542131, 43.5110242], [17.5537169, 43.5112343], [17.5534567, 43.5113491], [17.5531805, 43.5114483], [17.552762, 43.51153], [17.5523999, 43.5116059], [17.552062, 43.5116448], [17.5518599, 43.5117095], [17.5516632, 43.5118577], [17.5511309, 43.5119659], [17.5504979, 43.5121292], [17.5497361, 43.5126739], [17.5489506, 43.5129656], [17.5486341, 43.5130473], [17.5484571, 43.5131115], [17.5481701, 43.5135997], [17.548036, 43.5137261], [17.5478992, 43.5138467], [17.5476953, 43.513979], [17.5472984, 43.5141832], [17.547175, 43.514263], [17.546939, 43.5144439], [17.5468022, 43.5146676], [17.54666, 43.5148076], [17.5464883, 43.5149282], [17.5463461, 43.5150273], [17.5461718, 43.5152647], [17.546078, 43.5153873], [17.5457293, 43.5156888], [17.5455227, 43.515788], [17.544149, 43.5161435], [17.5460077, 43.5013495], [17.5448851, 43.4984996], [17.5415175, 43.494428], [17.5392724, 43.4915777], [17.5387111, 43.4887273], [17.5387111, 43.4822116], [17.5381498, 43.4805825], [17.5381498, 43.4785462], [17.5375885, 43.4765097], [17.5336596, 43.4752878], [17.5308532, 43.4740659], [17.5269243, 43.4748805], [17.5235566, 43.4761024], [17.5213115, 43.4781389], [17.5173826, 43.4801753], [17.5156988, 43.4805825], [17.5084022, 43.4826188], [17.5067184, 43.4834333], [17.503912, 43.4846551], [17.4994218, 43.486284], [17.4949316, 43.486284], [17.4915639, 43.4838406], [17.487635, 43.4801753], [17.4848286, 43.4789535], [17.4797771, 43.476917], [17.4741644, 43.472844], [17.4702355, 43.4712147], [17.4679904, 43.4695854], [17.4635001, 43.4708074], [17.4595712, 43.4724367], [17.4556423, 43.4736586], [17.4528359, 43.4748805], [17.4494683, 43.4756951], [17.444978, 43.476917], [17.4410491, 43.4781389], [17.4391329, 43.4776112], [17.4371631, 43.4780922], [17.4371202, 43.4765097], [17.4382427, 43.4724367], [17.4410491, 43.4699927], [17.4427329, 43.467956], [17.4444168, 43.4630676], [17.444978, 43.4549193], [17.4472232, 43.4520672], [17.4472232, 43.4492149], [17.4461006, 43.4463625], [17.4461006, 43.44351], [17.4472232, 43.4402498], [17.4483457, 43.4378045], [17.4472232, 43.4341364], [17.4427329, 43.432506], [17.438804, 43.4308757], [17.4365589, 43.4296529], [17.4331913, 43.4292452], [17.4287011, 43.4276148], [17.4281398, 43.4267995], [17.4253334, 43.4259843], [17.4208432, 43.4247613], [17.4196743, 43.4239124], [17.4191594, 43.4235384], [17.4157881, 43.4210899], [17.4155601, 43.4209243], [17.4152304, 43.4206848], [17.4156011, 43.4185309], [17.4157809, 43.4174863], [17.4157917, 43.4174233], [17.4158055, 43.4173982], [17.4169143, 43.4153849], [17.4152956, 43.4142512], [17.4104059, 43.4108265]]]}}]}