{"type": "FeatureCollection", "features": [{"type": "Feature", "properties": {"name": "Grad Srebrenik, Tuzlanski kanton, Federacija Bosne i Hercegovine, Bosna i Hercegovina / Босна и Херцеговина", "source": "OpenStreetMap relation 2528270", "licence": "ODbL 1.0"}, "geometry": {"type": "Polygon", "coordinates": [[[18.3790733, 44.7022869], [18.382718, 44.6989327], [18.3876342, 44.6977324], [18.3907219, 44.6982004], [18.3931563, 44.6980089], [18.3964759, 44.6976977], [18.3987351, 44.6964949], [18.4022035, 44.6968937], [18.4049475, 44.6966388], [18.4056793, 44.6928909], [18.4089661, 44.6895153], [18.4118037, 44.6866494], [18.4131671, 44.6848394], [18.4138785, 44.6836704], [18.416118, 44.6804857], [18.4178871, 44.678067], [18.4173825, 44.6733319], [18.4183662, 44.6689049], [18.4205207, 44.66849], [18.4208658, 44.6680413], [18.4212799, 44.6677397], [18.4218024, 44.6673751], [18.4223841, 44.6671297], [18.4226405, 44.6668773], [18.4228376, 44.6665477], [18.4229918, 44.6661415], [18.4241724, 44.66544], [18.4247627, 44.6650892], [18.4251437, 44.6649723], [18.4257415, 44.6649298], [18.4264513, 44.6649776], [18.4268922, 44.6650361], [18.4274152, 44.6652274], [18.4281848, 44.6655888], [18.4287751, 44.6655888], [18.4292982, 44.6656844], [18.4295746, 44.6658226], [18.4296867, 44.665913], [18.4301948, 44.6655728], [18.4305983, 44.6653018], [18.431338, 44.6651902], [18.431749, 44.6652912], [18.4322048, 44.6652859], [18.4326381, 44.6652062], [18.4334451, 44.664983], [18.4339756, 44.6649139], [18.4342371, 44.6647066], [18.4346107, 44.664324], [18.4346855, 44.6641273], [18.4348498, 44.6637607], [18.4347751, 44.6635002], [18.4346855, 44.6632239], [18.4347826, 44.6630166], [18.4350217, 44.6628944], [18.435201, 44.6626287], [18.4353056, 44.6624374], [18.4354028, 44.6624852], [18.4354626, 44.6626871], [18.4356718, 44.6629635], [18.4359781, 44.6631867], [18.4362546, 44.6632558], [18.4364563, 44.6632026], [18.4366581, 44.6630166], [18.4368822, 44.6627403], [18.4372932, 44.6622513], [18.4376294, 44.661789], [18.438145, 44.6615286], [18.4385261, 44.6612256], [18.4386755, 44.6609599], [18.4390566, 44.6605879], [18.4395572, 44.6599979], [18.4397739, 44.6594824], [18.4398187, 44.6591954], [18.4399831, 44.6587543], [18.4398934, 44.6584301], [18.4399981, 44.6582493], [18.4405435, 44.6579942], [18.4408274, 44.657686], [18.4411861, 44.6573139], [18.4414999, 44.6571545], [18.4416045, 44.6566814], [18.4417913, 44.6560755], [18.4420603, 44.6559586], [18.4428524, 44.6557672], [18.4437714, 44.6553261], [18.4446905, 44.6546457], [18.4461027, 44.653673], [18.4464763, 44.652796], [18.4466705, 44.6525196], [18.4473356, 44.6521794], [18.4475821, 44.6519721], [18.4482172, 44.651515], [18.4487328, 44.6506591], [18.448815, 44.6504306], [18.4487601, 44.6502703], [18.4482347, 44.6499314], [18.4480285, 44.6497166], [18.4479932, 44.6495025], [18.4482674, 44.649261], [18.4484989, 44.6490426], [18.4485416, 44.6485555], [18.4486136, 44.6481978], [18.4488053, 44.6477043], [18.4490544, 44.6470407], [18.4492477, 44.646373], [18.4494068, 44.6457493], [18.4496905, 44.6456872], [18.4499246, 44.6456733], [18.4507637, 44.6453309], [18.4515132, 44.6452158], [18.4520711, 44.6451913], [18.4525174, 44.6452524], [18.4529122, 44.6454295], [18.4536246, 44.6449654], [18.4543885, 44.6444463], [18.4545516, 44.6441532], [18.4548692, 44.643854], [18.4550923, 44.6437624], [18.4556159, 44.6436097], [18.4559764, 44.6433532], [18.4565343, 44.6428158], [18.4567145, 44.6427364], [18.4573497, 44.642712], [18.4578561, 44.6426265], [18.4582681, 44.642425], [18.4585856, 44.6420097], [18.4595984, 44.641515], [18.4603795, 44.6410509], [18.4609374, 44.6407333], [18.4615983, 44.6405623], [18.4622935, 44.6403974], [18.4629287, 44.6401715], [18.4634179, 44.6401532], [18.4638385, 44.6402081], [18.4642848, 44.6402203], [18.4647654, 44.6401287], [18.4659423, 44.6399212], [18.4662852, 44.6398883], [18.4665283, 44.6399599], [18.4667713, 44.6400681], [18.4670031, 44.6402697], [18.4673035, 44.6403124], [18.4676468, 44.6402758], [18.4679472, 44.6400681], [18.4684794, 44.6399033], [18.4697668, 44.6399033], [18.4703934, 44.6399033], [18.4708139, 44.639775], [18.4712174, 44.6395429], [18.4715864, 44.6394269], [18.4721529, 44.6393047], [18.4730026, 44.6390849], [18.4743673, 44.6385169], [18.4749081, 44.6383154], [18.475629, 44.6377046], [18.4757921, 44.6373565], [18.4756891, 44.6368618], [18.4758436, 44.6366908], [18.4762899, 44.6366053], [18.4765389, 44.6365015], [18.4768221, 44.6363121], [18.477174, 44.6362144], [18.4781611, 44.6361106], [18.4789164, 44.6361655], [18.4797918, 44.6361045], [18.4812166, 44.6360984], [18.4816458, 44.6361167], [18.4828302, 44.6357258], [18.4832251, 44.6356586], [18.4837315, 44.6358052], [18.4846413, 44.6362083], [18.4851648, 44.636251], [18.4860231, 44.6361655], [18.4867355, 44.6360129], [18.4873793, 44.6360556], [18.4880831, 44.6360556], [18.4889929, 44.6360006], [18.4893791, 44.6361045], [18.4896795, 44.6363366], [18.4900829, 44.636703], [18.4902203, 44.6370511], [18.4903233, 44.6374176], [18.4904005, 44.637894], [18.4905293, 44.6381993], [18.4907009, 44.6383032], [18.4910185, 44.6383093], [18.4913189, 44.6382054], [18.4917051, 44.6380772], [18.4919798, 44.638126], [18.4928638, 44.6383642], [18.494379, 44.6390551], [18.4947635, 44.6391744], [18.4972284, 44.6396374], [18.4978495, 44.6396234], [18.4981453, 44.6395111], [18.4986284, 44.6393287], [18.4998313, 44.6391604], [18.5006249, 44.6387588], [18.504604, 44.6363021], [18.5096713, 44.6369765], [18.5149601, 44.6388879], [18.5204822, 44.6385948], [18.5261402, 44.6365628], [18.5287594, 44.6343753], [18.5346961, 44.6318657], [18.5380892, 44.6288156], [18.539294, 44.6258854], [18.542397, 44.6236161], [18.5480048, 44.6204754], [18.5512314, 44.6191598], [18.5503766, 44.6141631], [18.5506544, 44.6118758], [18.5579856, 44.610284], [18.5658223, 44.6079881], [18.5706658, 44.6064374], [18.574926, 44.6065696], [18.5795377, 44.6063221], [18.5843113, 44.6044516], [18.5858481, 44.6060464], [18.5864815, 44.6119086], [18.583903, 44.6161373], [18.5894327, 44.6194087], [18.5896486, 44.6227296], [18.5909541, 44.6240305], [18.5911682, 44.6236995], [18.5915337, 44.6231844], [18.5922427, 44.6232625], [18.5932002, 44.6236474], [18.5937557, 44.6241677], [18.5940554, 44.6245214], [18.5936022, 44.6246515], [18.5934341, 44.6247399], [18.5932952, 44.6250833], [18.5933829, 44.625489], [18.5935803, 44.6257804], [18.5936972, 44.6259937], [18.593763, 44.6264931], [18.5938727, 44.6270029], [18.594187, 44.6270081], [18.5941504, 44.6273254], [18.5940408, 44.6277363], [18.5940919, 44.6280537], [18.5941943, 44.6284074], [18.5942893, 44.6289016], [18.59407, 44.6292345], [18.5936022, 44.6296402], [18.5933318, 44.6302905], [18.5933025, 44.6306546], [18.5933683, 44.6311227], [18.5935291, 44.6313724], [18.5937996, 44.6315909], [18.5939896, 44.6318718], [18.5955904, 44.6315129], [18.5958023, 44.6318562], [18.5963578, 44.6321579], [18.5966064, 44.632496], [18.5966722, 44.6327612], [18.5969791, 44.6329953], [18.5971911, 44.6334686], [18.5972788, 44.6337807], [18.5972204, 44.6341916], [18.5971546, 44.6344517], [18.5971765, 44.634665], [18.5976224, 44.6349458], [18.597732, 44.6352371], [18.5975712, 44.6355076], [18.5974323, 44.6357988], [18.597425, 44.6360849], [18.5974835, 44.6363242], [18.5974616, 44.6365426], [18.5972788, 44.6366206], [18.59714, 44.6367611], [18.596928, 44.6369223], [18.5970888, 44.6374008], [18.5975054, 44.6378949], [18.5980171, 44.638467], [18.5984337, 44.6390027], [18.5985434, 44.6392004], [18.5985068, 44.6394084], [18.5990696, 44.6397361], [18.5996836, 44.6400793], [18.5999175, 44.640251], [18.5998956, 44.640381], [18.6000929, 44.6406046], [18.600495, 44.6411403], [18.6006119, 44.6413951], [18.6005607, 44.6418164], [18.6003707, 44.6422949], [18.6000856, 44.6426329], [18.5998006, 44.6428617], [18.5993985, 44.6430437], [18.59915, 44.6433194], [18.5990623, 44.6435066], [18.5992304, 44.6435898], [18.5996398, 44.643959], [18.6001076, 44.6442191], [18.6003049, 44.6443699], [18.600516, 44.6447239], [18.6005607, 44.6449783], [18.6006119, 44.6454048], [18.6006046, 44.6458988], [18.6006046, 44.6461224], [18.6007946, 44.6464396], [18.6011309, 44.6467777], [18.6014817, 44.6473185], [18.6017229, 44.6477501], [18.6020811, 44.6479841], [18.6026731, 44.6482077], [18.6034114, 44.6487329], [18.6041131, 44.6493257], [18.6055677, 44.6503865], [18.6064375, 44.6504541], [18.6071246, 44.6505893], [18.6076216, 44.6510105], [18.6080017, 44.6510105], [18.6085718, 44.6510729], [18.6088715, 44.6512185], [18.6089373, 44.6513537], [18.6089007, 44.6516865], [18.60893, 44.6519205], [18.6092808, 44.6522429], [18.6100483, 44.6527941], [18.6107208, 44.6530853], [18.6112032, 44.6532256], [18.6117368, 44.6533348], [18.6132206, 44.6540888], [18.6137761, 44.65438], [18.6148652, 44.6551807], [18.6161809, 44.6559398], [18.6172553, 44.6564026], [18.6179644, 44.6568185], [18.6185126, 44.6569693], [18.6187757, 44.6571825], [18.6193385, 44.6575256], [18.6196821, 44.6575776], [18.6204934, 44.65751], [18.6210124, 44.6574892], [18.6229786, 44.6579624], [18.6246159, 44.6585083], [18.6256611, 44.658893], [18.6270938, 44.6594441], [18.628351, 44.6600472], [18.6292573, 44.6603124], [18.629769, 44.6603904], [18.6305438, 44.6603384], [18.6312236, 44.6604528], [18.6322103, 44.6608895], [18.6324223, 44.6611494], [18.6326562, 44.6612118], [18.6331898, 44.6611442], [18.6337453, 44.6608115], [18.6340377, 44.660432], [18.6343593, 44.6601772], [18.6346297, 44.6596885], [18.6348125, 44.6595689], [18.6351268, 44.6595533], [18.6354411, 44.6595065], [18.6359044, 44.6592729], [18.6362274, 44.6591221], [18.6361519, 44.6597611], [18.6361854, 44.6601553], [18.6362442, 44.6604957], [18.6361015, 44.6607644], [18.6360847, 44.661075], [18.6361739, 44.6615903], [18.6360582, 44.6621322], [18.6361642, 44.6626467], [18.6363378, 44.6632092], [18.6362993, 44.6634905], [18.6364343, 44.6637786], [18.6370419, 44.6642519], [18.6372927, 44.6645538], [18.6373988, 44.6648624], [18.6375917, 44.6650339], [18.6379485, 44.6651917], [18.6381993, 44.665473], [18.6384501, 44.6656101], [18.6387298, 44.6657954], [18.6387394, 44.6660011], [18.6385272, 44.6662824], [18.6385465, 44.6665773], [18.639049, 44.6670347], [18.6396598, 44.6678674], [18.6400034, 44.6684557], [18.6406143, 44.6689987], [18.6412888, 44.66994], [18.6413652, 44.6704468], [18.6413142, 44.670827], [18.6418615, 44.6709265], [18.6424723, 44.6712885], [18.6408686, 44.6725343], [18.6397499, 44.6735219], [18.6390935, 44.674298], [18.6383041, 44.6746982], [18.6372004, 44.6752907], [18.6368377, 44.6755682], [18.6384604, 44.6774913], [18.6388697, 44.678458], [18.6392644, 44.6790921], [18.6398053, 44.6795598], [18.6400392, 44.6803914], [18.6405801, 44.6816699], [18.6404924, 44.6826262], [18.6405216, 44.683281], [18.6409602, 44.6844971], [18.6415011, 44.6853078], [18.6422028, 44.6856092], [18.6429337, 44.6866382], [18.6435038, 44.6877295], [18.6438254, 44.6893404], [18.6440009, 44.6906603], [18.6444687, 44.6920217], [18.6446689, 44.6927082], [18.6450933, 44.6936201], [18.6451608, 44.6940246], [18.6447557, 44.6950736], [18.6444181, 44.6956358], [18.6445242, 44.6963146], [18.6444374, 44.6966917], [18.6442831, 44.697007], [18.6440227, 44.6974732], [18.6439359, 44.6979805], [18.6441963, 44.6984056], [18.6442349, 44.6985976], [18.6440902, 44.6988238], [18.6441481, 44.6989815], [18.6443217, 44.6992351], [18.6449679, 44.6994339], [18.6452862, 44.699859], [18.6456527, 44.7000921], [18.6461735, 44.700428], [18.6465786, 44.7012986], [18.6469065, 44.7016894], [18.6469933, 44.7023201], [18.6471187, 44.7026354], [18.6473405, 44.7028274], [18.6476877, 44.7029713], [18.6481121, 44.703081], [18.6488258, 44.7031633], [18.649173, 44.7032729], [18.6495009, 44.7035951], [18.6496167, 44.7038213], [18.649636, 44.7042806], [18.6494913, 44.7045137], [18.6492887, 44.7046508], [18.6489512, 44.704829], [18.6486618, 44.7052266], [18.6480156, 44.705446], [18.6479578, 44.7057476], [18.6479385, 44.705919], [18.6483339, 44.7064194], [18.6482278, 44.7067073], [18.6477649, 44.7071117], [18.6473984, 44.7077217], [18.647109, 44.7080302], [18.6468583, 44.708133], [18.6462506, 44.7083386], [18.6460963, 44.7084689], [18.6460674, 44.7087979], [18.6460674, 44.7090241], [18.6459999, 44.7091817], [18.6444953, 44.7105458], [18.6441384, 44.710957], [18.644022, 44.7113936], [18.6440411, 44.7116242], [18.6441938, 44.711891], [18.6443656, 44.7120854], [18.6446711, 44.7123342], [18.6447538, 44.712601], [18.6447156, 44.712913], [18.6445756, 44.713234], [18.644512, 44.7135415], [18.6445311, 44.7138807], [18.6447792, 44.7140344], [18.6450974, 44.7142334], [18.6451865, 44.7144323], [18.6451419, 44.7146358], [18.6450401, 44.7148981], [18.645091, 44.7155537], [18.6451547, 44.7157979], [18.645301, 44.7158974], [18.6457464, 44.7158928], [18.6462173, 44.7158341], [18.6464782, 44.7158341], [18.6467645, 44.7159607], [18.6468854, 44.7161144], [18.6468982, 44.7162727], [18.6467645, 44.7163721], [18.6465355, 44.7165123], [18.6463764, 44.7166661], [18.6463382, 44.7168153], [18.6467009, 44.7180316], [18.6468136, 44.7185108], [18.6467749, 44.7187391], [18.6466364, 44.7189517], [18.6465145, 44.7190579], [18.6462431, 44.7193964], [18.6462265, 44.7195657], [18.6462542, 44.719731], [18.6463262, 44.7199554], [18.6468358, 44.7204474], [18.6469466, 44.7207859], [18.6469134, 44.721085], [18.6467582, 44.7216557], [18.6466259, 44.7222539], [18.6464945, 44.7226188], [18.6462309, 44.7230073], [18.6462132, 44.7233296], [18.6463024, 44.7238939], [18.6458673, 44.7239161], [18.6451632, 44.7241242], [18.644465, 44.7242791], [18.6438575, 44.7245469], [18.6430401, 44.7250328], [18.6426637, 44.7253417], [18.6422676, 44.7255666], [18.6418134, 44.725774], [18.6413935, 44.7260134], [18.6413005, 44.7264125], [18.6405686, 44.7264919], [18.6401522, 44.7266134], [18.6396674, 44.7270628], [18.6394251, 44.7271954], [18.6393308, 44.7274822], [18.6385896, 44.7280003], [18.6383119, 44.7279791], [18.6376858, 44.7280263], [18.6372513, 44.7279775], [18.6370262, 44.7282124], [18.6368956, 44.7287017], [18.6367687, 44.7290752], [18.6366944, 44.7290896], [18.6366241, 44.7293589], [18.6363745, 44.7297079], [18.6361734, 44.7299214], [18.6360321, 44.7302305], [18.6355701, 44.7306044], [18.6354488, 44.7310356], [18.6354516, 44.7313084], [18.6358877, 44.7318414], [18.6353851, 44.7324615], [18.635265, 44.7326342], [18.6352718, 44.7327574], [18.6358166, 44.7334962], [18.6358601, 44.7338274], [18.6362311, 44.7344792], [18.636121, 44.734749], [18.6359212, 44.7349391], [18.6354768, 44.7354149], [18.6351142, 44.7355943], [18.6348236, 44.7351123], [18.6348842, 44.7350018], [18.6350951, 44.734887], [18.6350984, 44.7346257], [18.6348659, 44.7344426], [18.6346251, 44.7343314], [18.6343911, 44.7340324], [18.6340898, 44.7339139], [18.6333867, 44.7339171], [18.6330347, 44.7337027], [18.632156, 44.7335208], [18.6312026, 44.733408], [18.6311489, 44.7335007], [18.6308872, 44.7336426], [18.6306622, 44.7336557], [18.6303756, 44.7335757], [18.6299857, 44.7333783], [18.6295521, 44.7333686], [18.6290515, 44.733494], [18.6287114, 44.7334248], [18.6284012, 44.7332814], [18.6279452, 44.732729], [18.6271007, 44.7327341], [18.6268838, 44.7326648], [18.6267185, 44.7323451], [18.6266481, 44.7321197], [18.6264582, 44.7320747], [18.6260783, 44.7322078], [18.6254305, 44.7321872], [18.62483, 44.7324248], [18.6237214, 44.7336284], [18.6195111, 44.7348737], [18.6182655, 44.7347954], [18.6117232, 44.7347089], [18.610475, 44.7354242], [18.6098919, 44.7354126], [18.6083722, 44.7348602], [18.6072905, 44.7353082], [18.6059023, 44.7364291], [18.6044544, 44.7364672], [18.6031794, 44.7362473], [18.6009169, 44.7352503], [18.5973683, 44.7352119], [18.5948178, 44.7356816], [18.5921884, 44.7363597], [18.5891373, 44.7362225], [18.5868716, 44.7367351], [18.585133, 44.7364255], [18.5846296, 44.7363404], [18.5844234, 44.736256], [18.5843428, 44.7361703], [18.5834556, 44.7360847], [18.5830111, 44.7358644], [18.582633, 44.7355117], [18.5823338, 44.7351029], [18.5817039, 44.7347319], [18.5812209, 44.73427], [18.5797951, 44.7330212], [18.5785916, 44.7325175], [18.5782745, 44.7322558], [18.5776452, 44.7320205], [18.5765873, 44.731972], [18.5758404, 44.7321283], [18.5749412, 44.7323105], [18.5740079, 44.732691], [18.5733438, 44.7326123], [18.5728711, 44.7327068], [18.5728257, 44.7329469], [18.5726469, 44.7332148], [18.5721022, 44.7336675], [18.5713623, 44.7340464], [18.5708016, 44.7344296], [18.5704768, 44.7348017], [18.5703601, 44.7352755], [18.5694316, 44.7359925], [18.5690954, 44.7363615], [18.5687303, 44.7367166], [18.5677618, 44.7374544], [18.5666277, 44.7385917], [18.5663737, 44.7391974], [18.566383, 44.7395468], [18.5660672, 44.7398078], [18.5653866, 44.7400127], [18.5653016, 44.7401332], [18.5653976, 44.7404185], [18.565569, 44.740605], [18.5658859, 44.7407704], [18.5661089, 44.7409626], [18.5661456, 44.7411446], [18.566007, 44.7414123], [18.5659545, 44.7416179], [18.5652179, 44.7424853], [18.5645857, 44.7428788], [18.5636216, 44.7431596], [18.5628767, 44.7436742], [18.5623123, 44.7443066], [18.5609043, 44.7449734], [18.5596657, 44.7458671], [18.5586803, 44.7466596], [18.5583225, 44.7467847], [18.558106, 44.746954], [18.5579604, 44.7474374], [18.5578869, 44.7477849], [18.5578418, 44.7482392], [18.5573674, 44.7484964], [18.5569182, 44.7487347], [18.5566548, 44.7490428], [18.5564863, 44.749881], [18.5563145, 44.7503056], [18.5559132, 44.7507513], [18.5551364, 44.7513364], [18.5542223, 44.751733], [18.5537217, 44.7517967], [18.5531912, 44.7517489], [18.5521227, 44.7518657], [18.5511588, 44.7520408], [18.5507329, 44.7522424], [18.5505311, 44.7525714], [18.5503443, 44.7527889], [18.550038, 44.7529269], [18.5496121, 44.7529694], [18.5490816, 44.7530543], [18.5486482, 44.7530277], [18.5481177, 44.7530861], [18.5473257, 44.7534151], [18.5466457, 44.7537759], [18.5461899, 44.7540465], [18.5456594, 44.7543702], [18.5452858, 44.7545134], [18.5451214, 44.7548106], [18.5450019, 44.7550971], [18.5449645, 44.7556702], [18.544667, 44.7561196], [18.5446283, 44.7568109], [18.5447329, 44.7577766], [18.5447777, 44.7579994], [18.5451438, 44.7584027], [18.5451961, 44.7587104], [18.5448225, 44.7593206], [18.5447478, 44.759745], [18.5448973, 44.7601907], [18.5450243, 44.7605727], [18.545241, 44.7607849], [18.5456968, 44.7609971], [18.546033, 44.7612146], [18.5461525, 44.7614428], [18.545906, 44.7619309], [18.5459284, 44.7622598], [18.5470044, 44.7631193], [18.5474826, 44.7634323], [18.5476171, 44.7637029], [18.5476619, 44.763984], [18.5475946, 44.7642016], [18.5474377, 44.7645305], [18.5474527, 44.764939], [18.5474228, 44.7652095], [18.547109, 44.7655544], [18.546825, 44.765687], [18.5463468, 44.7658037], [18.5458537, 44.7658992], [18.5455174, 44.7661167], [18.5454278, 44.7664085], [18.5452858, 44.7666101], [18.5452634, 44.7670769], [18.5452783, 44.7673421], [18.5455398, 44.7677771], [18.5461152, 44.768419], [18.5464664, 44.7686577], [18.54684, 44.7690715], [18.5468848, 44.7694694], [18.5470865, 44.7696232], [18.5469371, 44.7699627], [18.5466009, 44.7703765], [18.5459583, 44.7708061], [18.545368, 44.7711032], [18.5447852, 44.7715753], [18.5445386, 44.771761], [18.5435598, 44.7721376], [18.5432385, 44.7722861], [18.5439334, 44.7727423], [18.5439633, 44.7730499], [18.5426258, 44.7735379], [18.5422821, 44.7736865], [18.5419159, 44.7734053], [18.5415722, 44.7735592], [18.540952, 44.7740312], [18.5406307, 44.7745935], [18.540556, 44.7750125], [18.5405784, 44.7754422], [18.5406756, 44.7756225], [18.5398761, 44.7756596], [18.5392858, 44.7758347], [18.5388823, 44.775893], [18.5385535, 44.7760097], [18.5378736, 44.776015], [18.5373879, 44.7760522], [18.5367677, 44.7762431], [18.5366482, 44.7761635], [18.5352135, 44.7769538], [18.5346158, 44.7772562], [18.5342646, 44.7773198], [18.5339881, 44.7774949], [18.5336519, 44.7776062], [18.5334576, 44.7776062], [18.5333007, 44.7775638], [18.5329719, 44.77776], [18.5326955, 44.7780252], [18.532419, 44.7781207], [18.531754, 44.7781897], [18.531358, 44.7782056], [18.5310965, 44.7783382], [18.5317914, 44.7785822], [18.5321949, 44.7788686], [18.532434, 44.7791974], [18.5327119, 44.7797256], [18.5328478, 44.7799145], [18.5329724, 44.780019], [18.5329044, 44.7801878], [18.5327968, 44.7803446], [18.5326496, 44.7804169], [18.5327572, 44.7808711], [18.5327912, 44.7810399], [18.533012, 44.7812489], [18.533499, 44.78147], [18.5333518, 44.7816227], [18.5329724, 44.7814981], [18.5328648, 44.7816187], [18.5338601, 44.781991], [18.5337325, 44.7822217], [18.5327356, 44.7824], [18.5320788, 44.7824161], [18.5316484, 44.7822955], [18.5307877, 44.7820705], [18.5306971, 44.7824161], [18.5295872, 44.782384], [18.5280243, 44.7826251], [18.5263707, 44.7827618], [18.5252269, 44.7828743], [18.5239358, 44.7826653], [18.5230411, 44.7824081], [18.5216609, 44.7821779], [18.5203447, 44.7817755], [18.5190038, 44.7812472], [18.5176925, 44.7809637], [18.5169333, 44.7808903], [18.516148, 44.7808129], [18.5160546, 44.7806644], [18.5159388, 44.7804708], [18.515696, 44.7803727], [18.5154568, 44.7803356], [18.5148815, 44.7802825], [18.5137756, 44.7799829], [18.5137196, 44.7800492], [18.5133983, 44.7805318], [18.5131667, 44.7805265], [18.5130482, 44.7806469], [18.5129585, 44.7808572], [18.5123826, 44.7804575], [18.5121509, 44.7800615], [18.511962, 44.7794827], [18.5112153, 44.7794767], [18.5108977, 44.7794827], [18.5104171, 44.7794279], [18.5101768, 44.7793792], [18.5098764, 44.779239], [18.5090781, 44.7788552], [18.5085031, 44.7785993], [18.507942, 44.7781495], [18.5076562, 44.7778901], [18.5072724, 44.7776777], [18.5067976, 44.7775623], [18.5065374, 44.7774053], [18.5063227, 44.7770174], [18.5062772, 44.776745], [18.5064268, 44.7764587], [18.5066415, 44.7762048], [18.506687, 44.7760154], [18.5065959, 44.7758815], [18.5063032, 44.7756691], [18.5050478, 44.7755444], [18.5044559, 44.7754521], [18.5029338, 44.7750227], [18.502563, 44.7749857], [18.501841, 44.7751566], [18.5012751, 44.7753136], [18.5008522, 44.7753136], [18.500197, 44.7754146], [18.4995571, 44.7753463], [18.4989456, 44.7752257], [18.4983057, 44.7750931], [18.4979489, 44.775081], [18.4976828, 44.7751453], [18.4974676, 44.7752539], [18.4971052, 44.7756639], [18.4968334, 44.7759171], [18.4964313, 44.7762307], [18.4960293, 44.7765402], [18.4952761, 44.7771994], [18.4948458, 44.7774486], [18.4945286, 44.7776416], [18.4942852, 44.7779149], [18.4938604, 44.7781722], [18.4933791, 44.7784817], [18.4929544, 44.7785339], [18.4924561, 44.7786103], [18.4922466, 44.7787068], [18.4919974, 44.7788555], [18.4917879, 44.778956], [18.4909725, 44.7791047], [18.4908026, 44.7790283], [18.4906497, 44.7788073], [18.4904288, 44.7781239], [18.4903949, 44.7778345], [18.4900268, 44.7778184], [18.4893246, 44.77814], [18.4889339, 44.7781561], [18.4883676, 44.7780395], [18.487824, 44.7775893], [18.4872521, 44.7770788], [18.4870709, 44.7769703], [18.4865159, 44.7769582], [18.4863743, 44.776512], [18.4861025, 44.7761503], [18.4857345, 44.7774768], [18.4854287, 44.777525], [18.4851625, 44.7775773], [18.4845962, 44.7777179], [18.4843301, 44.7776938], [18.4835486, 44.7774928], [18.4833561, 44.7773682], [18.4832882, 44.7772436], [18.4831692, 44.7769341], [18.4830333, 44.7769904], [18.4828974, 44.7771351], [18.4826539, 44.7773602], [18.4819518, 44.7772959], [18.4813119, 44.7772838], [18.4810457, 44.7762347], [18.4809551, 44.7767492], [18.4801454, 44.7767974], [18.4799245, 44.776914], [18.4798226, 44.7769703], [18.4790808, 44.7768859], [18.4789449, 44.7768618], [18.4788939, 44.7765723], [18.4789675, 44.7762789], [18.4792337, 44.7759654], [18.4794658, 44.7757603], [18.4799132, 44.7754026], [18.4801057, 44.7751694], [18.4801397, 44.7749684], [18.4800434, 44.7745464], [18.4800434, 44.7742087], [18.480185, 44.7737625], [18.480168, 44.773461], [18.4800887, 44.7733364], [18.4798056, 44.7731957], [18.4793752, 44.7731032], [18.4790547, 44.7729618], [18.4789575, 44.7727974], [18.4790547, 44.7725057], [18.4789052, 44.7720601], [18.4785914, 44.7720866], [18.478442, 44.7720336], [18.478315, 44.771901], [18.4780983, 44.7714925], [18.4779712, 44.7711689], [18.4777994, 44.7707764], [18.4773137, 44.7704634], [18.4768803, 44.7703202], [18.4763797, 44.7703308], [18.4755578, 44.7704263], [18.4751991, 44.7703679], [18.4746686, 44.7703945], [18.4740484, 44.770543], [18.4737197, 44.7707711], [18.4733685, 44.7709302], [18.4731219, 44.7709143], [18.4728679, 44.7706809], [18.4726437, 44.7702088], [18.4725774, 44.7693618], [18.4725018, 44.7690044], [18.4721895, 44.7688658], [18.4717927, 44.7687181], [18.4702381, 44.7684779], [18.4689632, 44.7682008], [18.4677403, 44.7678268], [18.466706, 44.7676097], [18.4654376, 44.7674111], [18.4646961, 44.7672495], [18.4640911, 44.7669401], [18.463961, 44.7667369], [18.4636228, 44.7662104], [18.4629528, 44.765707], [18.4620616, 44.7652682], [18.4613071, 44.7650419], [18.4606826, 44.7647418], [18.4603053, 44.7643122], [18.4602078, 44.7636195], [18.4603249, 44.7633008], [18.460507, 44.7630375], [18.4609233, 44.7627419], [18.4611054, 44.7623586], [18.4613071, 44.7621646], [18.4613071, 44.7620861], [18.4609233, 44.7622247], [18.460468, 44.7625249], [18.4598565, 44.7628389], [18.4590434, 44.7630237], [18.4579246, 44.7631899], [18.4570855, 44.7632038], [18.4565326, 44.7632177], [18.4555699, 44.7634486], [18.4548218, 44.7635687], [18.454347, 44.7635594], [18.4535418, 44.7635502], [18.4530591, 44.7636149], [18.4526428, 44.7637303], [18.4524086, 44.763892], [18.4521354, 44.7641414], [18.4516475, 44.7642799], [18.4512954, 44.7642966], [18.4511597, 44.764303], [18.4505287, 44.7642153], [18.4496961, 44.7640952], [18.4492538, 44.7640351], [18.4479854, 44.7640213], [18.4474455, 44.7639566], [18.446756, 44.7640259], [18.4458843, 44.7640582], [18.4447915, 44.7639012], [18.4444142, 44.763795], [18.4435686, 44.7639243], [18.4431133, 44.7638827], [18.4425018, 44.7638596], [18.442053, 44.763952], [18.4419685, 44.7638873], [18.4408952, 44.7645524], [18.4405894, 44.7646909], [18.4404789, 44.7648942], [18.439926, 44.7650096], [18.4388722, 44.7652729], [18.4379875, 44.7652821], [18.4372655, 44.765319], [18.435034, 44.7657663], [18.4342156, 44.7659157], [18.4335095, 44.765998], [18.4330017, 44.7661469], [18.4323576, 44.7661433], [18.431736, 44.7661321], [18.4315694, 44.7660545], [18.4314178, 44.7659345], [18.4314905, 44.7658043], [18.4315357, 44.7656798], [18.4316245, 44.7656633], [18.4316886, 44.7656633], [18.4317774, 44.7656178], [18.4318957, 44.7654323], [18.4320288, 44.7653833], [18.4321914, 44.7653483], [18.4323147, 44.7650788], [18.432417, 44.7649762], [18.4328247, 44.76492], [18.4331588, 44.7648476], [18.4334249, 44.764727], [18.4337703, 44.7645943], [18.434297, 44.7644938], [18.4346084, 44.7644415], [18.434716, 44.7643531], [18.4347273, 44.7642164], [18.4346481, 44.7641239], [18.4344385, 44.764144], [18.4343196, 44.7640917], [18.4342007, 44.7640314], [18.4335948, 44.7636695], [18.4325529, 44.7632474], [18.4306693, 44.7627748], [18.4301985, 44.7625042], [18.4294962, 44.7622708], [18.4289283, 44.7619153], [18.4284053, 44.761475], [18.428069, 44.761093], [18.4278673, 44.7604669], [18.4278598, 44.7602759], [18.4280018, 44.760069], [18.428211, 44.7599151], [18.428465, 44.7595862], [18.4288461, 44.7590715], [18.4289582, 44.7587054], [18.4291749, 44.7584189], [18.4292944, 44.7581006], [18.4294065, 44.7577186], [18.4296755, 44.7571668], [18.4297577, 44.7563444], [18.4299669, 44.7560048], [18.4301612, 44.7556546], [18.4302434, 44.7553681], [18.4301612, 44.7547154], [18.4301462, 44.7540362], [18.4301537, 44.7532987], [18.4302259, 44.7530304], [18.4303307, 44.7528659], [18.4302081, 44.7528222], [18.4292336, 44.7524018], [18.4281515, 44.7520066], [18.4269901, 44.7517754], [18.4271709, 44.7496352], [18.4215696, 44.7495445], [18.4157907, 44.7488], [18.4123976, 44.7471512], [18.4093007, 44.7464764], [18.4064885, 44.7472756], [18.4042876, 44.7449266], [18.4009809, 44.7432774], [18.3946762, 44.7412669], [18.3901401, 44.7403274], [18.3865061, 44.7393379], [18.386109, 44.7368277], [18.386109, 44.7358732], [18.3884618, 44.7305487], [18.388734, 44.7285348], [18.3889496, 44.7261582], [18.3878724, 44.7225404], [18.3851225, 44.7229378], [18.3825259, 44.7218722], [18.3802864, 44.7199627], [18.3798385, 44.7183714], [18.3793906, 44.7161435], [18.3793906, 44.7126424], [18.3802864, 44.7110509], [18.3802922, 44.706107], [18.3790733, 44.7022869]]]}}]}