{"type": "FeatureCollection", "features": [{"type": "Feature", "properties": {"name": "Opština Srebrenica, Република Српска / Republika Srpska, Bosna i Hercegovina / Босна и Херцеговина", "source": "OpenStreetMap relation 2528269", "licence": "ODbL 1.0"}, "geometry": {"type": "Polygon", "coordinates": [[[19.1389775, 44.1235162], [19.1390312, 44.1219142], [19.1392887, 44.1216755], [19.1396427, 44.1215985], [19.1406512, 44.1218064], [19.1415954, 44.1218603], [19.142282, 44.1217756], [19.142797, 44.1211132], [19.143151, 44.1200119], [19.1433704, 44.1196668], [19.1436124, 44.1194188], [19.1442454, 44.1193726], [19.1448998, 44.1190183], [19.1452432, 44.1189875], [19.1454041, 44.1189567], [19.1463375, 44.1189413], [19.1466272, 44.1186717], [19.1465413, 44.1184714], [19.1468739, 44.1181787], [19.1468847, 44.1175163], [19.1474211, 44.1172005], [19.1483545, 44.1171466], [19.1494, 44.1168], [19.1501291, 44.1153889], [19.1505517, 44.1150963], [19.1516268, 44.1138191], [19.1522598, 44.1135726], [19.1534936, 44.1136342], [19.1536546, 44.1135649], [19.1541266, 44.113095], [19.1543734, 44.1129256], [19.1547167, 44.1128485], [19.1554892, 44.1130257], [19.1563046, 44.1131566], [19.1568303, 44.1130488], [19.1572809, 44.1128408], [19.1579246, 44.1121784], [19.1580534, 44.1115775], [19.1586178, 44.1109605], [19.1589326, 44.1106163], [19.1598022, 44.1094745], [19.1601777, 44.1084808], [19.1606831, 44.107788], [19.1589785, 44.1061616], [19.1586327, 44.1059385], [19.1576028, 44.1058461], [19.1569805, 44.1055379], [19.1562509, 44.1044902], [19.1560793, 44.1023022], [19.1562509, 44.101316], [19.1567445, 44.1006072], [19.1568303, 44.0997443], [19.1562295, 44.0991433], [19.1561758, 44.0985963], [19.156487, 44.0983728], [19.156487, 44.0980801], [19.1560364, 44.097664], [19.155693, 44.0971709], [19.1577768, 44.0956552], [19.157753, 44.0950134], [19.1585254, 44.0949364], [19.1590404, 44.0952446], [19.1596412, 44.0953216], [19.1610789, 44.0945049], [19.1614008, 44.094736], [19.1621979, 44.0947596], [19.162864, 44.0935711], [19.1631603, 44.0917617], [19.163568, 44.0913148], [19.1632247, 44.0911298], [19.1632247, 44.0903747], [19.1635737, 44.0899784], [19.1647267, 44.0899739], [19.1658211, 44.0902822], [19.1679239, 44.0903747], [19.1685891, 44.0907908], [19.1688466, 44.0905596], [19.1687822, 44.0902205], [19.1691041, 44.0899123], [19.1691685, 44.089396], [19.1694445, 44.0891067], [19.170016, 44.0891186], [19.1704881, 44.0893112], [19.1710889, 44.089396], [19.1715395, 44.0895886], [19.1718829, 44.0893035], [19.1718507, 44.0889721], [19.1714537, 44.0886485], [19.1715073, 44.0881553], [19.1734811, 44.0875877], [19.1747367, 44.088348], [19.174844, 44.0886639], [19.1751552, 44.0889953], [19.1755307, 44.0893497], [19.1760242, 44.0890954], [19.1766143, 44.0885869], [19.1792536, 44.0885406], [19.1797042, 44.0883634], [19.1797793, 44.0881707], [19.1796076, 44.0879626], [19.1793501, 44.0878085], [19.1793394, 44.0875927], [19.1796827, 44.0874155], [19.1802406, 44.0871997], [19.1802192, 44.0861671], [19.1808547, 44.0858763], [19.1812599, 44.0860669], [19.182204, 44.0861517], [19.1823649, 44.0864214], [19.1831374, 44.0868144], [19.1839743, 44.0868298], [19.1843712, 44.0865524], [19.185648, 44.0865216], [19.1862488, 44.0862518], [19.1866028, 44.0865293], [19.1866672, 44.0868067], [19.1877293, 44.0874463], [19.188416, 44.0874694], [19.1888237, 44.0867296], [19.1895854, 44.0867682], [19.190036, 44.0874771], [19.190551, 44.0866449], [19.1906476, 44.0863058], [19.1908928, 44.086015], [19.1915381, 44.0860206], [19.1920853, 44.0864599], [19.1925895, 44.0867065], [19.193083, 44.0867142], [19.1934063, 44.0862379], [19.1943096, 44.0863144], [19.1948533, 44.0864676], [19.1951966, 44.0867682], [19.1956901, 44.0873924], [19.1962695, 44.0874001], [19.1964733, 44.0871612], [19.1985869, 44.087115], [19.1989946, 44.0866911], [19.2000353, 44.0861671], [19.200443, 44.0861131], [19.2014695, 44.0849426], [19.2018471, 44.0831312], [19.2024171, 44.0829226], [19.2029643, 44.0810343], [19.2032646, 44.0802781], [19.2041357, 44.0789821], [19.2047775, 44.0784832], [19.2047131, 44.0782828], [19.2043622, 44.0779783], [19.2042947, 44.0769417], [19.2049813, 44.0757008], [19.2055929, 44.0751304], [19.1999713, 44.0723788], [19.1963536, 44.072121], [19.1962695, 44.0675145], [19.1959798, 44.0671984], [19.195894, 44.065487], [19.1961837, 44.0652866], [19.1962159, 44.0648009], [19.195933, 44.0646646], [19.1939091, 44.0638449], [19.193201, 44.0636599], [19.1930723, 44.0631974], [19.1940379, 44.0617634], [19.1944241, 44.0619638], [19.1960764, 44.0618405], [19.1959839, 44.0616194], [19.1958171, 44.0609392], [19.1945884, 44.0559293], [19.1872866, 44.050807], [19.1870112, 44.0482805], [19.1870733, 44.0482155], [19.1866255, 44.0474712], [19.1867155, 44.0474167], [19.1834189, 44.043228], [19.1843176, 44.0408357], [19.1845751, 44.0403421], [19.1848326, 44.0393395], [19.185133, 44.0390927], [19.1851008, 44.0387842], [19.1849613, 44.0386608], [19.1846716, 44.0386608], [19.1841245, 44.0389153], [19.1814208, 44.0391081], [19.1796114, 44.0385707], [19.1787884, 44.036672], [19.1732921, 44.0301695], [19.1662996, 44.0224243], [19.1614419, 44.0161554], [19.1614705, 44.0155765], [19.1620697, 44.010192], [19.1630959, 44.0094226], [19.1634393, 44.0089442], [19.163053, 44.0086819], [19.1629886, 44.0080028], [19.1635465, 44.0076787], [19.1643619, 44.0066601], [19.1646409, 44.0056723], [19.1642976, 44.0053945], [19.1639757, 44.0049778], [19.1637826, 44.0042061], [19.163568, 44.0038048], [19.1622583, 44.0028294], [19.1608325, 44.0022332], [19.1638906, 43.9962394], [19.1662717, 43.9911627], [19.1671213, 43.989079], [19.1681727, 43.9876964], [19.1710729, 43.9838651], [19.1729413, 43.9816714], [19.1739507, 43.9804035], [19.1775796, 43.974951], [19.1798232, 43.971652], [19.1818625, 43.9687858], [19.1837095, 43.9663827], [19.184978, 43.9647878], [19.1854977, 43.9644959], [19.1854977, 43.9638009], [19.1864396, 43.9637975], [19.189048, 43.9628627], [19.1920125, 43.9615641], [19.1941496, 43.9600642], [19.1947245, 43.9599087], [19.195492, 43.9593907], [19.1957009, 43.9594607], [19.1960013, 43.9592136], [19.1960013, 43.9589201], [19.1973493, 43.9579834], [19.1976213, 43.9574836], [19.1984796, 43.9568658], [19.1986103, 43.9563741], [19.2066353, 43.9457034], [19.2128607, 43.9385592], [19.2128901, 43.9385378], [19.2134301, 43.9382186], [19.21353, 43.9383066], [19.2140926, 43.9386093], [19.2144035, 43.9387921], [19.2146377, 43.9389435], [19.2148763, 43.9390869], [19.2150274, 43.9392052], [19.2152028, 43.9393803], [19.2153976, 43.9396883], [19.2156624, 43.9400398], [19.2158376, 43.9402668], [19.2159208, 43.9404181], [19.2160171, 43.9406246], [19.2161397, 43.9409919], [19.2162557, 43.9412694], [19.2164856, 43.9416288], [19.2166235, 43.9418589], [19.216884, 43.9423476], [19.2170285, 43.942532], [19.217451, 43.942967], [19.2179917, 43.9434336], [19.2185149, 43.9438655], [19.2190557, 43.9443652], [19.2193206, 43.9445874], [19.2198854, 43.9450067], [19.2203495, 43.945333], [19.220645, 43.9455142], [19.2210325, 43.9456813], [19.2216104, 43.9458689], [19.2220548, 43.9460407], [19.2222913, 43.9461242], [19.2224774, 43.9462456], [19.2227006, 43.9464615], [19.2228911, 43.9467106], [19.2230246, 43.9468997], [19.223156, 43.947029], [19.223434, 43.9471882], [19.2237668, 43.9473158], [19.2240098, 43.9473899], [19.2241389, 43.9474797], [19.2242637, 43.9476342], [19.2244389, 43.9478155], [19.2250015, 43.9483025], [19.2256867, 43.9489188], [19.2265427, 43.9495208], [19.2274534, 43.9502584], [19.2283838, 43.9508211], [19.2294433, 43.9512466], [19.2298045, 43.9513633], [19.2299206, 43.9513838], [19.2300475, 43.9513806], [19.2302095, 43.9513459], [19.230561, 43.9512632], [19.230886, 43.9511867], [19.231164, 43.95116], [19.2318645, 43.9511489], [19.2323068, 43.9511804], [19.2330292, 43.9511678], [19.2337407, 43.9511174], [19.235203, 43.9509661], [19.2354373, 43.9509645], [19.235746, 43.9510118], [19.2363918, 43.951182], [19.2368559, 43.9512624], [19.237436, 43.9513002], [19.2378147, 43.9512608], [19.238246, 43.9511458], [19.2388261, 43.9510197], [19.2396405, 43.9509141], [19.2403213, 43.9508321], [19.2406716, 43.9508432], [19.240954, 43.950892], [19.2411423, 43.9509109], [19.2413524, 43.9509015], [19.2416283, 43.9508495], [19.2418494, 43.9508306], [19.2420311, 43.9508258], [19.2421756, 43.95084], [19.2423638, 43.95087], [19.2427645, 43.9509551], [19.2432067, 43.9511048], [19.2439182, 43.9514421], [19.2448683, 43.9519086], [19.245236, 43.9520583], [19.2455075, 43.9522726], [19.2457855, 43.9526115], [19.2461796, 43.9528889], [19.2466853, 43.9531993], [19.2473946, 43.9535035], [19.2479397, 43.9537683], [19.249483, 43.9545925], [19.2497219, 43.9547284], [19.2499571, 43.9547941], [19.250245, 43.9548381], [19.2506989, 43.9548556], [19.2512388, 43.9551611], [19.2512629, 43.9551754], [19.2518167, 43.9555204], [19.2518388, 43.9555361], [19.2521389, 43.95578], [19.2521572, 43.9557981], [19.2522319, 43.9558874], [19.2522474, 43.9559068], [19.2525716, 43.9563347], [19.25259, 43.9563525], [19.252968, 43.9566245], [19.2529856, 43.9566426], [19.253031, 43.9567119], [19.2530437, 43.9567325], [19.2532517, 43.9571011], [19.2532646, 43.9571215], [19.2535879, 43.9575805], [19.2536008, 43.9576009], [19.2537206, 43.9578118], [19.25374, 43.9578278], [19.2538716, 43.9578818], [19.2538879, 43.9578984], [19.2539893, 43.958302], [19.2539998, 43.9583229], [19.2541934, 43.9585673], [19.2542093, 43.9585866], [19.2547192, 43.9591773], [19.2547346, 43.9591968], [19.2549739, 43.9595235], [19.2549849, 43.9595443], [19.2550661, 43.9597838], [19.2550754, 43.9598052], [19.2552968, 43.9602201], [19.2553078, 43.9602412], [19.2553855, 43.9603898], [19.2553939, 43.9604114], [19.2554887, 43.9607623], [19.2554895, 43.9607845], [19.2554115, 43.9611635], [19.2553985, 43.9611827], [19.2553437, 43.9612235], [19.2553321, 43.9612428], [19.2552967, 43.9617311], [19.2552936, 43.9617535], [19.2552427, 43.9620089], [19.2552385, 43.9620311], [19.255179, 43.9623458], [19.2551753, 43.9623681], [19.2551283, 43.9627075], [19.2551244, 43.9627298], [19.2550806, 43.9629412], [19.255072, 43.9629626], [19.2549003, 43.9632403], [19.2548884, 43.9632611], [19.2546662, 43.9636782], [19.2546555, 43.9636993], [19.2544629, 43.9641155], [19.2544552, 43.9641372], [19.2543621, 43.9645035], [19.2543562, 43.9645255], [19.254249, 43.9649031], [19.2542476, 43.9649253], [19.2543207, 43.9654134], [19.2543198, 43.9654356], [19.2542536, 43.9657222], [19.2542484, 43.9657444], [19.2542085, 43.9659153], [19.2542, 43.9659368], [19.253973, 43.9663298], [19.2539609, 43.9663505], [19.253791, 43.9666371], [19.2537811, 43.9666584], [19.2536639, 43.9670011], [19.2536554, 43.9670227], [19.2534964, 43.967382], [19.253487, 43.9674034], [19.2534231, 43.9675501], [19.2534105, 43.9675705], [19.2532989, 43.9677051], [19.2532819, 43.9677238], [19.2532265, 43.9677792], [19.2532086, 43.9677977], [19.2529367, 43.9680881], [19.25292, 43.9681071], [19.2526892, 43.9683824], [19.252675, 43.9684024], [19.2524165, 43.9688381], [19.252404, 43.9688587], [19.2521619, 43.9692484], [19.2521489, 43.9692688], [19.2519771, 43.9695362], [19.2519662, 43.9695572], [19.2518324, 43.9698828], [19.2518212, 43.9699038], [19.2516493, 43.9701593], [19.251634, 43.9701788], [19.2513427, 43.9705037], [19.2513272, 43.9705232], [19.2510533, 43.9709072], [19.2510387, 43.9709271], [19.2506833, 43.9713891], [19.2506702, 43.9714095], [19.2506114, 43.9715189], [19.2505982, 43.9715392], [19.2503365, 43.9718785], [19.2503234, 43.9718988], [19.2502076, 43.9721176], [19.2501937, 43.9721375], [19.2496156, 43.9727904], [19.2495958, 43.9728074], [19.2494355, 43.972914], [19.2494146, 43.9729306], [19.2491123, 43.9732219], [19.2490944, 43.9732403], [19.2488713, 43.9734898], [19.2488558, 43.9735092], [19.2486331, 43.9738268], [19.2486149, 43.9738447], [19.2481908, 43.9741427], [19.2481668, 43.974157], [19.2476933, 43.9743932], [19.2476702, 43.9744081], [19.2473683, 43.9746547], [19.2473463, 43.9746706], [19.2470402, 43.9748659], [19.247019, 43.9748822], [19.2467608, 43.9751237], [19.2467423, 43.9751418], [19.2464546, 43.9754284], [19.2464381, 43.9754474], [19.2461014, 43.975902], [19.2460846, 43.9759209], [19.2454511, 43.9765226], [19.2454332, 43.976541], [19.245222, 43.9767791], [19.2452025, 43.9767965], [19.2448875, 43.9770216], [19.2448689, 43.9770394], [19.244478, 43.9775576], [19.2444697, 43.9775787], [19.2444618, 43.9776809], [19.2444543, 43.9777024], [19.2441879, 43.9781057], [19.2441707, 43.9781241], [19.2438257, 43.978398], [19.2438039, 43.978414], [19.243641, 43.9785233], [19.2436191, 43.9785393], [19.2432433, 43.978842], [19.2432205, 43.9788573], [19.2428792, 43.979049], [19.2428551, 43.9790632], [19.2425911, 43.9792277], [19.2425694, 43.9792437], [19.2422608, 43.9795127], [19.2422406, 43.9795298], [19.2418999, 43.9798116], [19.2418799, 43.9798288], [19.2414867, 43.9801788], [19.2414676, 43.9801966], [19.241146, 43.9805111], [19.2411289, 43.9805299], [19.2408996, 43.9808185], [19.2408839, 43.9808379], [19.2406156, 43.9811646], [19.2405986, 43.9811834], [19.2403334, 43.9814501], [19.2403139, 43.9814677], [19.2399109, 43.9817987], [19.2398921, 43.9818166], [19.2397717, 43.98195], [19.2397534, 43.9819682], [19.2395027, 43.9821945], [19.2394852, 43.982213], [19.2391609, 43.9826204], [19.2391451, 43.9826398], [19.2389275, 43.9829052], [19.2389179, 43.9829261], [19.2388566, 43.9833457], [19.238851, 43.9833677], [19.2387294, 43.9836921], [19.2387217, 43.9837139], [19.2386022, 43.9840918], [19.238597, 43.9841139], [19.2385512, 43.9844353], [19.2385496, 43.9844577], [19.2385484, 43.9845388], [19.2385396, 43.9845593], [19.2382782, 43.9848399], [19.2382625, 43.9848593], [19.238026, 43.9852021], [19.2380126, 43.9852224], [19.2378168, 43.9855331], [19.2378079, 43.9855545], [19.2376809, 43.9861384], [19.237673, 43.98616], [19.2375175, 43.9864527], [19.2375042, 43.986473], [19.2372675, 43.9867712], [19.2372534, 43.9867913], [19.2370848, 43.9870627], [19.2370711, 43.9870829], [19.236951, 43.9872473], [19.2369357, 43.9872669], [19.2366336, 43.9876328], [19.2366213, 43.9876533], [19.2364571, 43.9880598], [19.2364499, 43.9880817], [19.2363689, 43.9883898], [19.2363626, 43.988412], [19.2362274, 43.9888623], [19.2362288, 43.9888839], [19.2363754, 43.9892164], [19.236379, 43.9892383], [19.2363341, 43.9896608], [19.236331, 43.9896832], [19.2362892, 43.9899315], [19.2362919, 43.9899534], [19.236421, 43.9902604], [19.2364224, 43.9902823], [19.2363186, 43.9906555], [19.2363133, 43.9906777], [19.2362363, 43.9910567], [19.2362322, 43.991079], [19.2361711, 43.9914198], [19.2361679, 43.9914422], [19.2361416, 43.9917133], [19.2361352, 43.9917352], [19.2359333, 43.9921424], [19.2359217, 43.9921633], [19.2357778, 43.9924011], [19.2357691, 43.9924225], [19.2357694, 43.9924225], [19.235764, 43.9924453], [19.2357018, 43.9927678], [19.2356964, 43.9927899], [19.235592, 43.9931422], [19.2355866, 43.9931643], [19.2355197, 43.9935192], [19.2355155, 43.9935415], [19.2354657, 43.9938135], [19.2354633, 43.9938358], [19.2354521, 43.994175], [19.2354495, 43.9941975], [19.2353759, 43.994542], [19.235373, 43.9945644], [19.2353612, 43.9948619], [19.2353616, 43.9948843], [19.2353887, 43.995307], [19.2353892, 43.9953295], [19.2353826, 43.9956373], [19.2353847, 43.9956597], [19.2354568, 43.9959928], [19.2354618, 43.996015], [19.2355391, 43.9963454], [19.2355408, 43.9963677], [19.2355172, 43.9966984], [19.2355143, 43.9967208], [19.2354504, 43.9970568], [19.235449, 43.9970791], [19.2354729, 43.9974412], [19.2354729, 43.9974637], [19.2354539, 43.9977298], [19.2354542, 43.9977522], [19.2354949, 43.9981864], [19.235498, 43.9982088], [19.2355676, 43.9985887], [19.235571, 43.9986111], [19.2356152, 43.9989938], [19.2356183, 43.9990162], [19.2356662, 43.9993172], [19.2356648, 43.9993394], [19.2355612, 43.9996883], [19.2355631, 43.9997099], [19.2357399, 44.0000766], [19.2357449, 44.0000985], [19.2357419, 44.0004486], [19.2357455, 44.0004708], [19.2358302, 44.0007294], [19.2358314, 44.0007515], [19.2357721, 44.0010275], [19.2357692, 44.0010499], [19.235752, 44.0014411], [19.2357495, 44.0014634], [19.2356681, 44.0019034], [19.235662, 44.0019254], [19.2355924, 44.0021134], [19.2355858, 44.0021354], [19.2355118, 44.0024503], [19.235503, 44.0024717], [19.2354284, 44.0025945], [19.2354248, 44.0026159], [19.2354582, 44.0027492], [19.2354668, 44.0027706], [19.2355381, 44.002895], [19.235541, 44.0029165], [19.2354364, 44.0032852], [19.2354275, 44.0033067], [19.2353487, 44.0034498], [19.2353418, 44.0034715], [19.2353014, 44.0038668], [19.2353004, 44.0038892], [19.2353087, 44.0043232], [19.2353092, 44.0043457], [19.2353152, 44.0046861], [19.2353165, 44.0047086], [19.2353492, 44.005037], [19.2353503, 44.0050595], [19.2353503, 44.0054746], [19.2353448, 44.0054964], [19.2351659, 44.0058297], [19.2351569, 44.0058512], [19.2351323, 44.0059312], [19.2351269, 44.0059533], [19.2350884, 44.0061679], [19.2350859, 44.0061903], [19.2350709, 44.006498], [19.2350704, 44.0065205], [19.2350732, 44.0070307], [19.2350703, 44.007053], [19.2349938, 44.0073435], [19.2349905, 44.0073658], [19.2349819, 44.0077022], [19.2349818, 44.0077247], [19.234988, 44.0081302], [19.2349857, 44.0081527], [19.2349183, 44.0084625], [19.234917, 44.0084849], [19.2349472, 44.0087765], [19.23495, 44.0087989], [19.2349964, 44.0091265], [19.2349965, 44.009149], [19.23496, 44.0094223], [19.2349601, 44.0094447], [19.2350057, 44.0097684], [19.2350085, 44.0097908], [19.2350395, 44.0100778], [19.235041, 44.0101003], [19.2350486, 44.0103658], [19.2350517, 44.0103882], [19.2351164, 44.0106511], [19.2351234, 44.010673], [19.2351376, 44.0107102], [19.2352693, 44.0110393], [19.23528, 44.0110604], [19.235428, 44.0112992], [19.2354389, 44.0113203], [19.2356347, 44.0117785], [19.235647, 44.011799], [19.2358858, 44.0120967], [19.235903, 44.0121154], [19.2361309, 44.0123341], [19.2361514, 44.0123509], [19.2363728, 44.0125094], [19.236394, 44.0125258], [19.2367949, 44.0128619], [19.2368161, 44.0128784], [19.2371821, 44.0131451], [19.2372048, 44.0131605], [19.2377743, 44.0135161], [19.2377982, 44.0135305], [19.2382028, 44.013765], [19.2382276, 44.0137787], [19.2386906, 44.0140235], [19.2387171, 44.0140351], [19.2390703, 44.0141587], [19.2390988, 44.0141678], [19.2395256, 44.0142911], [19.2395544, 44.0142997], [19.2400997, 44.0144689], [19.2401283, 44.014478], [19.2406691, 44.0146548], [19.2406985, 44.0146618], [19.2410723, 44.0147192], [19.2411031, 44.0147225], [19.2416382, 44.0147552], [19.2416692, 44.0147579], [19.2419907, 44.0147945], [19.2420215, 44.0147971], [19.2421679, 44.0148056], [19.242199, 44.0148075], [19.2424982, 44.0148266], [19.2425289, 44.0148251], [19.2429766, 44.0147537], [19.2430075, 44.0147513], [19.2435454, 44.0147538], [19.2435758, 44.0147505], [19.2440938, 44.0146306], [19.2441241, 44.0146259], [19.2446335, 44.0145857], [19.2446645, 44.0145829], [19.2450945, 44.014541], [19.2451255, 44.0145379], [19.2455922, 44.0144922], [19.2456231, 44.0144891], [19.2464121, 44.0144052], [19.2464427, 44.0144012], [19.2469332, 44.0143281], [19.2469633, 44.0143225], [19.2474795, 44.0142109], [19.2475087, 44.014203], [19.2478853, 44.01408], [19.2479143, 44.0140719], [19.2483251, 44.0139744], [19.2483532, 44.013965], [19.2489323, 44.0137087], [19.2489594, 44.0136977], [19.249247, 44.0135912], [19.2492742, 44.0135802], [19.2496379, 44.0134235], [19.2496639, 44.013411], [19.2500359, 44.0132166], [19.2500611, 44.0132031], [19.2504861, 44.0129716], [19.2505101, 44.0129573], [19.2509664, 44.0126617], [19.2509904, 44.0126474], [19.251465, 44.0123877], [19.2514879, 44.0123725], [19.2518217, 44.0121058], [19.2518419, 44.0120888], [19.2521372, 44.0118265], [19.2521564, 44.0118088], [19.2524231, 44.0115526], [19.2524444, 44.0115364], [19.2527208, 44.0113677], [19.2527443, 44.0113528], [19.2531125, 44.0111156], [19.2531323, 44.0110984], [19.2534587, 44.0107124], [19.2534737, 44.0106927], [19.2536882, 44.0103812], [19.2537022, 44.0103611], [19.2538953, 44.0100887], [19.2539107, 44.0100691], [19.2542251, 44.0097115], [19.2542423, 44.0096926], [19.2546661, 44.0092494], [19.2546846, 44.0092313], [19.2548911, 44.0090404], [19.2549108, 44.0090229], [19.2550034, 44.0089441], [19.2550208, 44.0089257], [19.2552319, 44.0086409], [19.2552486, 44.008622], [19.2554957, 44.0083872], [19.2555143, 44.0083691], [19.2558114, 44.0080717], [19.25583, 44.0080536], [19.2561653, 44.0077317], [19.2561821, 44.0077128], [19.2564074, 44.0074155], [19.2564241, 44.0073966], [19.2567564, 44.0070743], [19.2567742, 44.0070557], [19.2568927, 44.0069229], [19.2569103, 44.0069044], [19.2571905, 44.006625], [19.2572089, 44.0066069], [19.2575112, 44.0063128], [19.257519, 44.006305], [19.2575307, 44.0062952], [19.25754, 44.0062883], [19.2578368, 44.006067], [19.2578585, 44.006051], [19.2582257, 44.0057817], [19.2582458, 44.0057647], [19.2585883, 44.0054291], [19.258606, 44.0054107], [19.2590504, 44.004922], [19.2590694, 44.0049043], [19.2595648, 44.0045168], [19.2595858, 44.0045001], [19.2599247, 44.0042267], [19.2599458, 44.0042101], [19.2603378, 44.0039088], [19.2603593, 44.0038926], [19.2606623, 44.0036668], [19.2606867, 44.0036531], [19.261083, 44.0034891], [19.2611081, 44.003476], [19.2614907, 44.0032309], [19.2615156, 44.0032175], [19.2622725, 44.0028715], [19.2622979, 44.0028585], [19.2627206, 44.0026175], [19.2627451, 44.0026036], [19.2631417, 44.0023816], [19.2631673, 44.0023688], [19.263481, 44.0022335], [19.2635061, 44.0022203], [19.2638643, 44.001996], [19.2638873, 44.0019808], [19.264451, 44.0015896], [19.2644749, 44.0015752], [19.2648969, 44.0013546], [19.2649226, 44.0013417], [19.265314, 44.0011532], [19.2653399, 44.0011405], [19.2657421, 44.0009414], [19.2657671, 44.000928], [19.2661771, 44.0006888], [19.2662038, 44.0006777], [19.2666645, 44.0005506], [19.2666924, 44.0005405], [19.2669767, 44.0004127], [19.2670048, 44.0004034], [19.2674923, 44.0002941], [19.2675218, 44.0002868], [19.268039, 44.0001475], [19.2680682, 44.0001399], [19.2684647, 44.0000417], [19.2684949, 44.0000363], [19.2690269, 43.9999779], [19.2690567, 43.9999719], [19.2697682, 43.9997593], [19.2697971, 43.9997507], [19.2703188, 43.9995972], [19.2703483, 43.9995901], [19.2707609, 43.9995138], [19.2707911, 43.999508], [19.271321, 43.9994007], [19.2713507, 43.9993938], [19.271839, 43.9992655], [19.2718689, 43.9992596], [19.2723968, 43.9991864], [19.2724263, 43.9991799], [19.2728067, 43.9990603], [19.272836, 43.999053], [19.2733768, 43.9989528], [19.2734071, 43.9989478], [19.2742591, 43.9988266], [19.2742896, 43.9988217], [19.2748023, 43.9987313], [19.2748329, 43.9987271], [19.2756029, 43.9986506], [19.2756333, 43.9986458], [19.2760292, 43.9985561], [19.2760573, 43.9985469], [19.2763999, 43.9983959], [19.2764284, 43.9983875], [19.2769201, 43.9983052], [19.27695, 43.9982989], [19.2777827, 43.9980902], [19.277812, 43.9980826], [19.2783044, 43.9979498], [19.2783336, 43.9979419], [19.2786445, 43.997855], [19.2786746, 43.9978495], [19.2792294, 43.9977954], [19.2792596, 43.9977901], [19.2797541, 43.997665], [19.2797843, 43.9976613], [19.2805035, 43.9976602], [19.2805345, 43.9976584], [19.2812826, 43.9975718], [19.2813135, 43.9975689], [19.2818538, 43.9975271], [19.2818848, 43.9975245], [19.2824125, 43.9974758], [19.2824432, 43.9974721], [19.2829585, 43.9973973], [19.282989, 43.9973929], [19.283267, 43.9973532], [19.2832974, 43.9973487], [19.2839591, 43.9972443], [19.2839899, 43.9972407], [19.2845333, 43.9972004], [19.2845643, 43.9971995], [19.2850813, 43.997208], [19.2851125, 43.9972078], [19.2858777, 43.9971858], [19.2859087, 43.9971839], [19.286544, 43.997124], [19.2865748, 43.997121], [19.2872578, 43.9970557], [19.2872887, 43.9970528], [19.2880517, 43.9969851], [19.2880826, 43.9969853], [19.2886063, 43.9970376], [19.2886373, 43.9970403], [19.2895567, 43.9971079], [19.2895872, 43.9971121], [19.2905353, 43.9973033], [19.2905658, 43.9973072], [19.2913654, 43.997355], [19.2913963, 43.9973572], [19.2921607, 43.9974192], [19.2921918, 43.997421], [19.2927773, 43.997442], [19.2928081, 43.9974446], [19.2937221, 43.9975708], [19.2937527, 43.9975751], [19.2943762, 43.9976665], [19.2944069, 43.9976674], [19.2949711, 43.9976197], [19.2950022, 43.9976179], [19.2955152, 43.9976016], [19.2955464, 43.9976019], [19.2961909, 43.9976381], [19.296222, 43.9976395], [19.2970553, 43.9976719], [19.2970865, 43.9976723], [19.2981274, 43.9976549], [19.2981584, 43.9976556], [19.298931, 43.9977046], [19.2989621, 43.9977062], [19.2994937, 43.9977311], [19.2995246, 43.9977302], [19.300568, 43.9976219], [19.300599, 43.9976202], [19.3011275, 43.9976175], [19.3011586, 43.9976172], [19.3019312, 43.9976107], [19.3019624, 43.9976105], [19.302402, 43.9976113], [19.3024331, 43.9976122], [19.3029599, 43.9976391], [19.302991, 43.99764], [19.3035216, 43.9976438], [19.3035526, 43.9976421], [19.3040165, 43.997588], [19.3040471, 43.9975835], [19.3044989, 43.997503], [19.3045283, 43.9974958], [19.3050107, 43.9973401], [19.305039, 43.9973309], [19.3056168, 43.997142], [19.3056456, 43.9971335], [19.3063755, 43.9969382], [19.3064049, 43.9969306], [19.3069137, 43.9968049], [19.3069431, 43.9967974], [19.3074771, 43.9966565], [19.3075062, 43.9966485], [19.3083905, 43.9963912], [19.3084196, 43.9963831], [19.3089177, 43.9962514], [19.3089469, 43.9962435], [19.3098195, 43.9960027], [19.3098485, 43.9959945], [19.3101425, 43.9959108], [19.3101712, 43.9959021], [19.3102372, 43.9958809], [19.310265, 43.9958707], [19.3107235, 43.9956844], [19.3107505, 43.9956733], [19.3113828, 43.995409], [19.3114094, 43.9953973], [19.3117741, 43.9952316], [19.3118001, 43.9952191], [19.3122235, 43.9950072], [19.3122502, 43.9949957], [19.3126248, 43.9948574], [19.3126513, 43.9948457], [19.3130833, 43.9946194], [19.3131088, 43.9946065], [19.3135485, 43.9943938], [19.3135742, 43.994381], [19.3140171, 43.9941524], [19.3140427, 43.9941395], [19.314701, 43.993819], [19.3147275, 43.9938072], [19.3149808, 43.9937025], [19.3150059, 43.9936893], [19.3150544, 43.9936571], [19.315078, 43.9936425], [19.3151719, 43.9935883], [19.3151973, 43.9935754], [19.3156445, 43.9933772], [19.3156703, 43.9933647], [19.316054, 43.9931601], [19.3160789, 43.9931465], [19.3163571, 43.9929896], [19.3163813, 43.9929755], [19.3167851, 43.9927305], [19.3168079, 43.9927153], [19.3171849, 43.992439], [19.3172083, 43.9924242], [19.3176114, 43.9922068], [19.3176356, 43.9921928], [19.3182501, 43.9918091], [19.3182745, 43.991795], [19.3187252, 43.9915551], [19.3187498, 43.9915413], [19.3191179, 43.9913265], [19.3191409, 43.9913114], [19.3194548, 43.9910788], [19.3194788, 43.9910647], [19.3199232, 43.9908593], [19.3199488, 43.9908466], [19.32037, 43.990624], [19.3203946, 43.9906102], [19.3208108, 43.9903651], [19.3208331, 43.9903496], [19.3213417, 43.9899364], [19.3213628, 43.9899198], [19.3217296, 43.9896465], [19.3217538, 43.9896326], [19.3221592, 43.9894562], [19.3221847, 43.9894434], [19.3227939, 43.9890933], [19.3228191, 43.9890802], [19.323269, 43.9888715], [19.3232948, 43.9888589], [19.3237206, 43.9886362], [19.3237472, 43.9886246], [19.3241849, 43.9884719], [19.324213, 43.9884621], [19.3249029, 43.9882238], [19.3249285, 43.9882114], [19.3254235, 43.9878933], [19.3254475, 43.9878789], [19.325866, 43.9876459], [19.3258915, 43.9876329], [19.3262815, 43.9874523], [19.3263046, 43.9874377], [19.3270091, 43.9868332], [19.3270296, 43.9868164], [19.3275124, 43.9864408], [19.3275351, 43.9864254], [19.327944, 43.9861842], [19.3279686, 43.9861704], [19.3282589, 43.9860149], [19.3282838, 43.9860013], [19.3287205, 43.9857614], [19.328745, 43.9857475], [19.3291298, 43.985522], [19.3291552, 43.985509], [19.3295305, 43.9853423], [19.3295544, 43.9853282], [19.3297276, 43.9851968], [19.32975, 43.9851812], [19.3302401, 43.9848648], [19.3302625, 43.9848492], [19.3306373, 43.984568], [19.3306578, 43.984551], [19.3309331, 43.9842995], [19.3309549, 43.9842838], [19.3312667, 43.9841071], [19.3312906, 43.9840926], [19.3317038, 43.9838259], [19.3317274, 43.9838111], [19.3321303, 43.9835644], [19.3321529, 43.9835489], [19.3323798, 43.9833758], [19.3324044, 43.9833626], [19.3328862, 43.9831863], [19.3329142, 43.9831765], [19.3336047, 43.9829419], [19.3336311, 43.9829303], [19.3341517, 43.982641], [19.3342594, 43.9825918], [19.3351293, 43.9823484], [19.3356528, 43.9821688], [19.3372718, 43.9818906], [19.3379322, 43.9817863], [19.3387941, 43.9817225], [19.3396639, 43.9816935], [19.3406949, 43.9817341], [19.34146, 43.9817979], [19.3431112, 43.9815834], [19.3448348, 43.9814385], [19.3453261, 43.9815892], [19.3462927, 43.981653], [19.3500702, 43.9822557], [19.3519629, 43.9821456], [19.3537752, 43.9818964], [19.3554344, 43.9815892], [19.3566184, 43.9812878], [19.3576493, 43.9808995], [19.3583178, 43.9802388], [19.3583984, 43.9799664], [19.3583581, 43.9793057], [19.3580843, 43.978645], [19.3571983, 43.9782219], [19.3568278, 43.9777176], [19.3568439, 43.976825], [19.3574721, 43.9756716], [19.3584306, 43.9746746], [19.3595904, 43.9737414], [19.3609919, 43.972843], [19.3620148, 43.9720257], [19.3643989, 43.9708084], [19.3696504, 43.9690751], [19.3699007, 43.9690456], [19.3700886, 43.9690046], [19.3703278, 43.9690087], [19.3708518, 43.9688898], [19.3712448, 43.9688037], [19.3718656, 43.9685332], [19.3720193, 43.9684307], [19.3722984, 43.9683364], [19.3727142, 43.9680864], [19.3730388, 43.9678814], [19.373819, 43.9673773], [19.3746961, 43.9669427], [19.3754251, 43.9666394], [19.3762794, 43.9660573], [19.376866, 43.9653482], [19.3772021, 43.9645242], [19.3772419, 43.9641143], [19.3774697, 43.9635199], [19.3778171, 43.9630812], [19.3783753, 43.9627451], [19.3787968, 43.9625078], [19.3796989, 43.9621716], [19.3801661, 43.962073], [19.3811567, 43.9619745], [19.382228, 43.9617136], [19.3840322, 43.9614353], [19.3852484, 43.9610932], [19.38578, 43.9609715], [19.3869156, 43.9606642], [19.3871895, 43.9605657], [19.3876808, 43.9604729], [19.3886634, 43.9602642], [19.3896783, 43.9601888], [19.3905642, 43.960154], [19.3913291, 43.9603452], [19.3922154, 43.9603743], [19.3934558, 43.9605888], [19.3949136, 43.961128], [19.3957352, 43.9615686], [19.3964681, 43.9622701], [19.3971044, 43.9627513], [19.3976118, 43.9640905], [19.3978132, 43.9644732], [19.3979984, 43.9649659], [19.3993757, 43.9668326], [19.4002053, 43.9675225], [19.4009463, 43.9679978], [19.4011557, 43.9680558], [19.4012846, 43.9681717], [19.4017759, 43.9682993], [19.402372, 43.9684848], [19.4027586, 43.9685601], [19.4029277, 43.9686355], [19.4036123, 43.9686355], [19.4038942, 43.9685891], [19.4040231, 43.9685485], [19.4047158, 43.9685195], [19.4051024, 43.9685543], [19.4054085, 43.9685195], [19.4055293, 43.9685659], [19.4056662, 43.9685079], [19.4061333, 43.9684906], [19.4066327, 43.9684268], [19.4071643, 43.9683224], [19.4075348, 43.9681543], [19.4078248, 43.9679514], [19.4080745, 43.9676558], [19.4083644, 43.9671225], [19.4086624, 43.9665428], [19.4091618, 43.9659341], [19.4095806, 43.9654819], [19.4104226, 43.9649632], [19.4105047, 43.9649126], [19.4112477, 43.9644549], [19.4122627, 43.9638297], [19.4141716, 43.9630992], [19.4160402, 43.9620846], [19.4174497, 43.9611976], [19.4182391, 43.9607802], [19.419858, 43.9599917], [19.4213722, 43.9594641], [19.4227576, 43.959151], [19.4242879, 43.9588843], [19.4256652, 43.9587741], [19.4261968, 43.9587394], [19.4266801, 43.9586988], [19.427069, 43.9587328], [19.4274645, 43.9586495], [19.427495, 43.9586454], [19.4278831, 43.9586223], [19.427914, 43.9586204], [19.4281054, 43.9586076], [19.4281353, 43.9586022], [19.4286005, 43.9584601], [19.4286299, 43.9584529], [19.429017, 43.9583809], [19.4290477, 43.958377], [19.4296861, 43.9583326], [19.4297165, 43.9583283], [19.4299855, 43.9582696], [19.4300159, 43.9582652], [19.4305019, 43.9582308], [19.4305329, 43.9582283], [19.430819, 43.9582029], [19.4308498, 43.9581995], [19.4309562, 43.9581857], [19.430986, 43.9581799], [19.4313932, 43.9580721], [19.4314228, 43.9580653], [19.4317534, 43.958001], [19.431784, 43.9579964], [19.4323162, 43.9579405], [19.4323467, 43.9579367], [19.4326462, 43.957891], [19.4326769, 43.9578873], [19.4329702, 43.957862], [19.4330012, 43.9578613], [19.4334174, 43.9578801], [19.4334484, 43.9578826], [19.433863, 43.9579302], [19.4338938, 43.9579304], [19.4342223, 43.9578981], [19.4342532, 43.9578978], [19.4344125, 43.9579102], [19.4344435, 43.9579123], [19.4347894, 43.95793], [19.4348201, 43.9579329], [19.4351015, 43.9579729], [19.4351322, 43.9579765], [19.4358459, 43.9580463], [19.4358765, 43.9580502], [19.4364717, 43.9581416], [19.4365022, 43.958146], [19.4369529, 43.9582074], [19.4369816, 43.9582152], [19.4370816, 43.9582579], [19.4371106, 43.9582635], [19.4377907, 43.9582592], [19.4378214, 43.9582618], [19.4381568, 43.9583217], [19.438187, 43.9583272], [19.4385404, 43.9583921], [19.4385695, 43.9583997], [19.4388741, 43.9585056], [19.4389036, 43.9585112], [19.4395089, 43.9585386], [19.4395392, 43.958543], [19.4400012, 43.9586585], [19.4400312, 43.9586645], [19.4403046, 43.9587062], [19.4403348, 43.9587113], [19.4409657, 43.9588289], [19.4409953, 43.9588357], [19.4414885, 43.9589723], [19.4415182, 43.958979], [19.4420596, 43.959076], [19.4420902, 43.9590799], [19.4422708, 43.959094], [19.4423015, 43.9590976], [19.4424843, 43.9591274], [19.4425148, 43.9591319], [19.4430938, 43.9592081], [19.4431245, 43.9592117], [19.4432325, 43.9592233], [19.4432633, 43.9592267], [19.4436867, 43.9592739], [19.4437165, 43.9592798], [19.4439624, 43.9593494], [19.4439923, 43.9593547], [19.4444207, 43.9593881], [19.4444518, 43.9593896], [19.4448378, 43.9593945], [19.4448687, 43.9593967], [19.4452507, 43.9594487], [19.4452817, 43.9594506], [19.445447, 43.9594493], [19.445478, 43.9594501], [19.4459714, 43.9594836], [19.4460022, 43.959487], [19.4464179, 43.9595506], [19.4464488, 43.9595537], [19.4466453, 43.9595637], [19.4466763, 43.9595649], [19.4470968, 43.959578], [19.447128, 43.9595779], [19.4473999, 43.9595677], [19.447431, 43.9595668], [19.4478435, 43.95956], [19.4478747, 43.9595604], [19.4482911, 43.9595787], [19.4483219, 43.9595778], [19.4487602, 43.9595335], [19.4487911, 43.9595301], [19.4490819, 43.9594937], [19.4491127, 43.9594907], [19.4495129, 43.959464], [19.4495431, 43.9594592], [19.4496241, 43.9594387], [19.4496544, 43.9594343], [19.4501683, 43.9594115], [19.4501993, 43.9594095], [19.4505641, 43.9593776], [19.4505951, 43.959375], [19.4511472, 43.9593307], [19.4511782, 43.9593291], [19.4515838, 43.9593195], [19.451615, 43.9593187], [19.4520778, 43.9593058], [19.452109, 43.959306], [19.4521893, 43.9593093], [19.4522179, 43.9593161], [19.4524063, 43.9594038], [19.4524345, 43.9594075], [19.4525782, 43.9593843], [19.4526089, 43.9593825], [19.4528636, 43.959392], [19.4528946, 43.9593919], [19.4531851, 43.9593785], [19.4532162, 43.9593781], [19.4535557, 43.9593848], [19.4535869, 43.959385], [19.4540108, 43.9593843], [19.4540419, 43.9593844], [19.4545305, 43.9593897], [19.4545616, 43.9593895], [19.4549477, 43.9593812], [19.4549789, 43.9593815], [19.4554415, 43.9594008], [19.4554724, 43.9593992], [19.4557679, 43.9593552], [19.4557987, 43.9593533], [19.4562133, 43.9593657], [19.4562435, 43.9593625], [19.4563094, 43.959346], [19.4563396, 43.9593419], [19.4568331, 43.9593273], [19.456864, 43.9593254], [19.4572119, 43.9592917], [19.4572426, 43.9592881], [19.4574493, 43.9592603], [19.4574802, 43.9592592], [19.4578549, 43.9592824], [19.4578859, 43.9592821], [19.4585108, 43.9592316], [19.4585416, 43.9592283], [19.4591721, 43.9591463], [19.4592026, 43.9591421], [19.4596559, 43.959077], [19.459686, 43.9590715], [19.4598521, 43.959035], [19.4598824, 43.9590302], [19.4603479, 43.9589862], [19.4603784, 43.9589818], [19.4606988, 43.9589196], [19.4607289, 43.9589139], [19.4611338, 43.9588387], [19.4611641, 43.9588335], [19.4613131, 43.9588108], [19.4613427, 43.9588042], [19.4616938, 43.9587012], [19.4617229, 43.9586931], [19.4618441, 43.9586616], [19.4621587, 43.9585799], [19.462188, 43.9585726], [19.4623264, 43.95854], [19.4623559, 43.9585328], [19.4626954, 43.9584467], [19.4627245, 43.9584385], [19.463242, 43.9582773], [19.4632713, 43.9582696], [19.4638353, 43.9581463], [19.4638653, 43.9581403], [19.464322, 43.9580558], [19.4643527, 43.9580531], [19.4649824, 43.9580555], [19.4650129, 43.9580523], [19.46538, 43.9579687], [19.4654101, 43.9579633], [19.4659841, 43.9578883], [19.4660148, 43.9578846], [19.4665169, 43.9578288], [19.4665471, 43.9578236], [19.4671864, 43.95767], [19.4672164, 43.957664], [19.467702, 43.9575877], [19.4677322, 43.9575827], [19.468331, 43.9574816], [19.4683606, 43.9574748], [19.4685763, 43.9574122], [19.4686061, 43.957406], [19.469192, 43.9573305], [19.4692224, 43.9573259], [19.4697258, 43.9572393], [19.4697562, 43.9572345], [19.470324, 43.957154], [19.4703544, 43.9571494], [19.4709394, 43.9570565], [19.4709701, 43.9570533], [19.4715862, 43.957021], [19.4716173, 43.9570193], [19.4719383, 43.957002], [19.4719687, 43.9569979], [19.4725687, 43.9568612], [19.4725991, 43.9568567], [19.4732424, 43.9568121], [19.4732735, 43.9568104], [19.4737174, 43.9567929], [19.4737481, 43.9567897], [19.4743476, 43.9566847], [19.4743779, 43.9566796], [19.4749821, 43.9565784], [19.4750123, 43.9565733], [19.4753924, 43.9565087], [19.4754231, 43.9565056], [19.4759944, 43.9564865], [19.4760254, 43.9564843], [19.4767013, 43.956412], [19.4767322, 43.9564099], [19.4773796, 43.9563931], [19.4774106, 43.9563911], [19.477857, 43.9563442], [19.477888, 43.9563418], [19.4784604, 43.9563129], [19.4784914, 43.9563106], [19.4790409, 43.9562566], [19.4790711, 43.9562516], [19.4793855, 43.9561777], [19.4794156, 43.9561722], [19.4802795, 43.9560553], [19.4803103, 43.956052], [19.4807079, 43.9560209], [19.4807389, 43.9560189], [19.480879, 43.9560119], [19.4809097, 43.9560088], [19.4815162, 43.955915], [19.4815469, 43.9559111], [19.4821417, 43.9558499], [19.4821725, 43.9558467], [19.4824156, 43.9558219], [19.4824464, 43.955819], [19.4827425, 43.9557935], [19.4827735, 43.9557925], [19.4831411, 43.9558], [19.4831722, 43.9557993], [19.4836156, 43.9557669], [19.4836464, 43.9557637], [19.4840091, 43.9557165], [19.4840399, 43.9557143], [19.4844373, 43.9557102], [19.4844683, 43.9557087], [19.4848539, 43.955677], [19.4848849, 43.9556768], [19.4850474, 43.9556888], [19.4850776, 43.9556861], [19.4853035, 43.9556267], [19.4853337, 43.9556224], [19.4860023, 43.9555985], [19.486033, 43.9555952], [19.4863218, 43.9555442], [19.4863521, 43.955539], [19.486458, 43.9555219], [19.4864888, 43.9555187], [19.4869515, 43.9554963], [19.4869826, 43.9554958], [19.4876059, 43.9555039], [19.4885376, 43.9555157], [19.4899713, 43.9555273], [19.4910425, 43.9554577], [19.4919366, 43.9554519], [19.4932575, 43.9554345], [19.494071, 43.9554983], [19.4948362, 43.9555099], [19.4961329, 43.9554403], [19.497047, 43.9554305], [19.4972766, 43.9554287], [19.5002459, 43.9553961], [19.5041415, 43.9554453], [19.5092673, 43.9556093], [19.5139374, 43.9557241], [19.5180836, 43.9558061], [19.520932, 43.9559371], [19.5216429, 43.9559534], [19.5216741, 43.9559535], [19.5218757, 43.9559497], [19.522101, 43.9559455], [19.522132, 43.9559439], [19.5228793, 43.9558827], [19.5229102, 43.9558802], [19.5236917, 43.9558154], [19.5237226, 43.9558159], [19.5242941, 43.9558823], [19.5243249, 43.9558855], [19.5249463, 43.9559396], [19.524977, 43.9559433], [19.5255025, 43.956028], [19.5255333, 43.9560311], [19.5260992, 43.9560564], [19.5261298, 43.9560601], [19.5265477, 43.9561453], [19.5265773, 43.9561522], [19.5269648, 43.9562554], [19.5269927, 43.9562652], [19.5275308, 43.956505], [19.5275581, 43.9565156], [19.5281316, 43.9567077], [19.5281574, 43.9567199], [19.5286438, 43.9570294], [19.5286662, 43.9570451], [19.5290182, 43.9573201], [19.5290369, 43.957338], [19.5293562, 43.9577192], [19.5293721, 43.9577385], [19.5297182, 43.958165], [19.5297278, 43.9581859], [19.5297835, 43.9585467], [19.5297887, 43.9585689], [19.5298983, 43.9589184], [19.5299075, 43.9589398], [19.5301321, 43.9593502], [19.5301398, 43.9593718], [19.5301831, 43.9596164], [19.5301888, 43.9596385], [19.5302714, 43.9598833], [19.5302786, 43.9599051], [19.5303981, 43.9602811], [19.5304055, 43.960303], [19.5305032, 43.9605794], [19.5305121, 43.960601], [19.5306594, 43.9609188], [19.5306683, 43.9609404], [19.5308265, 43.9613764], [19.5308355, 43.9613979], [19.5310514, 43.9618478], [19.5310622, 43.9618689], [19.5312907, 43.9622827], [19.5313024, 43.9623036], [19.5315618, 43.9627555], [19.5315732, 43.9627764], [19.5318212, 43.9632497], [19.531834, 43.9632702], [19.5321091, 43.9636521], [19.5321218, 43.9636726], [19.5322328, 43.9638823], [19.5323157, 43.9640392], [19.5323265, 43.9640603], [19.5325469, 43.9645058], [19.5325608, 43.9645257], [19.5328694, 43.9648622], [19.532884, 43.964882], [19.5331184, 43.9652846], [19.5331286, 43.9653058], [19.5332146, 43.9655347], [19.533226, 43.9655555], [19.533414, 43.9658139], [19.5334301, 43.965833], [19.5336303, 43.9660365], [19.5336465, 43.9660556], [19.5338961, 43.9664075], [19.5339102, 43.9664276], [19.5341156, 43.9667231], [19.5341282, 43.9667436], [19.5342646, 43.9669937], [19.5342766, 43.9670145], [19.5344488, 43.9673012], [19.5344621, 43.9673215], [19.534718, 43.9676792], [19.5347307, 43.9676997], [19.5349105, 43.968033], [19.5349237, 43.9680534], [19.5351589, 43.9683649], [19.5351726, 43.968385], [19.5354224, 43.9687959], [19.5354366, 43.9688159], [19.5356242, 43.9690416], [19.535639, 43.9690615], [19.5358051, 43.969313], [19.535818, 43.9693334], [19.5360254, 43.9696823], [19.5360389, 43.9697025], [19.536299, 43.9700497], [19.5363123, 43.97007], [19.5364224, 43.970265], [19.536437, 43.9702847], [19.536523, 43.970377], [19.5365368, 43.9703971], [19.536722, 43.9707993], [19.5367339, 43.9708202], [19.5371267, 43.9713965], [19.537141, 43.9714165], [19.5375951, 43.972016], [19.5376103, 43.9720356], [19.5379528, 43.9724722], [19.5379686, 43.9724916], [19.5381664, 43.972723], [19.5381836, 43.9727417], [19.5385889, 43.97316], [19.5386068, 43.9731785], [19.5389218, 43.973501], [19.5389419, 43.9735181], [19.5395995, 43.9739866], [19.5396233, 43.974001], [19.5401059, 43.9742453], [19.540132, 43.9742575], [19.540702, 43.974504], [19.5407278, 43.9745165], [19.5413213, 43.9748368], [19.5413462, 43.9748503], [19.5418156, 43.9751013], [19.541841, 43.9751144], [19.5418797, 43.9751338], [19.5419038, 43.9751479], [19.5422272, 43.9753731], [19.5422502, 43.9753883], [19.5428605, 43.9757727], [19.5428819, 43.9757889], [19.5431464, 43.9760338], [19.5431669, 43.9760507], [19.5436393, 43.9764021], [19.5436617, 43.9764178], [19.5439425, 43.9766057], [19.5439655, 43.9766209], [19.5443544, 43.9768752], [19.5443771, 43.9768907], [19.5447703, 43.9771662], [19.5447929, 43.9771818], [19.5452031, 43.97746], [19.5452262, 43.9774751], [19.5456548, 43.9777478], [19.5456785, 43.9777624], [19.5462339, 43.9780929], [19.5462575, 43.9781076], [19.5466165, 43.9783395], [19.5466408, 43.9783535], [19.5471266, 43.9786072], [19.5471518, 43.9786205], [19.5476306, 43.9788752], [19.5476559, 43.9788884], [19.5481031, 43.9791162], [19.5481294, 43.9791282], [19.5486553, 43.9793411], [19.5486819, 43.9793527], [19.5491729, 43.9795856], [19.5491992, 43.9795975], [19.5499855, 43.9799354], [19.5500124, 43.9799467], [19.5504361, 43.9801234], [19.5504635, 43.9801341], [19.5509821, 43.9803231], [19.5510099, 43.9803332], [19.5515442, 43.9805209], [19.5515726, 43.9805301], [19.552064, 43.9806785], [19.5520933, 43.9806861], [19.5531015, 43.9808995], [19.5531313, 43.9809059], [19.5537282, 43.981039], [19.5537582, 43.9810451], [19.5543393, 43.9811506], [19.554369, 43.9811572], [19.5551719, 43.9813701], [19.5552019, 43.9813758], [19.5557792, 43.9814447], [19.5558094, 43.9814499], [19.5562358, 43.9815453], [19.5562657, 43.9815518], [19.556839, 43.9816724], [19.5568692, 43.9816779], [19.5574589, 43.9817693], [19.5574894, 43.9817742], [19.5579948, 43.9818577], [19.5580251, 43.981863], [19.5582909, 43.9819123], [19.558801, 43.9820043], [19.5592387, 43.9820503], [19.5595488, 43.9820605], [19.5600176, 43.9822122], [19.5605716, 43.9823452], [19.5609624, 43.9824221], [19.5624389, 43.9827089], [19.563016, 43.9828115], [19.5635319, 43.9828738], [19.563616, 43.9828866], [19.5636454, 43.9828935], [19.5641625, 43.9830735], [19.564191, 43.9830828], [19.5649024, 43.9832989], [19.5649307, 43.9833084], [19.5656114, 43.9835604], [19.5656379, 43.9835721], [19.5656941, 43.9836015], [19.5657184, 43.9836156], [19.5661467, 43.9838863], [19.5661678, 43.9839027], [19.5665186, 43.984243], [19.566534, 43.9842624], [19.5666853, 43.984519], [19.5666995, 43.984539], [19.5669183, 43.9848046], [19.5669332, 43.9848243], [19.567272, 43.9853054], [19.567281, 43.9853266], [19.5672962, 43.9854097], [19.5673004, 43.9854319], [19.5673711, 43.9857861], [19.5673778, 43.985808], [19.5674796, 43.9860534], [19.5674853, 43.9860754], [19.5675046, 43.9862476], [19.5675071, 43.9862701], [19.5675404, 43.9865784], [19.5675439, 43.9866008], [19.5675922, 43.9868465], [19.5675979, 43.9868687], [19.567706, 43.9872087], [19.5677114, 43.9872307], [19.5677837, 43.9876505], [19.5677862, 43.987673], [19.5678187, 43.9882917], [19.5678184, 43.9883141], [19.5677698, 43.9888713], [19.567765, 43.9888934], [19.5675923, 43.9893746], [19.5673665, 43.9898461], [19.5671893, 43.9902514], [19.5670672, 43.9904916], [19.5669585, 43.9907044], [19.5666963, 43.9910637], [19.5662632, 43.991376], [19.5660413, 43.9917162], [19.565843, 43.9920706], [19.5655993, 43.9925234], [19.5653713, 43.9929222], [19.5651608, 43.9932546], [19.5647462, 43.9938514], [19.5644708, 43.9942371], [19.564069, 43.9946925], [19.5639212, 43.9949689], [19.5637636, 43.9952643], [19.5637132, 43.9953684], [19.5635576, 43.9958028], [19.5634385, 43.9961765], [19.5632618, 43.9967568], [19.5632151, 43.9969772], [19.5631428, 43.9971997], [19.5630428, 43.997637], [19.5630793, 43.9980416], [19.5631705, 43.9982948], [19.5633645, 43.9987162], [19.5638948, 43.9990774], [19.5642846, 43.9992459], [19.5647298, 43.9995012], [19.5658851, 43.9998578], [19.5665377, 44.0001352], [19.566851, 44.0002682], [19.5673927, 44.0003891], [19.5679394, 44.0004831], [19.5690254, 44.0004966], [19.5699639, 44.000608], [19.5708468, 44.000758], [19.571671, 44.0009083], [19.5725895, 44.0010732], [19.5736137, 44.0012665], [19.5745607, 44.0014442], [19.5752833, 44.0015705], [19.5761106, 44.0017104], [19.5772736, 44.0019302], [19.5784094, 44.0021456], [19.5796052, 44.0023772], [19.5805254, 44.0025359], [19.5813783, 44.0026834], [19.5822396, 44.0027801], [19.58279, 44.0028409], [19.5837059, 44.002875], [19.5849878, 44.0029947], [19.5855454, 44.0029943], [19.5865513, 44.0029932], [19.5874347, 44.0030082], [19.5883229, 44.003126], [19.5895383, 44.0034999], [19.590661, 44.0039089], [19.5913984, 44.0045062], [19.5917597, 44.0047875], [19.5919291, 44.0049742], [19.5921233, 44.0051457], [19.5924095, 44.0054406], [19.5926376, 44.0058262], [19.5929521, 44.0062024], [19.593303, 44.0064909], [19.5936624, 44.0068532], [19.5940506, 44.0072095], [19.5944315, 44.0075752], [19.5948214, 44.0079192], [19.5951684, 44.0081972], [19.5956957, 44.0085035], [19.5961477, 44.0087839], [19.5965668, 44.0091064], [19.5971486, 44.0094236], [19.5975972, 44.0096563], [19.5983294, 44.0099952], [19.5988623, 44.0101895], [19.5994419, 44.0103604], [19.5999549, 44.0104849], [19.6005844, 44.0106036], [19.6009235, 44.0106077], [19.601336, 44.0106667], [19.6021558, 44.0107597], [19.6027765, 44.0108306], [19.6033655, 44.0109633], [19.6039589, 44.0110908], [19.6045504, 44.0112412], [19.6051496, 44.0113719], [19.605738, 44.0114694], [19.6069543, 44.0116916], [19.6075778, 44.0117646], [19.6086469, 44.011956], [19.6094845, 44.0120885], [19.6100887, 44.0121841], [19.611004, 44.0123165], [19.6113906, 44.0123762], [19.612697, 44.0124947], [19.6139468, 44.012707], [19.6151296, 44.0128893], [19.6156777, 44.0129903], [19.6164805, 44.0131401], [19.6175798, 44.0134521], [19.618258, 44.0137134], [19.6189041, 44.0144937], [19.6195298, 44.015065], [19.6198918, 44.0152829], [19.6202587, 44.0155686], [19.620583, 44.0159517], [19.6207566, 44.0161334], [19.6209944, 44.0164806], [19.6212799, 44.0169309], [19.6215051, 44.017405], [19.6216811, 44.0178366], [19.6219045, 44.0182429], [19.6221828, 44.018796], [19.6222745, 44.0190292], [19.6223912, 44.0193643], [19.62247, 44.0198041], [19.6225023, 44.0202269], [19.6224757, 44.0206781], [19.6225401, 44.0211718], [19.6222076, 44.0211831], [19.6219566, 44.022482], [19.6220363, 44.022654], [19.621649, 44.0233829], [19.6183343, 44.0280022], [19.6159765, 44.0307212], [19.6147805, 44.0324], [19.614385, 44.0331251], [19.6141329, 44.0339255], [19.6139391, 44.0344186], [19.6139263, 44.0344964], [19.611352, 44.0343124], [19.6100622, 44.0347802], [19.6083287, 44.0348396], [19.6078004, 44.0350473], [19.6077757, 44.0352787], [19.6064797, 44.0354033], [19.6062981, 44.0356882], [19.6058524, 44.0357594], [19.6055222, 44.0360027], [19.6054892, 44.0362697], [19.6048783, 44.0366733], [19.6045399, 44.0367504], [19.6042756, 44.0365606], [19.6032109, 44.0367741], [19.6025836, 44.0372607], [19.6023194, 44.037777], [19.601915, 44.0378007], [19.6016591, 44.0375396], [19.6008254, 44.038222], [19.6003961, 44.0384297], [19.5984783, 44.0382993], [19.5961286, 44.0388036], [19.5921024, 44.0396151], [19.591032, 44.0390586], [19.5908651, 44.0381004], [19.5904463, 44.0354394], [19.5901701, 44.0325097], [19.5897347, 44.0281598], [19.5848403, 44.0274657], [19.5797399, 44.0267286], [19.5773922, 44.0262969], [19.5743676, 44.0273102], [19.570276, 44.0284779], [19.5666223, 44.0287077], [19.5592784, 44.0290039], [19.5537549, 44.028982], [19.5498449, 44.0292525], [19.5439112, 44.0292219], [19.5399682, 44.0293044], [19.5383199, 44.0334617], [19.5337914, 44.0310648], [19.5280654, 44.0281218], [19.5275232, 44.0282361], [19.5236209, 44.0303649], [19.5217564, 44.0316951], [19.5129762, 44.0385476], [19.5129891, 44.0388985], [19.5120151, 44.0388866], [19.5105476, 44.040327], [19.5102651, 44.0409872], [19.5091755, 44.0410465], [19.5078619, 44.0407899], [19.5054448, 44.0399635], [19.4988707, 44.0396387], [19.4916225, 44.0393071], [19.4847752, 44.0398717], [19.4844615, 44.0401446], [19.4843594, 44.0406088], [19.4808109, 44.042031], [19.4807635, 44.0423282], [19.4796574, 44.0430521], [19.4797564, 44.0435386], [19.4784357, 44.0443456], [19.4775938, 44.0446423], [19.4768839, 44.0447253], [19.476141, 44.0452712], [19.4759069, 44.0452551], [19.4754151, 44.0452213], [19.4737381, 44.0422721], [19.4708726, 44.0437005], [19.4671407, 44.0455485], [19.4613859, 44.0484422], [19.4612149, 44.0485282], [19.4555879, 44.0516719], [19.4520863, 44.0573426], [19.4485379, 44.057184], [19.4482737, 44.0574094], [19.4471676, 44.0575518], [19.4461276, 44.0579789], [19.4463422, 44.0585246], [19.4463257, 44.0589517], [19.445104, 44.0593432], [19.4450875, 44.0585009], [19.4446147, 44.0581106], [19.4387645, 44.0610278], [19.4385334, 44.0593432], [19.4395074, 44.0585009], [19.4394414, 44.0571484], [19.4388471, 44.0562348], [19.4390452, 44.0558315], [19.4389957, 44.0540755], [19.4386889, 44.0534273], [19.4383795, 44.0504841], [19.4378347, 44.04617], [19.4376915, 44.0450932], [19.437482, 44.0423626], [19.4368364, 44.0418674], [19.4351343, 44.0423808], [19.4299157, 44.0427198], [19.4282813, 44.0436692], [19.4283308, 44.0445948], [19.4277105, 44.0453468], [19.4266304, 44.0453898], [19.4252428, 44.0465847], [19.4234277, 44.0484039], [19.4232626, 44.0490921], [19.4226187, 44.0491633], [19.4217107, 44.0499701], [19.422187, 44.0522233], [19.4226682, 44.0527585], [19.4237743, 44.0531026], [19.4238569, 44.0537551], [19.4247814, 44.0543958], [19.4255738, 44.0552738], [19.4268615, 44.0553331], [19.4272495, 44.0555942], [19.4270596, 44.0558255], [19.4275632, 44.0560747], [19.4279016, 44.0558314], [19.4299487, 44.0569467], [19.4298662, 44.0572077], [19.4312452, 44.0578783], [19.4313398, 44.0585926], [19.4321609, 44.0592119], [19.4375551, 44.0619355], [19.4391442, 44.0627599], [19.4393589, 44.0631395], [19.4403659, 44.0637919], [19.4408447, 44.0638157], [19.4416874, 44.0644443], [19.4455663, 44.0650613], [19.4495945, 44.0650968], [19.4499246, 44.0653697], [19.4504199, 44.0649308], [19.4527972, 44.0639462], [19.4554552, 44.0640411], [19.4558514, 44.0643851], [19.4554552, 44.0648121], [19.4554552, 44.0658679], [19.4565448, 44.0673151], [19.4558017, 44.0678693], [19.4557358, 44.0686081], [19.4552126, 44.0695419], [19.4565448, 44.0705771], [19.4564333, 44.0725696], [19.459809, 44.0725784], [19.462718, 44.0726176], [19.4699006, 44.0729256], [19.4714689, 44.0747759], [19.471601, 44.075784], [19.4702617, 44.0783544], [19.4680347, 44.083877], [19.4676553, 44.0852123], [19.4675563, 44.0869792], [19.468035, 44.0879872], [19.4685569, 44.0887102], [19.467969, 44.0891018], [19.4678369, 44.0896235], [19.4668134, 44.0900385], [19.4659879, 44.0900978], [19.4652945, 44.0899437], [19.4653276, 44.0903053], [19.4655587, 44.0905247], [19.4656247, 44.0915207], [19.4662796, 44.0928197], [19.4621248, 44.0920662], [19.4613324, 44.092244], [19.460573, 44.0922796], [19.4599291, 44.0918883], [19.4599758, 44.091432], [19.4596154, 44.0913191], [19.4589798, 44.0908982], [19.4579811, 44.0916689], [19.4574115, 44.0916749], [19.45704, 44.0913784], [19.4562641, 44.091414], [19.456099, 44.0918646], [19.456941, 44.0925523], [19.456165, 44.0933467], [19.4558184, 44.0939396], [19.456132, 44.0943427], [19.4561544, 44.0959342], [19.4570896, 44.0958722], [19.4577499, 44.0965006], [19.4575023, 44.0968563], [19.4577829, 44.0973305], [19.4577334, 44.0981011], [19.4564498, 44.0994342], [19.4569245, 44.0997491], [19.456974, 44.1003656], [19.4571886, 44.100662], [19.4566273, 44.1009465], [19.4565742, 44.1014153], [19.4575518, 44.1020846], [19.4574858, 44.1028196], [19.4573274, 44.1029498], [19.4573207, 44.1050009], [19.45704, 44.1051787], [19.4569555, 44.1063843], [19.4548902, 44.1059425], [19.4525589, 44.1053616], [19.4491547, 44.1046223], [19.4420341, 44.1031816], [19.4329777, 44.1065053], [19.4323095, 44.1067553], [19.4323095, 44.1076326], [19.4326727, 44.1079289], [19.4319298, 44.1083794], [19.4318473, 44.1086046], [19.431352, 44.1091024], [19.4311209, 44.109055], [19.4306916, 44.1093988], [19.4317152, 44.1100744], [19.4316865, 44.1105056], [19.4306751, 44.1110938], [19.4307081, 44.1117576], [19.4309888, 44.1119591], [19.4309688, 44.1124239], [19.4299652, 44.1124569], [19.4296516, 44.1120184], [19.4283308, 44.1110346], [19.4273568, 44.1109871], [19.4266687, 44.1105686], [19.4239394, 44.1160839], [19.4223521, 44.1169554], [19.421325, 44.1170795], [19.4182857, 44.1183165], [19.4153002, 44.1205084], [19.4115412, 44.1233134], [19.4094482, 44.1259773], [19.4066277, 44.1255656], [19.4062072, 44.123944], [19.4060767, 44.1208009], [19.4058786, 44.120635], [19.4058786, 44.1201254], [19.4060778, 44.119798], [19.4044643, 44.1193376], [19.4019784, 44.1205832], [19.3995064, 44.1206319], [19.3910217, 44.1202688], [19.3886966, 44.1201429], [19.3864474, 44.1202202], [19.3852922, 44.1213779], [19.3826326, 44.1239682], [19.3817619, 44.1249662], [19.3818367, 44.125366], [19.3830792, 44.1274797], [19.3843408, 44.1295546], [19.3855599, 44.1315821], [19.386818, 44.1338153], [19.3874844, 44.1351417], [19.3858075, 44.1369202], [19.3830322, 44.1396939], [19.3812471, 44.1415964], [19.3812306, 44.1426153], [19.3816928, 44.1436578], [19.3822872, 44.1442265], [19.3822376, 44.1476501], [19.3828698, 44.1482047], [19.3835088, 44.1482542], [19.3845819, 44.1488347], [19.3858861, 44.1488228], [19.3868106, 44.1493322], [19.3867611, 44.1497942], [19.3856055, 44.1507418], [19.3857693, 44.1513905], [19.3840792, 44.153308], [19.3832612, 44.1542361], [19.3824345, 44.1543101], [19.3804216, 44.1534899], [19.379167, 44.1532648], [19.3758817, 44.1531819], [19.3752048, 44.153099], [19.373719, 44.1536202], [19.3697435, 44.1522372], [19.3676, 44.151239], [19.3603302, 44.1486333], [19.3600495, 44.1489176], [19.360099, 44.1501732], [19.360875, 44.1506826], [19.3608399, 44.1511941], [19.3592571, 44.1518197], [19.3580519, 44.1526844], [19.3573585, 44.1536202], [19.357248, 44.1545269], [19.3520993, 44.1597885], [19.3516732, 44.1602239], [19.3509035, 44.1598147], [19.3507714, 44.1595659], [19.3500616, 44.159104], [19.3496818, 44.159033], [19.3466607, 44.1569484], [19.345432, 44.156525], [19.3437551, 44.1563207], [19.3421702, 44.1551007], [19.3420894, 44.1545887], [19.3410641, 44.1542242], [19.3403873, 44.1541769], [19.3400901, 44.1544019], [19.3387694, 44.1537741], [19.3386538, 44.1516302], [19.33793, 44.1508662], [19.3373001, 44.1501851], [19.3367223, 44.1501851], [19.3361279, 44.1497823], [19.3355283, 44.1497734], [19.3311891, 44.1509355], [19.328115, 44.1510121], [19.3268003, 44.15195], [19.3261813, 44.1521514], [19.3257751, 44.1519921], [19.3257603, 44.150801], [19.3251494, 44.1510024], [19.3245881, 44.1507773], [19.3238452, 44.1512867], [19.3235281, 44.1518362], [19.3203793, 44.1565161], [19.321356, 44.1610117], [19.3204027, 44.1635636], [19.3196807, 44.1653606], [19.318034, 44.168448], [19.317704, 44.1695184], [19.3180506, 44.170094], [19.3176213, 44.1704078], [19.3173077, 44.1700821], [19.3168454, 44.1705203], [19.3156898, 44.1697269], [19.3155412, 44.1694072], [19.3138947, 44.1684763], [19.3127677, 44.1684776], [19.3126026, 44.1688506], [19.3109944, 44.1688316], [19.3103904, 44.1692769], [19.3103243, 44.1696085], [19.3083928, 44.170544], [19.306352, 44.1705187], [19.3033769, 44.1693862], [19.301393, 44.1689335], [19.300551, 44.1681283], [19.3000039, 44.1674922], [19.2975959, 44.1689335], [19.296919, 44.1689927], [19.2961101, 44.168519], [19.2952351, 44.168519], [19.294503, 44.1682706], [19.2913059, 44.1692177], [19.2891281, 44.1692871], [19.2864727, 44.1701957], [19.2843172, 44.1706996], [19.2835984, 44.1708676], [19.2830019, 44.1706032], [19.281724, 44.1714203], [19.2803878, 44.1722748], [19.2773888, 44.1722965], [19.2773723, 44.1729003], [19.2754738, 44.1732437], [19.2739384, 44.1739779], [19.2732946, 44.1736463], [19.2727973, 44.1740628], [19.2733606, 44.1743449], [19.2734102, 44.174712], [19.2710169, 44.1763461], [19.2690353, 44.1766775], [19.2669386, 44.1760855], [19.2668231, 44.175529], [19.2662948, 44.1755527], [19.2663443, 44.1763933], [19.2656014, 44.1769024], [19.2648869, 44.176978], [19.262964, 44.176133], [19.2623161, 44.1767248], [19.2615897, 44.1769972], [19.2614081, 44.1777549], [19.2592619, 44.178193], [19.2564005, 44.178005], [19.2534507, 44.1769143], [19.2519484, 44.1759315], [19.2513139, 44.1762127], [19.2489193, 44.1762115], [19.2458236, 44.1739305], [19.2451302, 44.1739187], [19.2437269, 44.1732674], [19.2429345, 44.1731135], [19.2424531, 44.1726905], [19.2381799, 44.1727227], [19.2377176, 44.1730069], [19.2361206, 44.1731155], [19.2348616, 44.1741081], [19.234779, 44.1743331], [19.2333097, 44.1752803], [19.2304067, 44.1739314], [19.2282016, 44.1739107], [19.2271684, 44.1734332], [19.2264377, 44.1734296], [19.2255707, 44.1727691], [19.2248571, 44.1722254], [19.2249068, 44.1719495], [19.2238259, 44.171297], [19.2223477, 44.1713373], [19.2211426, 44.171586], [19.2207794, 44.172036], [19.2198054, 44.1719649], [19.2194091, 44.1713847], [19.2180799, 44.170622], [19.2166852, 44.1706624], [19.215414, 44.1711479], [19.2118975, 44.1709347], [19.2092259, 44.1699608], [19.2059884, 44.1687872], [19.203513, 44.1685504], [19.2027185, 44.1688624], [19.2025204, 44.1693124], [19.1995158, 44.1706505], [19.1974026, 44.1704492], [19.1967588, 44.1695019], [19.1966314, 44.1687237], [19.1934585, 44.1655212], [19.190362, 44.1623203], [19.1902613, 44.1611958], [19.1893387, 44.1600567], [19.1891905, 44.1579277], [19.1886893, 44.1570661], [19.1885126, 44.1567623], [19.1888881, 44.1565622], [19.1888781, 44.1561106], [19.1882541, 44.1559702], [19.1881386, 44.1555783], [19.1874075, 44.1530983], [19.1870952, 44.1507481], [19.185207, 44.1455803], [19.1840379, 44.1446854], [19.184113, 44.143192], [19.1847467, 44.1417508], [19.1856311, 44.140812], [19.1863346, 44.1405189], [19.1871285, 44.1401031], [19.1884582, 44.1397705], [19.1886627, 44.1385863], [19.1882014, 44.1383168], [19.1906374, 44.1358186], [19.1904759, 44.134952], [19.1901755, 44.134513], [19.1906583, 44.1336352], [19.1907675, 44.1332912], [19.191345, 44.1331347], [19.1915059, 44.1327959], [19.1920853, 44.132665], [19.1925179, 44.132296], [19.1915703, 44.1309401], [19.1915515, 44.1303617], [19.1907871, 44.1298543], [19.1907227, 44.1292767], [19.190079, 44.1289764], [19.1900474, 44.1283354], [19.1893279, 44.1278828], [19.1886091, 44.127105], [19.1880405, 44.1270049], [19.1876972, 44.1265582], [19.1864204, 44.1257727], [19.1863549, 44.1253383], [19.1859947, 44.1250603], [19.1857958, 44.1249067], [19.1843927, 44.1248871], [19.1831052, 44.1255802], [19.1824078, 44.1256803], [19.1816568, 44.1261116], [19.1810919, 44.1256845], [19.1787493, 44.1265043], [19.1783523, 44.1268971], [19.1774726, 44.126951], [19.1766267, 44.1274104], [19.175241, 44.127419], [19.1741145, 44.1278058], [19.1733618, 44.1278121], [19.1731274, 44.1276518], [19.172194, 44.1276287], [19.1718399, 44.1274824], [19.1714001, 44.1274824], [19.1709494, 44.12806], [19.1698299, 44.1281359], [19.1673594, 44.128212], [19.1648984, 44.1284373], [19.1642117, 44.1289379], [19.163847, 44.1287145], [19.1634822, 44.1289764], [19.162699, 44.1289456], [19.1619276, 44.1284957], [19.1612613, 44.1285451], [19.1602421, 44.1289764], [19.1596413, 44.1289302], [19.1590834, 44.128676], [19.1586006, 44.128961], [19.1573238, 44.1289687], [19.1566028, 44.1280953], [19.1555643, 44.1280677], [19.155103, 44.1278366], [19.1546309, 44.127028], [19.1542876, 44.1269433], [19.1539335, 44.1272051], [19.1533971, 44.1273977], [19.1519701, 44.1267354], [19.1507578, 44.12672], [19.1498673, 44.1264119], [19.1492665, 44.1257804], [19.1479897, 44.1257188], [19.1473846, 44.1253222], [19.1467881, 44.1255956], [19.1462087, 44.1253337], [19.1455865, 44.1253029], [19.144578, 44.1247176], [19.1436338, 44.1249333], [19.1425717, 44.1241862], [19.1419065, 44.1241708], [19.140898, 44.1235701], [19.1403937, 44.1236548], [19.1393745, 44.123624], [19.1389775, 44.1235162]]]}}]}