{"type": "FeatureCollection", "features": [{"type": "Feature", "properties": {"name": "Općina Stari Grad, Grad Sarajevo, Kanton Sarajevo, Federacija Bosne i Hercegovine, 71200, Bosna i Hercegovina / Босна и Херцеговина", "source": "OpenStreetMap relation 2528243", "licence": "ODbL 1.0"}, "geometry": {"type": "Polygon", "coordinates": [[[18.41575, 43.8453437], [18.4180604, 43.8457053], [18.4226229, 43.8452061], [18.4295098, 43.8439965], [18.4331572, 43.8435296], [18.4440222, 43.8326662], [18.4462845, 43.830506], [18.4467048, 43.8300949], [18.4485349, 43.8289069], [18.4502813, 43.8279653], [18.4524936, 43.8268653], [18.4534963, 43.8265475], [18.4551653, 43.8263638], [18.4571319, 43.8263519], [18.458542, 43.8266358], [18.4596694, 43.8269198], [18.4602901, 43.8272991], [18.4622031, 43.8301789], [18.4632556, 43.8351478], [18.4632634, 43.8357334], [18.4629794, 43.8375387], [18.4631952, 43.8407935], [18.4632008, 43.840871], [18.4633673, 43.8431557], [18.4636438, 43.8444045], [18.4637732, 43.8446802], [18.4646786, 43.8466095], [18.4647035, 43.8467186], [18.4662621, 43.853736], [18.4666283, 43.8547859], [18.4677106, 43.8578888], [18.4675982, 43.8612188], [18.4691673, 43.8673385], [18.4691864, 43.8675887], [18.4693326, 43.8695063], [18.4706044, 43.8745106], [18.4722735, 43.8750912], [18.4755913, 43.8762717], [18.4788207, 43.8781196], [18.4810217, 43.8801735], [18.4812533, 43.8807563], [18.4821426, 43.8813975], [18.4832576, 43.8832317], [18.4826432, 43.8857764], [18.4807024, 43.888381], [18.4778228, 43.8905556], [18.4764372, 43.8911893], [18.4739761, 43.8922993], [18.4730947, 43.8924274], [18.4687022, 43.8930655], [18.4682099, 43.8964352], [18.4795037, 43.9065695], [18.4836449, 43.9118204], [18.4910653, 43.9258968], [18.4941795, 43.9300902], [18.4960142, 43.9325605], [18.4976175, 43.9343041], [18.5032279, 43.9419571], [18.5078252, 43.9488242], [18.5094636, 43.9509336], [18.5171652, 43.9606251], [18.516424, 43.9611944], [18.5162667, 43.9615017], [18.5161941, 43.9618312], [18.5160355, 43.9621437], [18.5157997, 43.9620207], [18.5117126, 43.9635403], [18.5116417, 43.9640464], [18.5068441, 43.9667405], [18.5050471, 43.966773], [18.4960679, 43.9601578], [18.4975926, 43.9567564], [18.4936146, 43.9541966], [18.492706, 43.9514683], [18.4881582, 43.9522049], [18.4879207, 43.9518146], [18.4874327, 43.9514154], [18.4869413, 43.9510734], [18.4863345, 43.9510222], [18.4856778, 43.9510163], [18.484921, 43.950743], [18.484633, 43.9506623], [18.4841838, 43.9506934], [18.4827457, 43.950608], [18.4818535, 43.9503932], [18.4807551, 43.9496025], [18.4806184, 43.9493453], [18.4805064, 43.9489261], [18.4801222, 43.9485382], [18.4800213, 43.9480092], [18.4793267, 43.9473971], [18.478828, 43.9472359], [18.4783645, 43.9471654], [18.4779295, 43.9471961], [18.4774976, 43.9474835], [18.4771497, 43.9478103], [18.476689, 43.948047], [18.4756994, 43.9483266], [18.4754932, 43.9483506], [18.4748678, 43.9485488], [18.474, 43.9489838], [18.4731064, 43.9492615], [18.4722889, 43.9495906], [18.4719315, 43.9495773], [18.4716256, 43.9495464], [18.4710387, 43.9497171], [18.4701915, 43.9499297], [18.4696981, 43.9499862], [18.4689768, 43.9500259], [18.4678283, 43.9500972], [18.4671143, 43.9502052], [18.4663508, 43.950242], [18.4654656, 43.9507382], [18.4624684, 43.9516423], [18.4604499, 43.952145], [18.4583333, 43.9525346], [18.4566303, 43.952817], [18.4534648, 43.9535583], [18.4529006, 43.9539279], [18.4523731, 43.9540162], [18.4517338, 43.9540031], [18.4505649, 43.9538846], [18.4497791, 43.9539872], [18.4493795, 43.9539773], [18.4491956, 43.9539215], [18.4487995, 43.9537887], [18.4484366, 43.9538373], [18.4483676, 43.9532835], [18.4481679, 43.9528231], [18.4480586, 43.952123], [18.4483989, 43.9515109], [18.4485905, 43.950672], [18.4490738, 43.9498393], [18.4489208, 43.9492022], [18.4484918, 43.9480798], [18.4486811, 43.947693], [18.4486089, 43.9474001], [18.4485314, 43.9471901], [18.4482955, 43.9471074], [18.4482916, 43.9469292], [18.4481693, 43.9463104], [18.4483857, 43.9455789], [18.4478186, 43.9442035], [18.4477194, 43.9425603], [18.4473072, 43.9411257], [18.4469349, 43.9403618], [18.4466961, 43.9399603], [18.4463806, 43.9396974], [18.4460787, 43.9395429], [18.4457476, 43.9395379], [18.4453563, 43.9396276], [18.4449743, 43.9397633], [18.4441522, 43.9401623], [18.4438405, 43.9399586], [18.4438748, 43.9393059], [18.4437655, 43.9390182], [18.4437223, 43.9384845], [18.4435849, 43.9384448], [18.4435329, 43.9383561], [18.4434996, 43.93806], [18.4433454, 43.9378232], [18.4431185, 43.9376476], [18.4427676, 43.9374624], [18.4423037, 43.9372792], [18.4419753, 43.9372238], [18.4415466, 43.9371944], [18.4392846, 43.9367685], [18.4375334, 43.9361598], [18.4373539, 43.935988], [18.4371606, 43.9358701], [18.4369588, 43.9357863], [18.4367054, 43.9357459], [18.4364732, 43.9357448], [18.4362431, 43.9358317], [18.4359701, 43.9359092], [18.4335868, 43.9351543], [18.4325545, 43.9359707], [18.4331172, 43.9351091], [18.4323709, 43.9322821], [18.432941, 43.9316195], [18.4330744, 43.9310813], [18.4331032, 43.9307415], [18.4336573, 43.9307971], [18.4336982, 43.9304881], [18.4340621, 43.9305406], [18.4344457, 43.9305329], [18.4347821, 43.9304634], [18.4352734, 43.9294385], [18.434927, 43.9293039], [18.4346581, 43.9290365], [18.4349522, 43.9287508], [18.4353824, 43.9285813], [18.4358393, 43.9286732], [18.4362157, 43.9287036], [18.4367031, 43.9286978], [18.4365185, 43.9279435], [18.4359119, 43.9275809], [18.4368684, 43.927431], [18.4366535, 43.9273737], [18.4365358, 43.9272562], [18.4365776, 43.9270785], [18.4365731, 43.9268924], [18.4364742, 43.9267485], [18.4363132, 43.9266519], [18.4365753, 43.9264436], [18.4370784, 43.926611], [18.4373886, 43.9266173], [18.4377208, 43.9265635], [18.4379225, 43.9266212], [18.4382854, 43.9266817], [18.4377178, 43.9257102], [18.4368716, 43.9246526], [18.4355338, 43.9232901], [18.4348571, 43.9225584], [18.4357636, 43.9219173], [18.4359761, 43.9211365], [18.4355864, 43.9212122], [18.4350129, 43.9215379], [18.4346028, 43.9215642], [18.4342845, 43.9214362], [18.43363, 43.9215395], [18.4332976, 43.9217566], [18.4328937, 43.921959], [18.4326811, 43.9158778], [18.4314472, 43.9139051], [18.4314682, 43.9134512], [18.4307907, 43.9123916], [18.4298683, 43.9126687], [18.4292235, 43.9131134], [18.4289736, 43.9139414], [18.4284292, 43.9133295], [18.4280185, 43.9126976], [18.4277568, 43.912088], [18.4285921, 43.9114056], [18.4292646, 43.9110392], [18.4298506, 43.9108704], [18.4304725, 43.9110214], [18.4312064, 43.9109341], [18.4318848, 43.9107675], [18.4327402, 43.9106817], [18.4349416, 43.9106485], [18.4361539, 43.9105295], [18.4373647, 43.9104107], [18.4390019, 43.9106185], [18.4403983, 43.9104645], [18.441501, 43.9099827], [18.443282, 43.9095254], [18.4444726, 43.9093674], [18.4446756, 43.9090657], [18.4449614, 43.9088079], [18.4453719, 43.90858], [18.4460156, 43.9085247], [18.4466473, 43.9085594], [18.4471819, 43.9084626], [18.4476214, 43.908246], [18.4485785, 43.9081382], [18.4490092, 43.9081866], [18.450371, 43.9083699], [18.4509208, 43.9083732], [18.4513519, 43.9084343], [18.4515659, 43.9084055], [18.451525, 43.9083263], [18.4513632, 43.9082182], [18.4509509, 43.9081748], [18.4501693, 43.9080645], [18.449707, 43.907959], [18.4492448, 43.9078266], [18.4489676, 43.9075877], [18.4486823, 43.9073278], [18.4480757, 43.9068696], [18.4478091, 43.9064662], [18.4475335, 43.9061581], [18.4475081, 43.9059189], [18.4475777, 43.9054527], [18.4475836, 43.9052292], [18.4475419, 43.9049929], [18.4474443, 43.9048875], [18.4473132, 43.9048154], [18.4470215, 43.9047559], [18.4468034, 43.9046377], [18.44674, 43.9045572], [18.4467246, 43.9043819], [18.4467534, 43.9042386], [18.4468427, 43.9041681], [18.446995, 43.9040515], [18.4471801, 43.9038486], [18.4472845, 43.9037661], [18.4474963, 43.9036942], [18.4475596, 43.9036132], [18.4475649, 43.903511], [18.4475012, 43.9033855], [18.4472193, 43.9030867], [18.4470296, 43.90282], [18.4468961, 43.9024708], [18.4467935, 43.9019536], [18.4466705, 43.9017688], [18.4460178, 43.9015639], [18.4457181, 43.9012227], [18.4455209, 43.9011133], [18.4452552, 43.9011563], [18.4450341, 43.9012334], [18.444645, 43.9009894], [18.4437371, 43.8999837], [18.4435606, 43.8996261], [18.4435143, 43.8994141], [18.4435395, 43.8983268], [18.44355, 43.8982248], [18.4435945, 43.8981817], [18.4436437, 43.8981859], [18.4436922, 43.8982578], [18.4437904, 43.8984571], [18.4438622, 43.8985029], [18.4439475, 43.8985095], [18.444033, 43.8984519], [18.4442204, 43.8981065], [18.4443167, 43.8977969], [18.444336, 43.8977236], [18.4442113, 43.8972302], [18.4441527, 43.8968901], [18.4441539, 43.8964126], [18.4441345, 43.8962359], [18.4440368, 43.8960706], [18.4438162, 43.8959118], [18.4436377, 43.8958259], [18.4436381, 43.8957726], [18.4437251, 43.8957608], [18.4439704, 43.8958404], [18.4440633, 43.8958592], [18.4441546, 43.8958252], [18.4445933, 43.8947956], [18.4447251, 43.8946869], [18.4449311, 43.894584], [18.4453044, 43.8945053], [18.4456886, 43.8945003], [18.4458155, 43.8944543], [18.4458358, 43.8943828], [18.4426647, 43.8935362], [18.4424776, 43.8934286], [18.4422526, 43.893341], [18.4419664, 43.8932883], [18.4420584, 43.8927514], [18.4418766, 43.8926849], [18.4415414, 43.891956], [18.441137, 43.8914107], [18.4405989, 43.8917817], [18.4399318, 43.8908313], [18.4391173, 43.8901612], [18.4389494, 43.8901241], [18.4388064, 43.8900682], [18.4386506, 43.8899976], [18.4385498, 43.88987], [18.4384555, 43.8896407], [18.4379998, 43.8892763], [18.4374256, 43.8889974], [18.4369345, 43.8888122], [18.4367451, 43.8886394], [18.4366622, 43.8883373], [18.4362295, 43.8882697], [18.4364404, 43.8882104], [18.4364894, 43.8881588], [18.4364974, 43.8880759], [18.4364317, 43.8879922], [18.436236, 43.8879026], [18.4361098, 43.8878027], [18.4359125, 43.8874438], [18.4355268, 43.8869656], [18.4347973, 43.885472], [18.4347646, 43.8852162], [18.4347671, 43.8848718], [18.4348156, 43.8846562], [18.434982, 43.8845545], [18.4351655, 43.8844271], [18.4353022, 43.8842688], [18.4353939, 43.8840804], [18.4354109, 43.8833318], [18.4353554, 43.8829685], [18.4352886, 43.8827592], [18.4350136, 43.8824688], [18.4348948, 43.882306], [18.4348707, 43.8821118], [18.4348958, 43.8820294], [18.434939, 43.88196], [18.4349909, 43.8819122], [18.4343908, 43.881614], [18.4327558, 43.8804626], [18.4325847, 43.8802717], [18.4324746, 43.8801144], [18.4324565, 43.8790683], [18.4324688, 43.878613], [18.4325736, 43.8782145], [18.4327217, 43.8780051], [18.4327056, 43.8778638], [18.4325546, 43.8775141], [18.4324408, 43.8773166], [18.4324994, 43.8772944], [18.4328412, 43.8775439], [18.432703, 43.8772253], [18.432729, 43.8772012], [18.433091, 43.8773859], [18.4332683, 43.8775212], [18.4333776, 43.8775548], [18.4334565, 43.8775658], [18.4333963, 43.8774271], [18.4334099, 43.8773428], [18.4334473, 43.8772709], [18.4336648, 43.8771448], [18.4326667, 43.8763207], [18.432376, 43.8759693], [18.4318692, 43.8752665], [18.4313455, 43.8750119], [18.4311722, 43.8748256], [18.4308795, 43.8742953], [18.4307027, 43.8739008], [18.4305517, 43.8737294], [18.4303841, 43.8735759], [18.4302651, 43.8735158], [18.4299459, 43.8734841], [18.4297143, 43.8734428], [18.4296052, 43.8733896], [18.4292381, 43.8730912], [18.4287314, 43.8727293], [18.428681, 43.8725118], [18.4285564, 43.8724576], [18.4280971, 43.8723885], [18.4279578, 43.8723867], [18.4276946, 43.8724792], [18.4274886, 43.8725303], [18.4273185, 43.8725367], [18.4266823, 43.8724307], [18.4264873, 43.8723747], [18.4265502, 43.8723004], [18.4266892, 43.872247], [18.4268331, 43.8722372], [18.4270191, 43.8722184], [18.4269629, 43.8721129], [18.4267688, 43.8718758], [18.4266465, 43.8714233], [18.4266548, 43.8709735], [18.4261032, 43.8703297], [18.4264897, 43.8696761], [18.426575, 43.8696217], [18.4266485, 43.8695378], [18.4266493, 43.8694609], [18.4263709, 43.8691008], [18.4263697, 43.8688775], [18.4262829, 43.8686641], [18.4260972, 43.8684246], [18.4260775, 43.868219], [18.4260065, 43.8678204], [18.4260469, 43.8673313], [18.4260756, 43.866988], [18.4260673, 43.8668315], [18.4257436, 43.8664744], [18.4257397, 43.866452], [18.4256994, 43.8662173], [18.4257252, 43.8658299], [18.4257065, 43.8657161], [18.4256803, 43.8655568], [18.4256163, 43.8654122], [18.4255199, 43.8651942], [18.4252717, 43.8648761], [18.4252556, 43.8648559], [18.4250381, 43.8645832], [18.4249523, 43.8643893], [18.4249207, 43.8641699], [18.425258, 43.8641081], [18.4250768, 43.8639278], [18.4249311, 43.8637808], [18.4252522, 43.8635899], [18.4254315, 43.8636591], [18.4254744, 43.8634669], [18.4252837, 43.8628209], [18.4251002, 43.8629165], [18.4249081, 43.8627072], [18.4249282, 43.8624532], [18.4247708, 43.8624221], [18.4248213, 43.8621107], [18.4248784, 43.8621129], [18.424921, 43.8618831], [18.4248558, 43.8618694], [18.4249308, 43.8615094], [18.4247241, 43.8614738], [18.4248074, 43.8611858], [18.4245923, 43.8611957], [18.4245383, 43.8613139], [18.4244254, 43.8612921], [18.4243672, 43.8614573], [18.4231032, 43.8611891], [18.4231739, 43.8610036], [18.4225469, 43.8609238], [18.4225848, 43.8607609], [18.4223674, 43.8607599], [18.4224099, 43.8606244], [18.4226053, 43.860441], [18.4226542, 43.8601906], [18.4224038, 43.8601836], [18.4224263, 43.8598691], [18.4223033, 43.8598501], [18.4224645, 43.8593379], [18.4226938, 43.8593381], [18.4227341, 43.859214], [18.4234361, 43.8593565], [18.4235169, 43.8592802], [18.4236979, 43.8587265], [18.4239181, 43.857991], [18.4238152, 43.8578101], [18.4238016, 43.8577679], [18.4238202, 43.8575387], [18.4238795, 43.857082], [18.4238879, 43.856782], [18.4238314, 43.8567403], [18.4237223, 43.856657], [18.4237241, 43.856452], [18.4237242, 43.8564363], [18.423726, 43.8562469], [18.4236987, 43.8560426], [18.4235283, 43.8560386], [18.4233785, 43.8554318], [18.4235811, 43.8552081], [18.4233575, 43.855094], [18.4234922, 43.8549698], [18.4233767, 43.8548946], [18.4234824, 43.8548179], [18.4233506, 43.8545877], [18.4232023, 43.8546331], [18.4230429, 43.8545069], [18.4227764, 43.8544029], [18.422786, 43.8542389], [18.4228657, 43.854066], [18.422744, 43.854014], [18.4228933, 43.8537665], [18.4229859, 43.8538041], [18.4230318, 43.8537436], [18.4231086, 43.8536415], [18.4227929, 43.8534766], [18.4224197, 43.853297], [18.4223368, 43.853142], [18.4221846, 43.853012], [18.4219772, 43.8528721], [18.4220717, 43.8528026], [18.42213, 43.8526613], [18.4221835, 43.8524106], [18.4221078, 43.8520862], [18.4224429, 43.8520708], [18.4228026, 43.852073], [18.4233036, 43.8515311], [18.4236174, 43.851711], [18.4239809, 43.8517537], [18.4244192, 43.8513488], [18.4239189, 43.8509126], [18.4236456, 43.8506851], [18.4226126, 43.8499655], [18.4224755, 43.849852], [18.4223485, 43.8497217], [18.4221875, 43.8495184], [18.421937, 43.8492851], [18.4210754, 43.8501951], [18.4198573, 43.8493961], [18.4200588, 43.8491102], [18.4197184, 43.8489054], [18.4198888, 43.8485621], [18.4195875, 43.8484791], [18.4201247, 43.8474149], [18.4201035, 43.8472986], [18.4198864, 43.8473637], [18.419617, 43.8473685], [18.4194158, 43.8474399], [18.4193289, 43.8473672], [18.4192939, 43.8472595], [18.419431, 43.8470674], [18.4193115, 43.8470016], [18.4192723, 43.8469126], [18.4194377, 43.8467886], [18.4193853, 43.8467541], [18.4192341, 43.8468281], [18.4186117, 43.8469857], [18.418432, 43.8470128], [18.4182496, 43.8469122], [18.4181745, 43.8468503], [18.4180136, 43.8468503], [18.4180136, 43.846773], [18.4180673, 43.8467033], [18.4180351, 43.8466259], [18.417951, 43.8464036], [18.4178036, 43.8463165], [18.4174267, 43.8462579], [18.4170444, 43.8461909], [18.4167692, 43.8461345], [18.4165539, 43.8460068], [18.4163374, 43.8459542], [18.4161707, 43.845864], [18.4159689, 43.8457871], [18.4159447, 43.8457314], [18.4159545, 43.8456046], [18.4158362, 43.8454543], [18.41575, 43.8453437]]]}}]}