{"type": "FeatureCollection", "features": [{"type": "Feature", "properties": {"name": "Grad Stolac, Hercegovačko-neretvanska županija (kanton), Federacija Bosne i Hercegovine, Bosna i Hercegovina / Босна и Херцеговина", "source": "OpenStreetMap relation 2528271", "licence": "ODbL 1.0"}, "geometry": {"type": "Polygon", "coordinates": [[[17.7510821, 43.0512801], [17.7530665, 43.0495399], [17.7566385, 43.0469296], [17.7602104, 43.0448993], [17.7637824, 43.0425789], [17.7657668, 43.0411286], [17.7681481, 43.0382279], [17.7721169, 43.0356171], [17.7744982, 43.0350369], [17.7768795, 43.0341666], [17.7796576, 43.0306853], [17.7824358, 43.0292347], [17.7860077, 43.0280742], [17.7887859, 43.0272038], [17.7923578, 43.0263334], [17.7955329, 43.0251728], [17.7991048, 43.0240123], [17.8046612, 43.0237221], [17.8114082, 43.023432], [17.8149801, 43.0219812], [17.818552, 43.0199501], [17.8225209, 43.018209], [17.8284741, 43.0161778], [17.8308554, 43.015017], [17.8344273, 43.0132759], [17.8364117, 43.0121151], [17.8368086, 43.0118249], [17.8407774, 43.0097934], [17.8443494, 43.009213], [17.8463338, 43.0083423], [17.8491898, 43.0069693], [17.8508736, 43.0055327], [17.8522768, 43.0047118], [17.85368, 43.0045066], [17.8570476, 43.0026595], [17.8587314, 43.0016333], [17.8620991, 43.0006071], [17.8649055, 42.9993756], [17.8674312, 42.9987599], [17.869957, 42.9979389], [17.8724827, 42.9967073], [17.8736052, 42.9958863], [17.8744472, 42.9956811], [17.8780955, 42.9934232], [17.8804951, 42.9920605], [17.8819705, 42.9919134], [17.8840695, 42.9913656], [17.8888612, 42.9908468], [17.8897883, 42.990444], [17.8943724, 42.9905493], [17.8974595, 42.9901388], [17.8997046, 42.9901388], [17.9019497, 42.9897282], [17.9036335, 42.9884965], [17.9050367, 42.9876754], [17.9058786, 42.9848013], [17.9075624, 42.982543], [17.9089656, 42.9815165], [17.9109301, 42.9804899], [17.9137365, 42.9784368], [17.9159816, 42.9769996], [17.9182267, 42.9763836], [17.921033, 42.9749463], [17.9246813, 42.973509], [17.9260845, 42.972893], [17.9286103, 42.9718663], [17.9308554, 42.9710449], [17.9331005, 42.9702236], [17.9426422, 42.9667326], [17.944326, 42.9683754], [17.9465711, 42.9689915], [17.9513419, 42.9685808], [17.958726, 42.9694075], [17.9543128, 42.9737937], [17.9522329, 42.9775431], [17.9583232, 42.9851786], [17.9664326, 42.9948509], [17.9673957, 42.9965797], [17.9682724, 42.9990087], [17.9737698, 43.0070899], [17.9642742, 43.0335673], [17.9652486, 43.0365511], [17.9667565, 43.0411684], [17.9723893, 43.0427128], [17.9807725, 43.0437929], [17.9876297, 43.0512941], [17.9915972, 43.0617338], [18.0013377, 43.0645275], [18.0050156, 43.0700065], [18.0091862, 43.0735192], [18.0174484, 43.0782914], [18.018401, 43.0788416], [18.0308341, 43.0835359], [18.0273882, 43.0905021], [18.0259116, 43.0941953], [18.024048, 43.098231], [18.0030192, 43.1122361], [17.9999156, 43.1127241], [17.9818725, 43.1146433], [17.9531225, 43.117672], [17.9549843, 43.1299921], [17.9550809, 43.1306313], [17.9541061, 43.1328184], [17.9505028, 43.1379037], [17.9495442, 43.1392963], [17.9470115, 43.1429754], [17.9382368, 43.152144], [17.9353212, 43.1553753], [17.9290686, 43.1644748], [17.9289163, 43.1698645], [17.9288121, 43.1735516], [17.9304118, 43.1811231], [17.9312459, 43.1850749], [17.9317459, 43.187457], [17.9321843, 43.1892455], [17.9329517, 43.1924197], [17.9408513, 43.202599], [17.9488211, 43.211553], [17.9502761, 43.2132619], [17.9448145, 43.2125541], [17.9400519, 43.2125541], [17.9372737, 43.2122649], [17.9356862, 43.2105293], [17.9356862, 43.2096615], [17.9325111, 43.2061902], [17.9293361, 43.2061902], [17.9249704, 43.2067688], [17.9213984, 43.2085044], [17.9213984, 43.209083], [17.9217953, 43.2122649], [17.9241766, 43.2145789], [17.9237797, 43.217182], [17.919414, 43.217182], [17.9174296, 43.2180497], [17.9154452, 43.2186282], [17.9130639, 43.2192066], [17.9098889, 43.2197851], [17.9071107, 43.2197851], [17.9051263, 43.2180497], [17.9031419, 43.2168928], [17.9003637, 43.2151574], [17.8985296, 43.2135979], [17.8979824, 43.2131326], [17.8952042, 43.2111078], [17.8924261, 43.2096615], [17.8904417, 43.209083], [17.8884573, 43.2064795], [17.8876635, 43.2044545], [17.886076, 43.2027187], [17.882504, 43.2004042], [17.8797259, 43.198379], [17.8789321, 43.1954857], [17.879329, 43.1937497], [17.8809165, 43.1914349], [17.8809165, 43.1905668], [17.8801227, 43.18912], [17.8785352, 43.1882519], [17.8769477, 43.1873838], [17.8753602, 43.1856475], [17.8717882, 43.1859369], [17.8621066, 43.1881408], [17.8584098, 43.1876177], [17.8584695, 43.1873937], [17.8584695, 43.1873331], [17.8584614, 43.1872549], [17.8584158, 43.1870867], [17.8584105, 43.1869244], [17.8584132, 43.1868637], [17.8586572, 43.1862986], [17.8587753, 43.1861186], [17.8593171, 43.1849569], [17.8596067, 43.184292], [17.8599608, 43.1835801], [17.8603899, 43.182477], [17.8611946, 43.1820311], [17.8615594, 43.1813348], [17.8616452, 43.1809124], [17.8615594, 43.1801222], [17.8629541, 43.1801222], [17.8634155, 43.1800048], [17.8679001, 43.1742777], [17.8683668, 43.1736596], [17.8683937, 43.1733466], [17.8684634, 43.1733153], [17.8686136, 43.1732958], [17.8686833, 43.1732684], [17.8686833, 43.1731588], [17.8687316, 43.1727911], [17.8687048, 43.1723725], [17.8689998, 43.1711636], [17.8693753, 43.1707841], [17.8696006, 43.1705572], [17.8694934, 43.1704985], [17.868458, 43.1698216], [17.8681844, 43.1697082], [17.868045, 43.1696847], [17.8678787, 43.1697121], [17.8675729, 43.1697903], [17.8672242, 43.1698529], [17.8669238, 43.1698334], [17.866677, 43.1697238], [17.8659046, 43.1689961], [17.8652233, 43.1682175], [17.864719, 43.1675876], [17.8642255, 43.1670085], [17.8643542, 43.1669459], [17.863571, 43.1660969], [17.8631204, 43.1656841], [17.8629541, 43.1655472], [17.8625518, 43.1653437], [17.8620207, 43.1651755], [17.8616935, 43.1650855], [17.8613073, 43.1649231], [17.8608325, 43.1646981], [17.860685, 43.164614], [17.8601083, 43.1641288], [17.8599581, 43.1640153], [17.8596604, 43.1638334], [17.8594485, 43.1637727], [17.8589416, 43.1636788], [17.8583461, 43.1635967], [17.8578461, 43.1634496], [17.8573982, 43.1632536], [17.8573537, 43.1631741], [17.8572303, 43.1629628], [17.8571713, 43.1628806], [17.8570184, 43.1627867], [17.8569514, 43.1627319], [17.8568467, 43.1626615], [17.856726, 43.1625891], [17.8566241, 43.1624697], [17.8564981, 43.1622213], [17.8558972, 43.1617106], [17.8558221, 43.1615698], [17.8557014, 43.1612274], [17.8555754, 43.1609457], [17.8555378, 43.1608517], [17.8554708, 43.160705], [17.8554466, 43.1605211], [17.8554386, 43.1604233], [17.8554735, 43.1602648], [17.8554949, 43.1601396], [17.855503, 43.1599909], [17.8554386, 43.1597463], [17.855444, 43.1595233], [17.8554332, 43.1593041], [17.8554493, 43.1591887], [17.8555298, 43.1590087], [17.8555727, 43.1588991], [17.855629, 43.1587543], [17.8556558, 43.1585802], [17.8556505, 43.1584002], [17.8556076, 43.158095], [17.8555754, 43.1579521], [17.8555137, 43.1578465], [17.8554359, 43.15787], [17.8519759, 43.1545906], [17.8490415, 43.1521584], [17.848084, 43.1512367], [17.848269, 43.1504736], [17.8487143, 43.1500842], [17.8486311, 43.1496184], [17.8485346, 43.1490236], [17.8482127, 43.1479277], [17.8476065, 43.1470666], [17.8468019, 43.1468122], [17.84545, 43.1459199], [17.8452945, 43.1458338], [17.8450423, 43.145779], [17.8444576, 43.1457907], [17.8443289, 43.1454502], [17.8441518, 43.1450588], [17.844066, 43.1449414], [17.8438675, 43.1447457], [17.8432774, 43.1449296], [17.8426176, 43.1450784], [17.8424889, 43.1448729], [17.8417647, 43.1449198], [17.8418103, 43.1444697], [17.8417942, 43.1442055], [17.8417593, 43.1439237], [17.841424, 43.1438533], [17.8412819, 43.1438396], [17.8410646, 43.1438689], [17.840901, 43.1438944], [17.8407052, 43.1439668], [17.8406167, 43.1439942], [17.8405014, 43.1439726], [17.8403538, 43.1438337], [17.8402036, 43.1436576], [17.840091, 43.1435754], [17.8387123, 43.1435284], [17.8384227, 43.1433523], [17.8381062, 43.1430861], [17.8375053, 43.1425616], [17.8372425, 43.1423972], [17.8366899, 43.142131], [17.8365629, 43.1420881], [17.8364003, 43.1420332], [17.8358799, 43.1418649], [17.8357726, 43.1417905], [17.835499, 43.1415596], [17.8352684, 43.1414382], [17.8349841, 43.1412699], [17.8337663, 43.1398999], [17.8293541, 43.137013], [17.8288123, 43.1366157], [17.8274699, 43.135776], [17.8267148, 43.1359248], [17.8263715, 43.1359933], [17.8256392, 43.1361205], [17.8253308, 43.1361322], [17.825025, 43.1361107], [17.8247032, 43.1360755], [17.8246871, 43.1359326], [17.8245825, 43.1355627], [17.8244671, 43.1350988], [17.8246495, 43.1341651], [17.8247783, 43.133621], [17.8249043, 43.1334409], [17.8259142, 43.1319454], [17.8262964, 43.1312339], [17.8269884, 43.1302718], [17.8280452, 43.1295084], [17.8287855, 43.1290347], [17.8312826, 43.1265701], [17.8324038, 43.1254269], [17.8317654, 43.1250745], [17.8312451, 43.1247417], [17.8311807, 43.1245968], [17.8309822, 43.1241661], [17.8308159, 43.1239625], [17.8307033, 43.1238451], [17.8306228, 43.1233126], [17.8297806, 43.123387], [17.82933, 43.1234731], [17.8288364, 43.1234966], [17.828595, 43.1235475], [17.8282034, 43.1236806], [17.8279674, 43.1234105], [17.8278977, 43.1234379], [17.8275275, 43.1230659], [17.8269321, 43.1224492], [17.8268141, 43.122367], [17.8267524, 43.1223337], [17.826629, 43.1222809], [17.8261811, 43.1221556], [17.8258163, 43.1220988], [17.8257787, 43.1218874], [17.8256395, 43.1215836], [17.8253846, 43.1213004], [17.8251453, 43.1209924], [17.8249848, 43.120883], [17.824911, 43.1208018], [17.8248695, 43.1206828], [17.8247863, 43.1206892], [17.8247085, 43.1206775], [17.8246093, 43.1206305], [17.8244859, 43.1205365], [17.8241962, 43.1202996], [17.824046, 43.1201841], [17.8239548, 43.1201077], [17.8238395, 43.1200412], [17.823692, 43.1199824], [17.8231984, 43.1196751], [17.8230536, 43.1195576], [17.8229248, 43.1193775], [17.8226566, 43.1190368], [17.8224635, 43.1187627], [17.8221738, 43.1182302], [17.8219217, 43.1177877], [17.8217983, 43.1175449], [17.8216749, 43.1172669], [17.8215569, 43.1172904], [17.8211814, 43.1174], [17.8211331, 43.1172512], [17.8210849, 43.1170672], [17.8210312, 43.1167892], [17.8210312, 43.1165621], [17.8210178, 43.1162351], [17.8210232, 43.1160922], [17.8209937, 43.1159531], [17.8209481, 43.1158689], [17.8209293, 43.1158161], [17.8209454, 43.1157573], [17.8213558, 43.1154911], [17.8213263, 43.1152013], [17.8213048, 43.1149252], [17.8212619, 43.1149213], [17.821337, 43.1146002], [17.8213558, 43.1142438], [17.8213772, 43.1140852], [17.8214711, 43.1139345], [17.8215086, 43.1138542], [17.8215033, 43.1137915], [17.8214684, 43.1137211], [17.8214148, 43.1136545], [17.8214362, 43.113537], [17.821455, 43.1133001], [17.8214657, 43.1130788], [17.8214523, 43.1130162], [17.821404, 43.1128419], [17.8212914, 43.1127322], [17.8213104, 43.1126603], [17.8212564, 43.1126171], [17.8212123, 43.1125205], [17.8211519, 43.1124385], [17.8211009, 43.1123667], [17.8210249, 43.1122544], [17.8209539, 43.1121656], [17.8208424, 43.1120793], [17.8206126, 43.1118992], [17.8204842, 43.111803], [17.8202645, 43.1116377], [17.8201338, 43.1115206], [17.820055, 43.1114134], [17.8199784, 43.1113139], [17.8199038, 43.1111833], [17.8198804, 43.1110823], [17.8198868, 43.1109751], [17.8198618, 43.1109328], [17.8198323, 43.1108877], [17.8196606, 43.1103669], [17.819505, 43.1099713], [17.8194299, 43.1097814], [17.819387, 43.1096071], [17.819379, 43.1095366], [17.8193682, 43.1094681], [17.8193226, 43.1094211], [17.819218, 43.1093819], [17.8189927, 43.109331], [17.8187594, 43.1092331], [17.8185153, 43.1088493], [17.8183463, 43.1086144], [17.8183088, 43.1085282], [17.8182819, 43.1084499], [17.8182498, 43.1082932], [17.8182176, 43.1081209], [17.8180808, 43.1079309], [17.8179359, 43.1077449], [17.8177536, 43.1075197], [17.8176811, 43.1074434], [17.8160745, 43.1062508], [17.8144813, 43.104786], [17.8110266, 43.1034328], [17.8111982, 43.1032879], [17.8112197, 43.1032272], [17.8112331, 43.1031175], [17.8111929, 43.1029197], [17.81115, 43.1027905], [17.8109434, 43.1024889], [17.8111982, 43.1023577], [17.8114209, 43.1022147], [17.8118849, 43.1017036], [17.8121799, 43.1013746], [17.812475, 43.1008262], [17.8129363, 43.0999332], [17.8131777, 43.0994905], [17.8134727, 43.0992555], [17.8138965, 43.0988991], [17.8146851, 43.098335], [17.815125, 43.0980609], [17.8158492, 43.0977436], [17.8164446, 43.097536], [17.8167129, 43.0974067], [17.816509, 43.0970738], [17.8162944, 43.096733], [17.816214, 43.0966194], [17.8161228, 43.0964705], [17.8160047, 43.0963295], [17.8156668, 43.095977], [17.8155917, 43.0958477], [17.8154951, 43.0956714], [17.8153503, 43.0954677], [17.8151357, 43.0951269], [17.8149748, 43.0949781], [17.814846, 43.0949702], [17.8147602, 43.0949467], [17.8146636, 43.0949467], [17.8145242, 43.0949311], [17.8141004, 43.0947156], [17.8134835, 43.0942612], [17.8133547, 43.0941829], [17.8130972, 43.094081], [17.8119492, 43.0940262], [17.8118312, 43.0938617], [17.8116918, 43.0936423], [17.8115415, 43.0934543], [17.811327, 43.0932271], [17.8107798, 43.0928197], [17.8100717, 43.0924867], [17.8098571, 43.0924123], [17.8096425, 43.0923496], [17.8092349, 43.0922751], [17.8082532, 43.0919226], [17.8077328, 43.0916797], [17.8075236, 43.0916092], [17.8071642, 43.0914407], [17.8067619, 43.0912762], [17.8060967, 43.0909275], [17.8060591, 43.090904], [17.8059974, 43.0908649], [17.805925, 43.0908355], [17.8058606, 43.09081], [17.8057882, 43.0907591], [17.8056139, 43.0906945], [17.8054771, 43.0906533], [17.8053054, 43.0905652], [17.8052223, 43.0905299], [17.8051418, 43.0905005], [17.8050292, 43.0904555], [17.8049004, 43.0903928], [17.8046134, 43.0902949], [17.804305, 43.0902028], [17.804026, 43.0901284], [17.803055, 43.0897014], [17.8022182, 43.0890471], [17.8020626, 43.0891529], [17.8018749, 43.0892939], [17.8014082, 43.0897562], [17.8012311, 43.0898659], [17.8010595, 43.0898855], [17.8007913, 43.0897014], [17.8005981, 43.0895799], [17.8005284, 43.0895407], [17.8003353, 43.0894624], [17.8000671, 43.0893801], [17.7997881, 43.08929], [17.7990264, 43.0887298], [17.7988172, 43.0885809], [17.7985865, 43.0884007], [17.7976799, 43.0875976], [17.7971327, 43.0871236], [17.7970469, 43.0869747], [17.7969557, 43.0867749], [17.7969021, 43.0865241], [17.7969181, 43.0862617], [17.7969021, 43.0859913], [17.796827, 43.0856348], [17.7966499, 43.08529], [17.796607, 43.0852156], [17.7964032, 43.0851216], [17.7959365, 43.0849022], [17.7960169, 43.0848277], [17.7960974, 43.0844908], [17.7961081, 43.0843654], [17.7961081, 43.084244], [17.7960813, 43.084146], [17.7959472, 43.0839384], [17.7958775, 43.0838169], [17.7957648, 43.0833468], [17.7957058, 43.0832449], [17.7956468, 43.0831391], [17.7955502, 43.0830176], [17.7954215, 43.0829158], [17.7952981, 43.0827669], [17.7952176, 43.0824025], [17.7952015, 43.0823124], [17.7951693, 43.0822027], [17.7950191, 43.0820656], [17.7947509, 43.0818579], [17.7945471, 43.0815954], [17.7943486, 43.0811644], [17.7942896, 43.081137], [17.794134, 43.0809137], [17.7934616, 43.0801188], [17.8002955, 43.0756368], [17.8026768, 43.0733175], [17.8082331, 43.067519], [17.8094238, 43.0651994], [17.8110113, 43.0620098], [17.8118051, 43.0608499], [17.8157739, 43.0579501], [17.8181552, 43.0573702], [17.8205365, 43.0565002], [17.8201396, 43.0536002], [17.8157739, 43.0495399], [17.8133926, 43.0463496], [17.8123019, 43.0444365], [17.8114082, 43.042869], [17.8102175, 43.0405485], [17.8074394, 43.0399683], [17.8022799, 43.0399683], [17.7998986, 43.0411286], [17.7979142, 43.042869], [17.795136, 43.0437391], [17.791961, 43.0446093], [17.7891828, 43.0451894], [17.7812452, 43.0463496], [17.7737044, 43.0480898], [17.77172, 43.0483798], [17.7689418, 43.0483798], [17.7665605, 43.05041], [17.7633855, 43.0512801], [17.7633855, 43.0538902], [17.7617979, 43.0562102], [17.7602104, 43.0550502], [17.7562416, 43.0527302], [17.7528237, 43.0517696], [17.7510821, 43.0512801]]]}}]}