{"type": "FeatureCollection", "features": [{"type": "Feature", "properties": {"name": "Općina Teočak, Tuzlanski kanton, Federacija Bosne i Hercegovine, 75414, Bosna i Hercegovina / Босна и Херцеговина", "source": "OpenStreetMap relation 2528272", "licence": "ODbL 1.0"}, "geometry": {"type": "Polygon", "coordinates": [[[18.9320814, 44.5589345], [18.9331614, 44.5591547], [18.933751, 44.5593974], [18.9344804, 44.5596449], [18.9346324, 44.5601135], [18.9345323, 44.5604352], [18.9343518, 44.5607199], [18.9342368, 44.5611984], [18.9338378, 44.5615615], [18.9332845, 44.561858], [18.9331506, 44.5621832], [18.9332079, 44.5625802], [18.9335717, 44.562677], [18.9339647, 44.5624025], [18.9348378, 44.5623272], [18.9353737, 44.5618472], [18.9362386, 44.5618847], [18.936787, 44.5620227], [18.9373381, 44.5623886], [18.939451, 44.561664], [18.9398185, 44.5617183], [18.9402632, 44.5616487], [18.9412299, 44.5611626], [18.9419296, 44.5610905], [18.9418182, 44.5612949], [18.9417811, 44.5615027], [18.9418032, 44.5616846], [18.9419928, 44.561841], [18.9422937, 44.5621571], [18.9425265, 44.5624987], [18.9425949, 44.5627373], [18.9425762, 44.563113], [18.9425559, 44.5635733], [18.9425529, 44.563792], [18.9426467, 44.5641942], [18.9428351, 44.5649696], [18.9429589, 44.5656423], [18.942987, 44.5659215], [18.9429322, 44.5664917], [18.9428939, 44.5666714], [18.9427614, 44.5668191], [18.9425798, 44.5670147], [18.9424593, 44.5672989], [18.9424087, 44.5676255], [18.942212, 44.5680643], [18.9417993, 44.5688348], [18.9416901, 44.5691545], [18.9413104, 44.5697821], [18.9411542, 44.5700822], [18.941162, 44.5704799], [18.9411846, 44.5707793], [18.9410801, 44.5709989], [18.9408288, 44.5713949], [18.9406816, 44.5718539], [18.9405672, 44.5720644], [18.9404161, 44.5722732], [18.9402556, 44.5724292], [18.9406023, 44.5726608], [18.9408425, 44.5727578], [18.9412585, 44.5728244], [18.9417282, 44.5728607], [18.9421211, 44.5729159], [18.9424399, 44.5730068], [18.942807, 44.5731846], [18.9433715, 44.573662], [18.9441354, 44.5734337], [18.9446041, 44.5733438], [18.9451508, 44.5733201], [18.9458435, 44.5734242], [18.9463309, 44.5735892], [18.9467846, 44.573949], [18.9470671, 44.5739887], [18.9474523, 44.5739689], [18.9480771, 44.5740108], [18.9487746, 44.5739643], [18.9493536, 44.5739608], [18.9501096, 44.5738645], [18.9507486, 44.5738499], [18.9512564, 44.5736841], [18.9518013, 44.5735158], [18.9523048, 44.5735415], [18.952603, 44.5737744], [18.9530921, 44.5742644], [18.9532717, 44.5744167], [18.9536158, 44.574482], [18.9537179, 44.5748447], [18.9537769, 44.575165], [18.9538782, 44.5753731], [18.9540401, 44.5755123], [18.9546027, 44.5757415], [18.9550381, 44.5758808], [18.9553399, 44.5759352], [18.9553678, 44.576262], [18.9556616, 44.5765035], [18.9558589, 44.5766346], [18.9560619, 44.5768167], [18.9564207, 44.5768959], [18.9572413, 44.5772835], [18.9578866, 44.5770066], [18.9585535, 44.5764221], [18.9601453, 44.5754046], [18.9609886, 44.5753201], [18.9613927, 44.575585], [18.961814, 44.5756547], [18.9622323, 44.5756532], [18.9625726, 44.5755891], [18.9629451, 44.5754428], [18.9635625, 44.5750214], [18.9639059, 44.5747524], [18.9640108, 44.5744156], [18.9647855, 44.574754], [18.9656656, 44.5753147], [18.9658677, 44.5757093], [18.9659662, 44.5760423], [18.9661547, 44.5763049], [18.9662679, 44.576481], [18.966266, 44.576616], [18.9661402, 44.5768046], [18.9660327, 44.5771471], [18.9660896, 44.5773734], [18.9661049, 44.5779001], [18.9661566, 44.5780856], [18.9662371, 44.57822], [18.9664541, 44.5784478], [18.966553, 44.5786371], [18.9665584, 44.5788214], [18.9665421, 44.5792182], [18.9665195, 44.5794869], [18.9666333, 44.579806], [18.9667892, 44.5801335], [18.9668982, 44.5804047], [18.9669722, 44.5805374], [18.9671254, 44.5806291], [18.9675275, 44.5807806], [18.9677676, 44.5808452], [18.9678534, 44.5808699], [18.9678201, 44.5809722], [18.9680243, 44.5812359], [18.9684616, 44.581589], [18.9688251, 44.5817878], [18.9694614, 44.5819625], [18.9699107, 44.5821756], [18.970327, 44.5824584], [18.9708214, 44.5828291], [18.9709992, 44.5829656], [18.9714827, 44.5837495], [18.9716443, 44.5838872], [18.9718281, 44.5839563], [18.972226, 44.5840351], [18.9726769, 44.5840778], [18.9736055, 44.5840714], [18.9739231, 44.5841066], [18.9741405, 44.5842023], [18.9743318, 44.5843418], [18.9745436, 44.5844324], [18.9752836, 44.5846473], [18.9759149, 44.5848686], [18.976367, 44.5849893], [18.9765671, 44.5851429], [18.9769176, 44.5854203], [18.9772339, 44.5858564], [18.9775664, 44.5862459], [18.9777729, 44.5864071], [18.9781405, 44.5866272], [18.9783221, 44.5866952], [18.978616, 44.5868528], [18.9789815, 44.5871225], [18.9792788, 44.5872642], [18.9796581, 44.5873939], [18.9801545, 44.5876982], [18.9807517, 44.5879612], [18.980969, 44.5880395], [18.9811282, 44.5881765], [18.9812714, 44.5882288], [18.9817937, 44.5884335], [18.982226, 44.5886775], [18.9827055, 44.5888314], [18.9829487, 44.58886], [18.983176, 44.5888489], [18.9838771, 44.5888485], [18.9842146, 44.5888655], [18.9844988, 44.5888444], [18.9847082, 44.5888502], [18.984816, 44.5889007], [18.9850471, 44.5890405], [18.9853673, 44.5893328], [18.9854901, 44.5893126], [18.985566, 44.5893717], [18.9854711, 44.5894221], [18.9856251, 44.5899612], [18.9857796, 44.590186], [18.986173, 44.5905481], [18.986504, 44.5908855], [18.9867012, 44.5911891], [18.9868342, 44.5913463], [18.9871302, 44.591637], [18.987668, 44.59211], [18.9880954, 44.5926789], [18.9884033, 44.5930351], [18.9888808, 44.5933843], [18.9892184, 44.5936422], [18.9893972, 44.5937166], [18.989887, 44.5938155], [18.9903839, 44.5938737], [18.9907246, 44.5939432], [18.990909, 44.5940208], [18.991057, 44.5941243], [18.9911439, 44.5942268], [18.9911842, 44.5943264], [18.9911939, 44.5944223], [18.9911817, 44.5946105], [18.9911439, 44.5947728], [18.9911473, 44.5948938], [18.9912278, 44.5950154], [18.9914033, 44.5951302], [18.9917088, 44.5952656], [18.9921085, 44.5954403], [18.9922958, 44.5955671], [18.9924265, 44.5957464], [18.9925287, 44.5957391], [18.9926621, 44.5957587], [18.9928566, 44.5957612], [18.992965, 44.595754], [18.9931398, 44.595734], [18.9936186, 44.5957047], [18.993645, 44.595845], [18.9939768, 44.5958673], [18.9943899, 44.595975], [18.9946597, 44.596137], [18.9948306, 44.5961773], [18.9950568, 44.596188], [18.9954204, 44.5961642], [18.9959399, 44.5960911], [18.9962022, 44.596035], [18.9965174, 44.5959469], [18.9967785, 44.5959035], [18.9973603, 44.5959136], [18.998122, 44.5960037], [18.9983218, 44.5959499], [18.9984872, 44.5958468], [18.9987752, 44.5956426], [18.9994648, 44.5953053], [18.9996807, 44.5951325], [18.9998761, 44.5950078], [19.0009506, 44.5945348], [19.0017851, 44.5941649], [19.0019157, 44.5940805], [19.0020184, 44.5939876], [19.0023366, 44.5936499], [19.0029321, 44.5929569], [19.0032355, 44.5925799], [19.0035822, 44.5921582], [19.003928, 44.5918656], [19.0042424, 44.5916784], [19.0048567, 44.5913419], [19.0052611, 44.5911843], [19.00559, 44.5911216], [19.0061148, 44.591069], [19.0064609, 44.591031], [19.0067981, 44.5909745], [19.0070612, 44.5909629], [19.0076268, 44.5909998], [19.0079445, 44.5910088], [19.0086397, 44.5908908], [19.0094178, 44.5908594], [19.0096694, 44.5907989], [19.0103576, 44.5904924], [19.0109851, 44.590368], [19.0113406, 44.5903748], [19.0118753, 44.5905192], [19.0120969, 44.590544], [19.0138322, 44.589996], [19.0145618, 44.5897025], [19.0148945, 44.5895105], [19.0151302, 44.5891659], [19.0154475, 44.5888941], [19.015823, 44.5887824], [19.0181051, 44.5893533], [19.0190652, 44.5894747], [19.019105, 44.5897205], [19.0207416, 44.5897303], [19.0217909, 44.5898071], [19.0226236, 44.5899765], [19.0231418, 44.5900072], [19.0237097, 44.5899234], [19.0240576, 44.5898835], [19.0242596, 44.5899526], [19.0244902, 44.5900872], [19.0250669, 44.5902167], [19.0257003, 44.5902225], [19.0267048, 44.5900342], [19.0272696, 44.5898667], [19.0277669, 44.5895802], [19.0282211, 44.5893797], [19.0283025, 44.5895055], [19.0283969, 44.5895046], [19.0283501, 44.5892711], [19.0285689, 44.5891819], [19.0287881, 44.5891668], [19.0297657, 44.589386], [19.0297963, 44.5891066], [19.0305429, 44.5887551], [19.0313502, 44.5885722], [19.0316194, 44.5886926], [19.0318765, 44.5887273], [19.0320928, 44.5886894], [19.0326524, 44.5885695], [19.0330797, 44.5883667], [19.0336192, 44.5882366], [19.0353714, 44.5878], [19.0357186, 44.5878507], [19.0364875, 44.5866011], [19.0367741, 44.5866295], [19.0368668, 44.5864853], [19.0387325, 44.5859078], [19.0393993, 44.5857463], [19.0399436, 44.585454], [19.04014, 44.5853662], [19.0402561, 44.584958], [19.0408158, 44.5849851], [19.0411447, 44.5850927], [19.0415092, 44.5853027], [19.041708, 44.5856652], [19.0417316, 44.5860794], [19.0414578, 44.5861244], [19.0417716, 44.586435], [19.0416224, 44.5870619], [19.0418264, 44.587164], [19.0421644, 44.587212], [19.0425952, 44.5871657], [19.0430259, 44.5871499], [19.0433247, 44.5872128], [19.0435656, 44.5873144], [19.0437875, 44.5874153], [19.0441617, 44.5873976], [19.0445298, 44.5872494], [19.0452758, 44.5864867], [19.0464581, 44.5863622], [19.0467447, 44.5864222], [19.0482493, 44.585796], [19.0491616, 44.5853502], [19.0494428, 44.5851302], [19.0493996, 44.586689], [19.049212, 44.5881879], [19.049179, 44.5902156], [19.0469749, 44.5920702], [19.0466424, 44.5926983], [19.0465346, 44.5934283], [19.0466169, 44.5948143], [19.0468801, 44.5958051], [19.0473627, 44.5970757], [19.0479281, 44.5979942], [19.0480293, 44.5988214], [19.0478396, 44.5995723], [19.0476715, 44.600206], [19.0474297, 44.6011176], [19.0473752, 44.6015155], [19.0473957, 44.6023983], [19.0474929, 44.603888], [19.0468127, 44.6062308], [19.0464595, 44.6073022], [19.0460393, 44.6079999], [19.0450305, 44.6096003], [19.0433467, 44.6116128], [19.0386836, 44.6152641], [19.0376528, 44.6160445], [19.0363256, 44.6169427], [19.0344364, 44.6181452], [19.0323543, 44.6195547], [19.0318295, 44.61991], [19.0273291, 44.6220791], [19.0248452, 44.6226899], [19.0226733, 44.62341], [19.0204541, 44.6239268], [19.0201373, 44.6240006], [19.0195886, 44.6240545], [19.0185935, 44.6241522], [19.012401, 44.6244538], [19.0096914, 44.6242697], [19.0073851, 44.6237841], [19.0070302, 44.6236497], [19.0043511, 44.6241896], [19.0018102, 44.6246875], [18.9997082, 44.6249893], [18.9977387, 44.6256087], [18.9952715, 44.6260818], [18.993213, 44.6264855], [18.9910363, 44.6269123], [18.9898509, 44.6267924], [18.9871115, 44.6259078], [18.9866655, 44.6257328], [18.9832184, 44.6245971], [18.981557, 44.6239312], [18.9805767, 44.6237062], [18.979371, 44.6229616], [18.9790115, 44.6228123], [18.9781399, 44.6224503], [18.9752741, 44.621123], [18.9727378, 44.6201243], [18.971711, 44.6195841], [18.9706203, 44.6186897], [18.9671245, 44.6169814], [18.965767, 44.6161849], [18.9636113, 44.6153369], [18.9627719, 44.61441], [18.9619191, 44.6140717], [18.959964, 44.6121028], [18.9594531, 44.6113882], [18.9588989, 44.6101814], [18.9588776, 44.6085978], [18.9588939, 44.6084569], [18.9590324, 44.6072617], [18.9587988, 44.6058479], [18.9579821, 44.6050002], [18.9565011, 44.6037027], [18.9552734, 44.6022773], [18.9540415, 44.6016047], [18.9518848, 44.6009155], [18.9506343, 44.6010679], [18.9506034, 44.6010798], [18.9504801, 44.6011272], [18.9500977, 44.6012692], [18.9500174, 44.6011711], [18.9499534, 44.6010948], [18.9493183, 44.6008836], [18.9488394, 44.600422], [18.9484478, 44.600097], [18.9475856, 44.5994789], [18.9467285, 44.5989529], [18.9461165, 44.5983761], [18.9437936, 44.5964673], [18.9440181, 44.5958853], [18.9452818, 44.5939266], [18.9458692, 44.5925191], [18.9458679, 44.5908084], [18.9454665, 44.5902219], [18.9452709, 44.5898282], [18.9448254, 44.5892181], [18.9447717, 44.5884141], [18.9442732, 44.5871858], [18.9439789, 44.5863753], [18.9434854, 44.5853999], [18.9433953, 44.5849412], [18.9427526, 44.5837289], [18.9422183, 44.5826759], [18.9420586, 44.5819751], [18.9407925, 44.5798468], [18.9400033, 44.57865], [18.939821, 44.5780115], [18.9387967, 44.5764658], [18.9375953, 44.5743813], [18.9372203, 44.5735494], [18.9365354, 44.5727297], [18.9359678, 44.5715211], [18.9350976, 44.5707008], [18.9341093, 44.5688733], [18.9332536, 44.5681511], [18.9327974, 44.5666963], [18.9330608, 44.5643762], [18.9326612, 44.5627036], [18.932136, 44.5596797], [18.9320814, 44.5589345]]]}}]}