{"type": "FeatureCollection", "features": [{"type": "Feature", "properties": {"name": "Općina Tešanj, Zeničko-dobojski kanton, Federacija Bosne i Hercegovine, Bosna i Hercegovina / Босна и Херцеговина", "source": "OpenStreetMap relation 2528273", "licence": "ODbL 1.0"}, "geometry": {"type": "Polygon", "coordinates": [[[17.8850439, 44.6606926], [17.8853006, 44.6528916], [17.885329, 44.6516969], [17.8854033, 44.6485743], [17.8863209, 44.6459022], [17.887498, 44.6424741], [17.8899522, 44.635109], [17.8905556, 44.633616], [17.891092, 44.6322885], [17.8962263, 44.6242863], [17.8976107, 44.6221476], [17.9010422, 44.6168459], [17.9051065, 44.6138196], [17.9075114, 44.6120289], [17.9107711, 44.6094941], [17.911629, 44.608827], [17.9141243, 44.6072845], [17.9210042, 44.6025617], [17.9291877, 44.5917672], [17.9301984, 44.5904339], [17.9376931, 44.5862954], [17.9384642, 44.5848955], [17.9412598, 44.5770801], [17.9418944, 44.5749578], [17.9436669, 44.5698884], [17.947835, 44.5679714], [17.949061, 44.5674519], [17.9513546, 44.5662313], [17.9518063, 44.5658866], [17.9520139, 44.5661357], [17.9521954, 44.5664311], [17.9523646, 44.5665098], [17.952293, 44.5660835], [17.9528134, 44.5659769], [17.9529825, 44.5660511], [17.9531256, 44.5663801], [17.9527809, 44.5665423], [17.9524947, 44.566635], [17.9525857, 44.5668018], [17.9530845, 44.5669652], [17.9532796, 44.5672248], [17.9543464, 44.5678087], [17.9549318, 44.5680126], [17.9557644, 44.5684852], [17.9559726, 44.5690043], [17.955127, 44.5698291], [17.9550359, 44.5702184], [17.9599925, 44.5653525], [17.9600836, 44.565195], [17.9599925, 44.5645276], [17.9599405, 44.5636007], [17.9600055, 44.5628499], [17.960617, 44.5621733], [17.9608902, 44.5616913], [17.9615537, 44.5611908], [17.9625034, 44.5608571], [17.9631929, 44.5608571], [17.9637653, 44.5607551], [17.9655996, 44.5603473], [17.966068, 44.5600321], [17.9668225, 44.5587436], [17.9675511, 44.5583265], [17.9691122, 44.5579186], [17.9712197, 44.5575293], [17.9733923, 44.5574366], [17.974303, 44.5578723], [17.9748754, 44.5581226], [17.9764235, 44.5582152], [17.9775814, 44.5584099], [17.9785701, 44.5592349], [17.9795458, 44.5596335], [17.9803394, 44.5605234], [17.9809769, 44.5612927], [17.9817834, 44.5616635], [17.982525, 44.5623958], [17.9826551, 44.5629334], [17.982551, 44.5636656], [17.9831234, 44.5646481], [17.9840601, 44.5635358], [17.9847756, 44.5624421], [17.9857513, 44.5612927], [17.9860245, 44.560579], [17.9863108, 44.559411], [17.9862847, 44.5588734], [17.9863888, 44.5579928], [17.9861677, 44.5570751], [17.9862457, 44.5563427], [17.986675, 44.5561573], [17.9870913, 44.5556567], [17.9877678, 44.555323], [17.9885354, 44.555323], [17.9888346, 44.5554621], [17.9894851, 44.5559441], [17.9901616, 44.5562315], [17.9908901, 44.5563149], [17.9914755, 44.5561573], [17.992139, 44.5557773], [17.9931928, 44.555323], [17.9935831, 44.5551932], [17.9944937, 44.555425], [17.9960679, 44.5558978], [17.9968875, 44.5561295], [17.9977981, 44.5561481], [17.9985267, 44.5559534], [17.9991381, 44.5553694], [18.0000228, 44.5547575], [18.000387, 44.5546463], [18.0009855, 44.554841], [18.0015969, 44.5551005], [18.0022604, 44.5551098], [18.0028068, 44.5553786], [18.0037695, 44.5552581], [18.0041858, 44.5551932], [18.004472, 44.5553601], [18.0052656, 44.5554435], [18.0069875, 44.5559764], [18.0075813, 44.5562129], [18.0080428, 44.5562135], [18.008391, 44.556172], [18.0087391, 44.5561944], [18.0106385, 44.5562964], [18.0113801, 44.5561202], [18.0124078, 44.5562871], [18.0129932, 44.5562408], [18.0134486, 44.5560368], [18.0135006, 44.5557958], [18.0136567, 44.555564], [18.0141381, 44.5554343], [18.0148146, 44.5552489], [18.0159464, 44.5553416], [18.0166619, 44.5554343], [18.0172604, 44.5551376], [18.0188735, 44.5545999], [18.0193679, 44.5542477], [18.0202005, 44.5540715], [18.0211502, 44.5541364], [18.0226333, 44.5543125], [18.0234399, 44.5547297], [18.0239212, 44.5550171], [18.0247965, 44.5550171], [18.0251816, 44.5547266], [18.0260953, 44.5546038], [18.0276565, 44.5547057], [18.0279687, 44.5545389], [18.0284761, 44.5543627], [18.0293347, 44.5545111], [18.0302193, 44.5547057], [18.0306356, 44.5549097], [18.0314032, 44.5549375], [18.0320927, 44.5550487], [18.0327432, 44.5550766], [18.0329513, 44.5569862], [18.0349808, 44.5590997], [18.0355142, 44.5591553], [18.0362818, 44.5593963], [18.0371274, 44.5594241], [18.0377648, 44.5596652], [18.0388446, 44.5595076], [18.0399765, 44.5593129], [18.0409652, 44.5592573], [18.0414465, 44.5597393], [18.042058, 44.5601935], [18.0424743, 44.5608609], [18.0425133, 44.561278], [18.0428125, 44.561964], [18.0429036, 44.5630021], [18.0431898, 44.5636046], [18.0432939, 44.5644851], [18.043476, 44.5650598], [18.0438793, 44.5655974], [18.0445688, 44.5658939], [18.0447014, 44.566247], [18.044826, 44.5668602], [18.0451657, 44.5674411], [18.0450865, 44.5678768], [18.0449279, 44.5687643], [18.0447694, 44.5694582], [18.0442937, 44.5704667], [18.0438746, 44.5713058], [18.0433423, 44.5722578], [18.0429233, 44.5726693], [18.0426741, 44.5730565], [18.0420059, 44.5734196], [18.0406809, 44.5740973], [18.0404657, 44.5745732], [18.0398881, 44.5752832], [18.0395823, 44.5758963], [18.0393218, 44.57634], [18.0391972, 44.5767595], [18.0393671, 44.5772435], [18.0390274, 44.5778244], [18.0386083, 44.5783407], [18.0385857, 44.5786875], [18.0388462, 44.579591], [18.0390613, 44.5802606], [18.0392539, 44.5807849], [18.0392878, 44.5811318], [18.0389934, 44.5815432], [18.038631, 44.5819223], [18.0383365, 44.5822127], [18.0384271, 44.5825595], [18.0386763, 44.582979], [18.0389481, 44.5837856], [18.0398201, 44.5845116], [18.0407262, 44.5851488], [18.0412358, 44.5853747], [18.0416662, 44.5856812], [18.0427195, 44.5860199], [18.0435122, 44.5863506], [18.0437387, 44.5863668], [18.0442937, 44.5864394], [18.0446788, 44.5869798], [18.0449279, 44.5871492], [18.0456188, 44.5874073], [18.0459925, 44.5877057], [18.0463323, 44.5881896], [18.0469325, 44.5887139], [18.0470684, 44.588972], [18.0472156, 44.5891414], [18.047193, 44.5895366], [18.0470571, 44.5897866], [18.046219, 44.590577], [18.0462417, 44.5909158], [18.0461171, 44.5914158], [18.0457433, 44.591932], [18.0458339, 44.5922304], [18.0463549, 44.5923917], [18.0466494, 44.5924159], [18.0468872, 44.5924159], [18.0471024, 44.5926175], [18.0470911, 44.5928756], [18.0473062, 44.5932788], [18.0477366, 44.5936579], [18.0480877, 44.5938192], [18.0484161, 44.5938272], [18.0487333, 44.5939805], [18.0489711, 44.593803], [18.0494581, 44.5937305], [18.0498545, 44.5945047], [18.0502848, 44.594787], [18.0508058, 44.5949321], [18.0510663, 44.5948595], [18.0513268, 44.5949241], [18.05144, 44.5951418], [18.0517911, 44.5953918], [18.0520403, 44.5955289], [18.0521309, 44.5957547], [18.0515646, 44.5963031], [18.0516099, 44.5964805], [18.0519044, 44.5968192], [18.0517118, 44.5972305], [18.0515306, 44.5974724], [18.0515193, 44.5979079], [18.0516665, 44.5983998], [18.0517571, 44.5986498], [18.0518364, 44.598924], [18.0520629, 44.5991417], [18.0524933, 44.5993111], [18.0533668, 44.5995926], [18.0540673, 44.5997441], [18.054438, 44.5999313], [18.0547012, 44.6002214], [18.054815, 44.6009158], [18.0549355, 44.6014199], [18.0550259, 44.6021833], [18.0552907, 44.6024721], [18.0554379, 44.6028108], [18.0554379, 44.6032624], [18.0553133, 44.6035768], [18.0549396, 44.6041735], [18.0545545, 44.6042784], [18.0542601, 44.6045203], [18.0536485, 44.6047218], [18.053388, 44.6050444], [18.0530029, 44.6054475], [18.0527991, 44.6059878], [18.0527991, 44.6064877], [18.0528217, 44.6065925], [18.0529193, 44.6068664], [18.0529306, 44.6073501], [18.052772, 44.6076565], [18.052772, 44.6083983], [18.0525569, 44.609003], [18.0521945, 44.6094707], [18.0521945, 44.6097932], [18.0518094, 44.610285], [18.0517414, 44.6107365], [18.0516508, 44.6111235], [18.0518094, 44.6113896], [18.0524663, 44.6119136], [18.0530212, 44.6125183], [18.0534403, 44.6131149], [18.0542104, 44.6138969], [18.0546294, 44.6140823], [18.0551277, 44.614034], [18.0564981, 44.6141549], [18.0579704, 44.614558], [18.0583781, 44.6150014], [18.0592615, 44.6162107], [18.0601336, 44.6168153], [18.0602015, 44.6172023], [18.0605526, 44.6178794], [18.0610056, 44.6188146], [18.0608018, 44.6194111], [18.0606206, 44.6202253], [18.0606545, 44.6208541], [18.0609037, 44.6214022], [18.0617531, 44.6222809], [18.0622175, 44.6224098], [18.0628404, 44.6225066], [18.0632934, 44.622966], [18.0639295, 44.6231843], [18.0649154, 44.6239954], [18.06523, 44.6245459], [18.0688542, 44.6286164], [18.0702698, 44.6312036], [18.0717195, 44.6319934], [18.0725123, 44.6322997], [18.0775634, 44.634645], [18.0797039, 44.634371], [18.0827731, 44.636289], [18.0827844, 44.6366678], [18.0829656, 44.636837], [18.0834073, 44.6369821], [18.0837018, 44.636966], [18.0842794, 44.6368209], [18.0850042, 44.6369337], [18.0856724, 44.6371997], [18.0867483, 44.6381506], [18.0874618, 44.6387873], [18.0881753, 44.6391418], [18.0885604, 44.6395609], [18.0886737, 44.6398187], [18.0889568, 44.640125], [18.0895457, 44.6403909], [18.0898562, 44.6405784], [18.090078, 44.6406326], [18.0908321, 44.6401758], [18.0918728, 44.6409402], [18.0928414, 44.6425202], [18.0930981, 44.6429388], [18.0931518, 44.6442227], [18.092325, 44.6452814], [18.0908304, 44.6460584], [18.0891441, 44.6464258], [18.083942, 44.6467306], [18.0816114, 44.6468544], [18.0800479, 44.6470974], [18.0791247, 44.6474906], [18.0780504, 44.6492546], [18.0779435, 44.6504079], [18.0784204, 44.6526042], [18.0787105, 44.6533579], [18.0791379, 44.6549817], [18.0797747, 44.656607], [18.0803977, 44.6585841], [18.0800094, 44.6595154], [18.078649, 44.6606063], [18.0774876, 44.6613833], [18.0763818, 44.6621153], [18.0746991, 44.6627105], [18.071828, 44.6638644], [18.0711683, 44.6641281], [18.0705357, 44.6638228], [18.0703195, 44.6637488], [18.0701503, 44.6636655], [18.0701276, 44.6636077], [18.0701568, 44.6635591], [18.0703455, 44.6635521], [18.0705309, 44.6635938], [18.0706252, 44.6635776], [18.0705406, 44.663418], [18.0704495, 44.6633069], [18.0701991, 44.6632838], [18.0701146, 44.6633185], [18.0698609, 44.6633416], [18.0697113, 44.6633393], [18.0695454, 44.6633231], [18.0694576, 44.6632375], [18.0693047, 44.6631034], [18.0691779, 44.6629114], [18.068947, 44.6628558], [18.0688982, 44.6628003], [18.0689111, 44.6627402], [18.0688273, 44.6625368], [18.0686399, 44.662344], [18.0684773, 44.6622668], [18.068423, 44.6621862], [18.0684625, 44.662067], [18.0683578, 44.6619271], [18.0681143, 44.6618828], [18.0679841, 44.6616895], [18.0678142, 44.6612626], [18.0677632, 44.6611417], [18.0675537, 44.661033], [18.0665571, 44.660449], [18.0655378, 44.6601308], [18.0648413, 44.6599978], [18.0642354, 44.6599978], [18.0638843, 44.659869], [18.0634709, 44.6594299], [18.0631821, 44.6590634], [18.0628877, 44.6589385], [18.0626045, 44.6585478], [18.0624403, 44.658435], [18.0620156, 44.658435], [18.0616532, 44.6583061], [18.0607415, 44.658004], [18.0602375, 44.658004], [18.0599657, 44.6579436], [18.0595353, 44.6578349], [18.0592239, 44.6580403], [18.0590766, 44.6583061], [18.0586689, 44.6583746], [18.0580064, 44.6583504], [18.0577459, 44.6584713], [18.0574118, 44.6585317], [18.0574118, 44.6588257], [18.0572249, 44.6590432], [18.057123, 44.6591721], [18.0568852, 44.6591882], [18.0566134, 44.6591842], [18.0561887, 44.6591359], [18.055764, 44.6590996], [18.0555714, 44.6589788], [18.0551977, 44.6591037], [18.0549655, 44.6590956], [18.0546824, 44.658862], [18.0546088, 44.6586928], [18.0546654, 44.6586002], [18.0548239, 44.6585236], [18.0548013, 44.6584592], [18.0546654, 44.6583665], [18.0543086, 44.6583746], [18.0541331, 44.6582779], [18.0540029, 44.6580363], [18.0538783, 44.6578953], [18.0534762, 44.6577825], [18.0530402, 44.6575166], [18.0527344, 44.6572105], [18.0524739, 44.6569366], [18.052355, 44.6567553], [18.0520436, 44.656566], [18.0517831, 44.6563727], [18.0515622, 44.6562559], [18.0511772, 44.6562599], [18.0509053, 44.65628], [18.0505882, 44.6561914], [18.0504184, 44.6562116], [18.0501239, 44.6560383], [18.0498747, 44.6556476], [18.0495714, 44.655394], [18.0492806, 44.6549662], [18.049246, 44.6547488], [18.048758, 44.6544121], [18.04857, 44.6541778], [18.04789, 44.6539785], [18.0470121, 44.6538057], [18.0455886, 44.653524], [18.044961, 44.6534284], [18.0446322, 44.653346], [18.0442287, 44.6532157], [18.0435973, 44.6530058], [18.0437094, 44.6532104], [18.0439224, 44.6534071], [18.0443296, 44.653718], [18.0445463, 44.6541193], [18.0449124, 44.6544436], [18.0450992, 44.6546376], [18.0452524, 44.6550336], [18.0452449, 44.6556129], [18.0450357, 44.6562773], [18.0449348, 44.6565431], [18.0446845, 44.6569444], [18.044423, 44.6574174], [18.0443147, 44.6576513], [18.0441428, 44.6578107], [18.0438178, 44.6580074], [18.0433433, 44.6583847], [18.0428128, 44.6586425], [18.0425363, 44.6587488], [18.0423533, 44.6588073], [18.0423271, 44.6589215], [18.0423271, 44.6590969], [18.0422599, 44.6591926], [18.0419871, 44.6594477], [18.0418302, 44.6596736], [18.0417107, 44.6599579], [18.0416658, 44.6602449], [18.0417406, 44.6609332], [18.0418153, 44.6617702], [18.0417406, 44.6622299], [18.0416957, 44.6625063], [18.0417443, 44.6627242], [18.0418937, 44.6630988], [18.0420768, 44.6633911], [18.0425326, 44.6636728], [18.0432312, 44.6640767], [18.0433508, 44.6642494], [18.0435264, 44.6645922], [18.0437318, 44.6651794], [18.043885, 44.6655381], [18.044083, 44.6658198], [18.0443632, 44.6660589], [18.0447406, 44.6662742], [18.0449124, 44.6665], [18.0450133, 44.6667259], [18.0450955, 44.6673317], [18.0452225, 44.6680066], [18.0453234, 44.6682563], [18.0454878, 44.6684184], [18.0455774, 44.6685858], [18.0457829, 44.6691969], [18.0458091, 44.6696672], [18.0459959, 44.6698133], [18.0462536, 44.6700923], [18.0461715, 44.6703739], [18.0461752, 44.6705599], [18.0462424, 44.6711046], [18.0463209, 44.67162], [18.0463844, 44.6718352], [18.0466795, 44.6722071], [18.046829, 44.672417], [18.0468551, 44.6725658], [18.0467057, 44.672959], [18.0466459, 44.6732088], [18.0466795, 44.6735037], [18.0466609, 44.6737746], [18.0465189, 44.6741652], [18.0463881, 44.6744415], [18.0461939, 44.6747815], [18.0459996, 44.6750578], [18.0457642, 44.6752677], [18.0454952, 44.6754085], [18.0452113, 44.6755254], [18.0450432, 44.6756795], [18.0448975, 44.6759478], [18.0445127, 44.6769786], [18.0443072, 44.6774515], [18.044225, 44.6777835], [18.0441988, 44.6781422], [18.0442549, 44.6786416], [18.044281, 44.6789179], [18.0442362, 44.6791623], [18.0441764, 44.6793589], [18.0442175, 44.6795236], [18.044494, 44.6798902], [18.04489, 44.6803311], [18.0450041, 44.6805941], [18.0449926, 44.6807088], [18.0449124, 44.6807827], [18.044748, 44.6808305], [18.0445089, 44.6808252], [18.0441615, 44.6811041], [18.0441167, 44.6812449], [18.0441727, 44.6813724], [18.0439934, 44.6817656], [18.0437954, 44.6821773], [18.0437094, 44.6825067], [18.0435563, 44.6828149], [18.0435114, 44.6829769], [18.0436497, 44.6832983], [18.0437244, 44.683471], [18.0437991, 44.6837844], [18.0435488, 44.6839597], [18.0426596, 44.6851418], [18.0425587, 44.6855003], [18.0424579, 44.6861192], [18.0421515, 44.6866239], [18.0419274, 44.6870462], [18.0417032, 44.6873543], [18.0414828, 44.6877182], [18.0411764, 44.6879918], [18.0410793, 44.6882229], [18.0409037, 44.688701], [18.0411727, 44.6888577], [18.0415538, 44.689025], [18.0414193, 44.6893331], [18.0411802, 44.689535], [18.0407814, 44.689815], [18.0406879, 44.6900424], [18.0406613, 44.6905616], [18.0405962, 44.690775], [18.0404575, 44.6910286], [18.0402564, 44.6909662], [18.0398006, 44.6907629], [18.0385435, 44.6918478], [18.0386511, 44.6920209], [18.0380197, 44.6925141], [18.0375625, 44.6929646], [18.037385, 44.6931637], [18.0371235, 44.6935475], [18.037527, 44.6938795], [18.0374037, 44.6940136], [18.0380705, 44.6943934], [18.0392315, 44.6949915], [18.0410309, 44.6958509], [18.0409077, 44.6959697], [18.0406669, 44.6961467], [18.0402538, 44.6963641], [18.0386992, 44.6969328], [18.0387771, 44.6974266], [18.0386749, 44.6980381], [18.0383052, 44.6980941], [18.037689, 44.6981292], [18.0367671, 44.6981116], [18.0359093, 44.6979294], [18.0352882, 44.6977682], [18.0342037, 44.6973547], [18.032991, 44.6969097], [18.0323945, 44.696766], [18.0317783, 44.6964752], [18.0285592, 44.695911], [18.0280071, 44.6955466], [18.0276521, 44.6953363], [18.0262225, 44.6948002], [18.0256162, 44.6944532], [18.0252908, 44.6940993], [18.0241422, 44.6926344], [18.0233387, 44.6916707], [18.0230922, 44.6912887], [18.0230034, 44.6910434], [18.0229877, 44.6903093], [18.0241905, 44.6893385], [18.0251567, 44.6886516], [18.0257927, 44.687467], [18.0258765, 44.687099], [18.025837, 44.6867731], [18.0251469, 44.6860756], [18.0249251, 44.684891], [18.0248018, 44.6840953], [18.02458, 44.6830228], [18.0240279, 44.6818626], [18.0236828, 44.6812037], [18.022894, 44.6801276], [18.0237419, 44.6796754], [18.0241018, 44.6792828], [18.0238405, 44.6791636], [18.0234215, 44.6790129], [18.0226821, 44.6788201], [18.0217637, 44.6785784], [18.0211638, 44.6784042], [18.0204338, 44.6781467], [18.0196109, 44.677751], [18.018058, 44.6770779], [18.0171344, 44.6767132], [18.0164549, 44.6763749], [18.0160132, 44.676083], [18.0150081, 44.6752173], [18.0144305, 44.6746777], [18.0135273, 44.6740334], [18.0134197, 44.6741904], [18.0134027, 44.6743434], [18.013414, 44.6746757], [18.0131479, 44.6747361], [18.012256, 44.675485], [18.0113698, 44.6752998], [18.0111942, 44.6752918], [18.010996, 44.6750864], [18.0109168, 44.6748569], [18.0109932, 44.674732], [18.0111914, 44.6746173], [18.0122457, 44.6741672], [18.0129173, 44.6738681], [18.0128315, 44.6737323], [18.0129195, 44.6737124], [18.0130225, 44.673804], [18.0131834, 44.6738956], [18.0132392, 44.6738879], [18.0132757, 44.6738437], [18.0123873, 44.673305], [18.0117007, 44.6729861], [18.0106256, 44.6725787], [18.0106085, 44.6724566], [18.0105419, 44.6718859], [18.0108402, 44.671805], [18.0110634, 44.6719897], [18.0111192, 44.672069], [18.0112393, 44.6721957], [18.0112672, 44.6722781], [18.0118208, 44.6723849], [18.0118723, 44.6722796], [18.0122693, 44.6723086], [18.0123637, 44.67233], [18.0124495, 44.6724108], [18.0125418, 44.672481], [18.0126942, 44.6724551], [18.0129882, 44.6724265], [18.013153, 44.672408], [18.0134019, 44.6723698], [18.0134386, 44.6720478], [18.0135292, 44.6719129], [18.0137755, 44.671782], [18.0146085, 44.6715095], [18.0150996, 44.6712968], [18.0155842, 44.6711533], [18.0158704, 44.6711001], [18.0161339, 44.671114], [18.0164038, 44.6711926], [18.0172657, 44.671831], [18.0176043, 44.6721713], [18.0178803, 44.672322], [18.0181367, 44.672322], [18.0183684, 44.6722519], [18.0185902, 44.6721152], [18.0190339, 44.6713825], [18.0197838, 44.6702121], [18.0198258, 44.6700063], [18.0198218, 44.6698337], [18.0197601, 44.6694894], [18.0196787, 44.6691069], [18.019626, 44.6689142], [18.0195307, 44.6686872], [18.0193803, 44.6684513], [18.0190721, 44.6680778], [18.0189192, 44.6677955], [18.0187918, 44.6675847], [18.0186698, 44.6673939], [18.0185826, 44.6672919], [18.0184805, 44.6672075], [18.018258, 44.6670668], [18.0181243, 44.6669424], [18.0179898, 44.666773], [18.017912, 44.6666309], [18.0178845, 44.6665044], [18.0179254, 44.6663113], [18.0179765, 44.6660939], [18.0180396, 44.6659531], [18.0182112, 44.6657272], [18.018246, 44.6656694], [18.0183171, 44.6655893], [18.0183586, 44.6654825], [18.018367, 44.6653526], [18.0183492, 44.6651944], [18.0182996, 44.6650218], [18.0182085, 44.6648329], [18.018121, 44.6646578], [18.0179196, 44.6645008], [18.0173914, 44.6642026], [18.017207, 44.6640214], [18.0169383, 44.6634857], [18.016834, 44.6633007], [18.0164189, 44.6630534], [18.0159388, 44.6628432], [18.0155805, 44.66243], [18.0154721, 44.6619786], [18.0155273, 44.6618024], [18.0158664, 44.66152], [18.0165434, 44.661294], [18.0167574, 44.6611615], [18.0168486, 44.6610871], [18.0169152, 44.6610036], [18.0169639, 44.660903], [18.0169961, 44.6607704], [18.0169849, 44.6606225], [18.016921, 44.6604918], [18.0168164, 44.66041], [18.0165857, 44.6603068], [18.016435, 44.660203], [18.0162869, 44.6600952], [18.0162652, 44.6600511], [18.0162585, 44.6599977], [18.0162666, 44.6598854], [18.0162774, 44.6597993], [18.0163905, 44.6594541], [18.0168019, 44.6590125], [18.0168968, 44.6588606], [18.0169455, 44.6586238], [18.0168459, 44.6583858], [18.0163131, 44.6575014], [18.0161829, 44.6569884], [18.0162401, 44.6565519], [18.0163142, 44.6556421], [18.0164319, 44.6542774], [18.0162152, 44.6544209], [18.0160433, 44.6544049], [18.0155203, 44.6542508], [18.0151766, 44.6542242], [18.0148702, 44.6542986], [18.0146087, 44.6544209], [18.0143098, 44.6544793], [18.0140707, 44.6544528], [18.0130919, 44.653985], [18.0125049, 44.6535832], [18.0121101, 44.6531802], [18.0114663, 44.65282], [18.0108569, 44.6523742], [18.010093, 44.6520506], [18.0099471, 44.6518491], [18.0099128, 44.6515683], [18.0096896, 44.651263], [18.009681, 44.6510676], [18.009518, 44.650744], [18.0091231, 44.6503471], [18.0084623, 44.6500051], [18.0074323, 44.6496449], [18.0073762, 44.6498333], [18.0074611, 44.6501919], [18.0075687, 44.6504215], [18.0077952, 44.6506954], [18.0079772, 44.6509421], [18.0075674, 44.6512799], [18.0072616, 44.6516316], [18.007034, 44.6520157], [18.0066957, 44.6521638], [18.0059412, 44.6518352], [18.0054663, 44.6518028], [18.0049459, 44.6518075], [18.0047573, 44.6519555], [18.0045166, 44.6517797], [18.004302, 44.6514974], [18.0039897, 44.6509791], [18.003658, 44.6504794], [18.0032027, 44.6501878], [18.0029165, 44.6499379], [18.0026238, 44.6499379], [18.0024286, 44.6498547], [18.0020318, 44.6497482], [18.0016285, 44.6496973], [18.0012382, 44.6494798], [18.0011146, 44.6496927], [18.0009195, 44.6498223], [18.0003406, 44.6501277], [17.9998202, 44.6504285], [17.99956, 44.6506876], [17.9991502, 44.6510254], [17.9987469, 44.6511596], [17.9987859, 44.651229], [17.9984867, 44.6513031], [17.998851, 44.6514974], [17.9989876, 44.651701], [17.9990006, 44.6519], [17.9987144, 44.6517612], [17.9989876, 44.6527746], [17.999622, 44.6528161], [17.9997551, 44.653549], [17.9998636, 44.6540329], [18.0000115, 44.6542679], [18.0004601, 44.6546887], [18.000889, 44.6550359], [18.0015791, 44.6554672], [18.0021632, 44.6558487], [18.0023948, 44.6560241], [18.0026451, 44.6565449], [18.0023873, 44.6566805], [18.0020212, 44.6565636], [18.0014846, 44.6568679], [18.0009298, 44.6570895], [18.0002692, 44.657342], [17.9994607, 44.6577488], [17.9997466, 44.6580924], [17.9992142, 44.6586184], [17.9995692, 44.6589691], [17.9993818, 44.6595231], [17.9988987, 44.6597054], [17.9987015, 44.6599719], [17.9983959, 44.6598737], [17.9981987, 44.6597475], [17.9977748, 44.6601192], [17.9974987, 44.6605119], [17.9972522, 44.6608485], [17.9970747, 44.6611781], [17.9968874, 44.6613254], [17.9968973, 44.6615428], [17.996779, 44.6617111], [17.9962268, 44.6619285], [17.9957733, 44.6621248], [17.9955958, 44.6623352], [17.9956254, 44.6626437], [17.9957826, 44.6629966], [17.9958958, 44.6634477], [17.9958392, 44.663778], [17.9953862, 44.6642774], [17.9948086, 44.6649701], [17.9945821, 44.665236], [17.9946613, 44.6656548], [17.9948765, 44.6658401], [17.9948765, 44.6665811], [17.9950691, 44.6666455], [17.9952842, 44.6672577], [17.9955107, 44.6677813], [17.9955107, 44.6682404], [17.9953975, 44.6685223], [17.9951936, 44.6688606], [17.9952088, 44.6690349], [17.9946234, 44.6692014], [17.9938428, 44.6705429], [17.9945973, 44.6708852], [17.99409, 44.6712646], [17.9936867, 44.6717457], [17.9932704, 44.6719307], [17.9934525, 44.6720787], [17.9937387, 44.6723285], [17.9940119, 44.6727911], [17.994181, 44.6729576], [17.994142, 44.6732722], [17.9946364, 44.673744], [17.9948055, 44.6743546], [17.9952999, 44.6743546], [17.9959373, 44.6745211], [17.9966138, 44.6746784], [17.9957942, 44.6752149], [17.9953649, 44.6753907], [17.9949616, 44.6758995], [17.9935306, 44.678462], [17.9929061, 44.678758], [17.9924117, 44.6788505], [17.9914751, 44.678869], [17.9905254, 44.6787487], [17.9896277, 44.678388], [17.9887821, 44.6779717], [17.9884308, 44.6774721], [17.9883918, 44.6768708], [17.9885609, 44.676288], [17.9890293, 44.6752797], [17.9889382, 44.6747986], [17.9883658, 44.6744933], [17.9879105, 44.6744286], [17.9874421, 44.6745118], [17.9868697, 44.6747431], [17.9861449, 44.6754464], [17.985959, 44.6755757], [17.9856078, 44.6756516], [17.9850052, 44.6756861], [17.9844181, 44.6756677], [17.983711, 44.6755352], [17.9833589, 44.675321], [17.983188, 44.6750021], [17.9830579, 44.6742991], [17.9828888, 44.6739012], [17.9823164, 44.6729946], [17.9820302, 44.6719029], [17.9814838, 44.6705614], [17.9810414, 44.6699786], [17.9800397, 44.6692569], [17.9792331, 44.6688036], [17.9783875, 44.6686185], [17.9775549, 44.6686093], [17.9770033, 44.6687013], [17.9765913, 44.6688967], [17.9761278, 44.6692385], [17.9758446, 44.669678], [17.9753296, 44.670209], [17.9746172, 44.6704959], [17.9736731, 44.6705753], [17.9725916, 44.6705692], [17.9715273, 44.6704471], [17.9703943, 44.6702274], [17.9692785, 44.6699283], [17.9685404, 44.6696292], [17.967931, 44.6691408], [17.9673988, 44.6693362], [17.9670984, 44.669446], [17.9666693, 44.6694705], [17.9661371, 44.6694338], [17.9656908, 44.6692385], [17.9653217, 44.6690615], [17.9652101, 44.6689089], [17.9652101, 44.6687258], [17.9649956, 44.668506], [17.9645492, 44.6683229], [17.964575, 44.668036], [17.9642832, 44.6679627], [17.9639399, 44.6677857], [17.9636137, 44.667627], [17.9636652, 44.6672852], [17.9635279, 44.6670715], [17.9632961, 44.6669433], [17.9632189, 44.666693], [17.9631674, 44.6665099], [17.9630043, 44.6664122], [17.9614937, 44.6660887], [17.9610645, 44.6658995], [17.960498, 44.6657469], [17.9602491, 44.6655332], [17.9601204, 44.6653379], [17.9597599, 44.6652829], [17.9595024, 44.6653928], [17.9592449, 44.6655393], [17.9591762, 44.6657347], [17.958884, 44.6659278], [17.9587368, 44.6661211], [17.9584423, 44.6661452], [17.9582158, 44.6663788], [17.9575816, 44.6664835], [17.9572305, 44.6663788], [17.9568794, 44.6661613], [17.9564377, 44.6657586], [17.9567567, 44.664984], [17.9551836, 44.6644793], [17.9541821, 44.6660086], [17.9541821, 44.6662161], [17.9541992, 44.6663718], [17.9535641, 44.6667289], [17.9533881, 44.6668052], [17.9531392, 44.6668418], [17.9529933, 44.6669578], [17.9528774, 44.6672386], [17.9526929, 44.6673516], [17.9522552, 44.667788], [17.9521307, 44.6680871], [17.9519848, 44.6683893], [17.9518604, 44.6685358], [17.9516072, 44.6685388], [17.951281, 44.668783], [17.9505042, 44.6695674], [17.9504399, 44.6697841], [17.950324, 44.6698207], [17.9501437, 44.6698909], [17.9500493, 44.6699885], [17.9500965, 44.6702113], [17.9501698, 44.6704969], [17.9501437, 44.670718], [17.9501137, 44.6712368], [17.9501652, 44.6716793], [17.9499463, 44.6719906], [17.9498262, 44.672247], [17.9496888, 44.6723538], [17.9495687, 44.6724423], [17.9493756, 44.6729825], [17.9495086, 44.6732632], [17.9496202, 44.6734952], [17.9495172, 44.6736356], [17.9497232, 44.6738278], [17.9495987, 44.6740262], [17.9490365, 44.6744199], [17.948646, 44.6745847], [17.9483456, 44.6748563], [17.9482297, 44.6750546], [17.9479593, 44.6751767], [17.9478091, 44.6753171], [17.947719, 44.6755612], [17.9478649, 44.6759457], [17.9478521, 44.6761807], [17.9478263, 44.6765439], [17.9480108, 44.6765683], [17.9480709, 44.6767483], [17.9482469, 44.6769772], [17.9481782, 44.6771084], [17.94844, 44.6773587], [17.9483756, 44.6774472], [17.9483241, 44.6777218], [17.9484014, 44.6778194], [17.9485044, 44.6782772], [17.9486074, 44.6783992], [17.9489421, 44.6783931], [17.9493241, 44.6783901], [17.9494957, 44.6784755], [17.9494056, 44.6786037], [17.9492211, 44.6785274], [17.9491052, 44.6785671], [17.9491481, 44.6787929], [17.9491438, 44.6789546], [17.949088, 44.6790614], [17.94947, 44.6791194], [17.94947, 44.6792476], [17.9493241, 44.6792964], [17.9493841, 44.6795039], [17.949264, 44.6795649], [17.9491395, 44.679449], [17.9490837, 44.6795283], [17.9491738, 44.6796565], [17.9494013, 44.6796931], [17.9494957, 44.6798487], [17.9492425, 44.6800074], [17.9493884, 44.6801813], [17.9492082, 44.680279], [17.9490451, 44.6802637], [17.9488692, 44.6802179], [17.9488005, 44.6802912], [17.9489035, 44.6803431], [17.9488777, 44.6805109], [17.9488906, 44.6806696], [17.949088, 44.6807397], [17.9489679, 44.6809594], [17.9487833, 44.6810205], [17.9488992, 44.6811456], [17.9488992, 44.6812554], [17.9490923, 44.6813836], [17.9491266, 44.6816308], [17.9489893, 44.6817681], [17.9491438, 44.681881], [17.9490837, 44.6819908], [17.9493412, 44.6821098], [17.9493841, 44.682241], [17.949161, 44.6825065], [17.9492339, 44.6826255], [17.949088, 44.6827964], [17.9489893, 44.6829703], [17.9488134, 44.6830161], [17.9489164, 44.6831564], [17.9488005, 44.6832693], [17.9486717, 44.6832754], [17.9486417, 44.6833975], [17.9486803, 44.683489], [17.9486546, 44.6836141], [17.948543, 44.6836233], [17.9484915, 44.6837362], [17.9483627, 44.6841206], [17.9482984, 44.6842396], [17.9484872, 44.6844075], [17.9485816, 44.6846302], [17.9487275, 44.6848102], [17.9489679, 44.6851214], [17.9491009, 44.6852679], [17.948955, 44.6854083], [17.9487576, 44.685454], [17.9487275, 44.6853777], [17.9486245, 44.6853045], [17.9484958, 44.6853472], [17.9484014, 44.6854235], [17.9485516, 44.6854906], [17.9485945, 44.6855852], [17.9483842, 44.6856127], [17.9482297, 44.6855578], [17.9481353, 44.6854876], [17.9478091, 44.6855639], [17.9476332, 44.6856584], [17.9475516, 44.6858842], [17.947616, 44.6859331], [17.9478864, 44.6858934], [17.9480495, 44.6858324], [17.9481053, 44.6858903], [17.9479551, 44.6859971], [17.9477534, 44.6860673], [17.9479508, 44.6861222], [17.9480924, 44.6862809], [17.9480709, 44.6863633], [17.9479636, 44.6863389], [17.9478049, 44.6864456], [17.9479508, 44.6864945], [17.9479851, 44.6866318], [17.9481633, 44.6865898], [17.9482717, 44.6866879], [17.9482224, 44.6867966], [17.9482816, 44.6869227], [17.9481633, 44.6869718], [17.9477147, 44.6872767], [17.947621, 44.6874274], [17.947764, 44.6875186], [17.9477936, 44.6876622], [17.947971, 44.6877429], [17.9479809, 44.687834], [17.9479464, 44.6879742], [17.9480203, 44.6882475], [17.9482224, 44.6883632], [17.9481239, 44.6884228], [17.9482027, 44.6885384], [17.9484591, 44.6886681], [17.9484591, 44.6888679], [17.9482175, 44.6889765], [17.9481732, 44.6891553], [17.9480795, 44.6894321], [17.9482372, 44.6896319], [17.9481682, 44.6898176], [17.9483309, 44.6899263], [17.9485182, 44.6901856], [17.9488024, 44.6902728], [17.9489799, 44.6904831], [17.9492411, 44.6906548], [17.9495665, 44.6907179], [17.9496602, 44.6910158], [17.9497735, 44.6914749], [17.9498672, 44.6920356], [17.9497489, 44.6921863], [17.9497144, 44.6923055], [17.9500644, 44.692323], [17.9501285, 44.6924422], [17.9501235, 44.6927926], [17.9498672, 44.6928031], [17.9496897, 44.6928942], [17.9496503, 44.6932447], [17.9497144, 44.6934164], [17.9496404, 44.6936967], [17.9495573, 44.693976], [17.9491797, 44.6942628], [17.9488817, 44.6945462], [17.9487141, 44.6946724], [17.9486401, 44.6949107], [17.9485218, 44.6949492], [17.9482408, 44.6950579], [17.9481373, 44.6952751], [17.9479401, 44.6954433], [17.947715, 44.695731], [17.9476851, 44.6958], [17.9475955, 44.6960603], [17.9475955, 44.6962621], [17.947446, 44.6963577], [17.9473414, 44.6967136], [17.9470949, 44.6968783], [17.9469155, 44.6970801], [17.9469081, 44.6972448], [17.9467661, 44.6974094], [17.9466914, 44.6976325], [17.9467063, 44.6977812], [17.9463925, 44.697829], [17.9461833, 44.6982167], [17.9458396, 44.6987478], [17.9455481, 44.6991674], [17.9452941, 44.6992205], [17.9450475, 44.699417], [17.9450082, 44.6996216], [17.9452486, 44.6995667], [17.9454632, 44.6999023], [17.9456348, 44.7000487], [17.9453859, 44.7000731], [17.9456262, 44.7002805], [17.9456863, 44.7005489], [17.9458408, 44.7004513], [17.9459095, 44.7008052], [17.9459352, 44.70122], [17.945755, 44.7016105], [17.9459524, 44.7017386], [17.94627, 44.7019155], [17.9462785, 44.7020619], [17.9469019, 44.7021484], [17.9472401, 44.7024859], [17.9472531, 44.7026154], [17.947032, 44.7028188], [17.9466157, 44.7033135], [17.9465441, 44.7034799], [17.9465701, 44.7037019], [17.9466222, 44.7038082], [17.9461083, 44.7040394], [17.9460172, 44.7041966], [17.9462189, 44.704326], [17.9460823, 44.7044832], [17.9461278, 44.7046404], [17.9461148, 44.7048068], [17.9460042, 44.7048484], [17.9458546, 44.7049779], [17.9461343, 44.7050981], [17.9460433, 44.7052691], [17.9457831, 44.705602], [17.9456725, 44.7057453], [17.9455034, 44.7057176], [17.9453017, 44.70581], [17.9451456, 44.7059117], [17.9451456, 44.7060643], [17.945022, 44.7062215], [17.9448659, 44.7063509], [17.9447943, 44.7065035], [17.9445992, 44.7069982], [17.9446447, 44.7071137], [17.9450936, 44.7072894], [17.945061, 44.7077933], [17.9449765, 44.7081262], [17.9451196, 44.7088658], [17.9450025, 44.7093004], [17.9438967, 44.710641], [17.9438772, 44.7109091], [17.9439422, 44.7114222], [17.9438707, 44.7117597], [17.9437406, 44.7126796], [17.9437471, 44.7134284], [17.9433178, 44.7140802], [17.9427909, 44.7145471], [17.9425697, 44.7146534], [17.9423095, 44.7146765], [17.9418672, 44.7147227], [17.9415875, 44.7148059], [17.9412688, 44.7148198], [17.9410346, 44.7147597], [17.9408004, 44.7145933], [17.940176, 44.7144546], [17.9399288, 44.7143945], [17.9398442, 44.714242], [17.9397727, 44.7140155], [17.9395905, 44.7139369], [17.9393499, 44.7137381], [17.9390572, 44.713507], [17.9380879, 44.7131326], [17.9374895, 44.7129338], [17.9369626, 44.7128506], [17.9366764, 44.7128506], [17.9365268, 44.7129015], [17.9349201, 44.712735], [17.9349722, 44.7124022], [17.9353513, 44.7107966], [17.9351109, 44.7107051], [17.9345959, 44.7106197], [17.9333257, 44.7105953], [17.9323643, 44.7104611], [17.9311713, 44.7102903], [17.9305276, 44.7102598], [17.9282445, 44.7103574], [17.9281071, 44.7100707], [17.9279784, 44.7098633], [17.9279441, 44.709601], [17.9282445, 44.7094424], [17.9284934, 44.7092716], [17.9284848, 44.709113], [17.9283303, 44.7090398], [17.9280271, 44.7086878], [17.9278212, 44.7082181], [17.9277353, 44.7079985], [17.9277697, 44.7078094], [17.927701, 44.7075776], [17.9274778, 44.7075471], [17.9273748, 44.7073397], [17.9274177, 44.7068395], [17.9273748, 44.7065528], [17.9272547, 44.7062417], [17.927289, 44.7058574], [17.9271774, 44.7057659], [17.9272321, 44.7055486], [17.9272064, 44.7054082], [17.9270948, 44.7053564], [17.9268159, 44.7054754], [17.9265155, 44.7055486], [17.9261979, 44.7056004], [17.9259576, 44.7056187], [17.9257816, 44.7054906], [17.9255756, 44.7055181], [17.9253696, 44.7055211], [17.9247645, 44.7057438], [17.9241851, 44.705878], [17.9240006, 44.7059603], [17.9238976, 44.7060579], [17.9239148, 44.7061555], [17.9237388, 44.706247], [17.92355, 44.7063202], [17.9233226, 44.7063812], [17.9231852, 44.7064819], [17.9230951, 44.7065917], [17.9229277, 44.7067259], [17.9227089, 44.7067442], [17.9225629, 44.7067808], [17.922417, 44.7067106], [17.9225715, 44.7064727], [17.9229492, 44.7062226], [17.9231037, 44.7059878], [17.9232024, 44.7055852], [17.9234427, 44.705213], [17.9235243, 44.7049995], [17.9235629, 44.7045115], [17.9237302, 44.7043559], [17.9238204, 44.7041943], [17.9238204, 44.7040784], [17.9235285, 44.7036422], [17.922902, 44.7031298], [17.9226359, 44.7029955], [17.922151, 44.7027912], [17.9215416, 44.7027454], [17.9213012, 44.7027393], [17.9209837, 44.7028156], [17.9207605, 44.7028064], [17.9200372, 44.7031083], [17.9192837, 44.7026388], [17.9188869, 44.7024816], [17.9180238, 44.7018446], [17.9177548, 44.7020331], [17.9173401, 44.7021872], [17.9169777, 44.7023677], [17.916761, 44.7025058], [17.916507, 44.7025934], [17.9162859, 44.7027204], [17.9161994, 44.7024324], [17.9160629, 44.7012121], [17.915279, 44.6991246], [17.9152081, 44.6980266], [17.9147213, 44.6956637], [17.9143091, 44.6939807], [17.9140595, 44.6935492], [17.9125945, 44.6927382], [17.911721, 44.6924178], [17.9110476, 44.6920622], [17.9104981, 44.6915624], [17.908893, 44.6909345], [17.9081401, 44.6904813], [17.9060901, 44.6893955], [17.9032499, 44.686243], [17.8997645, 44.6822038], [17.8993636, 44.6817823], [17.8985229, 44.6808983], [17.8934489, 44.6766817], [17.8923872, 44.6755821], [17.8920432, 44.6754191], [17.8915941, 44.6752584], [17.8912163, 44.6747814], [17.8885126, 44.6723839], [17.8876919, 44.6717265], [17.8862562, 44.6706187], [17.8855265, 44.6651697], [17.8850439, 44.6606926]]]}}]}