{"type": "FeatureCollection", "features": [{"type": "Feature", "properties": {"name": "Općina Tomislavgrad, Hercegbosanska županija, Federacija Bosne i Hercegovine, Bosna i Hercegovina / Босна и Херцеговина", "source": "OpenStreetMap relation 2528275", "licence": "ODbL 1.0"}, "geometry": {"type": "Polygon", "coordinates": [[[16.9058731, 43.6760487], [16.9063665, 43.6757864], [16.9066913, 43.6755785], [16.9079362, 43.6749655], [16.9080663, 43.6748248], [16.9082701, 43.6748054], [16.9085652, 43.6744601], [16.9089031, 43.6739063], [16.909294, 43.6730011], [16.9095164, 43.6727809], [16.9096575, 43.6726412], [16.909869, 43.6724317], [16.9102925, 43.6715346], [16.9107699, 43.6708963], [16.9163382, 43.6640144], [16.9161209, 43.6630171], [16.9161481, 43.6625655], [16.9163825, 43.6622273], [16.9172192, 43.6620406], [16.9193654, 43.6591719], [16.9197929, 43.658426], [16.9246732, 43.6561499], [16.9258891, 43.6556053], [16.9273184, 43.6551147], [16.9277708, 43.6545335], [16.9284706, 43.6527113], [16.9291919, 43.6512152], [16.9316418, 43.6466688], [16.9318, 43.6437588], [16.9393411, 43.6387659], [16.9466407, 43.6339369], [16.9530356, 43.6295584], [16.9577328, 43.6263802], [16.9651884, 43.6217528], [16.9709992, 43.6180452], [16.9722517, 43.6159604], [16.9746622, 43.6119477], [16.9764226, 43.6090171], [16.9767759, 43.6084522], [16.9779638, 43.606107], [16.9794153, 43.6044726], [16.9820352, 43.6013013], [16.9847684, 43.5988272], [16.985311, 43.5983651], [16.986146, 43.5976539], [16.9862285, 43.5975421], [16.9877402, 43.5954937], [16.9892512, 43.5929624], [16.9893195, 43.592848], [16.9902826, 43.5919524], [16.9906772, 43.5915855], [16.9907904, 43.5914802], [16.9912106, 43.5912483], [16.9912906, 43.5912042], [16.991516, 43.5910798], [16.9936395, 43.5909055], [16.9948465, 43.5899847], [16.9949886, 43.5896292], [16.9951361, 43.5891027], [16.9951281, 43.5888055], [16.9956062, 43.5885049], [16.9957206, 43.5884293], [16.9960642, 43.5881624], [16.9974274, 43.5872861], [16.997121, 43.5854503], [16.9975012, 43.5853752], [16.9993328, 43.5850138], [16.9996895, 43.5847783], [17.0013572, 43.5827714], [17.0023918, 43.5821281], [17.0028456, 43.5818459], [17.0067713, 43.5794048], [17.0068145, 43.5790074], [17.0071363, 43.5785255], [17.007308, 43.5778571], [17.0073187, 43.5775229], [17.0072436, 43.5772664], [17.0076835, 43.5771654], [17.0075762, 43.57694], [17.0075548, 43.576699], [17.0084238, 43.5763415], [17.0081148, 43.575932], [17.0079839, 43.5757585], [17.0081448, 43.575642], [17.008295, 43.5755642], [17.0087993, 43.575401], [17.0093787, 43.5752222], [17.0141862, 43.5720517], [17.0151186, 43.5714368], [17.016374, 43.5708716], [17.019203, 43.5695979], [17.024306, 43.5673003], [17.0245142, 43.5672066], [17.025944, 43.5665628], [17.0262885, 43.5664346], [17.0274997, 43.5659836], [17.0287174, 43.5644211], [17.0288329, 43.5643681], [17.0289802, 43.5643006], [17.0292968, 43.5642073], [17.0302677, 43.5637603], [17.0305816, 43.5635526], [17.031008, 43.5632705], [17.0311689, 43.563185], [17.031346, 43.5631072], [17.0320487, 43.5626602], [17.0323062, 43.5625747], [17.0328217, 43.5621708], [17.0336026, 43.5615063], [17.0341331, 43.5610726], [17.0348004, 43.5605132], [17.0362932, 43.5593501], [17.0371381, 43.5589521], [17.0386042, 43.5584267], [17.0407463, 43.5576562], [17.0423517, 43.557066], [17.0429723, 43.5568888], [17.0438714, 43.5567704], [17.0460768, 43.5563678], [17.0484493, 43.5560107], [17.0498667, 43.5557885], [17.0506125, 43.5556646], [17.0513275, 43.5554436], [17.0521414, 43.5551355], [17.0529927, 43.5549212], [17.05379, 43.5548147], [17.0546724, 43.5547895], [17.0553299, 43.5545978], [17.0559961, 43.5542689], [17.0565664, 43.5538711], [17.0569147, 43.5536028], [17.0575129, 43.553477], [17.0577233, 43.5535382], [17.0582674, 43.5532674], [17.058938, 43.5529435], [17.0592425, 43.5525224], [17.0594299, 43.5529857], [17.0592654, 43.5532122], [17.0598132, 43.5534327], [17.0599297, 43.5536168], [17.0605577, 43.5536133], [17.0613623, 43.5536601], [17.0621405, 43.5536924], [17.0623509, 43.5538247], [17.0629121, 43.5535782], [17.0631988, 43.5535934], [17.0633977, 43.5531633], [17.0632761, 43.5529208], [17.0638776, 43.5527376], [17.0641996, 43.5525917], [17.0645538, 43.5523836], [17.0647762, 43.5523455], [17.0650629, 43.5519498], [17.0655368, 43.5517706], [17.064985, 43.5515068], [17.0648378, 43.5513962], [17.0642963, 43.5512499], [17.0641059, 43.5510723], [17.0635178, 43.5512381], [17.0634133, 43.5514071], [17.0627912, 43.5513172], [17.0620276, 43.5513874], [17.0625462, 43.551117], [17.0632383, 43.5507905], [17.0639201, 43.5504858], [17.0649755, 43.5503677], [17.0692563, 43.5489175], [17.0703292, 43.5487542], [17.0714933, 43.54723], [17.0717078, 43.5468995], [17.0723557, 43.5465457], [17.0727052, 43.5463549], [17.0728402, 43.5462812], [17.0735536, 43.5458916], [17.0756453, 43.5447493], [17.0757312, 43.5445938], [17.0784264, 43.5439692], [17.0796467, 43.5436864], [17.0804626, 43.5434973], [17.0806503, 43.5434117], [17.0808274, 43.5433068], [17.0824313, 43.5430073], [17.0825601, 43.5429296], [17.0826083, 43.5428674], [17.0826191, 43.5426146], [17.0828015, 43.5422063], [17.0827961, 43.5419613], [17.0826727, 43.5415647], [17.0828336, 43.5414053], [17.0829141, 43.5412692], [17.0829356, 43.5410164], [17.0828819, 43.5408337], [17.0827681, 43.5407155], [17.082721, 43.5406665], [17.0825493, 43.540577], [17.0831111, 43.5395867], [17.0832784, 43.5393327], [17.08442, 43.5382603], [17.0854407, 43.5385199], [17.0847756, 43.5413858], [17.0845181, 43.5421169], [17.0849967, 43.5448926], [17.0850491, 43.5451965], [17.0863903, 43.5499984], [17.0852471, 43.5518235], [17.0865995, 43.5533031], [17.086623, 43.5533101], [17.0866907, 43.5533303], [17.0866585, 43.5533925], [17.0871775, 43.5540688], [17.0872783, 43.5542002], [17.0878547, 43.5549514], [17.0885333, 43.555425], [17.0927846, 43.5583919], [17.096647, 43.5603317], [17.0941678, 43.5627119], [17.0983046, 43.5627729], [17.1000963, 43.5623725], [17.1020704, 43.5628973], [17.1030575, 43.5624814], [17.1028644, 43.5621121], [17.1037693, 43.5617634], [17.1040446, 43.5616573], [17.1041465, 43.5619139], [17.1043879, 43.5617972], [17.1051404, 43.5619009], [17.1052623, 43.5619177], [17.1053573, 43.5615331], [17.105509, 43.5609187], [17.1062547, 43.5608682], [17.106834, 43.5606466], [17.1075743, 43.5601996], [17.1083951, 43.5595465], [17.1092695, 43.558909], [17.1101761, 43.5585824], [17.1107769, 43.5585708], [17.111603, 43.5584425], [17.1124077, 43.5583181], [17.112928, 43.5581315], [17.1130543, 43.5580454], [17.1132928, 43.5578827], [17.1137005, 43.5576494], [17.1143711, 43.5574356], [17.1150362, 43.5573812], [17.1160018, 43.5574784], [17.1167958, 43.55756], [17.117992, 43.5577855], [17.1188585, 43.5579532], [17.1198589, 43.5586407], [17.1199554, 43.5586368], [17.1215889, 43.5568467], [17.123225, 43.5567689], [17.125285, 43.5566484], [17.1281737, 43.5564579], [17.1283105, 43.5564171], [17.1303437, 43.5567218], [17.1310585, 43.5568289], [17.1311432, 43.5568416], [17.131189, 43.5568485], [17.1312287, 43.5568544], [17.132181, 43.5570664], [17.132704, 43.5571829], [17.1330276, 43.5570616], [17.1331726, 43.5570072], [17.133832, 43.5567599], [17.1340368, 43.5566832], [17.1341658, 43.5566348], [17.1375105, 43.5576941], [17.1395267, 43.5583466], [17.1397689, 43.558425], [17.1413046, 43.5584003], [17.1417216, 43.5583936], [17.1423036, 43.5583842], [17.1467239, 43.5582675], [17.1471932, 43.5582438], [17.1485755, 43.558174], [17.1490332, 43.5581509], [17.1490584, 43.5581494], [17.149805, 43.5581053], [17.1503449, 43.5580734], [17.1506437, 43.5580557], [17.1516296, 43.5579974], [17.1518141, 43.5580443], [17.1519518, 43.5580793], [17.1522455, 43.558154], [17.1556959, 43.5590314], [17.1577236, 43.5587515], [17.1616101, 43.5581354], [17.164979, 43.5574959], [17.1692142, 43.5564287], [17.1724007, 43.5570663], [17.1800637, 43.5586602], [17.1866995, 43.5592666], [17.1870911, 43.5593288], [17.187826, 43.5594376], [17.1881694, 43.5594415], [17.1887594, 43.559461], [17.1946013, 43.5603939], [17.2002447, 43.5598614], [17.2003359, 43.5599352], [17.2083771, 43.5591772], [17.2128913, 43.5596534], [17.2128645, 43.5597117], [17.2145945, 43.5596514], [17.2144684, 43.5592549], [17.2143692, 43.5590256], [17.2144926, 43.5588176], [17.2146159, 43.5586679], [17.2151363, 43.5584464], [17.2154367, 43.5583492], [17.2173035, 43.5580265], [17.2180277, 43.5583725], [17.218194, 43.5583919], [17.2236925, 43.5586096], [17.2262406, 43.5584969], [17.2269112, 43.5584464], [17.2305644, 43.5583025], [17.2314441, 43.558423], [17.2330695, 43.558563], [17.2343892, 43.5582267], [17.2346467, 43.5583511], [17.2348237, 43.5583939], [17.2349793, 43.5584425], [17.2350919, 43.5585338], [17.2351778, 43.5586582], [17.2352394, 43.5587923], [17.2353467, 43.5588643], [17.2354674, 43.5589323], [17.2355345, 43.5590139], [17.2355425, 43.5591305], [17.2357061, 43.5594998], [17.2358, 43.559562], [17.2358885, 43.5596514], [17.2359824, 43.5597409], [17.2360441, 43.5598478], [17.2360307, 43.5600674], [17.2360629, 43.5602015], [17.2361568, 43.5602812], [17.236248, 43.5603745], [17.2362043, 43.5605033], [17.2361729, 43.5606019], [17.2361353, 43.5606524], [17.2359556, 43.5608624], [17.2357464, 43.560977], [17.2357249, 43.561047], [17.2357759, 43.5611073], [17.2359288, 43.5610878], [17.2362024, 43.5610567], [17.2371143, 43.5610101], [17.2423848, 43.5609693], [17.2425941, 43.5609537], [17.2426933, 43.5608857], [17.2428301, 43.5607846], [17.2455499, 43.5604931], [17.2545379, 43.559321], [17.2565979, 43.5581431], [17.2573703, 43.5578866], [17.2580932, 43.5576397], [17.2581093, 43.5574619], [17.2582726, 43.557447], [17.2584245, 43.5574298], [17.2582528, 43.5571236], [17.258061, 43.5567533], [17.2578438, 43.5565434], [17.2575568, 43.5564423], [17.2573556, 43.556143], [17.2573113, 43.5558145], [17.2573495, 43.5556709], [17.2573811, 43.5555521], [17.257483, 43.5551517], [17.2574723, 43.5548912], [17.2574133, 43.5547512], [17.2567642, 43.5546812], [17.2561634, 43.5545899], [17.2559139, 43.554518], [17.2557235, 43.5544227], [17.255533, 43.5542789], [17.2553641, 43.5540378], [17.2553403, 43.5539555], [17.2551951, 43.5534527], [17.2548062, 43.5530465], [17.2545594, 43.5528968], [17.254326, 43.5528287], [17.2540329, 43.5527175], [17.2522768, 43.5520512], [17.2520488, 43.5519443], [17.2520032, 43.5518335], [17.252183, 43.5516293], [17.2524648, 43.5513673], [17.252875, 43.5509859], [17.2549725, 43.5498001], [17.2586283, 43.5500567], [17.2587624, 43.5500606], [17.2591415, 43.5500441], [17.2598809, 43.550012], [17.2599106, 43.5499875], [17.2600403, 43.5498807], [17.2601737, 43.5497709], [17.2603516, 43.5496245], [17.2649127, 43.5458692], [17.2705936, 43.5441661], [17.2714895, 43.5438472], [17.2716263, 43.5438492], [17.273308, 43.546987], [17.2731632, 43.5474322], [17.2732785, 43.5481029], [17.2733912, 43.5485734], [17.2734207, 43.5488514], [17.2732839, 43.5490944], [17.2733134, 43.5494074], [17.276296, 43.5534877], [17.2764221, 43.5535247], [17.2769129, 43.5534041], [17.2779999, 43.5454192], [17.2785612, 43.5458261], [17.2791225, 43.5470465], [17.2824573, 43.548773], [17.2830514, 43.5490806], [17.2836395, 43.5495068], [17.2844857, 43.5501202], [17.2846171, 43.5502154], [17.2848411, 43.5503777], [17.2849471, 43.5504545], [17.285159, 43.5506081], [17.2875416, 43.5523349], [17.2909093, 43.553962], [17.2970833, 43.5507078], [17.2993284, 43.5490806], [17.302696, 43.5470465], [17.306625, 43.5466397], [17.3105539, 43.5458261], [17.3139216, 43.5466397], [17.3200563, 43.5466397], [17.3229369, 43.5466397], [17.3231944, 43.5466397], [17.3247233, 43.5466397], [17.3248547, 43.5466397], [17.3251471, 43.5466397], [17.3260353, 43.5463822], [17.3262157, 43.5463299], [17.3279534, 43.5458261], [17.3318824, 43.5470465], [17.3324503, 43.5475039], [17.3325597, 43.5475919], [17.3329163, 43.5478791], [17.333952, 43.5487133], [17.3341286, 43.5488555], [17.3343539, 43.5490369], [17.3344948, 43.5491504], [17.3346728, 43.5492937], [17.3348076, 43.5494023], [17.3350935, 43.5496325], [17.3362506, 43.5505644], [17.3364291, 43.5507081], [17.3369339, 43.5511146], [17.3404444, 43.5525684], [17.3406526, 43.5526547], [17.3408628, 43.5527417], [17.341583, 43.5529157], [17.3437974, 43.5534507], [17.3442304, 43.5535553], [17.3475981, 43.5559959], [17.3480451, 43.5563199], [17.3485896, 43.5567144], [17.3487506, 43.5568311], [17.3492819, 43.5572161], [17.3508263, 43.5592307], [17.3520883, 43.5608768], [17.3537721, 43.563317], [17.3560172, 43.5665706], [17.3577011, 43.568604], [17.3593849, 43.572264], [17.3599462, 43.5734839], [17.360365, 43.5741919], [17.36163, 43.5763303], [17.3649976, 43.5767369], [17.3689266, 43.5779567], [17.371733, 43.57877], [17.3756619, 43.5808029], [17.3784683, 43.5832424], [17.3801521, 43.5856818], [17.3846423, 43.5877146], [17.3863261, 43.5889342], [17.3885712, 43.5934059], [17.3908163, 43.5946254], [17.3929536, 43.5966583], [17.3946382, 43.5969596], [17.3955482, 43.5971224], [17.3965631, 43.5973039], [17.3968793, 43.5973605], [17.3971637, 43.5974113], [17.3980043, 43.5975617], [17.4020418, 43.5982838], [17.4048482, 43.5990967], [17.4065701, 43.5994708], [17.4084287, 43.5998746], [17.4101933, 43.6002579], [17.410461, 43.6003161], [17.4128061, 43.6011652], [17.4131473, 43.6012888], [17.4149512, 43.6019419], [17.4159908, 43.6019419], [17.4184263, 43.6019419], [17.4192095, 43.6019419], [17.4204275, 43.6019419], [17.4205639, 43.6019419], [17.4211286, 43.6016352], [17.422809, 43.6007225], [17.426738, 43.5970643], [17.426738, 43.5970092], [17.426738, 43.5965351], [17.426738, 43.5952015], [17.426738, 43.592819], [17.426738, 43.5922665], [17.426738, 43.5913734], [17.4273495, 43.5909305], [17.4275346, 43.5907964], [17.4281413, 43.5903088], [17.4281931, 43.5903195], [17.4284218, 43.5901538], [17.4284602, 43.5900982], [17.4285315, 43.5899949], [17.4288351, 43.5895551], [17.4289435, 43.5893981], [17.4295443, 43.5885277], [17.4294526, 43.5880629], [17.4289831, 43.5856818], [17.4284218, 43.5844621], [17.4334733, 43.5832424], [17.4374022, 43.5828359], [17.4407699, 43.5808029], [17.4475052, 43.5779567], [17.4508728, 43.5767369], [17.4542405, 43.5763303], [17.4564856, 43.575517], [17.4614352, 43.5743218], [17.4615371, 43.5742972], [17.4618083, 43.5742972], [17.4643434, 43.5742972], [17.4665885, 43.5759237], [17.4670133, 43.5764513], [17.4674918, 43.5770454], [17.4692034, 43.579171], [17.4696015, 43.5796654], [17.4698663, 43.5799942], [17.4704973, 43.5807669], [17.4705175, 43.5808029], [17.4711864, 43.5816106], [17.4669903, 43.5832898], [17.4708849, 43.5882246], [17.4738605, 43.5898599], [17.4738743, 43.5904464], [17.4735044, 43.5908233], [17.4732646, 43.5916222], [17.4733311, 43.5918788], [17.4733531, 43.5920773], [17.4733805, 43.5922858], [17.4735779, 43.5924946], [17.4737549, 43.5927044], [17.4738085, 43.5928793], [17.473771, 43.5931357], [17.4736798, 43.593431], [17.4736744, 43.5935087], [17.4737656, 43.5936252], [17.4739212, 43.5936602], [17.4743138, 43.5937616], [17.4747574, 43.5940659], [17.4750078, 43.59423], [17.475582, 43.5947189], [17.4757531, 43.5950452], [17.4758623, 43.595338], [17.475847, 43.5954745], [17.4757451, 43.595595], [17.4755251, 43.5957309], [17.4754339, 43.5959252], [17.4754661, 43.5960884], [17.4755734, 43.5962282], [17.4757692, 43.5963331], [17.4758792, 43.5963603], [17.4759865, 43.5964069], [17.476126, 43.5965429], [17.4762708, 43.5966517], [17.4766731, 43.5971606], [17.4771559, 43.5975841], [17.4773008, 43.5977278], [17.4771613, 43.5980114], [17.4770379, 43.5982134], [17.4770272, 43.59833], [17.4771664, 43.5984604], [17.477408, 43.5985379], [17.4775408, 43.5985524], [17.4776427, 43.598564], [17.4777499, 43.5986019], [17.4779338, 43.5987486], [17.4781832, 43.5989098], [17.4783698, 43.5990598], [17.4787002, 43.5993461], [17.4790712, 43.5996121], [17.479932, 43.600227], [17.4803335, 43.6004972], [17.4807375, 43.6007607], [17.4810954, 43.6010634], [17.4816406, 43.6014417], [17.4818444, 43.6015854], [17.4817747, 43.6016281], [17.4818551, 43.6017991], [17.4820697, 43.6021254], [17.4822575, 43.6022069], [17.4825498, 43.6025061], [17.4990486, 43.6144456], [17.4998367, 43.6150093], [17.499743, 43.6150969], [17.499885, 43.6153316], [17.5000191, 43.6155608], [17.5001317, 43.6158249], [17.5003602, 43.616148], [17.5010759, 43.616757], [17.5020381, 43.617392], [17.5026315, 43.6179182], [17.503077, 43.6185647], [17.5033706, 43.6189569], [17.5037844, 43.6194367], [17.5055282, 43.6218927], [17.5067548, 43.6235584], [17.5071733, 43.6240892], [17.5074702, 43.6246986], [17.5077385, 43.6251374], [17.5082481, 43.6257936], [17.5087041, 43.6262285], [17.5092643, 43.6266365], [17.5094756, 43.6268755], [17.5102229, 43.6277211], [17.5106393, 43.6282764], [17.5111506, 43.6289583], [17.5139503, 43.6323746], [17.5140082, 43.6324452], [17.5145809, 43.6331397], [17.5152276, 43.6339241], [17.5157046, 43.6346969], [17.5163644, 43.6354889], [17.5172156, 43.6364865], [17.517609, 43.6370613], [17.518207, 43.6379862], [17.5183764, 43.6382334], [17.5185328, 43.6384706], [17.5189447, 43.6390646], [17.5195777, 43.6398992], [17.519925, 43.6403502], [17.5203556, 43.6408193], [17.5209403, 43.6414366], [17.5215357, 43.6421625], [17.522072, 43.6427183], [17.5221688, 43.6428186], [17.5226033, 43.643199], [17.5233563, 43.64371], [17.524397, 43.6449979], [17.5255779, 43.6460536], [17.5259364, 43.6463742], [17.52693, 43.6472299], [17.5273255, 43.6475704], [17.5283251, 43.6484232], [17.5289226, 43.6489328], [17.5324078, 43.6519058], [17.532651, 43.6521369], [17.533257, 43.652713], [17.5343967, 43.653796], [17.5348343, 43.6542334], [17.5350648, 43.6545216], [17.5348851, 43.6546109], [17.5341542, 43.6549699], [17.5339691, 43.6550737], [17.533823, 43.655195], [17.5331175, 43.6557442], [17.5329781, 43.6558509], [17.5328493, 43.6560237], [17.5327608, 43.6560838], [17.5055483, 43.6681301], [17.4991555, 43.6782145], [17.4955026, 43.6803204], [17.4952668, 43.6804563], [17.4951597, 43.6805181], [17.4943535, 43.6809828], [17.4942005, 43.681071], [17.4941357, 43.6811084], [17.4937963, 43.681304], [17.4936408, 43.6814242], [17.4933617, 43.6817171], [17.4924323, 43.6826922], [17.491885, 43.6832664], [17.4918255, 43.6833288], [17.4916808, 43.6834807], [17.4916486, 43.6835144], [17.4913201, 43.683859], [17.4880242, 43.6873169], [17.4799921, 43.7005051], [17.4818577, 43.7087345], [17.4817084, 43.708676], [17.4814471, 43.7085186], [17.4811174, 43.7084242], [17.4806875, 43.7081652], [17.4800473, 43.7073318], [17.4798328, 43.7069905], [17.4797201, 43.7067365], [17.4772095, 43.709005], [17.4733043, 43.7155658], [17.4571466, 43.7243743], [17.4541425, 43.7277702], [17.4547434, 43.7354142], [17.4459779, 43.7445144], [17.4458492, 43.7447624], [17.4415576, 43.7507612], [17.4373412, 43.7591616], [17.4241125, 43.7603085], [17.4205828, 43.76285], [17.41907, 43.7638806], [17.4146819, 43.7648104], [17.4146068, 43.7646012], [17.4142527, 43.7644849], [17.4137056, 43.7641905], [17.4130404, 43.7639581], [17.4123859, 43.7637411], [17.4119568, 43.7635086], [17.4115598, 43.7634777], [17.4108839, 43.7637643], [17.4107122, 43.7638341], [17.4104333, 43.7639503], [17.3977947, 43.7628655], [17.3856389, 43.7667164], [17.3693848, 43.7638341], [17.3639978, 43.7629827], [17.358264, 43.769158], [17.3521363, 43.7730455], [17.3477274, 43.774824], [17.3470385, 43.7784795], [17.341987, 43.7817214], [17.3352517, 43.7833423], [17.3324454, 43.7837476], [17.3273939, 43.784558], [17.3223424, 43.784558], [17.3167296, 43.7837476], [17.3167296, 43.7833423], [17.3139233, 43.7813162], [17.3122394, 43.7817214], [17.3099943, 43.7829371], [17.3026977, 43.786584], [17.2987688, 43.7877996], [17.2942786, 43.7890151], [17.2903497, 43.7890151], [17.2858595, 43.7902307], [17.2841756, 43.791041], [17.280808, 43.793472], [17.2763178, 43.7954977], [17.2740727, 43.7967131], [17.270938, 43.7983998], [17.2692203, 43.7996671], [17.2677934, 43.8005344], [17.2668278, 43.8008751], [17.262311, 43.8025864], [17.2631907, 43.8032601], [17.2640276, 43.8038718], [17.2656906, 43.8040809], [17.2672462, 43.8066902], [17.2674179, 43.8071548], [17.267493, 43.8074877], [17.2674286, 43.8077665], [17.2671497, 43.8081614], [17.2670102, 43.8086336], [17.2672892, 43.8088659], [17.2675359, 43.8092685], [17.2677934, 43.8096711], [17.2666622, 43.8112285], [17.2669995, 43.8116919], [17.2673857, 43.8120093], [17.2676217, 43.8122725], [17.2674179, 43.8126132], [17.2670317, 43.8129693], [17.2665381, 43.813457], [17.2666025, 43.8137667], [17.2671389, 43.8146106], [17.2671068, 43.8148583], [17.2668815, 43.8150673], [17.266978, 43.8153383], [17.267214, 43.8155164], [17.2672784, 43.8158338], [17.2670102, 43.8160428], [17.2663665, 43.8164376], [17.266109, 43.816786], [17.2660017, 43.8180478], [17.2659588, 43.8182801], [17.2655404, 43.8187445], [17.2645426, 43.8194258], [17.2638667, 43.8198515], [17.2631478, 43.8203702], [17.2616136, 43.8209275], [17.2606051, 43.8228859], [17.2618711, 43.8249527], [17.2557127, 43.8289775], [17.2566891, 43.8296974], [17.2566783, 43.8304094], [17.2570753, 43.8313846], [17.2564638, 43.8314852], [17.2550154, 43.8321199], [17.2545969, 43.8323288], [17.2541034, 43.8325146], [17.2534382, 43.8326616], [17.252816, 43.832948], [17.2525048, 43.833126], [17.2523653, 43.8332885], [17.2520864, 43.8337297], [17.2516465, 43.8344726], [17.2505414, 43.8381022], [17.2494149, 43.8444244], [17.248798, 43.847148], [17.2484332, 43.8488735], [17.2481489, 43.8506144], [17.2491789, 43.8534306], [17.24889, 43.8553371], [17.2424841, 43.856092], [17.2492915, 43.8645472], [17.2487873, 43.8658854], [17.2476447, 43.8661871], [17.2465235, 43.866392], [17.2453219, 43.8663766], [17.2448981, 43.8661716], [17.2436106, 43.8663843], [17.2432029, 43.8666241], [17.2426182, 43.8668794], [17.2419423, 43.8671462], [17.2416043, 43.8673009], [17.2410035, 43.8673667], [17.2406012, 43.8673048], [17.240231, 43.8672545], [17.239759, 43.8671888], [17.2386378, 43.8666589], [17.2382194, 43.8665622], [17.2379619, 43.8665816], [17.2376668, 43.8667014], [17.2372591, 43.8667904], [17.2368997, 43.8668832], [17.2364867, 43.8675523], [17.2364008, 43.8676799], [17.2363096, 43.867939], [17.2362238, 43.8681556], [17.2360361, 43.8683026], [17.2357196, 43.8684031], [17.2354567, 43.8684495], [17.235167, 43.8685153], [17.2342014, 43.869049], [17.2339868, 43.8691302], [17.2335094, 43.8694241], [17.2332197, 43.8696755], [17.2328657, 43.869865], [17.2319806, 43.8700545], [17.2315139, 43.8700506], [17.2309023, 43.870155], [17.2294217, 43.8707777], [17.2233492, 43.8734305], [17.2228771, 43.8731869], [17.2226465, 43.8731212], [17.2222495, 43.8731444], [17.2216755, 43.8731444], [17.2212517, 43.873125], [17.2206294, 43.8731289], [17.2201467, 43.8732372], [17.2188646, 43.8737515], [17.2184354, 43.8739255], [17.218076, 43.8741421], [17.2181833, 43.8743431], [17.2186071, 43.8749812], [17.2186822, 43.8753756], [17.2186017, 43.8755651], [17.2181725, 43.8758551], [17.2180116, 43.8759557], [17.2177219, 43.8761258], [17.2174376, 43.8763655], [17.2172552, 43.8765318], [17.2170728, 43.8766324], [17.2167295, 43.8767638], [17.2162199, 43.87705], [17.2156727, 43.8774908], [17.2152758, 43.8775952], [17.2145784, 43.8776532], [17.2137201, 43.8778272], [17.2132534, 43.8779509], [17.212894, 43.8781095], [17.2129154, 43.8800312], [17.2127706, 43.8804488], [17.2126901, 43.8806151], [17.2126633, 43.8807736], [17.2108179, 43.8820457], [17.2108287, 43.8825174], [17.2107804, 43.882761], [17.2105658, 43.8830703], [17.2103888, 43.8833642], [17.2102815, 43.8834376], [17.2101688, 43.8835382], [17.2101849, 43.8837315], [17.2102064, 43.8839325], [17.2101313, 43.8841452], [17.2099864, 43.8843694], [17.2093481, 43.88551], [17.209273, 43.8856376], [17.2089672, 43.8858], [17.2068965, 43.8862639], [17.2053623, 43.8822656], [17.2042985, 43.8814462], [17.2034854, 43.8817913], [17.2014618, 43.8826489], [17.1985084, 43.883081], [17.1953658, 43.8835535], [17.1915333, 43.8841297], [17.19127, 43.8839873], [17.1906233, 43.8836377], [17.1899804, 43.8832902], [17.1880081, 43.882224], [17.1878248, 43.8817776], [17.1874593, 43.8808873], [17.187166, 43.8801731], [17.1868783, 43.8794724], [17.1867557, 43.8791738], [17.186336, 43.8781515], [17.1851211, 43.8785833], [17.1848342, 43.8786853], [17.1830999, 43.8786965], [17.1814186, 43.8787124], [17.1741025, 43.8820206], [17.1737295, 43.8823334], [17.1732752, 43.8826004], [17.1730164, 43.8827504], [17.1728108, 43.8828693], [17.1727195, 43.8831565], [17.1727372, 43.8834674], [17.1727372, 43.8837765], [17.1725926, 43.8839905], [17.1722652, 43.8841588], [17.1721206, 43.884252], [17.1720242, 43.8845758], [17.1717806, 43.8848245], [17.1714101, 43.8849781], [17.1713085, 43.8851007], [17.171405, 43.8854244], [17.1713796, 43.8856622], [17.1709203, 43.8857938], [17.1704178, 43.8859182], [17.1701615, 43.8860444], [17.1699793, 43.886017], [17.1699306, 43.8860097], [17.1697022, 43.8859182], [17.1695449, 43.88592], [17.1692683, 43.8859365], [17.1691896, 43.8860027], [17.169116, 43.8860645], [17.1688978, 43.8861231], [17.1686491, 43.8860974], [17.1683598, 43.8860956], [17.1680147, 43.8861468], [17.1678066, 43.8861724], [17.1675579, 43.8861432], [17.1672762, 43.8860938], [17.167091, 43.8860682], [17.1667738, 43.8860901], [17.1665403, 43.8861889], [17.1663585, 43.8862131], [17.1662383, 43.8862291], [17.1658932, 43.8861779], [17.1654706, 43.8860692], [17.1652106, 43.8860023], [17.1648147, 43.8858579], [17.1645381, 43.8857371], [17.1641143, 43.885675], [17.163858, 43.8856329], [17.1637438, 43.8855506], [17.1636195, 43.8852744], [17.1633378, 43.8849983], [17.1629191, 43.8847349], [17.162777, 43.8845264], [17.1627009, 43.8843526], [17.1624116, 43.8841551], [17.1623202, 43.8840015], [17.1623228, 43.8836046], [17.1625308, 43.8834601], [17.1627389, 43.8833869], [17.1627668, 43.8832479], [17.1627161, 43.8831546], [17.1624344, 43.883001], [17.1622086, 43.8828913], [17.1622263, 43.8827577], [17.1622086, 43.8825684], [17.1620715, 43.8823928], [17.1617518, 43.8823307], [17.1613813, 43.8823672], [17.1608839, 43.8825172], [17.1604271, 43.8826013], [17.1600465, 43.8825392], [17.1598739, 43.8822941], [17.1597166, 43.8821258], [17.1589147, 43.881599], [17.1585493, 43.8814966], [17.1580367, 43.8814966], [17.157788, 43.8814417], [17.1576763, 43.8812222], [17.1574936, 43.8810101], [17.1572449, 43.8808857], [17.1568389, 43.8808893], [17.1560951, 43.8808881], [17.1555418, 43.8809173], [17.1552069, 43.881071], [17.1549937, 43.8813344], [17.1548009, 43.8814917], [17.1545166, 43.8815099], [17.1542883, 43.8814441], [17.1539381, 43.8812283], [17.1539178, 43.8808588], [17.153796, 43.8807234], [17.1535422, 43.8806649], [17.1532072, 43.8807673], [17.1528215, 43.8807929], [17.1524459, 43.8808185], [17.1520805, 43.8809027], [17.1519993, 43.8808368], [17.1518826, 43.8805661], [17.1517405, 43.8803979], [17.1513091, 43.8801162], [17.150969, 43.8799808], [17.1505985, 43.8799333], [17.1504513, 43.8798491], [17.1501823, 43.8796004], [17.1495124, 43.8792894], [17.1484821, 43.8789199], [17.1477919, 43.8786419], [17.1471879, 43.8782431], [17.1467565, 43.8780749], [17.1463353, 43.8780566], [17.1458684, 43.8782614], [17.1455385, 43.8783492], [17.1451527, 43.8782505], [17.1449396, 43.8781188], [17.1445285, 43.8780931], [17.1442899, 43.8780712], [17.1439854, 43.8778188], [17.1437317, 43.8776102], [17.1434373, 43.8775115], [17.1430922, 43.8775663], [17.1425796, 43.8778407], [17.142138, 43.8780236], [17.1417269, 43.8780456], [17.1413361, 43.8781809], [17.1408946, 43.8783748], [17.1405748, 43.8784443], [17.14025, 43.8785687], [17.1400754, 43.8787725], [17.139842, 43.8788677], [17.1393446, 43.8789701], [17.1390756, 43.8789994], [17.1387457, 43.8789372], [17.1384008, 43.8789143], [17.1367252, 43.8774548], [17.133801, 43.8749116], [17.1327444, 43.8727623], [17.1306681, 43.8685385], [17.1288818, 43.8630388], [17.130239, 43.8618978], [17.1355176, 43.8537478], [17.1420193, 43.8483628], [17.1455812, 43.844788], [17.1471262, 43.8404857], [17.1488589, 43.8381796], [17.1488549, 43.8381313], [17.1488455, 43.838019], [17.1468043, 43.8347512], [17.1405977, 43.8320734], [17.1405762, 43.8319418], [17.1383983, 43.8313304], [17.1380442, 43.8313266], [17.1369821, 43.8314813], [17.13651, 43.831462], [17.1355659, 43.8310789], [17.1347719, 43.8307345], [17.1344715, 43.8305139], [17.1342409, 43.8300843], [17.1339136, 43.8297786], [17.1330607, 43.8294613], [17.1326423, 43.829202], [17.132417, 43.8287995], [17.1324384, 43.8283854], [17.1323579, 43.8276501], [17.1323097, 43.8275418], [17.1319395, 43.8271664], [17.1317464, 43.8266671], [17.1316338, 43.826315], [17.131387, 43.8259937], [17.1309739, 43.8258235], [17.1297777, 43.8254132], [17.1295255, 43.8253358], [17.1293056, 43.8252584], [17.1288979, 43.8248443], [17.1286918, 43.8245079], [17.1285492, 43.8243218], [17.1284366, 43.824287], [17.1283185, 43.8243334], [17.1280235, 43.8245966], [17.127648, 43.8248327], [17.1275622, 43.8248327], [17.1274334, 43.8248095], [17.1272886, 43.8243605], [17.1271813, 43.8241128], [17.1271652, 43.8237413], [17.1272242, 43.8234278], [17.1273851, 43.8232227], [17.1274763, 43.8229711], [17.1274334, 43.8227273], [17.1272188, 43.8225415], [17.1269399, 43.8223634], [17.1268594, 43.8222512], [17.1268111, 43.8220499], [17.1267521, 43.8217713], [17.1266127, 43.8215197], [17.1264517, 43.8209391], [17.126441, 43.8206605], [17.1293485, 43.8193561], [17.1334147, 43.8155551], [17.1333933, 43.8142545], [17.1315049, 43.8080785], [17.1363705, 43.8062721], [17.1366598, 43.8062405], [17.136706, 43.805907], [17.1368474, 43.8048865], [17.1369635, 43.8040487], [17.1369861, 43.8038854], [17.1370678, 43.8032954], [17.137221, 43.8021897], [17.137221, 43.8011728], [17.137221, 43.8001683], [17.137221, 43.7989489], [17.1378584, 43.7975687], [17.1383436, 43.7965182], [17.139572, 43.7957582], [17.1403246, 43.7952926], [17.1422725, 43.7940874], [17.1434436, 43.7939465], [17.1439133, 43.79389], [17.1456402, 43.7936822], [17.1490078, 43.7924667], [17.1499115, 43.7913251], [17.1503763, 43.790738], [17.1512529, 43.7896306], [17.1520381, 43.7892527], [17.1529368, 43.7888202], [17.1532561, 43.7884975], [17.1557431, 43.7859839], [17.1578438, 43.7858154], [17.1607946, 43.7855787], [17.1630397, 43.7855787], [17.1664074, 43.7859839], [17.1680912, 43.7863891], [17.1669745, 43.7828067], [17.1493578, 43.7686224], [17.1488964, 43.7677236], [17.1495294, 43.767282], [17.1487462, 43.76433], [17.1453023, 43.7606804], [17.1434462, 43.7568757], [17.1368434, 43.7537448], [17.1332645, 43.7520477], [17.1279859, 43.7498312], [17.1259634, 43.7490717], [17.1164553, 43.7455009], [17.116549, 43.7437548], [17.1130085, 43.7381428], [17.1118283, 43.7294216], [17.1074295, 43.7240409], [17.1114206, 43.7216877], [17.0961562, 43.7211333], [17.0895445, 43.716884], [17.0829267, 43.7156916], [17.0722979, 43.7138093], [17.0573097, 43.7092028], [17.0508175, 43.6973232], [17.0430136, 43.6953966], [17.0429009, 43.6955982], [17.04252, 43.6954877], [17.0424449, 43.6954431], [17.042343, 43.6952918], [17.0422304, 43.6951716], [17.0418119, 43.694871], [17.0416564, 43.694745], [17.0414203, 43.694489], [17.0412433, 43.6942078], [17.0411789, 43.6941069], [17.0411038, 43.6938781], [17.041069, 43.6936512], [17.0410395, 43.6934941], [17.040967, 43.6934165], [17.0408168, 43.6932808], [17.040672, 43.6930888], [17.0405647, 43.6929685], [17.0404816, 43.692858], [17.0403931, 43.6925962], [17.0402804, 43.6925089], [17.0401382, 43.6923983], [17.0401517, 43.6923324], [17.0403099, 43.6922703], [17.0404896, 43.6921559], [17.0406935, 43.6920958], [17.0409349, 43.6920182], [17.0409778, 43.6919406], [17.0422706, 43.6915469], [17.0422196, 43.6914209], [17.0406666, 43.6918902], [17.039355, 43.6922509], [17.0385665, 43.6924274], [17.03814, 43.6923091], [17.0378342, 43.6924429], [17.0375043, 43.6924992], [17.0368257, 43.6928211], [17.0367853, 43.6927867], [17.0362792, 43.6931036], [17.0360211, 43.6932633], [17.0357193, 43.6934795], [17.035651, 43.6935375], [17.0351896, 43.6935077], [17.0346558, 43.6934941], [17.0342535, 43.6935057], [17.0338914, 43.6936376], [17.0334944, 43.6937579], [17.0222531, 43.6732626], [17.0192932, 43.6742582], [17.0112081, 43.6611229], [17.0101975, 43.661346], [17.0082675, 43.6555686], [16.9868325, 43.6726409], [16.9812235, 43.6700873], [16.9811726, 43.6699844], [16.9811296, 43.6698564], [16.9811082, 43.6697322], [16.9811001, 43.6696197], [16.9810545, 43.6695266], [16.980966, 43.6694043], [16.9808373, 43.6693073], [16.9807112, 43.6692103], [16.9806227, 43.6691482], [16.9805208, 43.6691153], [16.9804001, 43.6691026], [16.9802687, 43.6691036], [16.9801453, 43.6690997], [16.9800407, 43.6690842], [16.9798502, 43.6690415], [16.9796947, 43.6690017], [16.979515, 43.6689455], [16.9776642, 43.6692724], [16.9747245, 43.6695402], [16.9665932, 43.6716078], [16.9607365, 43.6721012], [16.9533902, 43.6687369], [16.9443941, 43.6703162], [16.9058731, 43.6760487]]]}}]}