{"type": "FeatureCollection", "features": [{"type": "Feature", "properties": {"name": "Općina Travnik, Srednjobosanski kanton / Županija Središnja Bosna, Federacija Bosne i Hercegovine, Bosna i Hercegovina / Босна и Херцеговина", "source": "OpenStreetMap relation 2528276", "licence": "ODbL 1.0"}, "geometry": {"type": "Polygon", "coordinates": [[[17.4294019, 44.255228], [17.4295306, 44.2548131], [17.4298525, 44.2541061], [17.4299598, 44.2538294], [17.4304426, 44.2535451], [17.4309575, 44.25323], [17.4311077, 44.2529765], [17.4313867, 44.252085], [17.4315798, 44.2512089], [17.4317622, 44.2505288], [17.4376058, 44.2496675], [17.4404122, 44.2472552], [17.4432185, 44.2436366], [17.4432185, 44.2404198], [17.4449024, 44.2368007], [17.4505151, 44.2307684], [17.4516377, 44.2295619], [17.4544441, 44.2283553], [17.4578117, 44.2275509], [17.4617406, 44.2267465], [17.4673534, 44.2283553], [17.4695985, 44.229964], [17.47465, 44.2315727], [17.4797015, 44.2323771], [17.4836304, 44.2323771], [17.4875593, 44.2311706], [17.4914883, 44.2291597], [17.497101, 44.2275509], [17.4954172, 44.2235288], [17.4942946, 44.2219199], [17.4920495, 44.2191042], [17.4903657, 44.2170929], [17.4903657, 44.2162883], [17.4931721, 44.2130701], [17.4942946, 44.2114609], [17.4965397, 44.2086446], [17.4982236, 44.2062306], [17.4954172, 44.2034142], [17.4931721, 44.2018047], [17.4914883, 44.2001952], [17.4886819, 44.198988], [17.4869981, 44.1977809], [17.4847529, 44.1957688], [17.4825078, 44.1913421], [17.4819466, 44.1893299], [17.480824, 44.1881225], [17.4802627, 44.1861101], [17.4813853, 44.1845002], [17.4858755, 44.1836952], [17.4926108, 44.1820852], [17.4965397, 44.1808776], [17.4987848, 44.1792676], [17.5015912, 44.1784625], [17.5060814, 44.17806], [17.5094491, 44.1768524], [17.5122555, 44.1752422], [17.5167457, 44.1744371], [17.5206746, 44.1740345], [17.523481, 44.1712165], [17.5266024, 44.1687536], [17.5285869, 44.1676148], [17.5293806, 44.1664761], [17.5317619, 44.1653373], [17.5361276, 44.1639138], [17.5393027, 44.1636291], [17.5420808, 44.1622056], [17.5444621, 44.1622056], [17.5514428, 44.1656665], [17.5565101, 44.1683927], [17.5596772, 44.17021], [17.5634777, 44.1742989], [17.5691785, 44.1774789], [17.5736124, 44.1783875], [17.5767795, 44.1770247], [17.5831137, 44.1765704], [17.5869143, 44.1774789], [17.5913482, 44.1806588], [17.5951487, 44.1852012], [17.5964155, 44.1874722], [17.5989492, 44.1911057], [17.6002161, 44.1933765], [17.6080503, 44.2028761], [17.6088272, 44.2031919], [17.6086706, 44.2025722], [17.6103339, 44.2013979], [17.6110703, 44.2006901], [17.6131756, 44.200167], [17.6147918, 44.2004549], [17.6176704, 44.2009293], [17.6236392, 44.2010328], [17.6252075, 44.2008414], [17.6264154, 44.2013312], [17.6282174, 44.2017407], [17.6299575, 44.2019922], [17.6315415, 44.2020944], [17.635622, 44.2018944], [17.6364385, 44.2019728], [17.6372137, 44.2022356], [17.6407965, 44.2036299], [17.6445691, 44.2011732], [17.6460486, 44.200728], [17.6472199, 44.2002179], [17.6499211, 44.1990946], [17.6551504, 44.1974679], [17.656146, 44.1970496], [17.657432, 44.1966749], [17.6592339, 44.1966913], [17.6599113, 44.1967411], [17.6604876, 44.1966022], [17.6633616, 44.1956781], [17.6639407, 44.1955592], [17.664633, 44.1968003], [17.6649528, 44.196955], [17.6651107, 44.1969562], [17.6653706, 44.1968741], [17.6662839, 44.1964187], [17.6669084, 44.1967428], [17.6673121, 44.1969268], [17.6677271, 44.1970215], [17.6683703, 44.1973083], [17.6691947, 44.197453], [17.67016, 44.1973585], [17.6705236, 44.1974671], [17.6709439, 44.1977542], [17.6711017, 44.1976192], [17.6717411, 44.197572], [17.6719136, 44.1975159], [17.6719955, 44.1974111], [17.6722511, 44.1974194], [17.6726326, 44.1975401], [17.6734557, 44.1977215], [17.6747882, 44.1978478], [17.6747321, 44.1984662], [17.6751091, 44.1983714], [17.6754717, 44.1983544], [17.6759674, 44.1983336], [17.6764941, 44.1982489], [17.6770262, 44.1980361], [17.6775658, 44.1977741], [17.6778994, 44.1976888], [17.6782639, 44.1977411], [17.6792701, 44.1979974], [17.6798752, 44.1980119], [17.6803759, 44.1980598], [17.6805583, 44.1980065], [17.6806268, 44.1979353], [17.6807181, 44.19773], [17.6818572, 44.1977445], [17.6822455, 44.1976665], [17.683772, 44.1979377], [17.6847768, 44.1981629], [17.6849697, 44.1982384], [17.685169, 44.1982524], [17.6853704, 44.198237], [17.6857234, 44.1982857], [17.6861308, 44.1982904], [17.6865432, 44.1981406], [17.6869645, 44.1978424], [17.6876889, 44.1978956], [17.6882282, 44.1979716], [17.6885715, 44.1981923], [17.6891509, 44.1982459], [17.6896084, 44.1984227], [17.6902115, 44.198543], [17.6912495, 44.1986023], [17.6913722, 44.1987254], [17.6913089, 44.1989087], [17.6914981, 44.1990491], [17.6915061, 44.1992463], [17.6917736, 44.19936], [17.6921353, 44.1993916], [17.6925281, 44.199268], [17.6938834, 44.1992883], [17.6946183, 44.1993219], [17.6947286, 44.1994895], [17.6946425, 44.1998482], [17.6945631, 44.1999804], [17.6943873, 44.2005008], [17.6947389, 44.2005516], [17.6950707, 44.2006227], [17.6951302, 44.2004987], [17.6954308, 44.2005313], [17.6956633, 44.2006187], [17.6959979, 44.2006939], [17.6964273, 44.2008608], [17.6970284, 44.2010031], [17.6975352, 44.2010745], [17.6979906, 44.2011086], [17.6979987, 44.2012898], [17.6979586, 44.2013559], [17.6978783, 44.2014249], [17.6977901, 44.2014536], [17.697722, 44.201537], [17.697742, 44.201583], [17.6977821, 44.2016405], [17.6977861, 44.201698], [17.6975535, 44.2020688], [17.6968518, 44.2018417], [17.6966553, 44.2019107], [17.6964548, 44.2025288], [17.6965099, 44.202626], [17.6967194, 44.2026955], [17.6969961, 44.202822], [17.697361, 44.2029974], [17.6978984, 44.2032762], [17.6983275, 44.2035235], [17.6986964, 44.2037448], [17.6992077, 44.2040553], [17.6993882, 44.204245], [17.699312, 44.2043902], [17.69931, 44.2045756], [17.6993059, 44.2047696], [17.6992538, 44.2049091], [17.6994603, 44.2050054], [17.7004654, 44.2039912], [17.7029953, 44.2056777], [17.7032509, 44.2057784], [17.7033903, 44.2057784], [17.7033829, 44.2056995], [17.7034269, 44.2056285], [17.703493, 44.2055944], [17.7035553, 44.205547], [17.703669, 44.2055392], [17.7037644, 44.2055576], [17.7038341, 44.2055812], [17.7039221, 44.2055996], [17.7039991, 44.2055733], [17.7040285, 44.2055102], [17.7039404, 44.2054629], [17.7038744, 44.2054156], [17.7038377, 44.2053709], [17.7038194, 44.2053157], [17.7038451, 44.2052605], [17.7039038, 44.2052315], [17.7040138, 44.2052158], [17.7041165, 44.2052263], [17.7041642, 44.2052289], [17.7041605, 44.2051632], [17.7041825, 44.2051237], [17.7042705, 44.2050554], [17.7043879, 44.2050422], [17.704542, 44.2050238], [17.704707, 44.2049555], [17.7047767, 44.2048924], [17.7047914, 44.2048345], [17.7048594, 44.2048207], [17.7049124, 44.2047977], [17.7050848, 44.2047714], [17.7051985, 44.2047293], [17.7052975, 44.2046899], [17.7054076, 44.204661], [17.7055323, 44.2046399], [17.7056643, 44.2046005], [17.7057413, 44.2045295], [17.7057523, 44.2044506], [17.7057047, 44.2043665], [17.7056937, 44.2042745], [17.7056973, 44.2042008], [17.7057157, 44.2041246], [17.7058514, 44.2039984], [17.7060164, 44.2038669], [17.7060898, 44.2038091], [17.7061778, 44.2037565], [17.7062658, 44.2037302], [17.7063722, 44.2037302], [17.7064676, 44.2037276], [17.7066033, 44.2037381], [17.7066693, 44.2038064], [17.7066913, 44.2038696], [17.706695, 44.2039353], [17.7067647, 44.2039879], [17.706838, 44.2039958], [17.7069811, 44.2040326], [17.7070398, 44.2040352], [17.7071461, 44.2040352], [17.7072818, 44.2040562], [17.7074395, 44.2040483], [17.7075056, 44.2040115], [17.7076119, 44.2039248], [17.7076303, 44.2038301], [17.7076303, 44.2037381], [17.7076119, 44.2036592], [17.7075569, 44.2035698], [17.7075202, 44.2035041], [17.7074652, 44.2034226], [17.7073882, 44.2033332], [17.7073662, 44.2032674], [17.7073699, 44.2031991], [17.7074102, 44.2031228], [17.7074762, 44.2030886], [17.7075753, 44.203036], [17.707689, 44.2029598], [17.707832, 44.2028704], [17.7079127, 44.2028178], [17.7080337, 44.2028204], [17.7081731, 44.2028993], [17.7082355, 44.2029335], [17.7083968, 44.2029887], [17.7085362, 44.2029808], [17.7085802, 44.202902], [17.7085986, 44.2028152], [17.7085839, 44.2027205], [17.7085216, 44.2026416], [17.7084189, 44.2025575], [17.7083528, 44.2024891], [17.7082648, 44.2023971], [17.7081951, 44.2023235], [17.7081291, 44.2022393], [17.7081071, 44.2021342], [17.7081438, 44.2020816], [17.7082868, 44.2019212], [17.7083528, 44.2018186], [17.7084629, 44.2017082], [17.7085619, 44.2016109], [17.7087013, 44.2015163], [17.7088113, 44.2014216], [17.7088773, 44.2013795], [17.7090057, 44.2013427], [17.7091084, 44.2013611], [17.7091414, 44.201419], [17.7091488, 44.2014794], [17.7092148, 44.2015294], [17.7093908, 44.2015688], [17.7095119, 44.201582], [17.7097136, 44.2016346], [17.7099483, 44.2015846], [17.7100327, 44.2015373], [17.7101537, 44.2015294], [17.7102894, 44.2015373], [17.7103885, 44.2015425], [17.7104692, 44.201582], [17.7105682, 44.2016293], [17.7105829, 44.2016898], [17.7105645, 44.2017582], [17.7105499, 44.2018555], [17.7105058, 44.2019396], [17.7104728, 44.2020106], [17.7104288, 44.2021026], [17.7103848, 44.2021526], [17.7103371, 44.2022209], [17.7103371, 44.2022919], [17.7104031, 44.2023813], [17.7105132, 44.202426], [17.7107516, 44.2024444], [17.7109166, 44.202426], [17.711012, 44.2024155], [17.7112101, 44.2023103], [17.7113238, 44.2022446], [17.7115622, 44.2021263], [17.7116539, 44.2020842], [17.7117933, 44.2020527], [17.7119656, 44.2020421], [17.7121014, 44.2020237], [17.7122774, 44.2019054], [17.7124865, 44.2017845], [17.7126479, 44.2017082], [17.7128056, 44.2016293], [17.712978, 44.2015794], [17.713176, 44.2016293], [17.7133521, 44.2017266], [17.7133814, 44.2018213], [17.7133778, 44.2019422], [17.7133668, 44.2020237], [17.7133668, 44.2021026], [17.7135391, 44.2022104], [17.7136822, 44.2022972], [17.7138179, 44.2023761], [17.7139023, 44.2024234], [17.714005, 44.2024655], [17.7141517, 44.202497], [17.7142617, 44.2024839], [17.7143901, 44.2023761], [17.7145808, 44.2023209], [17.7147165, 44.2023025], [17.7148632, 44.2022972], [17.7149769, 44.2023103], [17.715109, 44.2023314], [17.7152593, 44.2022998], [17.7154574, 44.2022315], [17.7156665, 44.2021026], [17.7158499, 44.2020027], [17.7160113, 44.2019186], [17.716268, 44.2018476], [17.7164991, 44.2018292], [17.7167301, 44.2018108], [17.7169319, 44.2017792], [17.7170896, 44.2017161], [17.7172656, 44.2016293], [17.717482, 44.2015347], [17.7176398, 44.2015399], [17.7178085, 44.2015452], [17.7180286, 44.2015951], [17.7182486, 44.2016372], [17.718344, 44.2016425], [17.7185127, 44.201603], [17.7186484, 44.2015557], [17.7188648, 44.20149], [17.7190665, 44.2014084], [17.7191876, 44.2013296], [17.7192756, 44.2012165], [17.719305, 44.2011192], [17.7193123, 44.2010561], [17.7191986, 44.2009457], [17.7190665, 44.2008904], [17.7190042, 44.2008352], [17.7190262, 44.2007563], [17.7191949, 44.2006775], [17.7193893, 44.2006249], [17.7194847, 44.2005907], [17.7197341, 44.2005723], [17.7199432, 44.2005328], [17.7202036, 44.2004645], [17.7204823, 44.2003961], [17.7207281, 44.2003277], [17.7209225, 44.2003014], [17.7210692, 44.2002909], [17.7212856, 44.2002883], [17.721458, 44.2002199], [17.7215643, 44.2001647], [17.7216744, 44.2000569], [17.7217331, 44.1999123], [17.7217074, 44.1997913], [17.7216707, 44.199723], [17.7215533, 44.1996572], [17.7214103, 44.1996257], [17.7213626, 44.1995547], [17.7215093, 44.1994442], [17.7216084, 44.1993706], [17.721689, 44.1991445], [17.7218027, 44.1990524], [17.7220265, 44.198892], [17.7223786, 44.1987632], [17.7225882, 44.1987009], [17.7226714, 44.1987725], [17.7226548, 44.1988411], [17.7225841, 44.1989216], [17.7225425, 44.199032], [17.7225383, 44.1991691], [17.7226797, 44.1992318], [17.7227962, 44.1992347], [17.7229044, 44.1992347], [17.7229834, 44.1992318], [17.7230624, 44.1992705], [17.7231914, 44.199366], [17.7232538, 44.1994017], [17.7234035, 44.1993689], [17.7235075, 44.1992944], [17.7236531, 44.1991721], [17.7237987, 44.1989783], [17.7238861, 44.1988858], [17.7238902, 44.1987457], [17.7238819, 44.1986413], [17.7238445, 44.1986025], [17.7236989, 44.1984802], [17.7236365, 44.1983788], [17.7236365, 44.1982924], [17.7238029, 44.1981969], [17.7239152, 44.1981701], [17.724119, 44.1981492], [17.7242979, 44.1981939], [17.7244393, 44.1982118], [17.7246639, 44.1982148], [17.7248386, 44.198179], [17.7250924, 44.1980508], [17.7251756, 44.1979613], [17.7251631, 44.1978868], [17.725109, 44.1977436], [17.7250175, 44.1976363], [17.7249426, 44.1975289], [17.7248719, 44.1973798], [17.7248137, 44.1972665], [17.7248012, 44.1971144], [17.7248012, 44.1970398], [17.7248927, 44.1969503], [17.7250134, 44.1968937], [17.7251318, 44.196862], [17.7253545, 44.1968788], [17.7256373, 44.1969145], [17.7259576, 44.196998], [17.7261406, 44.1970726], [17.7263237, 44.1971322], [17.7264942, 44.197174], [17.7266689, 44.1971561], [17.7268561, 44.1971173], [17.7269435, 44.1970666], [17.7270516, 44.1969175], [17.7270808, 44.1968549], [17.7267189, 44.1966074], [17.7264942, 44.196503], [17.7262696, 44.1963867], [17.7260259, 44.1962683], [17.7260769, 44.1954076], [17.7249387, 44.1949894], [17.7240783, 44.1948762], [17.7233854, 44.1944919], [17.7217472, 44.1929457], [17.7220643, 44.1909962], [17.7222615, 44.1904837], [17.7220988, 44.1896212], [17.7221629, 44.1889779], [17.7200191, 44.1836986], [17.7198723, 44.1819998], [17.7202602, 44.1820125], [17.7204359, 44.1821011], [17.7207026, 44.1821618], [17.7209692, 44.1823717], [17.7212229, 44.1825303], [17.7223613, 44.1829827], [17.722745, 44.1827309], [17.7226856, 44.1825823], [17.722407, 44.1823159], [17.7222212, 44.1821555], [17.7220271, 44.1820283], [17.7218582, 44.1819254], [17.7216514, 44.1817559], [17.7214473, 44.1815307], [17.7215149, 44.1814792], [17.7217048, 44.1814853], [17.7219665, 44.1814187], [17.7221269, 44.1813339], [17.7222873, 44.1812098], [17.7222831, 44.1810826], [17.722224, 44.1809101], [17.7221354, 44.1807587], [17.7221396, 44.1805892], [17.7221776, 44.1804076], [17.7222367, 44.1802017], [17.7222831, 44.180011], [17.7223989, 44.1798801], [17.7227529, 44.1798467], [17.723592, 44.1797079], [17.7243412, 44.1796633], [17.7249931, 44.1795872], [17.7254687, 44.1794979], [17.7261394, 44.1794039], [17.7257225, 44.1791441], [17.7254035, 44.178809], [17.7253186, 44.1783385], [17.7252375, 44.1779777], [17.7250783, 44.1776636], [17.7258202, 44.1774785], [17.7268502, 44.1771593], [17.7274254, 44.176924], [17.7282886, 44.1763232], [17.7285605, 44.1765077], [17.7298719, 44.1780008], [17.7347745, 44.1820649], [17.7364204, 44.1828071], [17.7365428, 44.1830047], [17.736545, 44.1832024], [17.7364708, 44.1834577], [17.7365036, 44.1835733], [17.7368558, 44.1837681], [17.7370827, 44.1838494], [17.7374963, 44.183928], [17.7378562, 44.1839171], [17.7380871, 44.1838037], [17.7384325, 44.1839749], [17.7398439, 44.1841449], [17.7401967, 44.1843342], [17.7402593, 44.184499], [17.7402922, 44.184591], [17.7403101, 44.1846873], [17.7402952, 44.184773], [17.7402683, 44.1848265], [17.7401967, 44.1849142], [17.7401101, 44.185017], [17.7399997, 44.1851283], [17.7399041, 44.1852246], [17.7396876, 44.1853987], [17.7398299, 44.1854989], [17.7399776, 44.1855639], [17.7402457, 44.1856472], [17.74048, 44.1857017], [17.7406847, 44.1857546], [17.7408578, 44.1857789], [17.7409907, 44.185791], [17.7412022, 44.18578], [17.7413942, 44.1857543], [17.7415969, 44.1857074], [17.7417087, 44.1856605], [17.7418797, 44.1855999], [17.7420021, 44.1855152], [17.7421709, 44.1854183], [17.7423187, 44.1853366], [17.7423874, 44.1852694], [17.7424957, 44.1853654], [17.7427374, 44.1855847], [17.7429449, 44.1857849], [17.7430135, 44.1858716], [17.7431464, 44.1860396], [17.7432568, 44.1861862], [17.743418, 44.1863852], [17.7435488, 44.1865228], [17.7441512, 44.1872306], [17.7442504, 44.1873151], [17.7443887, 44.1873995], [17.7445841, 44.1874573], [17.7446849, 44.1875014], [17.7446058, 44.1875407], [17.7446269, 44.1875642], [17.7447092, 44.1875241], [17.7447314, 44.1875339], [17.7449509, 44.1877015], [17.7449646, 44.187728], [17.7449846, 44.1877522], [17.7450342, 44.1877537], [17.7450627, 44.1877605], [17.7450996, 44.1877757], [17.7451324, 44.1877931], [17.7451535, 44.1878037], [17.7451693, 44.1878286], [17.7452105, 44.1878528], [17.745259, 44.1878725], [17.7453044, 44.1878892], [17.7453677, 44.1879088], [17.7454373, 44.1879406], [17.7454329, 44.1879508], [17.7453732, 44.1880621], [17.7453762, 44.1881413], [17.7453481, 44.1883126], [17.7454036, 44.1884087], [17.7454838, 44.1885933], [17.7456063, 44.1888264], [17.7457878, 44.1890806], [17.7459998, 44.1892044], [17.746346, 44.1892982], [17.7467174, 44.1894102], [17.7470033, 44.1895363], [17.7473614, 44.1897367], [17.7476279, 44.1895002], [17.7478189, 44.1893225], [17.7480159, 44.189132], [17.7484218, 44.1887361], [17.7486099, 44.1887447], [17.7486755, 44.1888688], [17.7487651, 44.1889865], [17.7493171, 44.1895124], [17.7500531, 44.1899982], [17.7504931, 44.1900774], [17.751096, 44.1902486], [17.7516319, 44.1904669], [17.7518273, 44.1906403], [17.7523767, 44.1911197], [17.7525312, 44.1913869], [17.7528869, 44.1917574], [17.7531824, 44.1920292], [17.7533526, 44.1922326], [17.753657, 44.192361], [17.7538331, 44.1924316], [17.7540271, 44.1925407], [17.7541406, 44.1926178], [17.7543047, 44.1927248], [17.7544002, 44.1929302], [17.7544689, 44.1930736], [17.754648, 44.1932149], [17.7548987, 44.1933775], [17.7550808, 44.1935188], [17.7551375, 44.1936771], [17.7551881, 44.1939431], [17.7553529, 44.1943337], [17.755636, 44.1950767], [17.7559078, 44.1952797], [17.7558569, 44.1954583], [17.7563835, 44.1954867], [17.7566213, 44.1955233], [17.757148, 44.1956897], [17.7568818, 44.1958805], [17.7568025, 44.1959617], [17.7567742, 44.1960957], [17.7568875, 44.1964489], [17.7569554, 44.1967412], [17.7575047, 44.1966641], [17.7581106, 44.1967047], [17.7583315, 44.1964449], [17.7588112, 44.1965137], [17.7591168, 44.1966056], [17.7592302, 44.1967329], [17.7592647, 44.1969343], [17.75924, 44.1971181], [17.7591858, 44.197316], [17.7591168, 44.1974715], [17.7591069, 44.1977613], [17.7593682, 44.1977331], [17.7595062, 44.1977684], [17.7595802, 44.1979027], [17.7596393, 44.1980476], [17.7598168, 44.1981855], [17.7600682, 44.1981183], [17.7606943, 44.1988852], [17.7604971, 44.1990231], [17.7608225, 44.1992104], [17.7607288, 44.199327], [17.7610098, 44.199426], [17.7611823, 44.1995391], [17.761276, 44.1996769], [17.7613006, 44.1998571], [17.7615323, 44.2001116], [17.7617295, 44.2002565], [17.7617739, 44.2003837], [17.7617098, 44.2004968], [17.7615718, 44.2006523], [17.7615274, 44.2007831], [17.7616161, 44.2009633], [17.761769, 44.2011294], [17.7627007, 44.2017832], [17.7634697, 44.2019069], [17.7637655, 44.2021932], [17.7641155, 44.2023911], [17.7644803, 44.2025678], [17.7647218, 44.2026314], [17.7649979, 44.2026844], [17.7652493, 44.2026526], [17.7656979, 44.2024617], [17.7664867, 44.2022532], [17.7669205, 44.2021472], [17.7670881, 44.2020129], [17.7673738, 44.2017928], [17.7676399, 44.2016912], [17.7678373, 44.2016482], [17.7679703, 44.2016297], [17.7681935, 44.2013005], [17.7686141, 44.2013928], [17.7690303, 44.2014574], [17.7693393, 44.2015743], [17.7697942, 44.2018112], [17.770129, 44.2021066], [17.7703178, 44.202285], [17.7704294, 44.2026173], [17.7704766, 44.2029403], [17.7706311, 44.203411], [17.7707298, 44.2035802], [17.7709658, 44.2036879], [17.7712963, 44.2037679], [17.7714937, 44.203934], [17.771631, 44.2041463], [17.7716353, 44.2043401], [17.7715623, 44.2045124], [17.7712887, 44.2048443], [17.7711132, 44.2051406], [17.7710905, 44.2052868], [17.7711394, 44.2054499], [17.7712385, 44.2054486], [17.7712972, 44.2054869], [17.7713567, 44.2054897], [17.7714312, 44.2054596], [17.7715187, 44.2053502], [17.7716774, 44.2053513], [17.7718067, 44.2053851], [17.7718851, 44.2055163], [17.7719484, 44.2056033], [17.7721948, 44.205717], [17.7722854, 44.2056602], [17.7725006, 44.205648], [17.7727724, 44.2056764], [17.7728913, 44.2056521], [17.7731065, 44.2055425], [17.7736784, 44.205506], [17.7746581, 44.2055871], [17.7750714, 44.2055831], [17.7755471, 44.2056196], [17.7760851, 44.2055141], [17.7765834, 44.205303], [17.7779821, 44.2051203], [17.7781859, 44.2049782], [17.7786559, 44.2049701], [17.7788655, 44.2054938], [17.779058, 44.2056724], [17.7793298, 44.20592], [17.779511, 44.2059159], [17.7805813, 44.2062041], [17.7809663, 44.2062853], [17.7817025, 44.2066425], [17.7821555, 44.2063016], [17.782348, 44.2063909], [17.7828124, 44.2065329], [17.7826425, 44.2069389], [17.7830898, 44.206951], [17.7842167, 44.2067724], [17.7846156, 44.206727], [17.7849855, 44.2067391], [17.7856017, 44.2068063], [17.786139, 44.2068946], [17.7865679, 44.20699], [17.7870559, 44.2071102], [17.7872482, 44.2072586], [17.7880369, 44.2075307], [17.788594, 44.2076968], [17.7893039, 44.2078381], [17.7901222, 44.208142], [17.7907433, 44.2083328], [17.7910588, 44.2083788], [17.7918673, 44.20846], [17.7920842, 44.2085237], [17.7928976, 44.209135], [17.7932821, 44.2093258], [17.7937455, 44.2093929], [17.7944504, 44.2094636], [17.7948448, 44.2096615], [17.7954216, 44.2099442], [17.7962399, 44.2105201], [17.7968758, 44.2107145], [17.7975315, 44.2111809], [17.7979949, 44.2114706], [17.7982709, 44.2116014], [17.7985371, 44.2116791], [17.7987195, 44.2117003], [17.7992963, 44.2116544], [17.7998139, 44.2115095], [17.8003562, 44.2113258], [17.8006717, 44.2115908], [17.8011647, 44.2119158], [17.8012879, 44.2120996], [17.8013914, 44.2122621], [17.801552, 44.2124509], [17.8014177, 44.2125735], [17.8013355, 44.2128895], [17.8012982, 44.2130876], [17.8010666, 44.2133179], [17.8008125, 44.2136446], [17.8009246, 44.2140516], [17.8008947, 44.2142605], [17.8007453, 44.2144854], [17.8005659, 44.2147425], [17.8005136, 44.2149674], [17.8005136, 44.2151763], [17.8007826, 44.2154762], [17.8010815, 44.2157064], [17.8013281, 44.2160545], [17.8014775, 44.2165526], [17.801739, 44.2169703], [17.8017913, 44.217313], [17.8019258, 44.2177682], [17.8020508, 44.2183035], [17.8021395, 44.2188829], [17.8020804, 44.2191656], [17.8017254, 44.2194906], [17.8015677, 44.2195966], [17.8014888, 44.2200276], [17.8013761, 44.2204628], [17.8048106, 44.2210736], [17.8060774, 44.2219814], [17.8124116, 44.2265206], [17.8117782, 44.2296978], [17.8079777, 44.2342364], [17.8041772, 44.2396823], [17.8060774, 44.2405899], [17.8067108, 44.2469426], [17.8048106, 44.2532947], [17.8048106, 44.2578314], [17.805444, 44.2632751], [17.8073443, 44.2669039], [17.8117782, 44.2723467], [17.8143119, 44.2746144], [17.8181124, 44.2755215], [17.8269803, 44.275975], [17.8345813, 44.2773356], [17.8377484, 44.2796031], [17.8415489, 44.2836843], [17.8421823, 44.286405], [17.8396487, 44.2900324], [17.837115, 44.2909392], [17.8333145, 44.2954731], [17.8282471, 44.2986466], [17.8244466, 44.3018199], [17.8193792, 44.3058997], [17.817479, 44.3090726], [17.8143119, 44.3113389], [17.8124116, 44.3167776], [17.8124116, 44.317684], [17.8131516, 44.3178958], [17.8187458, 44.3194967], [17.8143119, 44.3222158], [17.8086111, 44.3253878], [17.805444, 44.3276535], [17.7984764, 44.3380743], [17.7953093, 44.3389804], [17.7889751, 44.3412455], [17.7813741, 44.3462284], [17.7813741, 44.3498521], [17.7820075, 44.3539285], [17.7776781, 44.3568595], [17.7777336, 44.3576071], [17.7779406, 44.3583896], [17.7781917, 44.3593762], [17.7784321, 44.3597812], [17.7789299, 44.3604133], [17.7793419, 44.3621192], [17.7793161, 44.3624322], [17.7792474, 44.3627758], [17.7790844, 44.3630581], [17.7789213, 44.3632238], [17.7786123, 44.3633894], [17.7782003, 44.3635428], [17.777754, 44.3637392], [17.7774536, 44.3639724], [17.7771703, 44.3645124], [17.7768442, 44.3650891], [17.7757026, 44.36639], [17.7750417, 44.3674269], [17.7748272, 44.3675435], [17.7744753, 44.3679362], [17.7738573, 44.3684025], [17.7735225, 44.3688136], [17.7731535, 44.3692001], [17.7727071, 44.3694026], [17.7719433, 44.3697462], [17.771248, 44.3700959], [17.7709734, 44.3702002], [17.77063, 44.3702739], [17.7700807, 44.3703904], [17.7696344, 44.37055], [17.7694456, 44.3707217], [17.7686611, 44.3716582], [17.768567, 44.3716207], [17.7669908, 44.3713046], [17.7667543, 44.371311], [17.7664881, 44.3713745], [17.766291, 44.3713886], [17.7661628, 44.3713745], [17.7660001, 44.3712864], [17.7659163, 44.3711665], [17.7657684, 44.3711278], [17.7656057, 44.3711278], [17.7654085, 44.3711771], [17.765305, 44.3711771], [17.7651423, 44.3710996], [17.7650684, 44.3710115], [17.7650783, 44.3709058], [17.7653247, 44.3707402], [17.7655318, 44.3706133], [17.7656649, 44.3703525], [17.7658867, 44.3702221], [17.7660001, 44.3700777], [17.7660198, 44.3698733], [17.7658302, 44.3697144], [17.7652413, 44.3694796], [17.7652186, 44.3693582], [17.7653658, 44.3692853], [17.7656716, 44.3691963], [17.766068, 44.3690344], [17.7662719, 44.368836], [17.7663908, 44.3686215], [17.7666173, 44.3684798], [17.7666966, 44.3681357], [17.7666173, 44.3680264], [17.7663908, 44.367909], [17.7661869, 44.3676499], [17.7659887, 44.3675568], [17.7655754, 44.3674597], [17.7653715, 44.3674637], [17.7651733, 44.3675244], [17.7646693, 44.3675973], [17.764205, 44.3675973], [17.7638709, 44.3676702], [17.7633839, 44.3679657], [17.7633273, 44.3680507], [17.7633216, 44.3682693], [17.7629139, 44.3684676], [17.7625515, 44.3685688], [17.7624722, 44.3687631], [17.7616681, 44.3690101], [17.7611811, 44.3692165], [17.7606715, 44.3693177], [17.7605242, 44.3692853], [17.7602298, 44.3692044], [17.7599976, 44.3692125], [17.7595899, 44.369346], [17.7591255, 44.3696537], [17.7583497, 44.3702568], [17.7508636, 44.3733332], [17.7505975, 44.3733696], [17.7505805, 44.3736165], [17.7504276, 44.3739484], [17.7502974, 44.3741063], [17.7500425, 44.3743248], [17.7497764, 44.3744706], [17.7496065, 44.3748106], [17.7494366, 44.3754582], [17.7492271, 44.3758144], [17.7491422, 44.3758913], [17.7486325, 44.3760167], [17.7481512, 44.3762151], [17.747861, 44.3764794], [17.7474707, 44.3770977], [17.7470805, 44.3773209], [17.7467162, 44.3775162], [17.7466056, 44.3777533], [17.7465145, 44.3780043], [17.7461308, 44.3782786], [17.7458641, 44.3785715], [17.7454543, 44.3790829], [17.7452201, 44.3792828], [17.7452396, 44.3795385], [17.7452786, 44.3797385], [17.7450705, 44.3802406], [17.7450291, 44.3806816], [17.7452608, 44.3811996], [17.7454251, 44.3816161], [17.7454102, 44.3820006], [17.7449245, 44.3826521], [17.7448797, 44.3830152], [17.7444837, 44.3835759], [17.7439606, 44.3842541], [17.7436916, 44.3845264], [17.7430939, 44.3848201], [17.7426456, 44.3851566], [17.7423915, 44.3854075], [17.7420179, 44.385493], [17.7414874, 44.3853168], [17.7410839, 44.3853434], [17.7406057, 44.3854075], [17.7404114, 44.3856532], [17.7399482, 44.3858828], [17.7395297, 44.3859842], [17.7389245, 44.3861177], [17.738663, 44.3862566], [17.7383641, 44.3866837], [17.7381399, 44.3870308], [17.7378635, 44.3871323], [17.737474, 44.3873576], [17.7372978, 44.3875886], [17.7370916, 44.3879798], [17.7362728, 44.387632], [17.7206706, 44.3820068], [17.7147507, 44.3785198], [17.7062938, 44.3764274], [17.6964656, 44.375288], [17.68609, 44.3767971], [17.6853323, 44.3769073], [17.6851056, 44.3768962], [17.6799746, 44.3766444], [17.673225, 44.3732552], [17.6722064, 44.3727547], [17.6709798, 44.3721405], [17.6665194, 44.3688786], [17.6610106, 44.3661041], [17.6578831, 44.3641529], [17.653749, 44.3609126], [17.6511361, 44.3585514], [17.6470545, 44.3561225], [17.6428102, 44.3540162], [17.6414871, 44.3538181], [17.6407942, 44.354095], [17.6387481, 44.3538733], [17.6373189, 44.3538434], [17.6360045, 44.3539119], [17.6356115, 44.3534904], [17.6333484, 44.3542114], [17.6322155, 44.3546706], [17.6204367, 44.3575806], [17.6167236, 44.3571297], [17.6126297, 44.356402], [17.6050455, 44.3547986], [17.6010311, 44.3537568], [17.5973291, 44.3527937], [17.5931431, 44.3517089], [17.5891412, 44.3506625], [17.5871442, 44.3501545], [17.586682, 44.3500556], [17.5856807, 44.3499794], [17.5749873, 44.3488372], [17.5640876, 44.3483849], [17.5600368, 44.3484692], [17.5561603, 44.3483808], [17.5528289, 44.3481489], [17.5509132, 44.3481188], [17.5431723, 44.3473697], [17.5407583, 44.3506843], [17.5391647, 44.3523936], [17.5381522, 44.3543874], [17.5368629, 44.3572677], [17.5289838, 44.361382], [17.5277457, 44.3619681], [17.5198908, 44.3666174], [17.5155273, 44.3670781], [17.5075529, 44.3685465], [17.5051382, 44.3678204], [17.5022478, 44.3670781], [17.497817, 44.3655032], [17.4904068, 44.3622972], [17.4904676, 44.362103], [17.4906746, 44.3618845], [17.4909112, 44.3615179], [17.4913451, 44.3611232], [17.4921437, 44.3607707], [17.4927155, 44.3604958], [17.4932972, 44.360383], [17.4935437, 44.3601927], [17.493731, 44.3597275], [17.4938296, 44.3594103], [17.494362, 44.3592622], [17.4948747, 44.3591917], [17.4953677, 44.3584727], [17.4955451, 44.3578453], [17.4959494, 44.3576973], [17.4962747, 44.3576198], [17.4963635, 44.3575352], [17.4963536, 44.3573871], [17.4962353, 44.3570629], [17.4965212, 44.3566751], [17.4972508, 44.3559349], [17.4976058, 44.3557446], [17.4983551, 44.3557164], [17.4989663, 44.3555472], [17.4994692, 44.3555613], [17.4999424, 44.3552652], [17.5001297, 44.3549198], [17.5003664, 44.3545321], [17.5008889, 44.3541514], [17.5010171, 44.3536508], [17.5011157, 44.3532772], [17.5012833, 44.3531292], [17.5014706, 44.3530093], [17.5020819, 44.3528331], [17.5022298, 44.352396], [17.5023382, 44.3520294], [17.5027622, 44.3516064], [17.5032157, 44.3512186], [17.5033242, 44.3509366], [17.5032946, 44.3504783], [17.5036495, 44.3499425], [17.5039256, 44.3494702], [17.5039848, 44.3489555], [17.5039355, 44.348335], [17.5039355, 44.348194], [17.5036791, 44.3480389], [17.5032354, 44.3478486], [17.5029298, 44.3475877], [17.5029298, 44.3472281], [17.5029298, 44.3465935], [17.5026537, 44.3461282], [17.5021904, 44.3455641], [17.5021312, 44.3452187], [17.5022495, 44.3448027], [17.5019833, 44.3444149], [17.5020819, 44.3440482], [17.5025453, 44.3433008], [17.5031368, 44.3428777], [17.5033833, 44.3423418], [17.5030808, 44.3416457], [17.5028641, 44.3412503], [17.5028492, 44.3409243], [17.5031555, 44.3403632], [17.503178, 44.3400158], [17.5031054, 44.3397766], [17.5029762, 44.3395455], [17.5027446, 44.3392569], [17.5022963, 44.3390646], [17.5020123, 44.3389363], [17.501422, 44.3389363], [17.501041, 44.3389897], [17.5007869, 44.3389737], [17.5005105, 44.3386317], [17.5004507, 44.3384393], [17.5002041, 44.3382629], [17.5000861, 44.3381401], [17.4996892, 44.3381094], [17.4994156, 44.3380327], [17.499083, 44.3378409], [17.4987745, 44.3389744], [17.4980516, 44.3393774], [17.4952114, 44.3396483], [17.4934852, 44.3401714], [17.4931419, 44.340417], [17.4924391, 44.3404208], [17.4910444, 44.3403134], [17.4908835, 44.3403249], [17.4905294, 44.3403441], [17.4901003, 44.3406011], [17.4899876, 44.3407047], [17.4897301, 44.3408659], [17.4892634, 44.3410731], [17.48833, 44.3416831], [17.4879384, 44.3418634], [17.4876058, 44.3420284], [17.4872947, 44.3421818], [17.4869996, 44.3424043], [17.4866456, 44.3428033], [17.4865544, 44.3429606], [17.4861681, 44.3431793], [17.4858409, 44.3433136], [17.4856317, 44.3434517], [17.4853903, 44.343632], [17.4852937, 44.3436972], [17.4849933, 44.343866], [17.4847627, 44.3439773], [17.4843067, 44.3442727], [17.4840707, 44.3444108], [17.4838829, 44.3445834], [17.4834752, 44.3449325], [17.4833196, 44.3450246], [17.4829173, 44.3452394], [17.4818873, 44.3459146], [17.481662, 44.3460297], [17.4815547, 44.3460911], [17.4813509, 44.3462254], [17.4812436, 44.346352], [17.4811578, 44.3464901], [17.4809432, 44.346632], [17.4807984, 44.3467548], [17.4805462, 44.3469696], [17.4804336, 44.347031], [17.4801922, 44.3471883], [17.4798274, 44.3474376], [17.4797362, 44.3474568], [17.4794787, 44.3475258], [17.4792051, 44.3476141], [17.478835, 44.3476294], [17.478658, 44.3475795], [17.4785024, 44.3475335], [17.4783039, 44.3475105], [17.4781698, 44.3475028], [17.4778855, 44.3475105], [17.4776709, 44.3475565], [17.4773812, 44.3476371], [17.4771988, 44.3476601], [17.4769682, 44.3477061], [17.4767482, 44.3477176], [17.4765658, 44.3477023], [17.4761957, 44.3476256], [17.4758792, 44.3475795], [17.4757558, 44.3475258], [17.4755412, 44.3474261], [17.4752355, 44.3472611], [17.4750745, 44.3471883], [17.4748117, 44.3471614], [17.474522, 44.3471767], [17.4741679, 44.3471806], [17.4738085, 44.3471345], [17.4735832, 44.3471039], [17.473433, 44.3470348], [17.4734706, 44.3467855], [17.4732828, 44.3465514], [17.4732399, 44.3463942], [17.4730843, 44.3457919], [17.4728805, 44.3458149], [17.4725693, 44.3459875], [17.4722421, 44.3456883], [17.4720973, 44.3455962], [17.4718183, 44.345485], [17.4714267, 44.3453507], [17.4709547, 44.3449594], [17.4708366, 44.3448213], [17.4703538, 44.3445374], [17.4695653, 44.3451052], [17.4690986, 44.3455233], [17.4686855, 44.3457151], [17.4685675, 44.345811], [17.4685299, 44.3460105], [17.4684817, 44.3463635], [17.4684602, 44.3464632], [17.4683261, 44.346655], [17.467854, 44.3471614], [17.4675107, 44.3477023], [17.4672747, 44.348224], [17.4669796, 44.3481741], [17.466647, 44.3484081], [17.4658906, 44.3486115], [17.4652308, 44.3486498], [17.4646461, 44.348646], [17.463659, 44.3488723], [17.4628758, 44.3490795], [17.4626398, 44.3492291], [17.4621034, 44.3494899], [17.4614328, 44.3497086], [17.4607784, 44.3498198], [17.4606389, 44.3498045], [17.4603814, 44.3497393], [17.4601335, 44.3497669], [17.4598503, 44.3499042], [17.460081, 44.350142], [17.4598986, 44.350284], [17.4603921, 44.3507903], [17.4607515, 44.3512775], [17.4608642, 44.3513849], [17.4608695, 44.3515345], [17.4607998, 44.3516649], [17.4606603, 44.3518721], [17.4605262, 44.3520408], [17.4604726, 44.3522863], [17.4605155, 44.3524935], [17.4604726, 44.3526968], [17.4604404, 44.3528579], [17.4604189, 44.3530305], [17.4604779, 44.3532031], [17.459904, 44.3534562], [17.4592602, 44.353836], [17.4590456, 44.3539549], [17.4587721, 44.3541774], [17.4584663, 44.3545418], [17.4581712, 44.3549292], [17.4577904, 44.3552207], [17.4573076, 44.3555467], [17.457034, 44.3557462], [17.4567765, 44.3561105], [17.4566746, 44.3565938], [17.4565566, 44.3567281], [17.4558699, 44.3572152], [17.4557197, 44.3573571], [17.4552047, 44.3576755], [17.454958, 44.3578442], [17.454797, 44.3579708], [17.4546736, 44.3581741], [17.4545288, 44.3583812], [17.4538333, 44.3591828], [17.4534954, 44.3592071], [17.4520987, 44.3593055], [17.4517232, 44.3595471], [17.4516052, 44.35962], [17.451219, 44.3597351], [17.4505699, 44.3599077], [17.4502426, 44.3600381], [17.45013, 44.3601531], [17.449851, 44.3603257], [17.4495077, 44.3605213], [17.4490517, 44.3606556], [17.4495614, 44.3615607], [17.4496686, 44.3617371], [17.4496311, 44.3619289], [17.4494004, 44.3623929], [17.4492502, 44.362485], [17.4489444, 44.362554], [17.4481827, 44.3625847], [17.4477643, 44.3624926], [17.4473405, 44.3625732], [17.4469542, 44.3626384], [17.4466753, 44.3628301], [17.4463052, 44.3632213], [17.4459511, 44.3642203], [17.445597, 44.3652194], [17.4454093, 44.3651695], [17.444846, 44.3649855], [17.4441379, 44.3644831], [17.4436015, 44.3648052], [17.4434727, 44.3646902], [17.443285, 44.3645176], [17.4429738, 44.3642397], [17.4427661, 44.36373], [17.4427178, 44.3632269], [17.4428016, 44.362988], [17.4430168, 44.3626806], [17.4430168, 44.3625924], [17.4429077, 44.362542], [17.4419404, 44.3628692], [17.4412029, 44.363173], [17.4408763, 44.3631883], [17.4406028, 44.3631638], [17.4402219, 44.3630626], [17.4392198, 44.3641038], [17.4384714, 44.3648677], [17.4378235, 44.3654639], [17.4373001, 44.3659633], [17.4370971, 44.3658927], [17.4366052, 44.3657574], [17.4362525, 44.3656766], [17.4360658, 44.3656245], [17.4359285, 44.3655447], [17.435774, 44.3653745], [17.4356345, 44.3651459], [17.4354435, 44.3649695], [17.4352633, 44.3648437], [17.4350466, 44.3646765], [17.4346778, 44.3642555], [17.4343323, 44.3638536], [17.434057, 44.3635755], [17.4337441, 44.3633847], [17.4343163, 44.36275], [17.4349007, 44.361781], [17.4350774, 44.3612654], [17.4349326, 44.3611925], [17.4348628, 44.3606479], [17.4346751, 44.360506], [17.4351808, 44.3600536], [17.4362189, 44.3596417], [17.4360752, 44.3593362], [17.4360967, 44.3590025], [17.4360055, 44.3588951], [17.4358016, 44.3587455], [17.4357533, 44.3586151], [17.43622, 44.3581626], [17.4366546, 44.3575642], [17.4368876, 44.3571027], [17.4369728, 44.356613], [17.4368852, 44.3564481], [17.4366009, 44.3561451], [17.4365741, 44.3560568], [17.4366438, 44.3558459], [17.4366331, 44.3555084], [17.4366438, 44.3550174], [17.4367672, 44.3545072], [17.4368155, 44.3537056], [17.4368477, 44.3530228], [17.4368584, 44.352785], [17.436896, 44.3526392], [17.4372125, 44.3523055], [17.4378294, 44.3517071], [17.4387252, 44.3508824], [17.4392027, 44.3505448], [17.4395299, 44.3502379], [17.4398839, 44.349816], [17.440297, 44.3493403], [17.4406457, 44.3490948], [17.4410266, 44.3487841], [17.441327, 44.3485462], [17.4419922, 44.3479632], [17.4422711, 44.347476], [17.442432, 44.3469964], [17.4424857, 44.3462983], [17.4425501, 44.3456921], [17.4426413, 44.3452663], [17.4427754, 44.3449325], [17.443226, 44.3444338], [17.443741, 44.3438583], [17.4442238, 44.343444], [17.4446517, 44.3429868], [17.4459323, 44.3421532], [17.4462945, 44.3418904], [17.4463793, 44.341601], [17.4463067, 44.3407269], [17.4465994, 44.3403526], [17.4463749, 44.3401945], [17.4459886, 44.3400257], [17.4463642, 44.3392353], [17.4480379, 44.3370867], [17.4450231, 44.3367222], [17.4442559, 44.3365687], [17.4438322, 44.3363769], [17.4435961, 44.3362081], [17.4433976, 44.3360392], [17.4432743, 44.3358666], [17.443065, 44.3354138], [17.443065, 44.3348651], [17.4430597, 44.334186], [17.4429578, 44.3336948], [17.4429524, 44.3334262], [17.4429148, 44.3332267], [17.4430168, 44.3330617], [17.4430543, 44.3328622], [17.442829, 44.3327969], [17.4426198, 44.3327509], [17.4428397, 44.3325207], [17.4430811, 44.3324478], [17.4436122, 44.3318377], [17.4438268, 44.3314424], [17.4441755, 44.3311163], [17.4445403, 44.3309436], [17.4448353, 44.3308745], [17.4450338, 44.3306251], [17.444551, 44.3303949], [17.4439287, 44.3303181], [17.4431455, 44.3304102], [17.4429631, 44.3304102], [17.4425447, 44.3303258], [17.4419117, 44.3299574], [17.4414503, 44.3295813], [17.4409461, 44.3292897], [17.4404311, 44.329213], [17.4396801, 44.3292667], [17.4393046, 44.3292974], [17.4388325, 44.3292974], [17.4373734, 44.3291592], [17.4367795, 44.3291926], [17.4363434, 44.3291132], [17.4355602, 44.3291516], [17.4348092, 44.3291669], [17.4341869, 44.3291669], [17.4336076, 44.329236], [17.4331462, 44.3293051], [17.4326312, 44.3294202], [17.4322021, 44.329589], [17.4315905, 44.3296888], [17.4309656, 44.3298014], [17.4300844, 44.3303371], [17.4323201, 44.3201177], [17.434659, 44.3126869], [17.434144, 44.3087639], [17.4345517, 44.3038886], [17.4349165, 44.3031975], [17.441976, 44.2961332], [17.4416756, 44.2942902], [17.4410319, 44.2931537], [17.4364963, 44.2895442], [17.4430329, 44.2848247], [17.4429792, 44.2847287], [17.4437839, 44.284625], [17.4438912, 44.2845905], [17.4439341, 44.2844791], [17.4439341, 44.2843601], [17.4438, 44.2838839], [17.4453503, 44.2837418], [17.4449533, 44.2832272], [17.4452054, 44.2828777], [17.4447548, 44.2826396], [17.44461, 44.28239], [17.4446315, 44.2818177], [17.4444759, 44.2818792], [17.4442452, 44.2819329], [17.443977, 44.2818869], [17.4438161, 44.2817409], [17.4436015, 44.2815335], [17.4430114, 44.2813185], [17.442829, 44.2812647], [17.4424428, 44.2811572], [17.4423682, 44.2809912], [17.4422657, 44.280873], [17.44196, 44.2809843], [17.441799, 44.2810535], [17.4416488, 44.2810343], [17.4415469, 44.2809651], [17.4414825, 44.2808], [17.4413323, 44.2807654], [17.4411553, 44.2807232], [17.4410909, 44.2806656], [17.4409139, 44.2806464], [17.4407262, 44.280631], [17.4406832, 44.2804083], [17.4408013, 44.2801586], [17.4409622, 44.2798936], [17.4412143, 44.2794596], [17.4413377, 44.2791869], [17.4415147, 44.2790756], [17.4420458, 44.2789719], [17.441622, 44.2781884], [17.4413806, 44.2777121], [17.441327, 44.2773281], [17.4398893, 44.2771053], [17.437647, 44.2748315], [17.4379635, 44.2745665], [17.438119, 44.2742131], [17.4384838, 44.2735179], [17.4392175, 44.272406], [17.4392081, 44.2720145], [17.4391007, 44.2719123], [17.4390149, 44.2719008], [17.4386743, 44.2719888], [17.4385395, 44.2720169], [17.4381834, 44.2720929], [17.43747, 44.2719623], [17.437368, 44.2718278], [17.4374753, 44.2707561], [17.437427, 44.2704834], [17.4373251, 44.2703989], [17.4362898, 44.2692658], [17.435033, 44.2684308], [17.4348956, 44.2683039], [17.432481, 44.2681595], [17.4325669, 44.2676217], [17.4326527, 44.2672606], [17.4326742, 44.2670224], [17.4326527, 44.2665922], [17.4324274, 44.2654935], [17.4324489, 44.2648942], [17.4325669, 44.2644409], [17.432481, 44.2640183], [17.432009, 44.2632577], [17.4310005, 44.2619822], [17.4309683, 44.2617978], [17.4310648, 44.2615058], [17.4312258, 44.2612062], [17.4314082, 44.2605915], [17.4314403, 44.2600383], [17.4313652, 44.2596464], [17.4312687, 44.259316], [17.4310756, 44.2588396], [17.4310648, 44.2583785], [17.4309361, 44.2578868], [17.430861, 44.2577177], [17.4303353, 44.2570492], [17.4296808, 44.2564729], [17.4294448, 44.2558351], [17.4294019, 44.255228]]]}}]}