{"type": "FeatureCollection", "features": [{"type": "Feature", "properties": {"name": "Град Требиње / Grad Trebinje, Република Српска / Republika Srpska, Bosna i Hercegovina / Босна и Херцеговина", "source": "OpenStreetMap relation 2528277", "licence": "ODbL 1.0"}, "geometry": {"type": "Polygon", "coordinates": [[[17.9741883, 42.9391227], [17.9773688, 42.9312942], [17.978813, 42.9265625], [17.9790282, 42.9245692], [17.9814571, 42.9208257], [17.9856192, 42.9146165], [17.9901615, 42.9078395], [17.9909768, 42.9030093], [17.9928797, 42.8917346], [17.9923655, 42.8873424], [17.9918519, 42.8829554], [17.9850078, 42.8721769], [17.9879474, 42.8692951], [17.9901248, 42.8673173], [17.9945393, 42.8586776], [17.9971584, 42.8537189], [17.9975001, 42.8530719], [17.9998553, 42.8509969], [18.003607, 42.8479401], [18.0078856, 42.8454057], [18.010801, 42.8436861], [18.0145427, 42.8404736], [18.0159911, 42.8377399], [18.0177002, 42.8341517], [18.0232964, 42.8294569], [18.0259523, 42.8275329], [18.0310022, 42.8247673], [18.0356566, 42.8211007], [18.0361075, 42.8199767], [18.0379319, 42.815428], [18.0394272, 42.8116997], [18.0409764, 42.8080591], [18.0449159, 42.8033114], [18.048187, 42.8016285], [18.053757, 42.7987277], [18.0552995, 42.7979244], [18.0630503, 42.7940092], [18.0651142, 42.7899971], [18.0683837, 42.7884758], [18.075164, 42.7854454], [18.0825269, 42.7825283], [18.0840234, 42.7819354], [18.0930315, 42.7746711], [18.0945516, 42.7707451], [18.0975635, 42.7684307], [18.0989034, 42.7674785], [18.1028555, 42.7646697], [18.106565, 42.7625536], [18.1070216, 42.7622931], [18.1112439, 42.7600818], [18.1173523, 42.757705], [18.1180809, 42.7574528], [18.1193227, 42.757023], [18.1280771, 42.7547081], [18.1357617, 42.7512977], [18.1372305, 42.749235], [18.1418701, 42.742719], [18.1486821, 42.7410652], [18.1605047, 42.7365789], [18.1652896, 42.7342922], [18.1692872, 42.7323817], [18.181335, 42.722539], [18.1862611, 42.7179066], [18.1864172, 42.7177496], [18.1893097, 42.7148415], [18.1969577, 42.7071515], [18.2020958, 42.701573], [18.2156486, 42.6868564], [18.2185145, 42.6846318], [18.2191673, 42.6841251], [18.2292728, 42.6751439], [18.2319511, 42.6737324], [18.2405042, 42.6692248], [18.242933, 42.6664578], [18.2460218, 42.6629387], [18.2496245, 42.6588338], [18.2554797, 42.6529004], [18.2678046, 42.6404091], [18.2746765, 42.633627], [18.276535, 42.6317926], [18.2792373, 42.6286032], [18.2831781, 42.6234874], [18.2906376, 42.6194276], [18.3100255, 42.6186232], [18.3279038, 42.6178813], [18.3294199, 42.6183214], [18.3321272, 42.6190051], [18.3363473, 42.6191387], [18.3472458, 42.6192963], [18.3480736, 42.6192038], [18.3484942, 42.6191338], [18.3653777, 42.6163342], [18.3662781, 42.6161777], [18.3671252, 42.6159166], [18.3683711, 42.6146575], [18.3702919, 42.6127163], [18.372425, 42.6101284], [18.3756241, 42.6055848], [18.3774722, 42.6028914], [18.379931, 42.5995098], [18.3830378, 42.596828], [18.3874129, 42.592386], [18.3888875, 42.5907526], [18.3902243, 42.5892719], [18.3907521, 42.5889692], [18.3920516, 42.5885398], [18.3960081, 42.5870907], [18.398105, 42.5863472], [18.3995935, 42.585812], [18.4022049, 42.5848378], [18.4066834, 42.5820386], [18.4147465, 42.5771323], [18.4155943, 42.5766164], [18.4166612, 42.5759988], [18.4207739, 42.5732695], [18.4237547, 42.5712841], [18.4257297, 42.5699655], [18.4275409, 42.5687607], [18.4295891, 42.5674083], [18.4307553, 42.5666494], [18.4317078, 42.5660001], [18.4331816, 42.5656059], [18.4348024, 42.5648787], [18.4364345, 42.5638737], [18.4368211, 42.5634613], [18.437076, 42.5614333], [18.4375237, 42.5584161], [18.4378544, 42.5558313], [18.4380795, 42.5555843], [18.4382418, 42.5556873], [18.4387628, 42.5556303], [18.4394284, 42.5556413], [18.4401922, 42.5555827], [18.4409187, 42.5553114], [18.4410929, 42.5553169], [18.4415295, 42.5554407], [18.441853, 42.5555488], [18.4422473, 42.5557211], [18.4425036, 42.5558549], [18.4426703, 42.5559786], [18.4427773, 42.5561188], [18.4429004, 42.5563149], [18.4430323, 42.5565751], [18.443245, 42.5570205], [18.4436374, 42.5578308], [18.443377, 42.5582143], [18.4432574, 42.5586161], [18.4434509, 42.5590359], [18.4435044, 42.5592891], [18.4435312, 42.5594069], [18.4432961, 42.5596968], [18.443363, 42.5601063], [18.4432574, 42.5604018], [18.4430744, 42.5605443], [18.4426452, 42.5607802], [18.4436163, 42.561454], [18.4438556, 42.5615551], [18.4438797, 42.5616733], [18.4438031, 42.5619863], [18.4438397, 42.5619957], [18.4438029, 42.5621255], [18.4438683, 42.5621272], [18.444261, 42.5621474], [18.4446267, 42.5621942], [18.4449078, 42.5622455], [18.4451343, 42.5623408], [18.4455348, 42.5623518], [18.4461967, 42.5621868], [18.4463434, 42.5620586], [18.4466943, 42.561934], [18.4468709, 42.5618551], [18.4471098, 42.5615931], [18.4471968, 42.5613604], [18.4475278, 42.5614227], [18.4478835, 42.5614043], [18.4484085, 42.5614282], [18.4488414, 42.5614428], [18.4490007, 42.5614373], [18.4493117, 42.5613952], [18.4496351, 42.5615583], [18.4500233, 42.5616169], [18.4508145, 42.5620494], [18.450914, 42.5622546], [18.4513046, 42.5627183], [18.4512772, 42.5633194], [18.4528348, 42.5634989], [18.4533398, 42.5632406], [18.4541186, 42.5624104], [18.4548799, 42.5627073], [18.4549869, 42.5631471], [18.455808, 42.5638105], [18.4561463, 42.5642429], [18.4564773, 42.5644335], [18.4572386, 42.5646058], [18.4581393, 42.5649997], [18.4590997, 42.5651592], [18.4595201, 42.5650309], [18.4602541, 42.5646204], [18.460789, 42.5642081], [18.4608637, 42.5640908], [18.4610329, 42.5638783], [18.4615578, 42.5632662], [18.4625307, 42.5636162], [18.4634562, 42.5638948], [18.4640285, 42.5638948], [18.46424, 42.5640249], [18.4651531, 42.5642264], [18.4657378, 42.5644537], [18.4663424, 42.5645251], [18.4672281, 42.5647487], [18.4681835, 42.5641825], [18.4697684, 42.5636895], [18.4701167, 42.563805], [18.4710273, 42.5638801], [18.4717588, 42.5636602], [18.4723684, 42.5633615], [18.472866, 42.5632772], [18.4736647, 42.5636749], [18.4740578, 42.5641843], [18.4742742, 42.5648055], [18.4740677, 42.5653278], [18.4737965, 42.5659123], [18.4736796, 42.5661469], [18.4738463, 42.5667058], [18.4737567, 42.567195], [18.4739732, 42.5677997], [18.4740976, 42.5683604], [18.4748739, 42.5694433], [18.4750978, 42.5694946], [18.4754436, 42.569764], [18.4760756, 42.5701653], [18.476603, 42.5702972], [18.478372, 42.5701689], [18.4816314, 42.571446], [18.483699, 42.5728184], [18.4859307, 42.5740497], [18.4862318, 42.574843], [18.48661, 42.5754], [18.4869981, 42.5756052], [18.4878639, 42.5762171], [18.4884337, 42.5763252], [18.4889935, 42.5765011], [18.4902823, 42.5775344], [18.4904167, 42.5780089], [18.4908894, 42.5783515], [18.4911009, 42.5788902], [18.4914393, 42.5797476], [18.4916557, 42.5804639], [18.4920065, 42.5810098], [18.4921334, 42.5812755], [18.4928873, 42.5813707], [18.4930839, 42.5815668], [18.4932431, 42.5818287], [18.4940542, 42.5820596], [18.4944224, 42.5820944], [18.4947633, 42.5822666], [18.4948777, 42.5829096], [18.4951116, 42.583395], [18.4953778, 42.5839281], [18.495557, 42.5842652], [18.4959625, 42.584551], [18.4963183, 42.5851244], [18.497122, 42.5855475], [18.49752, 42.5861154], [18.4977066, 42.5863462], [18.4982938, 42.5866595], [18.498672, 42.5870496], [18.4989183, 42.5875497], [18.4993562, 42.5878813], [18.499916, 42.5881341], [18.500864, 42.5880828], [18.5013268, 42.5880773], [18.5023493, 42.5879674], [18.5027648, 42.587863], [18.5043273, 42.58698], [18.505325, 42.5867895], [18.5058774, 42.5867364], [18.5066188, 42.5865789], [18.5070318, 42.5864744], [18.507313, 42.5863261], [18.5077633, 42.5861649], [18.5081166, 42.5861026], [18.5092661, 42.5863187], [18.5097164, 42.5862455], [18.5101817, 42.5862381], [18.5107266, 42.5862968], [18.5111346, 42.5861649], [18.5120527, 42.5860183], [18.5123214, 42.5860898], [18.5128787, 42.5859212], [18.5132395, 42.5857564], [18.5145582, 42.5853845], [18.515016, 42.5851995], [18.5151653, 42.5852654], [18.5153419, 42.5851866], [18.5162301, 42.5855622], [18.5165561, 42.5856593], [18.5166033, 42.5857014], [18.5170686, 42.5857124], [18.5172602, 42.5855768], [18.517621, 42.5855787], [18.5181111, 42.5856922], [18.5186286, 42.5854138], [18.5196686, 42.5850291], [18.5198527, 42.5848368], [18.5204747, 42.5847671], [18.5209301, 42.5847268], [18.5213157, 42.5847122], [18.5215919, 42.5848203], [18.5220845, 42.5846572], [18.5225025, 42.5845766], [18.5229852, 42.5845418], [18.5237888, 42.5841809], [18.5242541, 42.5839446], [18.52458, 42.5837944], [18.5259086, 42.5833859], [18.526038, 42.5835343], [18.5265904, 42.5835892], [18.5268815, 42.583505], [18.5270332, 42.5834976], [18.527496, 42.5836039], [18.5277846, 42.5835251], [18.52822, 42.5833034], [18.5285932, 42.5831386], [18.5289988, 42.5828436], [18.5291953, 42.5826439], [18.5292974, 42.5824205], [18.5293098, 42.5821457], [18.529673, 42.58164], [18.529882, 42.5812095], [18.530519, 42.5806929], [18.5306334, 42.5803778], [18.530728, 42.5799015], [18.5313375, 42.5793537], [18.5327632, 42.5775564], [18.5349228, 42.5766495], [18.534888, 42.5764901], [18.5351766, 42.5761915], [18.5353209, 42.5760999], [18.5354752, 42.5759588], [18.5356543, 42.5757115], [18.5359255, 42.5755172], [18.5362415, 42.5753597], [18.5362216, 42.5752717], [18.5368535, 42.5749511], [18.5372465, 42.5748996], [18.5376159, 42.5748957], [18.5380646, 42.5748983], [18.5382845, 42.5749229], [18.5384199, 42.5749462], [18.5390691, 42.5750006], [18.5392292, 42.5750693], [18.5395213, 42.5750706], [18.5399013, 42.5749747], [18.5401951, 42.5750304], [18.5405118, 42.5749073], [18.5408232, 42.5749281], [18.5410396, 42.574906], [18.5412208, 42.5748153], [18.5412841, 42.5746327], [18.5419737, 42.5741728], [18.5423397, 42.5741443], [18.5428376, 42.5740238], [18.5430933, 42.5739164], [18.5434266, 42.5737278], [18.5436033, 42.5733423], [18.543916, 42.5735659], [18.5560986, 42.5811665], [18.5552391, 42.5816689], [18.5542346, 42.5817978], [18.5512636, 42.5888585], [18.5509651, 42.5896498], [18.5506665, 42.5903825], [18.5506466, 42.591042], [18.5502684, 42.5919212], [18.54993, 42.592522], [18.5497708, 42.5928443], [18.5498106, 42.5932253], [18.5496514, 42.5934891], [18.5494125, 42.5936356], [18.5489746, 42.5940605], [18.5485965, 42.5945148], [18.5481187, 42.5949983], [18.5476808, 42.5953793], [18.5471434, 42.5956577], [18.5465065, 42.5958189], [18.54577, 42.5960093], [18.5453321, 42.5960679], [18.544735, 42.5962584], [18.5443767, 42.5964782], [18.5441578, 42.5967859], [18.5440782, 42.5969617], [18.5440767, 42.5970665], [18.5437882, 42.597424], [18.5436615, 42.5976105], [18.5436334, 42.5977762], [18.5436123, 42.5978746], [18.5435912, 42.5979679], [18.5435841, 42.5980197], [18.5434434, 42.5980611], [18.5431338, 42.5980611], [18.5427467, 42.598087], [18.5424723, 42.5981647], [18.5421908, 42.5982735], [18.5419093, 42.5983305], [18.5413322, 42.5985222], [18.5407341, 42.598776], [18.5403611, 42.5989729], [18.5402414, 42.5990661], [18.5400233, 42.5992474], [18.5398474, 42.5993458], [18.5396503, 42.5994184], [18.5394603, 42.5995271], [18.5393407, 42.5996359], [18.5392633, 42.5997654], [18.5392492, 42.5998742], [18.539207, 42.5999778], [18.5391718, 42.6000607], [18.5391718, 42.6001487], [18.539221, 42.6001902], [18.5392773, 42.6002523], [18.5393196, 42.6003197], [18.5392949, 42.6003896], [18.5391472, 42.6005062], [18.5389642, 42.6006175], [18.538834, 42.6006952], [18.5386721, 42.6007367], [18.5385244, 42.6008014], [18.538359, 42.6008843], [18.538271, 42.6009232], [18.5381408, 42.6009413], [18.5380564, 42.6009542], [18.5379543, 42.6009801], [18.5378206, 42.6010397], [18.537694, 42.6011174], [18.5375427, 42.6011951], [18.5374406, 42.6012547], [18.5373421, 42.6013065], [18.5372576, 42.6013868], [18.5371626, 42.6014697], [18.5367158, 42.6015862], [18.5364061, 42.6016898], [18.5363041, 42.6016898], [18.5361071, 42.6016976], [18.5359241, 42.6017364], [18.5358115, 42.6017934], [18.5356391, 42.6018841], [18.5354561, 42.601941], [18.535245, 42.6020265], [18.5349917, 42.6021793], [18.5348122, 42.6023192], [18.5346644, 42.602415], [18.5345026, 42.6025005], [18.5343513, 42.602617], [18.5341788, 42.6027879], [18.5341155, 42.6029433], [18.5339924, 42.6030392], [18.5338762, 42.6031065], [18.5337848, 42.6031505], [18.5311317, 42.6107929], [18.5202943, 42.6183955], [18.5284716, 42.6308953], [18.5290566, 42.6312918], [18.5302591, 42.6321069], [18.5313428, 42.6327178], [18.5333696, 42.6332873], [18.5364237, 42.6346334], [18.5376201, 42.6368182], [18.5432639, 42.6380192], [18.5515961, 42.6412392], [18.5546983, 42.6415763], [18.5546921, 42.6416486], [18.554717, 42.6417026], [18.5547618, 42.6417438], [18.5548339, 42.6417859], [18.5550865, 42.6419021], [18.5554559, 42.642011], [18.5556326, 42.6420668], [18.5558889, 42.6421281], [18.5559648, 42.6421446], [18.5560008, 42.6421675], [18.5561576, 42.6421812], [18.5563342, 42.6421821], [18.5564375, 42.6422187], [18.5565358, 42.6422626], [18.5566154, 42.6422883], [18.5587382, 42.642719], [18.5625664, 42.6432677], [18.563608, 42.6433971], [18.5655151, 42.6435473], [18.5679359, 42.6432108], [18.5685059, 42.6432056], [18.5704693, 42.6434075], [18.5710111, 42.6433454], [18.5714967, 42.6433454], [18.5719893, 42.643247], [18.5724819, 42.6430451], [18.5736923, 42.6428122], [18.5742061, 42.6427967], [18.5743046, 42.6428588], [18.5748957, 42.6427501], [18.5748957, 42.6429882], [18.5718767, 42.6504264], [18.5715952, 42.6506438], [18.5714263, 42.6508198], [18.5713489, 42.6509958], [18.5713208, 42.6511769], [18.5713208, 42.6513891], [18.5700541, 42.6528073], [18.5690618, 42.6561145], [18.5674644, 42.6563008], [18.5663736, 42.6563526], [18.5654095, 42.656425], [18.5646635, 42.6567252], [18.5644876, 42.6577706], [18.5644806, 42.658226], [18.5644102, 42.6586659], [18.5644384, 42.6589609], [18.5645298, 42.6592507], [18.5646987, 42.6596647], [18.5648535, 42.6599287], [18.5646072, 42.6601771], [18.5643891, 42.6606273], [18.5643187, 42.6607463], [18.5642483, 42.6608395], [18.5641885, 42.6611319], [18.5641885, 42.6613518], [18.5642413, 42.6615226], [18.5642941, 42.661758], [18.5642835, 42.6618564], [18.5642343, 42.6619081], [18.5641639, 42.6619211], [18.5640865, 42.6618771], [18.5639528, 42.6618124], [18.5637557, 42.6617736], [18.5634637, 42.6617529], [18.5633159, 42.6617658], [18.5631294, 42.661859], [18.5628515, 42.6620271], [18.5626263, 42.6622134], [18.5622075, 42.6627413], [18.5619049, 42.6630362], [18.5615214, 42.6632769], [18.5613455, 42.6633493], [18.561166, 42.6633959], [18.5607684, 42.6636288], [18.5606242, 42.663784], [18.5604799, 42.6638901], [18.5603532, 42.6639807], [18.5602441, 42.6640583], [18.5598149, 42.6642446], [18.5565347, 42.6658059], [18.5561665, 42.6659376], [18.5559874, 42.6660767], [18.5558879, 42.666384], [18.5557087, 42.6665157], [18.5555893, 42.6666109], [18.5555893, 42.6668524], [18.555649, 42.6669548], [18.5552367, 42.6671564], [18.554913, 42.6672677], [18.5546386, 42.6673686], [18.554445, 42.6674178], [18.5542621, 42.6674229], [18.5541037, 42.6674126], [18.5539489, 42.6674229], [18.5538363, 42.6675238], [18.5537202, 42.667692], [18.5535689, 42.6678757], [18.5534598, 42.667987], [18.5534106, 42.6680672], [18.5533261, 42.6681939], [18.553203, 42.6682819], [18.5531396, 42.6683362], [18.5530587, 42.668463], [18.5529672, 42.668626], [18.5526857, 42.6689649], [18.5526505, 42.6691046], [18.552654, 42.669221], [18.5526013, 42.6693737], [18.5524852, 42.669785], [18.5524394, 42.669829], [18.5523268, 42.6698834], [18.5520488, 42.6699791], [18.5519257, 42.6700127], [18.5517744, 42.6700205], [18.5515562, 42.6700722], [18.5513944, 42.670124], [18.5512009, 42.6701886], [18.5511234, 42.6702507], [18.5511164, 42.6703465], [18.5511586, 42.6705457], [18.5511059, 42.6707242], [18.550937, 42.6709234], [18.5506766, 42.671076], [18.5505992, 42.6711769], [18.5504936, 42.6712752], [18.550286, 42.6713166], [18.5501347, 42.6713399], [18.5499729, 42.6714175], [18.5496597, 42.671596], [18.5495225, 42.6716892], [18.5491847, 42.6718728], [18.5490369, 42.6719349], [18.5489349, 42.6719556], [18.5488082, 42.671966], [18.5506947, 42.6756185], [18.550426, 42.6773891], [18.5493412, 42.6776599], [18.5496268, 42.678108], [18.5497147, 42.678183], [18.5498484, 42.6783745], [18.5500384, 42.6786357], [18.5500596, 42.6788039], [18.550056, 42.6789254], [18.5499962, 42.6790599], [18.5498062, 42.6794635], [18.5492503, 42.6797299], [18.5489969, 42.6800041], [18.5491693, 42.6803947], [18.5494086, 42.6807853], [18.5494332, 42.6808991], [18.5494262, 42.6812638], [18.5493101, 42.6817424], [18.549201, 42.6819855], [18.548909, 42.682164], [18.5487647, 42.6822856], [18.5486275, 42.6824278], [18.548624, 42.6827874], [18.5489582, 42.6832736], [18.5490356, 42.683465], [18.5490392, 42.6839927], [18.5490392, 42.6840522], [18.5491201, 42.6842384], [18.5491764, 42.6844169], [18.5491869, 42.6845333], [18.5490296, 42.6848637], [18.5488828, 42.6850484], [18.5486812, 42.6852496], [18.5486066, 42.6853593], [18.5483827, 42.6857873], [18.5482483, 42.6861073], [18.548211, 42.6862921], [18.5481936, 42.6864128], [18.5481314, 42.6865499], [18.5479473, 42.6868316], [18.5477582, 42.6871681], [18.5476288, 42.6873382], [18.5473626, 42.6875119], [18.5471436, 42.6876399], [18.5467802, 42.6878844], [18.5464706, 42.6882879], [18.5463861, 42.6886189], [18.5465269, 42.6888879], [18.5468365, 42.6892086], [18.5471954, 42.6894414], [18.5474558, 42.6897362], [18.5476036, 42.6899173], [18.5476247, 42.6900052], [18.5475965, 42.6901345], [18.5473995, 42.6903156], [18.5470969, 42.6905483], [18.5467169, 42.6908949], [18.5464917, 42.6911535], [18.5461469, 42.6916139], [18.5460591, 42.6918424], [18.5459223, 42.6919997], [18.5458501, 42.6920454], [18.5456436, 42.6921204], [18.5455118, 42.692146], [18.5454496, 42.6921515], [18.5459745, 42.69221], [18.5464025, 42.6923197], [18.5465082, 42.6923482], [18.5467508, 42.6923325], [18.5468678, 42.6923069], [18.5474151, 42.6920984], [18.5475569, 42.6920491], [18.5476067, 42.6920436], [18.5477361, 42.6920619], [18.5477784, 42.6921003], [18.5478095, 42.6921302], [18.547835, 42.692158], [18.5478605, 42.6921716], [18.5479063, 42.6921806], [18.5479379, 42.6921819], [18.5479828, 42.6921729], [18.5480435, 42.6921451], [18.5480936, 42.6921082], [18.5482238, 42.6919996], [18.5482792, 42.6919615], [18.5484385, 42.6919026], [18.5491467, 42.6916365], [18.5492661, 42.6915542], [18.5493756, 42.6914262], [18.5495448, 42.6912744], [18.5496742, 42.691194], [18.5498558, 42.6911409], [18.5500921, 42.6910586], [18.5502365, 42.6909782], [18.5503832, 42.6908374], [18.550428, 42.6907825], [18.5505325, 42.6906545], [18.5506843, 42.6904826], [18.5508087, 42.6903893], [18.5509829, 42.6903162], [18.551055, 42.6902704], [18.5512217, 42.6901699], [18.551381, 42.6901205], [18.5514954, 42.690115], [18.5516447, 42.6901369], [18.5517542, 42.6901735], [18.5518786, 42.6902613], [18.551988, 42.6903692], [18.5521174, 42.6905502], [18.5521448, 42.6906746], [18.5521522, 42.6908739], [18.5521274, 42.6910879], [18.55209, 42.6911702], [18.5521025, 42.6912452], [18.5521572, 42.6913348], [18.5522294, 42.6914098], [18.5523165, 42.6914646], [18.5524135, 42.6915122], [18.5524757, 42.6915597], [18.5525827, 42.6916768], [18.5526698, 42.6918414], [18.5527312, 42.6920084], [18.5527792, 42.6922382], [18.5527917, 42.6923497], [18.5528016, 42.6924613], [18.5528365, 42.6925619], [18.5528638, 42.6926387], [18.5529161, 42.6928179], [18.5529335, 42.6929331], [18.5529758, 42.6930757], [18.5530206, 42.6932586], [18.5530927, 42.6935366], [18.5531375, 42.6936719], [18.5531873, 42.693809], [18.5532719, 42.6939169], [18.5533042, 42.6939809], [18.553344, 42.6940925], [18.5533888, 42.6942498], [18.5534236, 42.694354], [18.5534659, 42.6944582], [18.5534833, 42.6945807], [18.5535456, 42.6947161], [18.5536202, 42.6949629], [18.5536799, 42.6951165], [18.5537297, 42.6953543], [18.553757, 42.6954841], [18.5537645, 42.6956212], [18.553767, 42.6957511], [18.5537769, 42.695859], [18.5538466, 42.6960729], [18.5539188, 42.6961881], [18.5539337, 42.6963106], [18.5540108, 42.6964332], [18.554073, 42.6965392], [18.5541203, 42.6966087], [18.5542795, 42.6967696], [18.5544189, 42.6969543], [18.5544885, 42.6970732], [18.5545209, 42.6971591], [18.5545283, 42.6972505], [18.5545184, 42.6973566], [18.5545159, 42.6974425], [18.5545706, 42.6975705], [18.5546602, 42.6976583], [18.5547323, 42.697726], [18.5547647, 42.6978046], [18.5547622, 42.6978777], [18.5547523, 42.6980021], [18.5547523, 42.6980405], [18.5547746, 42.6980917], [18.5548368, 42.6981374], [18.5549264, 42.6981996], [18.5549787, 42.6982654], [18.5550409, 42.6983349], [18.5551379, 42.69843], [18.5552474, 42.6985141], [18.5555584, 42.6986567], [18.5558719, 42.6987335], [18.5561157, 42.6987829], [18.5562849, 42.6988523], [18.5563794, 42.6989017], [18.5564877, 42.6989867], [18.5565555, 42.6990539], [18.5566012, 42.6990843], [18.5566285, 42.6991018], [18.5567059, 42.6990746], [18.5567331, 42.6991031], [18.5566575, 42.6991315], [18.5567563, 42.6992071], [18.5569639, 42.6993481], [18.5571803, 42.6994386], [18.5573791, 42.6994942], [18.5575023, 42.6995136], [18.5576272, 42.6995149], [18.5577345, 42.6995097], [18.5578101, 42.6995149], [18.5578488, 42.6995291], [18.5579386, 42.6995705], [18.5580142, 42.6996442], [18.5580688, 42.6997023], [18.5582588, 42.6998381], [18.558396, 42.6999144], [18.5585227, 42.6999752], [18.558579, 42.7000476], [18.5586194, 42.7001006], [18.5586775, 42.700129], [18.5589748, 42.700429], [18.5590241, 42.7004729], [18.5591331, 42.7005389], [18.5592053, 42.7006333], [18.5593777, 42.7008194], [18.5595747, 42.7010237], [18.5598263, 42.7011776], [18.560004, 42.7012758], [18.5603312, 42.7014814], [18.5604456, 42.7015732], [18.5605582, 42.7016947], [18.5606532, 42.7017555], [18.5607658, 42.7018137], [18.5608344, 42.7018848], [18.5609048, 42.7019598], [18.5610772, 42.7021796], [18.5611951, 42.7023102], [18.5612971, 42.7024459], [18.5614044, 42.7026308], [18.5614378, 42.7027575], [18.5614466, 42.7028584], [18.5614185, 42.7029566], [18.5613534, 42.7030277], [18.5612918, 42.7030756], [18.5612162, 42.7031531], [18.5612021, 42.7032953], [18.5612602, 42.7034052], [18.5613499, 42.703519], [18.5614273, 42.7036224], [18.5614748, 42.7037129], [18.5615276, 42.7038047], [18.5616314, 42.7039935], [18.5616454, 42.7040995], [18.5616173, 42.7042443], [18.5615469, 42.7043749], [18.5615188, 42.7044615], [18.5614836, 42.7045856], [18.5614466, 42.7046179], [18.5612742, 42.7047421], [18.5611493, 42.7048351], [18.5610825, 42.7049709], [18.5609822, 42.7051506], [18.5608819, 42.7053148], [18.5608098, 42.7054544], [18.5607834, 42.7054893], [18.5606796, 42.7056341], [18.5606321, 42.7057078], [18.5606532, 42.7058061], [18.5607218, 42.705947], [18.5608397, 42.7060957], [18.5610051, 42.7062534], [18.56113, 42.7063762], [18.5611564, 42.7064732], [18.5611564, 42.7066128], [18.5611071, 42.706839], [18.5610561, 42.7070782], [18.5610209, 42.7073342], [18.5610191, 42.7076237], [18.5610877, 42.7078668], [18.5611564, 42.7080193], [18.5611528, 42.7080982], [18.5611335, 42.7081809], [18.5611229, 42.7083878], [18.5611317, 42.7085662], [18.5610754, 42.7087717], [18.5610719, 42.7089372], [18.5610561, 42.7091156], [18.5610015, 42.7093147], [18.56094, 42.7095099], [18.5609488, 42.709696], [18.5609551, 42.7097854], [18.5610173, 42.7099188], [18.5611716, 42.7101053], [18.5613598, 42.710253], [18.5614372, 42.7103202], [18.5615357, 42.7103615], [18.5616202, 42.7104184], [18.5616976, 42.7104908], [18.5617609, 42.7105684], [18.5620706, 42.7106615], [18.5621621, 42.7107183], [18.5622254, 42.7108011], [18.5622887, 42.7108786], [18.5623591, 42.710951], [18.5624506, 42.7110079], [18.562521, 42.7110803], [18.5626547, 42.7112199], [18.5627602, 42.7112458], [18.5628939, 42.7112509], [18.5630136, 42.7112613], [18.5631332, 42.7112664], [18.5633584, 42.7112975], [18.563464, 42.7113285], [18.5635766, 42.7113647], [18.5636821, 42.7113957], [18.5637877, 42.7114371], [18.5638862, 42.711494], [18.564048, 42.7116181], [18.5641255, 42.7116853], [18.5642029, 42.7117473], [18.5642803, 42.7118146], [18.5643577, 42.7118869], [18.564502, 42.7119929], [18.5645864, 42.7120498], [18.564662, 42.7120576], [18.5646497, 42.7122592], [18.564714, 42.7124426], [18.5652239, 42.7137085], [18.5663485, 42.7148565], [18.5665874, 42.7152952], [18.5680006, 42.7166114], [18.5699214, 42.719719], [18.5659832, 42.7206037], [18.566023, 42.7206695], [18.5573772, 42.7219054], [18.5429227, 42.7226499], [18.5345624, 42.7225568], [18.5279756, 42.7238803], [18.5198546, 42.728719], [18.5138588, 42.7347152], [18.5062305, 42.7350771], [18.5052312, 42.7352412], [18.5030707, 42.7351378], [18.5025992, 42.7351688], [18.5018814, 42.7351482], [18.5017072, 42.7351936], [18.4988062, 42.7359493], [18.4961398, 42.7358788], [18.4978559, 42.7391088], [18.4981804, 42.7402884], [18.4981766, 42.7415452], [18.4981144, 42.7424167], [18.4979367, 42.7434814], [18.4972644, 42.7442254], [18.4963033, 42.7450243], [18.4949367, 42.7459443], [18.4934832, 42.7467845], [18.49168, 42.7478456], [18.4877961, 42.7494818], [18.4839257, 42.7508017], [18.4775694, 42.7530051], [18.47558, 42.7539247], [18.4744543, 42.7547573], [18.4730484, 42.7561304], [18.4711047, 42.7595895], [18.4707621, 42.7644591], [18.4706965, 42.7689181], [18.4708026, 42.7718695], [18.4701816, 42.7749355], [18.4689397, 42.7770315], [18.4686088, 42.7788153], [18.4678157, 42.7812412], [18.4673662, 42.7832153], [18.4663205, 42.785306], [18.46399, 42.7875753], [18.4579275, 42.7867115], [18.4522871, 42.7840325], [18.4495159, 42.781933], [18.4493799, 42.78183], [18.4490048, 42.7815776], [18.4487548, 42.7813253], [18.4483796, 42.7811188], [18.4476607, 42.7804534], [18.4432531, 42.7768053], [18.4305929, 42.775681], [18.411205, 42.7809932], [18.410579, 42.7811647], [18.4094944, 42.7818423], [18.4094834, 42.782041], [18.4091297, 42.7822762], [18.4085661, 42.7824182], [18.4087567, 42.7829199], [18.4085688, 42.7829422], [18.4083754, 42.7829807], [18.40824, 42.7830456], [18.4081433, 42.7831085], [18.4080273, 42.7831511], [18.407867, 42.7831207], [18.4075659, 42.7829949], [18.407483, 42.7829118], [18.4074415, 42.7828753], [18.4073669, 42.782851], [18.4072868, 42.782855], [18.4071818, 42.7828733], [18.4070906, 42.7828976], [18.4067978, 42.7829321], [18.4066458, 42.7829807], [18.4065104, 42.7830375], [18.406411, 42.7831085], [18.4062811, 42.7832099], [18.4061816, 42.7832748], [18.4061291, 42.7833214], [18.405828, 42.7835485], [18.4056567, 42.7836743], [18.4055489, 42.7837675], [18.4055019, 42.7838466], [18.4054992, 42.7838993], [18.4055461, 42.7839703], [18.4055544, 42.7840129], [18.4055572, 42.7840798], [18.4055406, 42.7841265], [18.4054964, 42.784169], [18.4054411, 42.7842116], [18.4053804, 42.784242], [18.4053444, 42.7843009], [18.4053306, 42.7843536], [18.4052864, 42.7844185], [18.4052505, 42.7844671], [18.4052035, 42.7845077], [18.4050681, 42.7845685], [18.4048747, 42.7846273], [18.404709, 42.7846821], [18.4045984, 42.7847571], [18.4045238, 42.78482], [18.4044327, 42.7849173], [18.4043332, 42.785041], [18.404242, 42.7851789], [18.4041923, 42.7852194], [18.4040009, 42.785283], [18.4038949, 42.7853186], [18.4037114, 42.7853764], [18.4036631, 42.7853978], [18.4035851, 42.7854367], [18.4035132, 42.7854854], [18.4034359, 42.7855259], [18.4033585, 42.7855786], [18.403259, 42.785607], [18.4031651, 42.7856273], [18.4030767, 42.7856597], [18.4029938, 42.7857044], [18.402933, 42.7857571], [18.4028943, 42.785826], [18.4028446, 42.7858869], [18.4027783, 42.7859396], [18.4027009, 42.7859882], [18.4025904, 42.7861059], [18.4025241, 42.7861545], [18.4024301, 42.7861626], [18.4023362, 42.7861626], [18.4022422, 42.7861748], [18.4021538, 42.7861991], [18.4020709, 42.7862356], [18.4019991, 42.7862883], [18.4019328, 42.7863411], [18.4018775, 42.7863978], [18.4018167, 42.7864546], [18.4016897, 42.7865763], [18.4016233, 42.786629], [18.401557, 42.7866777], [18.4014741, 42.7867182], [18.4013802, 42.7867669], [18.4012918, 42.7867993], [18.4012255, 42.786848], [18.4011592, 42.7869007], [18.4011094, 42.7869697], [18.4010873, 42.7870386], [18.4010818, 42.7871116], [18.4010431, 42.7871765], [18.4008497, 42.78732], [18.4006856, 42.787406], [18.4006348, 42.7874433], [18.4005762, 42.7874835], [18.4005332, 42.7875236], [18.4005019, 42.7875724], [18.4004668, 42.7876183], [18.4003964, 42.7876297], [18.4003261, 42.7876383], [18.4002753, 42.7876699], [18.4002323, 42.7877129], [18.4002128, 42.7877616], [18.4002128, 42.7878104], [18.4002558, 42.7879595], [18.4002558, 42.788057], [18.4002245, 42.7881057], [18.4001737, 42.788143], [18.4001151, 42.7881688], [18.4000487, 42.7881832], [18.399994, 42.7882176], [18.3999471, 42.7882577], [18.3999119, 42.7883007], [18.3998768, 42.7883409], [18.3998377, 42.7883896], [18.3998064, 42.7884355], [18.3997595, 42.7885273], [18.3997048, 42.7885559], [18.3996423, 42.7885731], [18.3995759, 42.7885846], [18.3994977, 42.7885932], [18.3994274, 42.7886018], [18.3993571, 42.7886162], [18.3992984, 42.788642], [18.3992594, 42.788685], [18.3992359, 42.7887309], [18.3992203, 42.7887796], [18.399189, 42.7888828], [18.3991578, 42.7889316], [18.3991187, 42.7889746], [18.3990484, 42.7889861], [18.3989038, 42.7889947], [18.3988335, 42.7889918], [18.3987631, 42.7890033], [18.398685, 42.789052], [18.3986459, 42.789095], [18.3985873, 42.7891151], [18.398517, 42.7891266], [18.3984466, 42.7891208], [18.3982825, 42.7890348], [18.3982278, 42.7890119], [18.3981653, 42.7890004], [18.3981028, 42.7889803], [18.398052, 42.7889488], [18.3980051, 42.7889115], [18.3979621, 42.7888742], [18.3978957, 42.7888542], [18.3978253, 42.7888599], [18.3977628, 42.7888828], [18.3977042, 42.7889144], [18.3976573, 42.7889517], [18.3976143, 42.7889918], [18.3975245, 42.7890721], [18.3974424, 42.789161], [18.3973955, 42.789204], [18.3973486, 42.789247], [18.3972978, 42.7892843], [18.3971728, 42.7893302], [18.3970901, 42.7893718], [18.3970514, 42.7893921], [18.3970155, 42.7894164], [18.3969823, 42.7894428], [18.3969547, 42.7894752], [18.3969298, 42.7895056], [18.3969105, 42.7895381], [18.3968911, 42.7895705], [18.3968718, 42.789607], [18.3968552, 42.7896394], [18.3968414, 42.7896739], [18.3968221, 42.7897449], [18.3968082, 42.7897814], [18.3967861, 42.7898138], [18.3967502, 42.7898402], [18.3966535, 42.7898483], [18.3966287, 42.7898422], [18.3965955, 42.7899132], [18.3965071, 42.7899537], [18.3964297, 42.7899983], [18.3962971, 42.7900957], [18.3961645, 42.7902051], [18.3960982, 42.7902619], [18.3960318, 42.7903146], [18.3959711, 42.7903755], [18.3959158, 42.7904363], [18.3958605, 42.7905012], [18.3958219, 42.7905661], [18.3955621, 42.7906593], [18.3954765, 42.7906573], [18.3954268, 42.7906512], [18.395377, 42.7906512], [18.3953411, 42.7906735], [18.3953079, 42.7907019], [18.3952803, 42.7907303], [18.3952527, 42.7907587], [18.3952195, 42.7907871], [18.3951505, 42.7908378], [18.3951145, 42.7908621], [18.3950731, 42.7908864], [18.3950344, 42.7909087], [18.394993, 42.790929], [18.394957, 42.7909554], [18.3949073, 42.7909675], [18.3948548, 42.7909675], [18.3948051, 42.7909594], [18.3947111, 42.7909331], [18.3946614, 42.790931], [18.3946117, 42.7909371], [18.3945647, 42.7909432], [18.3945177, 42.7909574], [18.3944818, 42.7909817], [18.3944459, 42.7910081], [18.3944072, 42.7910263], [18.3942553, 42.7911115], [18.3942221, 42.7911378], [18.3941834, 42.7911581], [18.394142, 42.7911784], [18.3941033, 42.7912007], [18.3940563, 42.7912189], [18.3939486, 42.7912554], [18.3938961, 42.7912656], [18.3938436, 42.7912717], [18.3937883, 42.7912737], [18.3937413, 42.7912757], [18.3936336, 42.7912777], [18.3935838, 42.7912838], [18.3934899, 42.7913061], [18.3934512, 42.7913244], [18.3934208, 42.7913548], [18.3933573, 42.7914197], [18.3933269, 42.7914501], [18.3932965, 42.7914825], [18.3932274, 42.7915413], [18.3931528, 42.79159], [18.3931086, 42.7916062], [18.3930616, 42.7916163], [18.3929539, 42.7916305], [18.3928931, 42.7916386], [18.3928461, 42.7916508], [18.3927964, 42.791665], [18.3927135, 42.7916995], [18.3926748, 42.7917218], [18.3926361, 42.7917481], [18.3925975, 42.7917684], [18.3925533, 42.7917846], [18.3924566, 42.7918069], [18.392382, 42.7918455], [18.3923488, 42.7918738], [18.3922687, 42.7919225], [18.3922245, 42.7919367], [18.392125, 42.7919367], [18.392078, 42.7919489], [18.3920255, 42.7919671], [18.3919813, 42.7919854], [18.3919454, 42.7920097], [18.3919095, 42.792036], [18.3918763, 42.7920644], [18.3918487, 42.7920969], [18.3918294, 42.7921293], [18.3917879, 42.7921942], [18.3917409, 42.792255], [18.3917244, 42.7922895], [18.3916967, 42.7923199], [18.3916636, 42.7923463], [18.3916221, 42.7923726], [18.3915834, 42.7923969], [18.3915365, 42.7924192], [18.391495, 42.7924375], [18.3914508, 42.7924557], [18.3914011, 42.792474], [18.3913541, 42.7924922], [18.3913127, 42.7925125], [18.3912712, 42.7925328], [18.3912491, 42.7925673], [18.3912325, 42.7926017], [18.3911524, 42.7926463], [18.3911524, 42.7926828], [18.3911276, 42.7927274], [18.3911082, 42.7927619], [18.3910889, 42.7927943], [18.391064, 42.7928227], [18.3910336, 42.7928511], [18.3910032, 42.7928836], [18.3909673, 42.7929079], [18.3909314, 42.7929342], [18.3908899, 42.7929545], [18.390854, 42.7929768], [18.3908126, 42.7929991], [18.3907656, 42.7930235], [18.3906827, 42.7930721], [18.3906413, 42.7930904], [18.3905998, 42.7931086], [18.3905584, 42.7931309], [18.3905308, 42.7931613], [18.3905252, 42.7931978], [18.3905252, 42.7932343], [18.3905363, 42.7932668], [18.3905501, 42.7933012], [18.3905584, 42.7933397], [18.3905584, 42.7933742], [18.3905418, 42.7934127], [18.3904755, 42.7935121], [18.3904534, 42.7935425], [18.3904506, 42.7936053], [18.390481, 42.7937493], [18.390481, 42.7937878], [18.3904672, 42.7938628], [18.3904313, 42.7939318], [18.3904119, 42.7939662], [18.3903871, 42.7939966], [18.3903594, 42.7940291], [18.3903263, 42.7940554], [18.3903014, 42.7940859], [18.390271, 42.7941548], [18.3902572, 42.7941893], [18.3902434, 42.7942237], [18.3902185, 42.7942541], [18.3901577, 42.7943109], [18.3900528, 42.79439], [18.3900279, 42.7944204], [18.3900168, 42.7944569], [18.3900196, 42.7945278], [18.3900528, 42.7945542], [18.3900887, 42.7945785], [18.3900859, 42.7946312], [18.4050871, 42.8031277], [18.3989865, 42.8074443], [18.3889229, 42.8162716], [18.38896, 42.8167445], [18.3892491, 42.8182449], [18.3764897, 42.8273566], [18.3669287, 42.8265061], [18.3668949, 42.8263562], [18.3668838, 42.8260811], [18.3667926, 42.8259702], [18.3666794, 42.8258896], [18.3665833, 42.825878], [18.3664659, 42.825884], [18.3662615, 42.8259317], [18.3661233, 42.8260112], [18.366075, 42.8261176], [18.3660681, 42.826229], [18.3661357, 42.8264773], [18.3642243, 42.8262926], [18.3534795, 42.8292797], [18.3519063, 42.8325147], [18.351814, 42.8325364], [18.3517539, 42.8325744], [18.3517006, 42.832636], [18.3516982, 42.8327189], [18.3517978, 42.8327493], [18.3489929, 42.8385433], [18.3487498, 42.8387178], [18.3485134, 42.8389012], [18.3483102, 42.8390401], [18.3477319, 42.8393854], [18.3475991, 42.8394943], [18.347308, 42.8396533], [18.3471224, 42.8397421], [18.3469294, 42.8399312], [18.3466448, 42.8401337], [18.3460066, 42.840462], [18.3455452, 42.8406646], [18.344929, 42.8409441], [18.3445063, 42.8412075], [18.3440172, 42.8415722], [18.3434315, 42.8420685], [18.3432049, 42.8422063], [18.3429701, 42.8423278], [18.3427905, 42.8423805], [18.3426136, 42.842417], [18.3424893, 42.8424312], [18.3423595, 42.842654], [18.34226, 42.8427593], [18.342166, 42.8428201], [18.3419864, 42.8429356], [18.3431558, 42.8459121], [18.339732, 42.8496253], [18.338701, 42.8547556], [18.3330652, 42.8597002], [18.3298298, 42.8626446], [18.3264538, 42.8661616], [18.3227964, 42.8700221], [18.321843, 42.8710187], [18.3200455, 42.8719465], [18.3174979, 42.8738021], [18.3135279, 42.8763679], [18.303921, 42.8825846], [18.2786268, 42.9087983], [18.264198, 42.8886795], [18.2671313, 42.882651], [18.2617049, 42.8764798], [18.2589806, 42.8754553], [18.2585385, 42.8752366], [18.2522831, 42.8775853], [18.2512608, 42.8771844], [18.2505258, 42.8768038], [18.2503656, 42.8770467], [18.2503103, 42.8772776], [18.2503379, 42.8775043], [18.245674, 42.8764758], [18.2458011, 42.8725962], [18.243635, 42.8716809], [18.2364291, 42.8717174], [18.229063, 42.872665], [18.2257419, 42.8772047], [18.2251506, 42.8802134], [18.2215864, 42.8802377], [18.2167415, 42.8809007], [18.2164445, 42.8808785], [18.2161985, 42.8809149], [18.2159402, 42.880678], [18.2160452, 42.8805606], [18.2155368, 42.8804098], [18.215371, 42.880343], [18.2152812, 42.8803531], [18.2151707, 42.8803733], [18.2150975, 42.8802994], [18.2150588, 42.8801739], [18.2149911, 42.880096], [18.2147576, 42.8800301], [18.2145532, 42.8799431], [18.2144883, 42.8798773], [18.214404, 42.8798388], [18.214252, 42.8797933], [18.2140683, 42.8796768], [18.2138542, 42.8795564], [18.2136911, 42.8794035], [18.2135599, 42.8793134], [18.2134162, 42.8792699], [18.2132574, 42.8792952], [18.2131261, 42.8793499], [18.2130073, 42.8794066], [18.2128139, 42.8795301], [18.212702, 42.8796677], [18.2118583, 42.8806677], [18.2113757, 42.8797186], [18.2114011, 42.8792075], [18.2115731, 42.8781251], [18.2113914, 42.8773806], [18.2111687, 42.8762782], [18.2110788, 42.8754793], [18.2117274, 42.8746145], [18.2122901, 42.8737955], [18.212548, 42.8733242], [18.2126928, 42.8731983], [18.2128941, 42.8730601], [18.2128132, 42.8727685], [18.2132094, 42.8721239], [18.2132389, 42.8720515], [18.2134411, 42.8718253], [18.2135623, 42.871647], [18.213617, 42.8711072], [18.2136386, 42.8702344], [18.2142216, 42.8690336], [18.2144454, 42.8682722], [18.2145559, 42.8681507], [18.2146471, 42.8679542], [18.2147023, 42.8677132], [18.2148847, 42.8675269], [18.2152494, 42.8672475], [18.2156418, 42.8667979], [18.2157595, 42.8664317], [18.2157965, 42.8663119], [18.2157087, 42.866117], [18.2155991, 42.8660142], [18.2152301, 42.8657529], [18.2152253, 42.8656492], [18.2160099, 42.8656037], [18.2162959, 42.8651327], [18.2165832, 42.864759], [18.2170994, 42.8626271], [18.2173143, 42.8588119], [18.2173111, 42.8586097], [18.217244, 42.854355], [18.2151418, 42.8514102], [18.2154889, 42.8414048], [18.2153676, 42.8413646], [18.2129692, 42.8409461], [18.2064118, 42.8382474], [18.2058008, 42.838123], [18.194965, 42.8359176], [18.1913812, 42.8351881], [18.1908535, 42.8352396], [18.1756764, 42.8367198], [18.1673875, 42.8394671], [18.1568329, 42.8457392], [18.1383985, 42.8393902], [18.1380981, 42.8392671], [18.1363926, 42.843994], [18.1344209, 42.8476254], [18.1299172, 42.8499171], [18.1298737, 42.8498844], [18.1298023, 42.8498708], [18.1282214, 42.8500082], [18.1270628, 42.8507157], [18.1264669, 42.8509621], [18.1263936, 42.8510179], [18.1263135, 42.8510666], [18.1262588, 42.8511347], [18.1262715, 42.8512142], [18.126251, 42.8512679], [18.1261397, 42.8513051], [18.1261192, 42.8513495], [18.1253875, 42.8520055], [18.1243343, 42.8528603], [18.1234916, 42.8535267], [18.1231075, 42.8538224], [18.1211542, 42.8560707], [18.1185558, 42.8581731], [18.1155939, 42.8601351], [18.1130463, 42.8618021], [18.1126079, 42.8620954], [18.1122843, 42.8623119], [18.1122101, 42.8623892], [18.1088145, 42.8637239], [18.106724, 42.8653106], [18.1051571, 42.8661469], [18.1041334, 42.8666795], [18.1017264, 42.8681516], [18.0981198, 42.8683406], [18.0962673, 42.8708806], [18.0961746, 42.8708817], [18.0955925, 42.8722616], [18.0950963, 42.8727685], [18.0933184, 42.8742433], [18.0929042, 42.874836], [18.0925603, 42.8749706], [18.0897352, 42.8774876], [18.0891804, 42.8785327], [18.0881684, 42.8788907], [18.0882934, 42.8794204], [18.0882856, 42.8798069], [18.0860093, 42.8825876], [18.0840863, 42.8851386], [18.0814233, 42.8879868], [18.0812017, 42.8882238], [18.0812135, 42.8883206], [18.0810103, 42.8887128], [18.0798498, 42.8899009], [18.0771692, 42.8921568], [18.0735158, 42.8937627], [18.0734415, 42.8938515], [18.0754343, 42.8985833], [18.0767316, 42.9003093], [18.0760244, 42.9038299], [18.0773412, 42.9061139], [18.0776694, 42.9074733], [18.0748209, 42.9095912], [18.0729453, 42.9112196], [18.0728828, 42.9112511], [18.0703937, 42.913323], [18.0682603, 42.9127507], [18.0652984, 42.9128337], [18.0621208, 42.9132028], [18.0616686, 42.9133724], [18.0563396, 42.9131959], [18.0551124, 42.9133326], [18.0549625, 42.9132778], [18.0543535, 42.9134445], [18.0538496, 42.9135606], [18.0537889, 42.9131709], [18.0472635, 42.9124125], [18.0450362, 42.9107326], [18.0391126, 42.9130163], [18.0388976, 42.9133197], [18.0390539, 42.9140179], [18.0388664, 42.9160354], [18.0392298, 42.9202476], [18.0383193, 42.9216325], [18.0365981, 42.9232297], [18.0366763, 42.9232598], [18.0367212, 42.9233757], [18.0366255, 42.9234229], [18.0365082, 42.9234472], [18.0364281, 42.9234272], [18.0359919, 42.9238782], [18.0357834, 42.9240938], [18.0356662, 42.9240624], [18.0356467, 42.9241139], [18.035127, 42.9243141], [18.0345604, 42.9246246], [18.03373, 42.9249408], [18.0333295, 42.9250681], [18.0330462, 42.9252226], [18.0330287, 42.9252469], [18.0326633, 42.9253785], [18.0321026, 42.9256189], [18.0314852, 42.9259379], [18.0308522, 42.9262068], [18.0301723, 42.9264801], [18.0296858, 42.9266474], [18.0291544, 42.9269193], [18.0290157, 42.926935], [18.0287481, 42.9271067], [18.0287305, 42.9271238], [18.0286445, 42.9271381], [18.0284159, 42.9272898], [18.0282264, 42.927347], [18.0281658, 42.9275058], [18.0281209, 42.927563], [18.0279998, 42.9276302], [18.0278044, 42.9276946], [18.0277477, 42.9276817], [18.027527, 42.927852], [18.0268236, 42.9282425], [18.0268783, 42.9284285], [18.0268783, 42.9285272], [18.0268647, 42.928583], [18.0266341, 42.9286345], [18.0264954, 42.9288161], [18.0262922, 42.9290021], [18.0260461, 42.9291495], [18.025751, 42.9292753], [18.0249774, 42.9297445], [18.0245671, 42.930002], [18.0240376, 42.930002], [18.0239868, 42.9300385], [18.0240679, 42.93008], [18.0241509, 42.9300843], [18.0242056, 42.9301015], [18.0242867, 42.9301766], [18.0243615, 42.9302084], [18.0244333, 42.9302599], [18.0244401, 42.9302996], [18.0244342, 42.9303389], [18.0243981, 42.9303686], [18.0242408, 42.9303632], [18.0240923, 42.9303482], [18.0239683, 42.9303482], [18.0239487, 42.9303518], [18.0239268, 42.9303765], [18.0238706, 42.9303901], [18.0238242, 42.93038], [18.0237895, 42.9303704], [18.0236821, 42.9303682], [18.0235697, 42.9303614], [18.0234613, 42.9303454], [18.0233641, 42.9303275], [18.0233172, 42.9303446], [18.0230681, 42.9306257], [18.02274, 42.9309944], [18.0211748, 42.931492], [18.0199867, 42.9318602], [18.0189437, 42.9321808], [18.0179062, 42.9324671], [18.0174226, 42.932636], [18.0161834, 42.9334856], [18.0157455, 42.933786], [18.0144013, 42.9347054], [18.0137575, 42.9349016], [18.0137202, 42.9348642], [18.0134412, 42.9346791], [18.0131994, 42.9345244], [18.0129273, 42.9343909], [18.0126979, 42.9343201], [18.0123457, 42.9342715], [18.0111369, 42.9341137], [18.0108951, 42.9340591], [18.0101132, 42.9338558], [18.0087289, 42.9333693], [18.0080506, 42.9343706], [18.0050099, 42.9351717], [18.0022152, 42.9354448], [18.0013435, 42.9358787], [17.9952511, 42.9375182], [17.9917046, 42.9379162], [17.9914573, 42.938035], [17.9912542, 42.9381291], [17.990971, 42.9381989], [17.9908204, 42.9382368], [17.9907016, 42.9382535], [17.9904391, 42.9383415], [17.9903853, 42.9383915], [17.9900903, 42.9385351], [17.9899618, 42.9385812], [17.9897836, 42.9387319], [17.9896282, 42.9388224], [17.9894949, 42.9388669], [17.9893671, 42.9389539], [17.9891958, 42.9389761], [17.9888615, 42.9391056], [17.9885631, 42.9392264], [17.9883766, 42.939327], [17.9883213, 42.9392734], [17.9881162, 42.9393579], [17.9878758, 42.9394454], [17.9876934, 42.9395278], [17.987404, 42.9396689], [17.9873405, 42.9398115], [17.9871035, 42.9399637], [17.9869108, 42.9401063], [17.9867899, 42.9401938], [17.9866034, 42.9403394], [17.9864363, 42.9404299], [17.986162, 42.9405831], [17.9860584, 42.9405998], [17.9859334, 42.9406671], [17.9858277, 42.9407015], [17.9857683, 42.9407475], [17.985635, 42.9407717], [17.9853366, 42.9409629], [17.9850168, 42.9411424], [17.984802, 42.9412729], [17.9847508, 42.9413002], [17.9845678, 42.9414903], [17.9843979, 42.941647], [17.9841423, 42.9418564], [17.9839188, 42.9420293], [17.983858, 42.9420152], [17.981114, 42.9415441], [17.9773785, 42.94049], [17.9769702, 42.9403398], [17.9764524, 42.9401195], [17.9744382, 42.9392399], [17.9743112, 42.9392027], [17.9741883, 42.9391227]]]}}]}