{"type": "FeatureCollection", "features": [{"type": "Feature", "properties": {"name": "Općina Trnovo (FBiH), Kanton Sarajevo, Federacija Bosne i Hercegovine, 71223, Bosna i Hercegovina / Босна и Херцеговина", "source": "OpenStreetMap relation 2528280", "licence": "ODbL 1.0"}, "geometry": {"type": "Polygon", "coordinates": [[[18.1659951, 43.6911071], [18.1663589, 43.6901138], [18.166455, 43.6886171], [18.1666876, 43.6860404], [18.1669387, 43.6835904], [18.1673987, 43.6815049], [18.1675485, 43.6796142], [18.1705117, 43.6782283], [18.1733031, 43.6767862], [18.1765429, 43.6751903], [18.1797793, 43.6736386], [18.1832448, 43.6719452], [18.1879288, 43.6696654], [18.1939882, 43.6667393], [18.1949927, 43.6657469], [18.1962721, 43.6645033], [18.1986908, 43.6620111], [18.201187, 43.6595856], [18.2043406, 43.6564174], [18.2071637, 43.6535589], [18.2095269, 43.6511758], [18.2105279, 43.6498331], [18.2130629, 43.6484196], [18.2141229, 43.6472733], [18.215864, 43.6468136], [18.2180113, 43.6453719], [18.2199648, 43.6444793], [18.2196512, 43.6439195], [18.217925, 43.6431523], [18.2159716, 43.6401102], [18.2163205, 43.6385855], [18.2157019, 43.6382099], [18.2159363, 43.6363874], [18.2145036, 43.6349468], [18.2141159, 43.6342466], [18.2130339, 43.6334621], [18.2123193, 43.6334086], [18.2107888, 43.632457], [18.2079824, 43.6319692], [18.2070653, 43.6310376], [18.2053818, 43.6302406], [18.2047896, 43.6291202], [18.2040559, 43.6284559], [18.2037791, 43.6272106], [18.2020561, 43.6263878], [18.198641, 43.6249186], [18.2006508, 43.6235326], [18.2026613, 43.6229279], [18.2031212, 43.622334], [18.2041181, 43.6212551], [18.2058635, 43.6206087], [18.2068177, 43.6201558], [18.2087578, 43.6189493], [18.2086241, 43.6185111], [18.2087983, 43.6165539], [18.2100794, 43.615605], [18.2131863, 43.6136423], [18.2133362, 43.6119686], [18.2136973, 43.6108762], [18.2152622, 43.6088376], [18.2253369, 43.6142417], [18.2278737, 43.6215647], [18.2360689, 43.6114725], [18.2424993, 43.6090131], [18.2460441, 43.607762], [18.2515458, 43.601963], [18.2558104, 43.6043723], [18.2567593, 43.6035862], [18.2574537, 43.6038402], [18.2587869, 43.6026636], [18.2585287, 43.6019495], [18.2599209, 43.6013479], [18.2607333, 43.600302], [18.2605932, 43.5985103], [18.2615572, 43.5982748], [18.2607986, 43.5971958], [18.2617053, 43.5965404], [18.2628851, 43.5965576], [18.2629997, 43.5954345], [18.2627415, 43.5950988], [18.2627953, 43.5943152], [18.2636835, 43.5918627], [18.2623839, 43.5908972], [18.2633513, 43.5892442], [18.2632315, 43.5878574], [18.2639792, 43.5871801], [18.2642545, 43.5869307], [18.2703361, 43.5917234], [18.2718885, 43.5921486], [18.2799508, 43.5954727], [18.2801596, 43.5973928], [18.2832779, 43.6006031], [18.2827131, 43.6026622], [18.283099, 43.6042745], [18.2842216, 43.6046209], [18.284508, 43.6060195], [18.2841352, 43.6071947], [18.2863028, 43.6087936], [18.286816, 43.6099174], [18.2867426, 43.6109499], [18.290193, 43.6114523], [18.2925446, 43.6125865], [18.2928868, 43.6137856], [18.2926288, 43.6160473], [18.2931306, 43.6182681], [18.2939941, 43.6193449], [18.2939131, 43.6203968], [18.2949986, 43.6219743], [18.2949767, 43.6235995], [18.2960789, 43.6249721], [18.2960402, 43.6259052], [18.2990792, 43.6274877], [18.2990571, 43.6296739], [18.2997366, 43.6298374], [18.2996699, 43.6303471], [18.2990745, 43.6306656], [18.2994447, 43.6312944], [18.3010665, 43.631301], [18.3015703, 43.6322301], [18.3023068, 43.6322909], [18.3028112, 43.6334464], [18.3038969, 43.6334517], [18.3040511, 43.6340174], [18.3052148, 43.6337699], [18.3055687, 43.6327869], [18.3091018, 43.6313334], [18.3093633, 43.6306216], [18.3104107, 43.6302178], [18.3108367, 43.6297344], [18.3118765, 43.6305143], [18.3131266, 43.6300766], [18.3133999, 43.6293615], [18.3137968, 43.6292733], [18.3139371, 43.6286317], [18.3152555, 43.6284118], [18.3169232, 43.6279943], [18.3170005, 43.6287288], [18.3185324, 43.6292932], [18.320078, 43.6288053], [18.3200693, 43.6280396], [18.3210329, 43.6280979], [18.3221998, 43.6279665], [18.3247536, 43.6281702], [18.3257629, 43.627987], [18.3258626, 43.6285247], [18.3305686, 43.6309674], [18.3395023, 43.6281331], [18.3437043, 43.6268435], [18.346219, 43.6260175], [18.3471963, 43.6256807], [18.3472148, 43.6229611], [18.3472889, 43.6204524], [18.3473461, 43.6198789], [18.3466482, 43.6174811], [18.3457143, 43.614511], [18.3449001, 43.6119713], [18.3445142, 43.6111222], [18.3474994, 43.6052373], [18.3474898, 43.6027314], [18.347518, 43.6001144], [18.346446, 43.5961051], [18.3528038, 43.5924327], [18.356469, 43.5894919], [18.3629357, 43.5909776], [18.3637059, 43.5913184], [18.3679815, 43.592587], [18.3708572, 43.5934154], [18.37296, 43.5942546], [18.3748054, 43.5949073], [18.3770799, 43.5958708], [18.3784247, 43.5969993], [18.3795261, 43.5981086], [18.3808136, 43.5991031], [18.3859079, 43.6009721], [18.3859052, 43.6014558], [18.384618, 43.6083551], [18.3845391, 43.6098246], [18.3841301, 43.6174468], [18.3852754, 43.6276739], [18.387183, 43.6298335], [18.3878715, 43.6306129], [18.392182, 43.635268], [18.3952825, 43.638645], [18.3970434, 43.6405593], [18.3992811, 43.6429962], [18.4011749, 43.6450386], [18.4014851, 43.645368], [18.4026118, 43.6465645], [18.4037874, 43.6468436], [18.4059397, 43.6475102], [18.4074405, 43.6480208], [18.4085517, 43.6490633], [18.4095826, 43.6500305], [18.407168, 43.6518493], [18.4058676, 43.6529744], [18.4044467, 43.6545767], [18.4049925, 43.657228], [18.414627, 43.6608107], [18.4195856, 43.6622789], [18.4218199, 43.6629277], [18.4220855, 43.663185], [18.4229747, 43.6640462], [18.4234198, 43.664878], [18.424654, 43.6662254], [18.4272543, 43.6675147], [18.4290693, 43.6678613], [18.4323533, 43.66806], [18.4351901, 43.6679163], [18.436172, 43.6678665], [18.4373436, 43.6677334], [18.4393851, 43.668037], [18.4492852, 43.6707488], [18.4499504, 43.6708507], [18.4510938, 43.6711971], [18.4528987, 43.6717438], [18.4536098, 43.6718887], [18.4546862, 43.6715981], [18.4560768, 43.6712226], [18.4568819, 43.6710052], [18.4571864, 43.6705472], [18.4580529, 43.6692259], [18.4586872, 43.667813], [18.4592133, 43.6654046], [18.4595797, 43.6634352], [18.4598311, 43.6596643], [18.4601265, 43.6561414], [18.4612191, 43.6547472], [18.4631866, 43.6522613], [18.4665184, 43.6480941], [18.4706044, 43.6454298], [18.4744381, 43.6429375], [18.4772932, 43.6427413], [18.4834502, 43.6423183], [18.494593, 43.6453096], [18.5004286, 43.6452917], [18.5071624, 43.6452723], [18.5141698, 43.6456419], [18.5254977, 43.6462393], [18.5303521, 43.6512458], [18.5383093, 43.6533295], [18.5388561, 43.6531358], [18.5394917, 43.6529014], [18.5402291, 43.6527266], [18.5408661, 43.6526453], [18.5417419, 43.6522814], [18.5437208, 43.6523154], [18.5445627, 43.6529632], [18.5452034, 43.6522095], [18.5451053, 43.6515664], [18.5462409, 43.6508675], [18.5474572, 43.6507551], [18.5485171, 43.651322], [18.5481448, 43.6518388], [18.5491982, 43.6523848], [18.5479761, 43.6530033], [18.5479524, 43.6547582], [18.5495475, 43.6559596], [18.5548644, 43.6571601], [18.5639643, 43.6580395], [18.5644903, 43.6575541], [18.5653582, 43.6575995], [18.5661035, 43.6579282], [18.5716043, 43.6544046], [18.5734851, 43.6541092], [18.5744547, 43.6533998], [18.5787559, 43.6524195], [18.5792767, 43.6519112], [18.5805847, 43.6517552], [18.5809671, 43.6513527], [18.5828428, 43.6513413], [18.5847041, 43.6523811], [18.5883343, 43.6524358], [18.5891697, 43.6513809], [18.5899763, 43.6510844], [18.5898169, 43.6500587], [18.5909041, 43.6498764], [18.5956309, 43.6463116], [18.596628, 43.6467528], [18.5980391, 43.647139], [18.5994488, 43.6462104], [18.6017696, 43.6467837], [18.60455, 43.6472295], [18.6048227, 43.647563], [18.605358, 43.6480902], [18.6061502, 43.6486939], [18.606719, 43.6496116], [18.6090914, 43.6503452], [18.6109708, 43.6505403], [18.6125383, 43.6507902], [18.614331, 43.651708], [18.6153482, 43.652758], [18.6153852, 43.6544184], [18.6147042, 43.6576921], [18.6148372, 43.6591988], [18.6149002, 43.6605292], [18.6181736, 43.6617272], [18.6182476, 43.662371], [18.6202914, 43.6635063], [18.6204042, 43.6652237], [18.6219717, 43.6661547], [18.6240045, 43.6662722], [18.6265632, 43.6667854], [18.6287806, 43.6679058], [18.6296225, 43.6692921], [18.6294767, 43.6702431], [18.6290115, 43.6715464], [18.6283651, 43.6725466], [18.6272037, 43.6728886], [18.6264006, 43.6736511], [18.6252687, 43.6736725], [18.6244458, 43.6747763], [18.6232427, 43.6750711], [18.6220122, 43.6763484], [18.6220932, 43.6772151], [18.6217056, 43.6783433], [18.6234687, 43.6787481], [18.6243274, 43.6800566], [18.6285169, 43.6805984], [18.6167015, 43.6846396], [18.5987637, 43.6970268], [18.5955017, 43.6993187], [18.5890011, 43.7028416], [18.5761918, 43.7097827], [18.5651977, 43.7156531], [18.5559495, 43.7204982], [18.5549486, 43.7210225], [18.5503079, 43.7208895], [18.5467746, 43.7207883], [18.5249631, 43.7202531], [18.5212145, 43.7201611], [18.5088494, 43.7198078], [18.5059706, 43.7197256], [18.4959539, 43.7194755], [18.4897598, 43.7193209], [18.4749567, 43.7189996], [18.4744752, 43.7189892], [18.4630424, 43.7187423], [18.4583826, 43.7186583], [18.4527191, 43.7185563], [18.4489266, 43.7184365], [18.4297358, 43.7172829], [18.4234459, 43.7169048], [18.4045666, 43.7160233], [18.4016548, 43.7159133], [18.4002966, 43.7180149], [18.3989435, 43.7200053], [18.3977874, 43.7216961], [18.3964407, 43.723771], [18.395403, 43.7253297], [18.3932891, 43.7275297], [18.3924192, 43.728458], [18.3913318, 43.7295032], [18.3890372, 43.7317269], [18.3862388, 43.7344453], [18.3846154, 43.736026], [18.3760724, 43.7383946], [18.3709723, 43.7404053], [18.3682151, 43.7415034], [18.3656464, 43.7431242], [18.3651862, 43.7428214], [18.3643828, 43.7425921], [18.3642408, 43.7428208], [18.3640231, 43.7429401], [18.3636299, 43.7430235], [18.3633973, 43.7429205], [18.3632892, 43.7427853], [18.3630598, 43.7426146], [18.3629898, 43.7420951], [18.3626175, 43.7422221], [18.361249, 43.7420647], [18.3599961, 43.7420681], [18.3600541, 43.7418487], [18.3570647, 43.7421878], [18.3561928, 43.7417625], [18.3557301, 43.7416618], [18.3552111, 43.741712], [18.3544785, 43.7416112], [18.3547925, 43.7421843], [18.354884, 43.7428346], [18.3531494, 43.7428637], [18.3528641, 43.7418328], [18.3514793, 43.7404352], [18.3502481, 43.7409163], [18.3492485, 43.7402265], [18.3487827, 43.7402534], [18.3481775, 43.7401725], [18.3474769, 43.7399985], [18.3464704, 43.7396881], [18.3458822, 43.7394171], [18.3454151, 43.7390583], [18.3451755, 43.7388256], [18.344982, 43.7386277], [18.3446774, 43.738472], [18.3442398, 43.7382984], [18.3423556, 43.7375283], [18.3419567, 43.7374743], [18.3416001, 43.7375121], [18.3412996, 43.73758], [18.3409948, 43.7376317], [18.3407532, 43.7375916], [18.3404693, 43.7375477], [18.3402825, 43.7375898], [18.3401414, 43.7376817], [18.3398444, 43.7381029], [18.3396637, 43.738268], [18.3394267, 43.7383821], [18.3391022, 43.7384757], [18.3388058, 43.7385306], [18.3385967, 43.7384749], [18.3383981, 43.7383465], [18.3382111, 43.7379435], [18.3379394, 43.7375175], [18.3377346, 43.737407], [18.3374203, 43.7373924], [18.3371844, 43.7374127], [18.336885, 43.7375056], [18.3363815, 43.737638], [18.335661, 43.7377251], [18.3354008, 43.7377395], [18.3350285, 43.7376995], [18.3348095, 43.7377332], [18.3346288, 43.7378781], [18.334479, 43.7380991], [18.3343699, 43.7382354], [18.33412, 43.7383397], [18.3338634, 43.7384642], [18.3330748, 43.7388771], [18.3328901, 43.7388922], [18.3326525, 43.738827], [18.3324206, 43.7387731], [18.3322214, 43.7387876], [18.3320452, 43.7389236], [18.3318832, 43.7391649], [18.3317722, 43.7393199], [18.3316347, 43.7394711], [18.3315079, 43.7396969], [18.3314871, 43.7398735], [18.3315091, 43.7399973], [18.3314675, 43.7400756], [18.3313341, 43.7400906], [18.331192, 43.7400925], [18.331028, 43.7400347], [18.3308975, 43.7399069], [18.3306091, 43.7394679], [18.3303841, 43.7391855], [18.3298882, 43.7389026], [18.329262, 43.7386722], [18.3284488, 43.7383336], [18.3281465, 43.7381537], [18.3275975, 43.7380563], [18.3268534, 43.7378214], [18.3266255, 43.7376999], [18.3263111, 43.737503], [18.325649, 43.7371972], [18.3242729, 43.7364601], [18.3236838, 43.7361996], [18.3231806, 43.7359843], [18.3225913, 43.7357556], [18.321905, 43.7354229], [18.3216719, 43.7353336], [18.3213099, 43.7352832], [18.3209783, 43.7351649], [18.3207391, 43.7351978], [18.320433, 43.7352102], [18.3198454, 43.7351283], [18.3193473, 43.7351335], [18.3191346, 43.7350698], [18.318922, 43.7349171], [18.3185829, 43.7348786], [18.3182125, 43.7347127], [18.3119612, 43.7370925], [18.3111636, 43.7383691], [18.3098039, 43.7389265], [18.3086732, 43.7391752], [18.3090032, 43.7393591], [18.3010738, 43.740809], [18.291394, 43.7425789], [18.2842369, 43.7435986], [18.2806576, 43.7440051], [18.276838, 43.7444357], [18.2758518, 43.7445966], [18.2750995, 43.7448554], [18.2735992, 43.7460852], [18.2731127, 43.7465494], [18.2724846, 43.7471826], [18.2715742, 43.7477057], [18.2678969, 43.7468224], [18.2363948, 43.7451757], [18.2358898, 43.7417205], [18.235567, 43.7381696], [18.2354883, 43.7368195], [18.2350089, 43.7351827], [18.234744, 43.7335787], [18.2346529, 43.7320582], [18.2343673, 43.7303018], [18.2340531, 43.7291608], [18.2340075, 43.728118], [18.2339373, 43.7266092], [18.2334577, 43.7250886], [18.2333914, 43.7233649], [18.2331721, 43.7219218], [18.2345072, 43.7191339], [18.236111, 43.7162927], [18.237219, 43.7137651], [18.2384715, 43.7108724], [18.2396745, 43.7072627], [18.2410303, 43.7045913], [18.2419894, 43.7016327], [18.2424774, 43.7000367], [18.2404604, 43.7000094], [18.2388195, 43.6999223], [18.2371292, 43.6999341], [18.2347981, 43.6999153], [18.2321526, 43.6998373], [18.2299164, 43.6997803], [18.2271135, 43.6997921], [18.2247862, 43.6999501], [18.2222852, 43.7002639], [18.2193008, 43.7007211], [18.2168186, 43.7010041], [18.2141941, 43.7013272], [18.2121594, 43.7014693], [18.2104728, 43.7014685], [18.2080397, 43.7022222], [18.2046128, 43.7028687], [18.2018332, 43.7033726], [18.1988056, 43.7041272], [18.1963238, 43.7033024], [18.1944374, 43.7026208], [18.1923544, 43.7019746], [18.189477, 43.7000014], [18.1876899, 43.6984934], [18.185904, 43.6973442], [18.1844648, 43.696088], [18.1833745, 43.6952267], [18.1818855, 43.6941856], [18.1798016, 43.6939709], [18.1777663, 43.6936863], [18.1748363, 43.6933643], [18.1719563, 43.6928627], [18.1684795, 43.6925043], [18.1660021, 43.6920856], [18.1659951, 43.6911071]]]}}]}