{"type": "FeatureCollection", "features": [{"type": "Feature", "properties": {"name": "Grad Tuzla, Tuzlanski kanton, Federacija Bosne i Hercegovine, Bosna i Hercegovina / Босна и Херцеговина", "source": "OpenStreetMap relation 2528281", "licence": "ODbL 1.0"}, "geometry": {"type": "Polygon", "coordinates": [[[18.5462581, 44.4926268], [18.5489455, 44.4907098], [18.5547681, 44.4884732], [18.5583513, 44.4878341], [18.5610387, 44.4875146], [18.5632781, 44.4855974], [18.5704445, 44.4839997], [18.5744755, 44.4817628], [18.5762671, 44.4792062], [18.5776108, 44.47633], [18.5785066, 44.4744124], [18.5823504, 44.4734292], [18.5855481, 44.4729357], [18.5880286, 44.4710018], [18.5892306, 44.4680889], [18.5930831, 44.4657887], [18.5957052, 44.4658291], [18.6011082, 44.46924], [18.6072511, 44.4730733], [18.6090485, 44.4752904], [18.6112029, 44.4788866], [18.6129101, 44.4804264], [18.6133901, 44.4808667], [18.6159184, 44.4824006], [18.6176723, 44.4833302], [18.6184312, 44.4848575], [18.6250282, 44.4845295], [18.628223, 44.4839997], [18.6323361, 44.4830369], [18.635443, 44.4827598], [18.6365275, 44.4825674], [18.6427119, 44.484148], [18.6456867, 44.4843082], [18.6485361, 44.4841402], [18.6524093, 44.4833605], [18.6561484, 44.4836294], [18.6597629, 44.48314], [18.6650723, 44.4832249], [18.6716688, 44.4839997], [18.6737449, 44.4847298], [18.6788351, 44.486556], [18.6824183, 44.4884732], [18.6828662, 44.4891122], [18.6869255, 44.4906067], [18.6918836, 44.4922891], [18.6971676, 44.4947198], [18.6984149, 44.4961787], [18.6993979, 44.4965816], [18.6996834, 44.4967096], [18.6998315, 44.497058], [18.7002866, 44.4971578], [18.7007074, 44.4972209], [18.7010137, 44.4971457], [18.7016173, 44.4972503], [18.7016847, 44.4975637], [18.7016499, 44.4978038], [18.7015245, 44.4979397], [18.7016232, 44.4980702], [18.7017458, 44.4981341], [18.7021794, 44.4981833], [18.7023665, 44.4985306], [18.7028444, 44.4988797], [18.7035039, 44.4990359], [18.7039968, 44.4990956], [18.7042003, 44.4993398], [18.7042836, 44.4995839], [18.7046958, 44.4997961], [18.7051382, 44.4999979], [18.7052916, 44.5002403], [18.7054563, 44.500604], [18.7059782, 44.5009354], [18.7066421, 44.5012714], [18.7074497, 44.5013788], [18.7079045, 44.501481], [18.7084377, 44.5015522], [18.7086876, 44.5014951], [18.7091866, 44.5013007], [18.7095279, 44.5012673], [18.7106294, 44.5013944], [18.7109184, 44.5014627], [18.7114058, 44.5016801], [18.7118862, 44.5015839], [18.7122056, 44.5016368], [18.7125534, 44.5020734], [18.7128264, 44.5025838], [18.7131874, 44.5030916], [18.7135596, 44.5033592], [18.7141115, 44.5038338], [18.7158855, 44.5046253], [18.7185316, 44.5055864], [18.7196332, 44.5060863], [18.719869, 44.5063712], [18.7203607, 44.5066407], [18.7214991, 44.5067831], [18.7216567, 44.5066681], [18.7216189, 44.5064036], [18.7214609, 44.506127], [18.7215003, 44.505887], [18.7216831, 44.5056997], [18.7219517, 44.5055981], [18.7240522, 44.5071677], [18.7244963, 44.5069928], [18.7249586, 44.5070339], [18.7253271, 44.5071585], [18.7263136, 44.5069709], [18.7272542, 44.5069102], [18.7281469, 44.5067919], [18.7281309, 44.507331], [18.7288095, 44.5074047], [18.7294062, 44.5077721], [18.730151, 44.507815], [18.7305748, 44.5077936], [18.7312562, 44.508066], [18.7317466, 44.5080688], [18.7323952, 44.5078988], [18.7330352, 44.5073493], [18.7336205, 44.5071543], [18.7346409, 44.5071439], [18.7351075, 44.5072222], [18.7354195, 44.5074229], [18.7357176, 44.5077876], [18.7361419, 44.5083823], [18.7420478, 44.5056845], [18.7442278, 44.5057249], [18.7477232, 44.5051305], [18.7535741, 44.5027308], [18.7569163, 44.5031958], [18.7594563, 44.5041278], [18.7643831, 44.5041278], [18.7675184, 44.5034889], [18.7719973, 44.5022111], [18.7740589, 44.5001505], [18.777494, 44.5038508], [18.7783955, 44.5056178], [18.7824636, 44.5086603], [18.7866478, 44.5123172], [18.7966316, 44.5124326], [18.7992615, 44.5122196], [18.8009619, 44.5130132], [18.8007369, 44.5152859], [18.8009435, 44.5175769], [18.8040873, 44.5195232], [18.8097939, 44.5192322], [18.8229383, 44.5172859], [18.8284321, 44.5191395], [18.8318534, 44.5209117], [18.8325539, 44.5236009], [18.8358338, 44.5267942], [18.8369487, 44.5295288], [18.8361812, 44.5341712], [18.8420643, 44.5334103], [18.8463479, 44.5344666], [18.8517227, 44.5376592], [18.8535143, 44.5421286], [18.8543826, 44.5464987], [18.8513537, 44.547638], [18.8503794, 44.5480347], [18.8497886, 44.548675], [18.8499349, 44.5496159], [18.8500851, 44.5502357], [18.8497807, 44.5536047], [18.8490121, 44.556762], [18.8488225, 44.5575409], [18.8483641, 44.5579393], [18.8469777, 44.5586085], [18.843713, 44.5586881], [18.8413203, 44.5588634], [18.8412129, 44.5588913], [18.840247, 44.5591422], [18.8363561, 44.5639299], [18.8325883, 44.5674028], [18.8307882, 44.5685339], [18.82929, 44.5689879], [18.8265284, 44.5691632], [18.824024, 44.5692269], [18.8197083, 44.5694897], [18.8152137, 44.5698242], [18.810775, 44.5701588], [18.8098596, 44.5701841], [18.8084718, 44.5702225], [18.8049388, 44.5701349], [18.8009361, 44.5698959], [18.7960949, 44.5699278], [18.7938476, 44.5701667], [18.7928638, 44.5707323], [18.7918575, 44.5715048], [18.7913097, 44.5723093], [18.7908177, 44.573265], [18.7901804, 44.5754632], [18.7860772, 44.5793098], [18.7857976, 44.5809184], [18.7857641, 44.5831004], [18.7857194, 44.5861741], [18.7870387, 44.5872411], [18.7887743, 44.5884532], [18.7910861, 44.5900677], [18.7933557, 44.5920662], [18.7924724, 44.5925837], [18.7868486, 44.5940885], [18.7815267, 44.5956728], [18.7764008, 44.5981534], [18.7723139, 44.6001311], [18.7719316, 44.6002263], [18.7649094, 44.601974], [18.75883, 44.6056977], [18.7564231, 44.607571], [18.7535573, 44.6097988], [18.7465795, 44.607953], [18.740562, 44.607953], [18.7367615, 44.6084039], [18.7339111, 44.6095313], [18.7310607, 44.6106586], [18.7288437, 44.611335], [18.7253599, 44.607953], [18.7215594, 44.6077275], [18.7190257, 44.6059237], [18.7152252, 44.6056982], [18.7120581, 44.607502], [18.7092077, 44.6099822], [18.7038237, 44.6120114], [18.6993897, 44.6135896], [18.6949558, 44.6162949], [18.691472, 44.6192256], [18.6886216, 44.6223816], [18.687038, 44.6235086], [18.6841877, 44.6284675], [18.6829208, 44.6307214], [18.6810206, 44.6327499], [18.679437, 44.6336514], [18.6746864, 44.6332006], [18.6712026, 44.6318484], [18.6658185, 44.6322991], [18.662018, 44.6341021], [18.6594843, 44.6365812], [18.6560005, 44.6392855], [18.6525167, 44.641539], [18.650856, 44.6446437], [18.6489175, 44.6481434], [18.6461137, 44.6512884], [18.6441662, 44.6546836], [18.6472033, 44.656835], [18.6427759, 44.6591386], [18.6383683, 44.6588587], [18.6372856, 44.6589252], [18.6367242, 44.6590682], [18.6362274, 44.6591221], [18.6359044, 44.6592729], [18.6354411, 44.6595065], [18.6351268, 44.6595533], [18.6348125, 44.6595689], [18.6346297, 44.6596885], [18.6343593, 44.6601772], [18.6340377, 44.660432], [18.6337453, 44.6608115], [18.6331898, 44.6611442], [18.6326562, 44.6612118], [18.6324223, 44.6611494], [18.6322103, 44.6608895], [18.6312236, 44.6604528], [18.6305438, 44.6603384], [18.629769, 44.6603904], [18.6292573, 44.6603124], [18.628351, 44.6600472], [18.6270938, 44.6594441], [18.6256611, 44.658893], [18.6246159, 44.6585083], [18.6229786, 44.6579624], [18.6210124, 44.6574892], [18.6204934, 44.65751], [18.6196821, 44.6575776], [18.6193385, 44.6575256], [18.6187757, 44.6571825], [18.6185126, 44.6569693], [18.6179644, 44.6568185], [18.6172553, 44.6564026], [18.6161809, 44.6559398], [18.6148652, 44.6551807], [18.6137761, 44.65438], [18.6132206, 44.6540888], [18.6117368, 44.6533348], [18.6112032, 44.6532256], [18.6107208, 44.6530853], [18.6100483, 44.6527941], [18.6092808, 44.6522429], [18.60893, 44.6519205], [18.6089007, 44.6516865], [18.6089373, 44.6513537], [18.6088715, 44.6512185], [18.6085718, 44.6510729], [18.6080017, 44.6510105], [18.6076216, 44.6510105], [18.6071246, 44.6505893], [18.6064375, 44.6504541], [18.6055677, 44.6503865], [18.6041131, 44.6493257], [18.6034114, 44.6487329], [18.6026731, 44.6482077], [18.6020811, 44.6479841], [18.6017229, 44.6477501], [18.6014817, 44.6473185], [18.6011309, 44.6467777], [18.6007946, 44.6464396], [18.6006046, 44.6461224], [18.6006046, 44.6458988], [18.6006119, 44.6454048], [18.6005607, 44.6449783], [18.600516, 44.6447239], [18.6003049, 44.6443699], [18.6001076, 44.6442191], [18.5996398, 44.643959], [18.5992304, 44.6435898], [18.5990623, 44.6435066], [18.59915, 44.6433194], [18.5993985, 44.6430437], [18.5998006, 44.6428617], [18.6000856, 44.6426329], [18.6003707, 44.6422949], [18.6005607, 44.6418164], [18.6006119, 44.6413951], [18.600495, 44.6411403], [18.6000929, 44.6406046], [18.5998956, 44.640381], [18.5999175, 44.640251], [18.5996836, 44.6400793], [18.5990696, 44.6397361], [18.5985068, 44.6394084], [18.5985434, 44.6392004], [18.5984337, 44.6390027], [18.5980171, 44.638467], [18.5975054, 44.6378949], [18.5970888, 44.6374008], [18.596928, 44.6369223], [18.59714, 44.6367611], [18.5972788, 44.6366206], [18.5974616, 44.6365426], [18.5974835, 44.6363242], [18.597425, 44.6360849], [18.5974323, 44.6357988], [18.5975712, 44.6355076], [18.597732, 44.6352371], [18.5976224, 44.6349458], [18.5971765, 44.634665], [18.5971546, 44.6344517], [18.5972204, 44.6341916], [18.5972788, 44.6337807], [18.5971911, 44.6334686], [18.5969791, 44.6329953], [18.5966722, 44.6327612], [18.5966064, 44.632496], [18.5963578, 44.6321579], [18.5958023, 44.6318562], [18.5955904, 44.6315129], [18.5939896, 44.6318718], [18.5937996, 44.6315909], [18.5935291, 44.6313724], [18.5933683, 44.6311227], [18.5933025, 44.6306546], [18.5933318, 44.6302905], [18.5936022, 44.6296402], [18.59407, 44.6292345], [18.5942893, 44.6289016], [18.5941943, 44.6284074], [18.5940919, 44.6280537], [18.5940408, 44.6277363], [18.5941504, 44.6273254], [18.594187, 44.6270081], [18.5938727, 44.6270029], [18.593763, 44.6264931], [18.5936972, 44.6259937], [18.5935803, 44.6257804], [18.5933829, 44.625489], [18.5932952, 44.6250833], [18.5934341, 44.6247399], [18.5936022, 44.6246515], [18.5940554, 44.6245214], [18.5937557, 44.6241677], [18.5932002, 44.6236474], [18.5922427, 44.6232625], [18.5915337, 44.6231844], [18.5911682, 44.6236995], [18.5909541, 44.6240305], [18.5896486, 44.6227296], [18.5894327, 44.6194087], [18.583903, 44.6161373], [18.5864815, 44.6119086], [18.5858481, 44.6060464], [18.5843113, 44.6044516], [18.5795377, 44.6063221], [18.574926, 44.6065696], [18.5706658, 44.6064374], [18.5658223, 44.6079881], [18.5579856, 44.610284], [18.5506544, 44.6118758], [18.5495889, 44.608704], [18.551553, 44.6056208], [18.55326, 44.6031522], [18.5528654, 44.6004884], [18.5541307, 44.5984701], [18.5553429, 44.5966914], [18.5552113, 44.5946128], [18.555216, 44.5919073], [18.555537, 44.5892585], [18.5568008, 44.5838201], [18.5566067, 44.5802173], [18.5570076, 44.5769143], [18.5547994, 44.5739983], [18.5528654, 44.5720203], [18.550831, 44.5703982], [18.5494404, 44.5691916], [18.5485712, 44.5679471], [18.5483018, 44.5660961], [18.5478069, 44.5643054], [18.5478446, 44.5626461], [18.5486668, 44.5603598], [18.5516329, 44.5590454], [18.5538723, 44.5571305], [18.5556106, 44.5533721], [18.5548307, 44.5500262], [18.5537674, 44.5459783], [18.5569355, 44.5444967], [18.5579034, 44.544044], [18.5607756, 44.5403148], [18.5631309, 44.5375019], [18.5654955, 44.5349227], [18.567514, 44.5341944], [18.5690248, 44.5336492], [18.5700278, 44.5332873], [18.5707271, 44.529004], [18.5711315, 44.5274594], [18.5722815, 44.5230663], [18.5728172, 44.5200252], [18.5735246, 44.514387], [18.5737952, 44.5117204], [18.5706524, 44.5087051], [18.5647872, 44.5068576], [18.5587386, 44.505294], [18.56187, 44.5010921], [18.5616381, 44.5007155], [18.5605869, 44.4990204], [18.5581661, 44.4993774], [18.5544297, 44.5017643], [18.5525287, 44.5012528], [18.5493934, 44.4977386], [18.547875, 44.4952631], [18.5462581, 44.4926268]]]}}]}