{"type": "FeatureCollection", "features": [{"type": "Feature", "properties": {"name": "Opština Ugljevik, Република Српска / Republika Srpska, Bosna i Hercegovina / Босна и Херцеговина", "source": "OpenStreetMap relation 2528282", "licence": "ODbL 1.0"}, "geometry": {"type": "MultiPolygon", "coordinates": [[[[18.8986317, 44.6731757], [18.8986395, 44.6729917], [18.8986891, 44.6728245], [18.898698, 44.6726829], [18.8986981, 44.6722601], [18.8988146, 44.6721919], [18.8992641, 44.6720066], [18.8996658, 44.6718425], [18.9003217, 44.671633], [18.9005378, 44.6716011], [18.9006395, 44.6715704], [18.9008618, 44.6715274], [18.9012263, 44.671457], [18.901431, 44.6714174], [18.901551, 44.6713954], [18.9019165, 44.6711699], [18.9021426, 44.6710473], [18.9022561, 44.6709816], [18.9023339, 44.6709413], [18.9024439, 44.6709022], [18.9027945, 44.6708337], [18.9030439, 44.670785], [18.9031927, 44.670746], [18.9032757, 44.6707132], [18.903407, 44.6706798], [18.9034702, 44.6706732], [18.9035455, 44.6706515], [18.903639, 44.6706246], [18.9037475, 44.6705934], [18.9039548, 44.6704986], [18.9042237, 44.6704563], [18.9056577, 44.6702182], [18.9058626, 44.6702132], [18.9062075, 44.6702387], [18.9064006, 44.6702171], [18.9065982, 44.6701884], [18.9068401, 44.6701221], [18.9070291, 44.6700876], [18.907252, 44.6700325], [18.9075476, 44.6699774], [18.9079449, 44.6699463], [18.908284, 44.6699601], [18.9086814, 44.6699739], [18.9091368, 44.6699291], [18.909757, 44.6697568], [18.9094168, 44.6688816], [18.9094316, 44.6688325], [18.909519, 44.6687898], [18.9098068, 44.6685882], [18.9098801, 44.6685274], [18.9099326, 44.6684835], [18.910002, 44.6684371], [18.9100731, 44.6683922], [18.9102011, 44.6683256], [18.910275, 44.6682966], [18.9103459, 44.6682687], [18.9104336, 44.6682546], [18.9105994, 44.6682369], [18.9107243, 44.6682154], [18.9108705, 44.6682063], [18.9111956, 44.6682252], [18.9115655, 44.6682511], [18.9117406, 44.6682416], [18.9118436, 44.6682199], [18.9119732, 44.6681715], [18.9120808, 44.6681138], [18.9122321, 44.6680178], [18.912274, 44.6679563], [18.9123122, 44.6679085], [18.9125161, 44.6677283], [18.9126071, 44.6676371], [18.9126864, 44.6675941], [18.9129226, 44.6674414], [18.913216, 44.6672411], [18.9134854, 44.6670728], [18.9135444, 44.6670316], [18.9136178, 44.6669719], [18.9137131, 44.6668783], [18.913821, 44.6667613], [18.9139096, 44.6666493], [18.9139731, 44.6665496], [18.914297, 44.665825], [18.9145635, 44.6652357], [18.9145878, 44.6646395], [18.9146544, 44.6643608], [18.914669, 44.6641523], [18.9147489, 44.6637767], [18.9148894, 44.6634786], [18.9151293, 44.6632442], [18.9153715, 44.6631184], [18.9157034, 44.6629168], [18.9161129, 44.662617], [18.917128, 44.6619071], [18.9174768, 44.661783], [18.9184265, 44.6626084], [18.9193011, 44.6622069], [18.9205245, 44.6621621], [18.9208128, 44.6623637], [18.9213773, 44.6619467], [18.9216462, 44.6621793], [18.9228381, 44.6616452], [18.9230489, 44.661721], [18.9239138, 44.6611196], [18.9250863, 44.6603649], [18.925646, 44.6601253], [18.9262419, 44.6599771], [18.9267216, 44.6599513], [18.9269397, 44.6600409], [18.9272982, 44.6598686], [18.9281267, 44.6597273], [18.9284393, 44.659779], [18.9285168, 44.6596515], [18.9287978, 44.6595825], [18.9293332, 44.6596652], [18.9293817, 44.6598031], [18.9295513, 44.6597411], [18.9296021, 44.6597635], [18.9296894, 44.6597841], [18.9298589, 44.6597704], [18.9299631, 44.6597393], [18.9300673, 44.6597204], [18.930123, 44.6597273], [18.9301739, 44.65976], [18.9302659, 44.6597859], [18.9303532, 44.6597859], [18.9304186, 44.6597359], [18.9305034, 44.659667], [18.930576, 44.6596239], [18.930702, 44.6595877], [18.9307941, 44.6595911], [18.9308861, 44.6596101], [18.9310121, 44.6596049], [18.931126, 44.6595791], [18.9312083, 44.6596032], [18.9313077, 44.659648], [18.931424, 44.6596428], [18.9315911, 44.6596446], [18.9317534, 44.6596963], [18.9319473, 44.6597514], [18.9320272, 44.6598513], [18.932175, 44.6602029], [18.9324172, 44.660246], [18.9324439, 44.660551], [18.9325045, 44.6612178], [18.9325335, 44.6614746], [18.932582, 44.6617382], [18.9326426, 44.6620277], [18.9327152, 44.6622862], [18.9328267, 44.662281], [18.9328533, 44.6622896], [18.932909, 44.6623413], [18.9329745, 44.6624309], [18.9330084, 44.6625602], [18.933035, 44.6626411], [18.9335171, 44.6625136], [18.9336189, 44.6623551], [18.9353632, 44.6625291], [18.9348932, 44.6629496], [18.934852, 44.6629944], [18.9348375, 44.6630306], [18.9348375, 44.6630754], [18.9348496, 44.6631047], [18.9349053, 44.6631271], [18.9351742, 44.6631856], [18.9356999, 44.6633356], [18.9361941, 44.6635647], [18.9365721, 44.6638645], [18.9365042, 44.6639955], [18.9364849, 44.6640489], [18.9364776, 44.6641075], [18.9364897, 44.6641506], [18.9365018, 44.6641764], [18.9365842, 44.6642316], [18.9372795, 44.6646417], [18.9378367, 44.6648209], [18.9381807, 44.6648691], [18.9384908, 44.6648588], [18.9387888, 44.6648605], [18.9392442, 44.664814], [18.9404846, 44.6647502], [18.9406978, 44.6647416], [18.940848, 44.6647588], [18.9410176, 44.6647709], [18.9415918, 44.6645503], [18.9418292, 44.6643074], [18.9425124, 44.6637508], [18.9434525, 44.6630262], [18.9446492, 44.6626256], [18.9448623, 44.6625412], [18.9458653, 44.6619726], [18.9459719, 44.6619071], [18.9461197, 44.6617675], [18.9462869, 44.6616193], [18.946408, 44.6615125], [18.9466091, 44.6613729], [18.9469167, 44.6612488], [18.947067, 44.6612058], [18.9472535, 44.6611747], [18.9474013, 44.6611489], [18.9477162, 44.6611489], [18.9479851, 44.6611765], [18.9482492, 44.6612213], [18.9485763, 44.6611972], [18.9487289, 44.661173], [18.9488912, 44.6611351], [18.9490632, 44.6610972], [18.9495211, 44.6610042], [18.9495904, 44.6610057], [18.9496786, 44.6610076], [18.9498501, 44.6609879], [18.9500831, 44.6609611], [18.950134, 44.6609507], [18.9503327, 44.6608835], [18.9504852, 44.6608635], [18.9506161, 44.6607798], [18.9507323, 44.6606902], [18.9508021, 44.6606219], [18.9508528, 44.6605723], [18.9509222, 44.6605045], [18.9509936, 44.6604718], [18.9510753, 44.6604321], [18.9511969, 44.6604139], [18.9513419, 44.6604124], [18.9516683, 44.6604215], [18.9518759, 44.6604286], [18.9522151, 44.6603649], [18.9524573, 44.6602873], [18.9529879, 44.6601081], [18.9537486, 44.6599737], [18.954344, 44.6598764], [18.9546602, 44.6598247], [18.9548764, 44.6597947], [18.9550729, 44.6597672], [18.9552042, 44.6597506], [18.9556819, 44.659555], [18.9558684, 44.6595153], [18.9559504, 44.6595126], [18.9567672, 44.659486], [18.9567624, 44.6594309], [18.9567648, 44.6593895], [18.9568108, 44.6593189], [18.9569004, 44.6592637], [18.9570725, 44.6591982], [18.9572291, 44.6591801], [18.9574163, 44.6591262], [18.9575591, 44.6590598], [18.9577097, 44.658973], [18.9578478, 44.6588959], [18.9579372, 44.6588399], [18.958033, 44.6587832], [18.9581381, 44.6587166], [18.958222, 44.6586297], [18.9583084, 44.6584543], [18.9583594, 44.6583616], [18.9584783, 44.6582603], [18.9586475, 44.6581168], [18.9587029, 44.6580868], [18.9589628, 44.6580052], [18.9591102, 44.6579494], [18.959287, 44.6579076], [18.9596007, 44.6578842], [18.9596664, 44.6578831], [18.9597667, 44.6578582], [18.9598403, 44.6578336], [18.9599573, 44.6578009], [18.9600547, 44.6577697], [18.9601686, 44.6577369], [18.9603043, 44.6576887], [18.9604472, 44.6576473], [18.9607718, 44.6575336], [18.9610311, 44.6574267], [18.9611687, 44.6573295], [18.961566, 44.6570948], [18.9616733, 44.6570268], [18.9617609, 44.6569404], [18.9617966, 44.6568443], [18.9618814, 44.6566323], [18.9620243, 44.6564962], [18.9622351, 44.6564031], [18.9625113, 44.6562911], [18.9628141, 44.656105], [18.9632211, 44.655812], [18.9635435, 44.6555902], [18.9635912, 44.6555054], [18.96362, 44.6554167], [18.963642, 44.655326], [18.9636461, 44.6552341], [18.96347, 44.6547583], [18.9634513, 44.6546039], [18.9634828, 44.6543661], [18.9635966, 44.6541834], [18.9640472, 44.653887], [18.964602, 44.6536182], [18.9647716, 44.6529012], [18.9654524, 44.652055], [18.9659757, 44.6517793], [18.9659757, 44.6517086], [18.9661186, 44.6513863], [18.966138, 44.6512571], [18.9662494, 44.6509882], [18.9662567, 44.6509572], [18.966247, 44.650902], [18.9662325, 44.650871], [18.966201, 44.65084], [18.96584, 44.650678], [18.9657891, 44.6506487], [18.9657479, 44.6506091], [18.9657285, 44.6505436], [18.9657164, 44.6502575], [18.965731, 44.650192], [18.9657528, 44.6501299], [18.9657843, 44.6500903], [18.9659151, 44.6500334], [18.9660193, 44.6499852], [18.9660701, 44.6499541], [18.9661428, 44.6498938], [18.9661985, 44.6498214], [18.9662203, 44.6497421], [18.9662294, 44.6496692], [18.9663124, 44.6490045], [18.9660217, 44.6482702], [18.9657019, 44.6479462], [18.965323, 44.6475731], [18.9651783, 44.6474306], [18.9647484, 44.6472222], [18.9645257, 44.6469334], [18.9642584, 44.6467505], [18.9640907, 44.646688], [18.9638729, 44.6466298], [18.9636817, 44.6466076], [18.9631721, 44.6465966], [18.9627088, 44.6465624], [18.9624607, 44.6465476], [18.9622441, 44.6465595], [18.9621191, 44.6465715], [18.961972, 44.6465704], [18.9618199, 44.6465573], [18.9617174, 44.6465404], [18.961576, 44.6464993], [18.9614935, 44.6464678], [18.9614182, 44.6464349], [18.9613582, 44.6463971], [18.9612623, 44.6463435], [18.9611732, 44.6462789], [18.9610224, 44.6461923], [18.9609051, 44.6461619], [18.9607862, 44.6461672], [18.9606633, 44.6461803], [18.9605369, 44.6461716], [18.9604633, 44.646156], [18.9603629, 44.6461399], [18.9602601, 44.6460973], [18.9601882, 44.6460351], [18.9601353, 44.6459798], [18.9600634, 44.6459278], [18.9600335, 44.6459052], [18.9599838, 44.6458714], [18.959924, 44.6458343], [18.9598593, 44.6458048], [18.9598233, 44.6457767], [18.959789, 44.6457304], [18.9597431, 44.6456807], [18.9596589, 44.6456143], [18.9595479, 44.6455503], [18.9592528, 44.6454964], [18.9590301, 44.6453526], [18.9584408, 44.6451795], [18.9584271, 44.6450869], [18.9583175, 44.6449601], [18.9580845, 44.6448431], [18.9577693, 44.64477], [18.957694, 44.6447554], [18.9574644, 44.6447432], [18.9573034, 44.6447018], [18.9571595, 44.6446116], [18.9571081, 44.6446164], [18.956971, 44.6446238], [18.9565668, 44.6446091], [18.9563441, 44.6445506], [18.9560083, 44.6444263], [18.9557034, 44.644224], [18.9554464, 44.6441216], [18.9551312, 44.6439193], [18.9549462, 44.6437755], [18.9546447, 44.6436146], [18.9541411, 44.6434171], [18.9538087, 44.6433318], [18.9534421, 44.643266], [18.9531338, 44.6432611], [18.9529008, 44.643305], [18.9527124, 44.6433294], [18.9524348, 44.643344], [18.9520443, 44.6433708], [18.9514927, 44.643344], [18.9506087, 44.643422], [18.949968, 44.6436853], [18.9494198, 44.6436219], [18.9483714, 44.6438218], [18.948159, 44.6437291], [18.9481355, 44.6436733], [18.9481179, 44.6436316], [18.9480425, 44.6433245], [18.9480186, 44.6430027], [18.9480594, 44.6427621], [18.9477046, 44.6425757], [18.9478061, 44.6423835], [18.9478541, 44.6422665], [18.9478678, 44.6421276], [18.9478712, 44.6420374], [18.9478644, 44.6419496], [18.947837, 44.6418521], [18.9474498, 44.6409672], [18.9483406, 44.6407039], [18.9487723, 44.6406917], [18.9496528, 44.6400165], [18.9498187, 44.6396562], [18.9495089, 44.6393924], [18.9490806, 44.639237], [18.949047, 44.6391708], [18.949019, 44.6390096], [18.9490357, 44.6388787], [18.9490087, 44.6387122], [18.9489231, 44.6383953], [18.9488991, 44.6379809], [18.9486676, 44.6379497], [18.9486316, 44.6377983], [18.9485936, 44.637572], [18.9485263, 44.6372745], [18.9484893, 44.6370091], [18.9484802, 44.6367146], [18.9484742, 44.6362889], [18.9484821, 44.6362048], [18.9484979, 44.6360466], [18.948553, 44.6359476], [18.9486216, 44.635855], [18.9487072, 44.6357818], [18.9488854, 44.6357258], [18.9504374, 44.6358501], [18.9512768, 44.6358623], [18.9515166, 44.6357477], [18.9519929, 44.635716], [18.9520031, 44.6355015], [18.9525445, 44.6354381], [18.9531715, 44.6353479], [18.9536922, 44.6351967], [18.9540348, 44.6348139], [18.9543603, 44.6341947], [18.9541822, 44.6340923], [18.95398, 44.633946], [18.9538498, 44.6337363], [18.9538121, 44.6335754], [18.9538601, 44.6333901], [18.9540143, 44.6331975], [18.9543603, 44.6329634], [18.9548366, 44.6327684], [18.9555321, 44.6326026], [18.955556, 44.632627], [18.9556623, 44.6326733], [18.9557685, 44.6327026], [18.9558815, 44.6327221], [18.956022, 44.6327196], [18.9560974, 44.6326953], [18.9562132, 44.6326017], [18.9562422, 44.6325603], [18.9563294, 44.6325327], [18.9563827, 44.6324845], [18.9564021, 44.6324258], [18.9564312, 44.6323465], [18.9564506, 44.6322983], [18.9564651, 44.6321983], [18.9564215, 44.6321155], [18.9563488, 44.6319535], [18.9563004, 44.6318604], [18.956029, 44.631788], [18.955559, 44.6315742], [18.954682, 44.6313432], [18.9541539, 44.6310432], [18.9541152, 44.6309639], [18.9541103, 44.6308535], [18.9541442, 44.6307432], [18.9542072, 44.6306432], [18.9543526, 44.6305294], [18.9544689, 44.6304604], [18.9546433, 44.6303984], [18.9547838, 44.6303604], [18.954934, 44.6303018], [18.9551278, 44.6302087], [18.9554379, 44.6299846], [18.9558885, 44.6300087], [18.9562858, 44.6299018], [18.9563682, 44.6298156], [18.9562955, 44.6292639], [18.9560193, 44.6292536], [18.9558158, 44.6292432], [18.9557092, 44.6292156], [18.9556414, 44.6290915], [18.9556075, 44.6289398], [18.955593, 44.628626], [18.9556027, 44.6285053], [18.9556559, 44.6283881], [18.9557092, 44.6282191], [18.9557625, 44.6280674], [18.9559321, 44.6276846], [18.9557625, 44.6272777], [18.9556559, 44.6267018], [18.9556172, 44.6261915], [18.9554573, 44.62535], [18.9553265, 44.6251259], [18.9552974, 44.6246983], [18.9553701, 44.6243914], [18.955559, 44.6240913], [18.9553022, 44.6233982], [18.9552247, 44.6233844], [18.9551763, 44.6233706], [18.9551375, 44.6233361], [18.9551423, 44.6232775], [18.9552296, 44.6231568], [18.9555736, 44.6229499], [18.9557141, 44.6226567], [18.9558885, 44.6226602], [18.9559854, 44.6225705], [18.9561356, 44.6224567], [18.9563682, 44.6224533], [18.95647, 44.6223395], [18.9565136, 44.6221981], [18.9565233, 44.6219773], [18.9564457, 44.621729], [18.956029, 44.6214221], [18.9557771, 44.6214945], [18.9555494, 44.6215325], [18.9553216, 44.6215325], [18.955152, 44.6214704], [18.9550551, 44.6213773], [18.9550454, 44.6211255], [18.9549728, 44.6210876], [18.955123, 44.6207806], [18.9550358, 44.6207703], [18.9552247, 44.6202289], [18.9554912, 44.6202564], [18.9556463, 44.6199564], [18.9558837, 44.6197564], [18.9562568, 44.6197288], [18.9566589, 44.6194011], [18.9565959, 44.6189424], [18.9567122, 44.6188355], [18.9567607, 44.6187941], [18.9567897, 44.6187252], [18.9567704, 44.6186355], [18.9567025, 44.6185596], [18.9565523, 44.618501], [18.9562858, 44.6183975], [18.956092, 44.6182389], [18.9559951, 44.6181078], [18.9558837, 44.6179181], [18.9558643, 44.6177629], [18.9559467, 44.6174905], [18.9563585, 44.6169559], [18.9564118, 44.6167041], [18.956029, 44.6160591], [18.9556656, 44.6159108], [18.9552611, 44.6154659], [18.9550261, 44.6154056], [18.9545488, 44.615528], [18.9541442, 44.6154814], [18.9539649, 44.6155366], [18.9538438, 44.6154452], [18.9537275, 44.6153745], [18.9535943, 44.6153142], [18.953432, 44.6152676], [18.9532115, 44.6152607], [18.9532139, 44.6151107], [18.9532648, 44.6145536], [18.9535628, 44.6141915], [18.9536185, 44.6141363], [18.9537251, 44.6139052], [18.953776, 44.6139069], [18.9540304, 44.613374], [18.9540812, 44.6132119], [18.9544325, 44.61266], [18.954401, 44.6126152], [18.9549098, 44.6119271], [18.9549897, 44.6119461], [18.9552102, 44.6116132], [18.9552732, 44.6116356], [18.9556656, 44.6108975], [18.9561841, 44.6102835], [18.9572016, 44.6091452], [18.9578654, 44.6083035], [18.9579893, 44.6080507], [18.9580716, 44.6077757], [18.9581277, 44.607477], [18.9581014, 44.6069946], [18.9579879, 44.6063955], [18.9578584, 44.6061014], [18.9577663, 44.6058269], [18.957659, 44.605615], [18.957523, 44.6054709], [18.957442, 44.6053874], [18.9562048, 44.6044032], [18.9556221, 44.6039905], [18.9544902, 44.6031499], [18.953772, 44.602679], [18.9531239, 44.6022367], [18.9526097, 44.6017567], [18.9524702, 44.6015914], [18.9522382, 44.6013962], [18.9519282, 44.6012551], [18.9516921, 44.6011706], [18.951541, 44.6011313], [18.9513723, 44.6011002], [18.9511291, 44.6010876], [18.9509491, 44.6010906], [18.9506131, 44.6011205], [18.9505228, 44.6011302], [18.9504801, 44.6011272], [18.9506034, 44.6010798], [18.9506343, 44.6010679], [18.9518848, 44.6009155], [18.9540415, 44.6016047], [18.9552734, 44.6022773], [18.9565011, 44.6037027], [18.9579821, 44.6050002], [18.9587988, 44.6058479], [18.9590324, 44.6072617], [18.9588939, 44.6084569], [18.9588776, 44.6085978], [18.9588989, 44.6101814], [18.9594531, 44.6113882], [18.959964, 44.6121028], [18.9619191, 44.6140717], [18.9627719, 44.61441], [18.9636113, 44.6153369], [18.965767, 44.6161849], [18.9671245, 44.6169814], [18.9706203, 44.6186897], [18.971711, 44.6195841], [18.9727378, 44.6201243], [18.9752741, 44.621123], [18.9781399, 44.6224503], [18.9790115, 44.6228123], [18.979371, 44.6229616], [18.9805767, 44.6237062], [18.981557, 44.6239312], [18.9832184, 44.6245971], [18.9866655, 44.6257328], [18.9871115, 44.6259078], [18.9898509, 44.6267924], [18.9910363, 44.6269123], [18.993213, 44.6264855], [18.9952715, 44.6260818], [18.9977387, 44.6256087], [18.9997082, 44.6249893], [19.0018102, 44.6246875], [19.0043511, 44.6241896], [19.0070302, 44.6236497], [19.0073851, 44.6237841], [19.0096914, 44.6242697], [19.012401, 44.6244538], [19.0185935, 44.6241522], [19.0195886, 44.6240545], [19.0201373, 44.6240006], [19.0204541, 44.6239268], [19.0226733, 44.62341], [19.0248452, 44.6226899], [19.0273291, 44.6220791], [19.0318295, 44.61991], [19.0323543, 44.6195547], [19.0344364, 44.6181452], [19.0363256, 44.6169427], [19.0376528, 44.6160445], [19.0386836, 44.6152641], [19.0433467, 44.6116128], [19.0450305, 44.6096003], [19.0460393, 44.6079999], [19.0464595, 44.6073022], [19.0468127, 44.6062308], [19.0474929, 44.603888], [19.0473957, 44.6023983], [19.0473752, 44.6015155], [19.0474297, 44.6011176], [19.0476715, 44.600206], [19.0478396, 44.5995723], [19.0480293, 44.5988214], [19.0479281, 44.5979942], [19.0473627, 44.5970757], [19.0468801, 44.5958051], [19.0466169, 44.5948143], [19.0465346, 44.5934283], [19.0466424, 44.5926983], [19.0469749, 44.5920702], [19.049179, 44.5902156], [19.049212, 44.5881879], [19.0493996, 44.586689], [19.0494428, 44.5851302], [19.0498443, 44.5848488], [19.0502493, 44.5845302], [19.0504813, 44.5842885], [19.050667, 44.5841331], [19.0508733, 44.5840305], [19.0515032, 44.583837], [19.0518522, 44.5837731], [19.0525405, 44.5834629], [19.0532623, 44.5831371], [19.0544766, 44.5825725], [19.0560546, 44.5822111], [19.0565106, 44.5821816], [19.0571122, 44.5822561], [19.0578039, 44.5823612], [19.0590515, 44.5827801], [19.0593916, 44.5829518], [19.0601689, 44.583154], [19.0610857, 44.5832783], [19.0644601, 44.5835853], [19.0647576, 44.5854], [19.0674376, 44.5863947], [19.0694728, 44.5876748], [19.0702164, 44.5877242], [19.071933, 44.5882514], [19.0739171, 44.5890405], [19.0739759, 44.5891866], [19.0744007, 44.5903831], [19.0751517, 44.5917202], [19.0761378, 44.5926142], [19.0762798, 44.5933398], [19.0759456, 44.5940657], [19.0759134, 44.5953569], [19.0755379, 44.5961896], [19.0755165, 44.5967091], [19.0757218, 44.5973657], [19.0767503, 44.598344], [19.0771365, 44.5984509], [19.0790638, 44.5999132], [19.0790233, 44.6008432], [19.078981, 44.6010998], [19.0789394, 44.6013831], [19.0787579, 44.6016567], [19.0785022, 44.6018509], [19.0774473, 44.6023629], [19.0779565, 44.602666], [19.0782293, 44.6028458], [19.0784949, 44.6030584], [19.0785823, 44.6030845], [19.0788927, 44.6030579], [19.0793932, 44.6029505], [19.0797543, 44.6027479], [19.0795953, 44.6031443], [19.0793642, 44.6034389], [19.0792614, 44.6035588], [19.0792047, 44.6037118], [19.0791671, 44.6038218], [19.0790834, 44.603928], [19.0789603, 44.6040504], [19.0788116, 44.6041571], [19.0787023, 44.6042537], [19.0786443, 44.6043327], [19.0785849, 44.6044244], [19.078524, 44.6045976], [19.0784941, 44.6047436], [19.0782998, 44.6050588], [19.0788385, 44.6055482], [19.0808858, 44.6064169], [19.0809133, 44.6065313], [19.0808546, 44.606623], [19.0799493, 44.6072004], [19.0810089, 44.6080031], [19.0822366, 44.6091816], [19.0823727, 44.6093553], [19.0826373, 44.609501], [19.0824837, 44.610024], [19.0824365, 44.6102908], [19.0822941, 44.6107273], [19.0821106, 44.6110064], [19.081226, 44.6124035], [19.0810579, 44.6125474], [19.0813408, 44.6146457], [19.0814818, 44.6149799], [19.0816121, 44.6150216], [19.0817265, 44.6156101], [19.0816214, 44.6156549], [19.0816505, 44.6164564], [19.0817653, 44.6175983], [19.0818411, 44.6176036], [19.0821603, 44.6176876], [19.0821872, 44.617869], [19.0822515, 44.6179836], [19.0823749, 44.6180733], [19.0822235, 44.6183439], [19.0828019, 44.6184135], [19.0829265, 44.6184383], [19.082967, 44.6184835], [19.0829927, 44.6185606], [19.0829482, 44.6189222], [19.0833351, 44.6189507], [19.0832666, 44.6193665], [19.0832733, 44.6197441], [19.0832364, 44.6203551], [19.0827723, 44.6217105], [19.0832342, 44.6219515], [19.0835638, 44.6220955], [19.0836574, 44.6221126], [19.0839489, 44.6221071], [19.0840566, 44.6221094], [19.0841447, 44.6221164], [19.0842132, 44.622128], [19.0842883, 44.6221489], [19.0843535, 44.6221768], [19.084409, 44.6222093], [19.0844645, 44.6222464], [19.0846701, 44.6225019], [19.0847712, 44.6226157], [19.0849311, 44.6227156], [19.0850029, 44.6227481], [19.085078, 44.6227806], [19.0851204, 44.6228224], [19.0851508, 44.6228542], [19.0851963, 44.6228945], [19.0853521, 44.6228985], [19.0854781, 44.6229255], [19.0857636, 44.6229505], [19.0860841, 44.6230099], [19.086571, 44.6231019], [19.0873421, 44.6232455], [19.0877571, 44.6231855], [19.0878884, 44.6231807], [19.0881501, 44.6231615], [19.0882922, 44.6231427], [19.0883981, 44.6231605], [19.0888171, 44.6232095], [19.0889631, 44.6232304], [19.0894492, 44.623034], [19.0895851, 44.6230155], [19.0910479, 44.6230744], [19.0927604, 44.6230515], [19.0929591, 44.6229395], [19.0930232, 44.6228618], [19.093481, 44.6226304], [19.0936536, 44.6220569], [19.0938325, 44.6220069], [19.0938441, 44.6216876], [19.0940066, 44.6216848], [19.0940419, 44.6220134], [19.0939719, 44.6224195], [19.0939676, 44.6230976], [19.094126, 44.6233646], [19.0939032, 44.623558], [19.0931549, 44.6239918], [19.092391, 44.62464], [19.0920677, 44.6250137], [19.0910432, 44.6253005], [19.0913663, 44.6275982], [19.091458, 44.6278976], [19.0917963, 44.628252], [19.0919461, 44.6290558], [19.0924622, 44.6296985], [19.0929353, 44.6299685], [19.0927684, 44.631016], [19.0939643, 44.6317311], [19.0948112, 44.6323569], [19.0954375, 44.6328649], [19.0955111, 44.6331628], [19.0955708, 44.6333948], [19.0956769, 44.6335589], [19.0959348, 44.6337004], [19.096157, 44.6337727], [19.0965827, 44.6340896], [19.0967815, 44.6344455], [19.0971161, 44.6349481], [19.0972917, 44.6351247], [19.0974202, 44.6352505], [19.0976068, 44.6355427], [19.0974844, 44.6358843], [19.0972412, 44.636463], [19.0971531, 44.6367421], [19.0971557, 44.6368769], [19.0973574, 44.6374441], [19.0976581, 44.6374275], [19.0979478, 44.6375058], [19.0982455, 44.6376527], [19.0985996, 44.6377176], [19.0997743, 44.6385287], [19.1004503, 44.6385058], [19.1019206, 44.6390283], [19.1036903, 44.6395884], [19.1049628, 44.6383841], [19.1054821, 44.6375821], [19.1072571, 44.6360842], [19.1084529, 44.6367418], [19.1091062, 44.6375984], [19.1098273, 44.6384829], [19.1104171, 44.6387701], [19.1106735, 44.6389992], [19.1112703, 44.638983], [19.1118591, 44.6392187], [19.112433, 44.6396853], [19.1134335, 44.6399706], [19.1146267, 44.640434], [19.1148658, 44.6405269], [19.1151582, 44.6406968], [19.1156504, 44.6411558], [19.115991, 44.6413714], [19.1166522, 44.6414735], [19.1170363, 44.641611], [19.1177049, 44.641948], [19.1182239, 44.6422293], [19.1184586, 44.642297], [19.1188154, 44.6422827], [19.1195436, 44.6421043], [19.1199178, 44.6421345], [19.1202074, 44.6422388], [19.1204638, 44.642425], [19.120709, 44.642694], [19.1212468, 44.6430966], [19.1215204, 44.6432808], [19.1230899, 44.6438807], [19.1233707, 44.644007], [19.1239545, 44.6445155], [19.1245458, 44.6454992], [19.1250287, 44.6464811], [19.125309, 44.6470097], [19.1254781, 44.6497156], [19.1261136, 44.6507802], [19.1267313, 44.6519289], [19.126929, 44.6526655], [19.1274677, 44.6531864], [19.1274318, 44.6550315], [19.1270854, 44.6561624], [19.1266608, 44.6592823], [19.1282314, 44.6602191], [19.1285462, 44.6604069], [19.1286564, 44.660633], [19.1283882, 44.6611138], [19.1287851, 44.6613961], [19.1284847, 44.6618769], [19.1290426, 44.6623729], [19.1287529, 44.6626171], [19.1293195, 44.6633155], [19.1296598, 44.663393], [19.1296302, 44.6637272], [19.1294396, 44.6638151], [19.129107, 44.6639907], [19.1294074, 44.6644256], [19.1295104, 44.6649382], [19.1296222, 44.6651553], [19.1297654, 44.6654266], [19.1301933, 44.6657253], [19.1303392, 44.6659354], [19.1304433, 44.6660288], [19.1305491, 44.6660263], [19.1306044, 44.6659068], [19.130886, 44.6660177], [19.1308917, 44.666026], [19.1310642, 44.6662776], [19.1312475, 44.6664691], [19.1316494, 44.6666002], [19.1328884, 44.6667054], [19.1330832, 44.6667429], [19.1335599, 44.6667666], [19.13366, 44.6668067], [19.1338306, 44.6668564], [19.1339478, 44.6668973], [19.1342778, 44.6670405], [19.1344049, 44.6670501], [19.1345074, 44.6670579], [19.1345311, 44.6670562], [19.1346587, 44.6670472], [19.1347938, 44.6670376], [19.1351282, 44.6671228], [19.1355551, 44.6672311], [19.1357787, 44.6673117], [19.1359815, 44.6673848], [19.1363359, 44.6676081], [19.1368118, 44.6679063], [19.1373938, 44.6682082], [19.1375028, 44.6682786], [19.1375449, 44.6684105], [19.1376904, 44.6686737], [19.1376077, 44.6686777], [19.1369955, 44.6689957], [19.1365441, 44.6692351], [19.1367751, 44.669402], [19.1366563, 44.6694969], [19.137028, 44.6697812], [19.1365027, 44.6699151], [19.1364033, 44.6699684], [19.1363245, 44.6700477], [19.1363204, 44.6701403], [19.1364279, 44.6703961], [19.1364407, 44.6705679], [19.1364305, 44.6706759], [19.1363324, 44.6707398], [19.1361821, 44.6707323], [19.1359692, 44.6706002], [19.1357113, 44.6703735], [19.1355, 44.6701701], [19.1351627, 44.6699417], [19.1347181, 44.6700119], [19.1340701, 44.6699409], [19.1338082, 44.670032], [19.1334075, 44.6701365], [19.133075, 44.6699475], [19.1322589, 44.6697575], [19.1318343, 44.6698034], [19.1315916, 44.6701132], [19.1312105, 44.6702224], [19.1307018, 44.6701073], [19.1306326, 44.6701599], [19.1306594, 44.6706191], [19.1306865, 44.6708141], [19.1303135, 44.6708005], [19.1298774, 44.6708419], [19.1297468, 44.6710856], [19.1296204, 44.6712194], [19.1295837, 44.6712697], [19.1294972, 44.6713289], [19.1294187, 44.6713092], [19.1293652, 44.6712762], [19.1293204, 44.6711791], [19.1291089, 44.671142], [19.1288062, 44.6711968], [19.1286139, 44.6712966], [19.1285057, 44.6716998], [19.1284672, 44.6718339], [19.1284701, 44.6719724], [19.1284965, 44.6721053], [19.1284564, 44.6721787], [19.1283808, 44.6722088], [19.1283023, 44.6722341], [19.1282257, 44.6722355], [19.1280646, 44.6721528], [19.128214, 44.6716094], [19.1281453, 44.6712697], [19.1285455, 44.6706337], [19.128362, 44.6702962], [19.1278208, 44.6702083], [19.1276442, 44.6705675], [19.1276577, 44.6707552], [19.1274649, 44.6709307], [19.1272592, 44.670912], [19.1271176, 44.6708006], [19.1270931, 44.6707008], [19.1271315, 44.6705173], [19.1272774, 44.6702577], [19.1273334, 44.6700557], [19.1269008, 44.6699741], [19.126445, 44.6698741], [19.1262691, 44.6701746], [19.1257068, 44.6701175], [19.1254351, 44.6701325], [19.125301, 44.6701771], [19.1252382, 44.6702531], [19.1251344, 44.6704079], [19.1249584, 44.6706395], [19.1248162, 44.6707796], [19.1247026, 44.6707837], [19.12448, 44.670753], [19.1244053, 44.6706792], [19.1242389, 44.6704773], [19.1236548, 44.6701875], [19.1212832, 44.6699557], [19.1202473, 44.6698569], [19.1203277, 44.6701648], [19.1202191, 44.6703651], [19.1196477, 44.6703654], [19.1193584, 44.6702366], [19.1190306, 44.6700783], [19.1187206, 44.6701071], [19.1184632, 44.6702391], [19.1182124, 44.6705004], [19.1181185, 44.6707578], [19.1183643, 44.6709344], [19.1182945, 44.6710766], [19.1179443, 44.6712586], [19.1176112, 44.6713413], [19.1172366, 44.6713871], [19.1170943, 44.6712848], [19.1169557, 44.6708385], [19.116643, 44.6706739], [19.116412, 44.6708929], [19.1162487, 44.6711722], [19.1161131, 44.6712014], [19.115894, 44.6710698], [19.1156999, 44.6707548], [19.1153902, 44.6707101], [19.1152735, 44.6706655], [19.1152386, 44.6701344], [19.1150762, 44.669999], [19.1148412, 44.6700107], [19.1145743, 44.6700894], [19.1143888, 44.6702257], [19.1142372, 44.6704622], [19.1140696, 44.6705405], [19.1137164, 44.6706365], [19.1134481, 44.6706038], [19.1132208, 44.6705095], [19.1130992, 44.6705463], [19.113073, 44.6706189], [19.1131234, 44.6707615], [19.1132418, 44.6708988], [19.1133447, 44.6711641], [19.1133303, 44.6714175], [19.1133474, 44.6717207], [19.1132417, 44.6719755], [19.1130424, 44.6720595], [19.1125724, 44.6719597], [19.112169, 44.6718126], [19.1119287, 44.6718403], [19.1111767, 44.6724292], [19.1109796, 44.6724354], [19.1108414, 44.6723485], [19.1107698, 44.6722301], [19.1109863, 44.6719995], [19.1109903, 44.6717737], [19.11114, 44.6716595], [19.1116023, 44.6713793], [19.1115264, 44.6712631], [19.111339, 44.6712122], [19.1105418, 44.6711441], [19.1103465, 44.6710311], [19.1101942, 44.6708883], [19.1097579, 44.6707763], [19.1095963, 44.6705218], [19.109438, 44.6702617], [19.1095918, 44.670055], [19.1097453, 44.669881], [19.1097528, 44.6697456], [19.1097013, 44.6696403], [19.1095774, 44.6694531], [19.1091787, 44.6693916], [19.109083, 44.6694272], [19.1090479, 44.6694704], [19.1090373, 44.6695261], [19.1089104, 44.6697128], [19.1085902, 44.6696644], [19.1084004, 44.6698282], [19.1085977, 44.6705647], [19.1088452, 44.6713136], [19.1089526, 44.6720675], [19.1091161, 44.6723697], [19.1095901, 44.6726785], [19.1100921, 44.6731651], [19.1104301, 44.6733079], [19.1112129, 44.6735088], [19.1115435, 44.6736754], [19.111787, 44.6738457], [19.1122651, 44.674054], [19.1120052, 44.674051], [19.1117156, 44.674175], [19.1115573, 44.674173], [19.1110101, 44.6743523], [19.110758, 44.6743123], [19.1104254, 44.6743199], [19.1098407, 44.6744496], [19.1094679, 44.6744649], [19.1092506, 44.6744935], [19.109087, 44.6744401], [19.1087785, 44.6744134], [19.108167, 44.6744477], [19.107947, 44.6743867], [19.1077235, 44.6744209], [19.1074482, 44.674545], [19.10707, 44.674627], [19.1067079, 44.6746194], [19.1060775, 44.6746613], [19.1059086, 44.6746918], [19.1053399, 44.6748921], [19.1046104, 44.6751057], [19.1043556, 44.6751382], [19.1033202, 44.6751286], [19.1028455, 44.6750905], [19.1023788, 44.6749799], [19.1019282, 44.6749188], [19.1014802, 44.6748997], [19.1007078, 44.6747967], [19.1000104, 44.6746766], [19.0997261, 44.6746423], [19.0995034, 44.674631], [19.0992245, 44.6746041], [19.0990528, 44.6746365], [19.0987712, 44.6746957], [19.0986049, 44.6747929], [19.0985459, 44.6749188], [19.0983582, 44.6749474], [19.098039, 44.674936], [19.0977895, 44.6749741], [19.0975615, 44.6750142], [19.0974703, 44.6749646], [19.0971807, 44.6748521], [19.0965959, 44.6747796], [19.0960863, 44.6747681], [19.0957564, 44.6747929], [19.0952763, 44.6748959], [19.0940505, 44.6750752], [19.0938172, 44.6751477], [19.0933049, 44.6751229], [19.0923205, 44.6751878], [19.0917921, 44.6751935], [19.0916768, 44.6751191], [19.0916902, 44.6748044], [19.0917894, 44.6744878], [19.0917626, 44.6743771], [19.0916607, 44.6743104], [19.0914005, 44.6742589], [19.0903813, 44.674072], [19.0898234, 44.673885], [19.0893513, 44.6738126], [19.0886754, 44.6737534], [19.0883106, 44.673742], [19.0879083, 44.673763], [19.0875328, 44.6737973], [19.086948, 44.6739384], [19.0865189, 44.6740948], [19.0859529, 44.6742379], [19.0854219, 44.6744077], [19.0848452, 44.6744572], [19.084703, 44.6744401], [19.0845153, 44.6744839], [19.0840057, 44.6747014], [19.083201, 44.6751038], [19.0830079, 44.6751267], [19.0826941, 44.6752183], [19.0824285, 44.6753747], [19.0820074, 44.6755768], [19.0816748, 44.6756684], [19.0812162, 44.6759202], [19.080795, 44.6761319], [19.0802291, 44.6764447], [19.0801594, 44.6764676], [19.080044, 44.6764618], [19.0797517, 44.676561], [19.0792394, 44.6767956], [19.0790999, 44.6768261], [19.0787405, 44.6769978], [19.0786037, 44.6770188], [19.0780887, 44.6773087], [19.0778071, 44.6773869], [19.0776139, 44.6774365], [19.0775093, 44.6774441], [19.0774074, 44.6773926], [19.077284, 44.6772877], [19.0772009, 44.6771027], [19.077276, 44.676622], [19.0771714, 44.676479], [19.0767208, 44.6762101], [19.0765974, 44.6761014], [19.0765706, 44.6758591], [19.0763903, 44.6758155], [19.0763305, 44.6760177], [19.0762714, 44.6761747], [19.0761109, 44.6765838], [19.0754332, 44.6765439], [19.0753486, 44.6767952], [19.074919, 44.6770878], [19.074654, 44.6772068], [19.0743359, 44.6772658], [19.0741512, 44.6772018], [19.0737523, 44.6770356], [19.0734413, 44.6770301], [19.0732858, 44.6770498], [19.0731302, 44.6770314], [19.0730537, 44.6769652], [19.0730393, 44.6768213], [19.0730934, 44.6766107], [19.0731129, 44.6765299], [19.0730113, 44.6764313], [19.0728503, 44.6764065], [19.0726492, 44.676418], [19.0725258, 44.6764962], [19.0724695, 44.6766316], [19.0725312, 44.6767346], [19.0725633, 44.6768643], [19.0725902, 44.6769921], [19.0725017, 44.6770912], [19.0723515, 44.677179], [19.0721878, 44.6772095], [19.0720913, 44.6771542], [19.0720296, 44.6770588], [19.0720698, 44.6769539], [19.0721215, 44.6768657], [19.0721094, 44.676809], [19.0719666, 44.6767122], [19.0718029, 44.6766659], [19.0716299, 44.676674], [19.0715421, 44.6766921], [19.0714838, 44.6766902], [19.0713946, 44.6766254], [19.0708977, 44.67651], [19.0707683, 44.6764242], [19.0706496, 44.6763083], [19.0705785, 44.6760947], [19.0706402, 44.6759364], [19.0705436, 44.67578], [19.0702339, 44.6757065], [19.0700649, 44.6757113], [19.069912, 44.675738], [19.0697671, 44.6757218], [19.0696478, 44.6757809], [19.0696518, 44.6758544], [19.0696867, 44.6759163], [19.0696867, 44.6760718], [19.0696894, 44.6763731], [19.0697578, 44.6766678], [19.0697551, 44.6767298], [19.069684, 44.6767947], [19.0696008, 44.6768662], [19.0695834, 44.6769339], [19.0696438, 44.6769854], [19.0697591, 44.6770397], [19.0698677, 44.6771113], [19.0699227, 44.6772057], [19.0698986, 44.6772886], [19.0697309, 44.6773754], [19.0694091, 44.677364], [19.0691476, 44.6774536], [19.0690993, 44.677508], [19.0691449, 44.677569], [19.0693903, 44.6776529], [19.0697108, 44.6776577], [19.0698302, 44.6778837], [19.0697591, 44.6780658], [19.0696827, 44.6783596], [19.0693192, 44.6785417], [19.0702576, 44.6797224], [19.0707902, 44.680163], [19.0715805, 44.6812469], [19.0718628, 44.6817625], [19.0722743, 44.6830871], [19.0731609, 44.6840921], [19.0737442, 44.6852849], [19.0740313, 44.6859375], [19.0742932, 44.6869299], [19.0747956, 44.6869056], [19.0748145, 44.6877288], [19.0748177, 44.6880004], [19.0746621, 44.6882554], [19.0746689, 44.6892869], [19.0746099, 44.6894185], [19.0737686, 44.6911813], [19.0745021, 44.691567], [19.0749261, 44.6919639], [19.0754958, 44.6922977], [19.0757675, 44.6924533], [19.0761817, 44.6928328], [19.0760666, 44.6935502], [19.0758824, 44.694341], [19.0757291, 44.6946796], [19.0758728, 44.6956073], [19.0756818, 44.6956324], [19.0748594, 44.6954843], [19.0745391, 44.6956188], [19.0742386, 44.6956281], [19.0728244, 44.695157], [19.0727949, 44.6954663], [19.0729483, 44.6958741], [19.0727142, 44.6964857], [19.0725156, 44.6971156], [19.0705818, 44.6964236], [19.0703552, 44.6967796], [19.0699978, 44.6974937], [19.0696816, 44.6974158], [19.0698396, 44.6972863], [19.0696828, 44.6971971], [19.0694996, 44.6971369], [19.0693731, 44.6971978], [19.0693428, 44.6973053], [19.0691885, 44.6973026], [19.0690705, 44.6975446], [19.0688016, 44.6974671], [19.068708, 44.6974792], [19.0685588, 44.6985097], [19.068532, 44.6995278], [19.0680814, 44.7001722], [19.0678165, 44.7030772], [19.0671388, 44.7030777], [19.0664725, 44.703481], [19.0661177, 44.7038687], [19.0634447, 44.7051529], [19.0595412, 44.7053882], [19.059425, 44.7055669], [19.0593714, 44.7056492], [19.0591652, 44.7059663], [19.0578351, 44.7058783], [19.053179, 44.7059296], [19.0512245, 44.7047092], [19.0503295, 44.7044436], [19.049414, 44.7047916], [19.0489954, 44.7057075], [19.048921, 44.7060655], [19.0492362, 44.7063737], [19.0491155, 44.7067188], [19.0489492, 44.7068617], [19.0487561, 44.7071915], [19.0487695, 44.7074489], [19.0485978, 44.7078301], [19.0481579, 44.7081104], [19.0477657, 44.7086726], [19.0474986, 44.7095327], [19.0473536, 44.7105048], [19.0473745, 44.7108852], [19.048103, 44.7123185], [19.0487489, 44.7132905], [19.0492145, 44.7144421], [19.0479169, 44.7149592], [19.0471065, 44.7145989], [19.046731, 44.715041], [19.0458405, 44.7144997], [19.0460443, 44.7142176], [19.0450036, 44.713703], [19.0435123, 44.7125098], [19.0435338, 44.7119761], [19.0402722, 44.7119037], [19.0381801, 44.7118808], [19.037086, 44.7123245], [19.0343112, 44.7109276], [19.0324938, 44.7104435], [19.0312181, 44.710623], [19.0293878, 44.7094752], [19.0268478, 44.7081847], [19.0263552, 44.7073442], [19.0260243, 44.7069304], [19.0250427, 44.7068598], [19.0246671, 44.7068293], [19.0245867, 44.7071687], [19.024096, 44.7075825], [19.0220976, 44.7072343], [19.0219627, 44.7074919], [19.0208487, 44.7073106], [19.0199947, 44.7067798], [19.0193094, 44.7063593], [19.0180956, 44.7068805], [19.0170052, 44.7071708], [19.01619, 44.7066673], [19.0152184, 44.7075744], [19.0141113, 44.7081837], [19.0127018, 44.708707], [19.0093732, 44.7088576], [19.0080574, 44.7086702], [19.0056395, 44.7082171], [19.0052318, 44.7093837], [19.0032792, 44.7104054], [19.0027642, 44.7117169], [19.0025067, 44.7128148], [19.001261, 44.7144611], [19.001398, 44.7151579], [19.0027428, 44.7168327], [19.0027857, 44.717717], [19.003011, 44.718205], [19.002997, 44.7194876], [19.0020132, 44.7201108], [19.0014017, 44.720149], [19.0003466, 44.7210137], [19.0003362, 44.7230741], [18.9989018, 44.7236861], [18.9980113, 44.7250658], [18.997153, 44.7258433], [18.9971208, 44.7261711], [18.9962177, 44.7267426], [18.9972228, 44.7281148], [18.9974841, 44.7286736], [18.9969706, 44.7303558], [18.996638, 44.7321088], [18.9974837, 44.7339722], [18.997314, 44.7350203], [18.9953032, 44.7371146], [18.9950287, 44.7394939], [18.9947176, 44.7398902], [18.9940309, 44.7395015], [18.9939666, 44.7392348], [18.9931941, 44.7390824], [18.9920139, 44.7383965], [18.991102, 44.7383965], [18.9890135, 44.737909], [18.9879691, 44.7394101], [18.9883232, 44.7396768], [18.9879906, 44.7409952], [18.9872095, 44.7410732], [18.986038, 44.7412467], [18.985523, 44.7417953], [18.9854487, 44.7427209], [18.9844823, 44.7434795], [18.9827862, 44.7460296], [18.9817662, 44.7461222], [18.980695, 44.7470533], [18.9804804, 44.7477467], [18.979944, 44.7480286], [18.9799161, 44.7489369], [18.9798277, 44.7490337], [18.9796282, 44.7492251], [18.9794815, 44.7493154], [18.9794139, 44.7494662], [18.9795353, 44.7496107], [18.9796996, 44.7497399], [18.979757, 44.7499524], [18.9797768, 44.7501801], [18.9793157, 44.7505957], [18.979107, 44.7507204], [18.9789167, 44.7508836], [18.9788192, 44.7510214], [18.978739, 44.7511995], [18.9786953, 44.7512921], [18.9786095, 44.751368], [18.9784568, 44.7514571], [18.9782726, 44.7514702], [18.9781306, 44.7515835], [18.9779691, 44.7517926], [18.9778825, 44.7519944], [18.9774679, 44.7521757], [18.9774247, 44.7523034], [18.9774499, 44.7523694], [18.977397, 44.7524941], [18.9772114, 44.7525463], [18.977008, 44.7525319], [18.9769234, 44.7526708], [18.9768205, 44.7528937], [18.9768463, 44.7530039], [18.9771336, 44.7531093], [18.9772639, 44.7532103], [18.9773139, 44.7533247], [18.9772439, 44.7533962], [18.9771891, 44.7533965], [18.9771281, 44.7533549], [18.9769906, 44.7533148], [18.976858, 44.7533219], [18.9766775, 44.7534553], [18.9764282, 44.7535835], [18.9765618, 44.7536962], [18.9765544, 44.7538202], [18.9764715, 44.7538863], [18.976329, 44.753909], [18.9761419, 44.753881], [18.9760468, 44.7539288], [18.9760182, 44.7539975], [18.9760386, 44.754098], [18.9759995, 44.7544391], [18.9758838, 44.7546025], [18.9758012, 44.754655], [18.9755775, 44.7546335], [18.9751951, 44.7545886], [18.9751788, 44.7546796], [18.9756656, 44.7548648], [18.9757192, 44.7549415], [18.9757245, 44.7553224], [18.9757501, 44.7553524], [18.9757796, 44.7553675], [18.9760182, 44.755359], [18.9760459, 44.7553915], [18.9759878, 44.7555238], [18.9759455, 44.7557367], [18.9760258, 44.7558139], [18.9760168, 44.7559128], [18.9759336, 44.7559616], [18.9759095, 44.7560184], [18.9759842, 44.7561714], [18.9759888, 44.7562395], [18.9759712, 44.7563023], [18.9757161, 44.7565019], [18.9756368, 44.7566124], [18.9755019, 44.7570382], [18.9755878, 44.7572097], [18.9755696, 44.7572457], [18.9752263, 44.7574014], [18.9751071, 44.7578512], [18.9746049, 44.7581714], [18.9746043, 44.7583776], [18.9746741, 44.7584539], [18.9747745, 44.7584952], [18.9749989, 44.7585254], [18.9751025, 44.7585678], [18.9751632, 44.7585564], [18.975225, 44.7585063], [18.9752831, 44.7584834], [18.9753531, 44.7584768], [18.9753991, 44.7584893], [18.9754148, 44.7585717], [18.9753927, 44.7586587], [18.9753853, 44.758732], [18.9750463, 44.758855], [18.974715, 44.7589375], [18.9745359, 44.7591304], [18.9744666, 44.7592297], [18.974416, 44.7594946], [18.9743718, 44.7597263], [18.9741754, 44.7605711], [18.9740176, 44.7612501], [18.97396, 44.7613578], [18.9738661, 44.7613806], [18.9737079, 44.7613311], [18.9735228, 44.7612454], [18.9734691, 44.7612721], [18.9734396, 44.7613749], [18.9734665, 44.7615597], [18.9736462, 44.7620396], [18.973732, 44.7620986], [18.9738339, 44.7621919], [18.9738661, 44.7622738], [18.9738607, 44.7623862], [18.973732, 44.7625557], [18.9736542, 44.7626814], [18.9734235, 44.7628756], [18.9732599, 44.7630432], [18.9731365, 44.7630775], [18.97304, 44.7630756], [18.9729542, 44.7630623], [18.9728978, 44.7630756], [18.97282, 44.763087], [18.9725062, 44.7630032], [18.9724445, 44.7630051], [18.9723963, 44.7629823], [18.9723855, 44.7629556], [18.9723641, 44.7629175], [18.9723104, 44.7628928], [18.9722595, 44.7628947], [18.9722085, 44.7629613], [18.9721334, 44.7632108], [18.9724553, 44.7634298], [18.9724687, 44.7636069], [18.9724606, 44.7637155], [18.9724043, 44.7637802], [18.9721924, 44.764123], [18.9719939, 44.764104], [18.9719188, 44.764043], [18.9718223, 44.7638564], [18.9716238, 44.7636964], [18.971377, 44.763765], [18.9712862, 44.7639497], [18.9712912, 44.7641345], [18.9710444, 44.7645534], [18.9709854, 44.7646944], [18.9709639, 44.7648543], [18.9708567, 44.7650752], [18.9707118, 44.765079], [18.9705455, 44.7651819], [18.9705723, 44.7652809], [18.9707279, 44.7654256], [18.9707065, 44.7655437], [18.970583, 44.7656389], [18.9702183, 44.7655247], [18.9698642, 44.7656123], [18.9695853, 44.7659322], [18.9692903, 44.7659855], [18.969124, 44.7662635], [18.9690971, 44.766534], [18.9691615, 44.7668463], [18.9692259, 44.7669758], [18.9691347, 44.7670634], [18.9688021, 44.7672766], [18.9685124, 44.7678327], [18.9685093, 44.7679598], [18.968507, 44.7680574], [18.9686519, 44.7682193], [18.9688879, 44.7682154], [18.9690167, 44.7682592], [18.9690757, 44.7683373], [18.9688933, 44.7686744], [18.9690489, 44.7688895], [18.9689764, 44.7691771], [18.9688101, 44.7694246], [18.9683783, 44.7695541], [18.9682978, 44.7696817], [18.9684695, 44.7698379], [18.9687082, 44.7698379], [18.9687806, 44.7699216], [18.968617, 44.770133], [18.9684132, 44.7703291], [18.9682903, 44.7705219], [18.968137, 44.770386], [18.9675683, 44.7700549], [18.9671907, 44.7699067], [18.966959, 44.7699366], [18.9665656, 44.7702955], [18.9663492, 44.7706603], [18.9660045, 44.7709262], [18.965396, 44.7710098], [18.9651653, 44.7710413], [18.964941, 44.7710739], [18.964777, 44.7710638], [18.9643983, 44.770984], [18.9641915, 44.770961], [18.9640427, 44.771052], [18.9638447, 44.7713841], [18.9637173, 44.7715397], [18.9636253, 44.7716346], [18.9635226, 44.7716996], [18.9633927, 44.7717501], [18.9632358, 44.771783], [18.9630338, 44.7718011], [18.9628684, 44.7717744], [18.9627098, 44.7717137], [18.9626186, 44.7715824], [18.9624613, 44.7715897], [18.9621733, 44.771616], [18.9620751, 44.7716868], [18.9615253, 44.7717744], [18.9610559, 44.7717535], [18.9606509, 44.7718163], [18.9603773, 44.7718277], [18.9601359, 44.7718087], [18.9600126, 44.7717211], [18.9598468, 44.7717098], [18.9593808, 44.7717695], [18.9590787, 44.7718099], [18.958846, 44.7718354], [18.9586064, 44.7718755], [18.9584072, 44.7719455], [18.9582162, 44.7720544], [18.9580017, 44.7721975], [18.9568816, 44.7714288], [18.956854, 44.7713161], [18.9567582, 44.7712325], [18.9566138, 44.7711553], [18.9564217, 44.7711093], [18.9561244, 44.7710401], [18.9565003, 44.7708156], [18.9566358, 44.7707344], [18.9568082, 44.7706389], [18.9569416, 44.770557], [18.957075, 44.7704568], [18.9572376, 44.7703202], [18.9567365, 44.7700493], [18.9562846, 44.7698212], [18.9563102, 44.7697202], [18.9564182, 44.7696927], [18.9566379, 44.7696318], [18.956851, 44.7695479], [18.9570145, 44.7694057], [18.9568114, 44.7690673], [18.9562319, 44.7685697], [18.9561322, 44.7684885], [18.9559086, 44.7685585], [18.9556476, 44.7681867], [18.9546779, 44.7688933], [18.9538847, 44.769005], [18.9531285, 44.7685893], [18.9534565, 44.7683606], [18.9529683, 44.7682097], [18.9525551, 44.7681104], [18.9522796, 44.7681102], [18.9522362, 44.7679375], [18.9521064, 44.7677812], [18.9517421, 44.7678145], [18.9517574, 44.7679059], [18.9516828, 44.7680579], [18.9515971, 44.7681555], [18.9513665, 44.7685301], [18.9511821, 44.7687239], [18.9510434, 44.7688321], [18.9508343, 44.7689446], [18.9506727, 44.7687762], [18.9505722, 44.7686315], [18.9504921, 44.7684723], [18.9503863, 44.7683082], [18.9502463, 44.768149], [18.9501893, 44.7680501], [18.9501435, 44.7678347], [18.9500299, 44.767693], [18.9498445, 44.7675945], [18.9497542, 44.7675659], [18.9496204, 44.7675868], [18.9493442, 44.767658], [18.9489075, 44.7676819], [18.9489081, 44.7675832], [18.9486149, 44.7672058], [18.9485487, 44.7671205], [18.948243, 44.7667739], [18.9481464, 44.7666444], [18.9477883, 44.7663511], [18.947736, 44.7663445], [18.9476596, 44.7663007], [18.9470199, 44.7657018], [18.9469327, 44.7655923], [18.9469072, 44.7655161], [18.9469126, 44.7654532], [18.9469488, 44.7653571], [18.9471446, 44.7650524], [18.947221, 44.7648962], [18.9473082, 44.7647629], [18.9473256, 44.7647115], [18.9473096, 44.7646505], [18.9472693, 44.7645858], [18.9471982, 44.7645201], [18.9467262, 44.7642297], [18.946521, 44.7641364], [18.946297, 44.7640726], [18.9459966, 44.7639659], [18.9456359, 44.763785], [18.945141, 44.7634879], [18.9449948, 44.7633946], [18.9449754, 44.7634146], [18.9449056, 44.7634755], [18.9448191, 44.7635308], [18.9447655, 44.7635441], [18.9447118, 44.7635441], [18.9446528, 44.7635327], [18.9441553, 44.763347], [18.9439957, 44.7632918], [18.9437704, 44.7632251], [18.9435826, 44.7631623], [18.9432017, 44.7629842], [18.9431494, 44.7629509], [18.9430971, 44.7629118], [18.9430542, 44.7628661], [18.9428149, 44.7630311], [18.9425332, 44.7631823], [18.9423019, 44.7633189], [18.9420431, 44.7634987], [18.9417869, 44.763666], [18.9412826, 44.7640392], [18.9408314, 44.7637795], [18.9405398, 44.7635947], [18.9404336, 44.7635574], [18.9403117, 44.7635497], [18.940214, 44.7635529], [18.9400883, 44.7635724], [18.9399663, 44.7635855], [18.9397494, 44.7635249], [18.939636, 44.7634635], [18.9383343, 44.7631937], [18.9379738, 44.7630924], [18.9377214, 44.7629442], [18.9376141, 44.7627847], [18.9375181, 44.7625652], [18.9374752, 44.7624376], [18.937377, 44.762283], [18.9373202, 44.7621118], [18.937274, 44.7620242], [18.9371621, 44.761966], [18.9371565, 44.7618804], [18.9371467, 44.7617349], [18.9377475, 44.761373], [18.9370464, 44.7606392], [18.9361621, 44.7600968], [18.9362537, 44.7599018], [18.9360198, 44.7597937], [18.9359163, 44.7597131], [18.9358488, 44.7595993], [18.9358101, 44.7594438], [18.9357984, 44.7592119], [18.9357502, 44.7591752], [18.935678, 44.7591599], [18.9355395, 44.7591547], [18.9353824, 44.7591568], [18.9351694, 44.7591605], [18.9349805, 44.7591835], [18.934797, 44.7592224], [18.9346408, 44.759245], [18.9344421, 44.7591713], [18.9342554, 44.7588287], [18.9341226, 44.7587274], [18.9338654, 44.7585896], [18.9335676, 44.7585538], [18.9334129, 44.7585308], [18.932918, 44.7582858], [18.9329622, 44.7582399], [18.9330189, 44.7582077], [18.9335162, 44.7579609], [18.9340177, 44.7576461], [18.9342696, 44.7574052], [18.9344513, 44.7570818], [18.9348656, 44.7573811], [18.9357329, 44.7567377], [18.9352217, 44.7564418], [18.9355464, 44.7559653], [18.9362223, 44.7555748], [18.9369127, 44.7551653], [18.9369515, 44.7551499], [18.9369927, 44.7551481], [18.9370847, 44.7551481], [18.9371695, 44.7551413], [18.9373318, 44.7551], [18.9372955, 44.7550793], [18.9372616, 44.7550638], [18.9372252, 44.7550484], [18.9371889, 44.7550329], [18.937155, 44.7550174], [18.9371211, 44.7550019], [18.937092, 44.754983], [18.9370654, 44.7549606], [18.937046, 44.7549348], [18.9369612, 44.7546682], [18.9369563, 44.7546372], [18.936966, 44.754577], [18.9369757, 44.7545443], [18.9369757, 44.7545133], [18.9369806, 44.7544514], [18.9369806, 44.7543912], [18.9369878, 44.7543619], [18.9369418, 44.754171], [18.9376686, 44.7540161], [18.9375135, 44.7539181], [18.9374845, 44.7538957], [18.9373827, 44.7538045], [18.9373633, 44.7537787], [18.9371405, 44.7535206], [18.9372785, 44.753383], [18.9374772, 44.7533262], [18.9378285, 44.753211], [18.9381531, 44.7530579], [18.9383736, 44.7529133], [18.9383397, 44.7528978], [18.9383106, 44.7528789], [18.9382815, 44.7528566], [18.9382549, 44.7528308], [18.9382306, 44.7528049], [18.9382088, 44.7527774], [18.9381943, 44.7527516], [18.9381846, 44.7527206], [18.9381846, 44.7526914], [18.9381895, 44.7526604], [18.938204, 44.7526312], [18.938221, 44.7526019], [18.9382331, 44.7525744], [18.9382452, 44.7525417], [18.9382573, 44.7525073], [18.938267, 44.7524763], [18.9382815, 44.7524471], [18.9382839, 44.7524161], [18.9382839, 44.7523249], [18.9382815, 44.7522923], [18.9382791, 44.7521993], [18.938267, 44.7521391], [18.9382549, 44.7521116], [18.9382355, 44.7520858], [18.9382088, 44.7520514], [18.9381846, 44.7520256], [18.938158, 44.7520015], [18.9381265, 44.7519757], [18.938095, 44.7519533], [18.9380611, 44.7519344], [18.9380247, 44.7519172], [18.937986, 44.7519086], [18.9379472, 44.7519069], [18.9379036, 44.751912], [18.9378721, 44.751931], [18.9378382, 44.7519533], [18.9378164, 44.7519774], [18.9377994, 44.7520015], [18.9377849, 44.7520307], [18.9377728, 44.7520617], [18.9377679, 44.752091], [18.9377679, 44.7521839], [18.9377582, 44.7522131], [18.9377461, 44.7522441], [18.9377316, 44.7522699], [18.9377098, 44.7522974], [18.9376831, 44.7523163], [18.9376541, 44.7523353], [18.9376226, 44.7523507], [18.9375862, 44.7523645], [18.9375426, 44.7523766], [18.9375039, 44.7523852], [18.9374651, 44.752392], [18.9374263, 44.752392], [18.937344, 44.7523886], [18.9373052, 44.7523852], [18.937264, 44.7523766], [18.9372204, 44.7523662], [18.9371792, 44.7523542], [18.9371405, 44.7523353], [18.9371065, 44.7523181], [18.937075, 44.7522991], [18.937046, 44.7522785], [18.9370169, 44.7522561], [18.9369951, 44.7522303], [18.9369733, 44.7522011], [18.9369539, 44.7521701], [18.9369418, 44.7521409], [18.9369418, 44.7521116], [18.9369515, 44.7520514], [18.9369636, 44.7520221], [18.9369806, 44.7519912], [18.9370024, 44.7519671], [18.937029, 44.751943], [18.9370581, 44.7519224], [18.9370944, 44.7519051], [18.9371332, 44.7518914], [18.937172, 44.7518759], [18.9372131, 44.7518656], [18.9372519, 44.7518553], [18.9372882, 44.7518432], [18.9373755, 44.7518191], [18.9374142, 44.7518019], [18.9374506, 44.751783], [18.937482, 44.7517623], [18.9375039, 44.7517348], [18.9375184, 44.7517056], [18.9375257, 44.7516763], [18.9375257, 44.7516454], [18.9375184, 44.7516144], [18.9375063, 44.7515869], [18.9374917, 44.7515593], [18.9374675, 44.7515335], [18.9374409, 44.7515094], [18.9374094, 44.7514888], [18.9373755, 44.7514699], [18.9373415, 44.7514544], [18.9372955, 44.7514165], [18.9372664, 44.7513976], [18.937201, 44.7513615], [18.9371647, 44.751346], [18.9371308, 44.7513288], [18.9370944, 44.751315], [18.9370557, 44.7513081], [18.9370145, 44.751303], [18.9369733, 44.7512995], [18.9369321, 44.7512927], [18.9368933, 44.7512875], [18.9368473, 44.7512806], [18.9368086, 44.7512703], [18.9367722, 44.75126], [18.936731, 44.7512428], [18.9367044, 44.7512204], [18.9366802, 44.751198], [18.9366632, 44.7511705], [18.9366535, 44.7511413], [18.9366535, 44.751081], [18.936668, 44.7510518], [18.9366947, 44.751026], [18.9367238, 44.7510019], [18.9367577, 44.7509795], [18.9367892, 44.7509572], [18.9368182, 44.7509348], [18.9368546, 44.7509004], [18.936874, 44.7508729], [18.9368861, 44.7508419], [18.9368861, 44.7508109], [18.9368715, 44.7507834], [18.9368449, 44.750761], [18.9368061, 44.7507541], [18.9367674, 44.7507524], [18.9367238, 44.7507541], [18.9366802, 44.750761], [18.9366414, 44.7507713], [18.9365978, 44.7507834], [18.9365639, 44.7507972], [18.9365251, 44.7508092], [18.9364888, 44.7508178], [18.9364476, 44.7508247], [18.9364088, 44.7508333], [18.9363676, 44.7508333], [18.9363264, 44.7508281], [18.9362877, 44.7508161], [18.9362538, 44.7507989], [18.9362199, 44.7507748], [18.9361956, 44.7507507], [18.936169, 44.7507249], [18.9361472, 44.7506991], [18.9361326, 44.7506716], [18.9361205, 44.750644], [18.9361133, 44.7506131], [18.9361084, 44.7505787], [18.9361011, 44.7505442], [18.9360818, 44.7504823], [18.9360696, 44.7504513], [18.9360575, 44.7504238], [18.936043, 44.7503894], [18.936026, 44.7503601], [18.9360139, 44.7503326], [18.9359994, 44.7503034], [18.9359679, 44.7502466], [18.9359582, 44.7502173], [18.9359437, 44.7501881], [18.9359316, 44.750152], [18.9359194, 44.7501193], [18.9359122, 44.7500883], [18.9359025, 44.7500556], [18.9358976, 44.7500246], [18.9358637, 44.7498474], [18.9358637, 44.7498165], [18.9358661, 44.7497838], [18.9358783, 44.7497494], [18.9358928, 44.7497201], [18.9359073, 44.7496926], [18.9359316, 44.7496651], [18.9359606, 44.7496427], [18.9359994, 44.7496238], [18.9360357, 44.7496117], [18.9360745, 44.7496031], [18.9361157, 44.7495945], [18.9361569, 44.7495894], [18.9362441, 44.749579], [18.9362853, 44.7495704], [18.9363313, 44.7495618], [18.9363725, 44.7495481], [18.9364112, 44.7495343], [18.9364427, 44.7495102], [18.9364573, 44.749481], [18.9364645, 44.74945], [18.9364742, 44.749419], [18.9364742, 44.7493898], [18.9364767, 44.7493605], [18.9364791, 44.7492435], [18.9364791, 44.7491816], [18.9364767, 44.7491506], [18.9364718, 44.7491196], [18.9364621, 44.7490904], [18.9364476, 44.7490629], [18.9364306, 44.7490371], [18.9364112, 44.7490113], [18.9363919, 44.7489837], [18.9363652, 44.7489562], [18.936341, 44.7489321], [18.9362877, 44.7488839], [18.9362635, 44.7488564], [18.9362441, 44.7488306], [18.9362295, 44.7488048], [18.9362102, 44.7487773], [18.9361859, 44.7487188], [18.9361762, 44.7486843], [18.9361738, 44.7486534], [18.9361762, 44.7486241], [18.9361811, 44.7485897], [18.9362005, 44.7485312], [18.9362126, 44.7484985], [18.9362223, 44.7484676], [18.9362344, 44.7484383], [18.9362465, 44.7484073], [18.9362974, 44.7483213], [18.9363119, 44.7482921], [18.9363264, 44.7482645], [18.9363386, 44.7482301], [18.9363386, 44.7482009], [18.9363337, 44.7481682], [18.936324, 44.7481389], [18.9363119, 44.7481114], [18.936295, 44.7480856], [18.9362756, 44.7480598], [18.9362489, 44.7480357], [18.9362174, 44.7480202], [18.9361762, 44.7480082], [18.9361375, 44.7480064], [18.9360963, 44.7480082], [18.93606, 44.7480185], [18.9360285, 44.7480391], [18.9360018, 44.7480649], [18.9359606, 44.74812], [18.9359316, 44.7481716], [18.9359146, 44.7481957], [18.9358976, 44.7482215], [18.9358783, 44.7482525], [18.9358565, 44.7482766], [18.9358371, 44.7483007], [18.9358153, 44.7483247], [18.935791, 44.7483454], [18.9357644, 44.7483695], [18.9357256, 44.7483884], [18.9356893, 44.7484039], [18.9356505, 44.7484159], [18.9356142, 44.7484245], [18.935573, 44.7484263], [18.9355342, 44.7484245], [18.9354955, 44.7484194], [18.9354543, 44.7484073], [18.9354228, 44.7483884], [18.9353913, 44.7483678], [18.9353695, 44.7483437], [18.9353501, 44.7483161], [18.935338, 44.7482886], [18.935338, 44.748194], [18.9353453, 44.748163], [18.9353574, 44.7481338], [18.9353695, 44.7481028], [18.9353792, 44.7480701], [18.9353816, 44.7480408], [18.9353792, 44.7480116], [18.9353647, 44.7479841], [18.9353356, 44.7479617], [18.9352992, 44.7479479], [18.9352556, 44.7479428], [18.9352169, 44.7479462], [18.9351781, 44.7479583], [18.9351394, 44.7479755], [18.9351006, 44.7479858], [18.9350618, 44.7479978], [18.9350231, 44.7480013], [18.9349819, 44.7479978], [18.9349431, 44.7479892], [18.9349044, 44.7479772], [18.934868, 44.7479651], [18.9348268, 44.7479548], [18.9347542, 44.7479273], [18.9347105, 44.7479221], [18.9345967, 44.7478963], [18.9345555, 44.7478877], [18.9345119, 44.7478808], [18.9344731, 44.7478722], [18.9344368, 44.7478636], [18.9344005, 44.7478481], [18.934369, 44.7478309], [18.9343399, 44.7478086], [18.9343205, 44.7477828], [18.9343181, 44.7477535], [18.9343205, 44.7477208], [18.9343278, 44.7476881], [18.9343544, 44.7476623], [18.9343883, 44.7476417], [18.9344271, 44.7476279], [18.9344634, 44.7476124], [18.9344998, 44.7476004], [18.9345385, 44.7475883], [18.9345821, 44.7475763], [18.9346209, 44.7475642], [18.9346621, 44.7475539], [18.9347105, 44.7475453], [18.9347517, 44.747535], [18.9347953, 44.7475298], [18.9348414, 44.7475212], [18.9348777, 44.7475075], [18.9349165, 44.7474937], [18.9349455, 44.7474696], [18.9349601, 44.7474421], [18.9349649, 44.7474128], [18.9349625, 44.7473836], [18.9349528, 44.7473526], [18.9349359, 44.7473251], [18.9349165, 44.7472993], [18.9348947, 44.7472735], [18.9348729, 44.7472494], [18.9348486, 44.7472253], [18.934742, 44.7471616], [18.934713, 44.747141], [18.9346863, 44.7471152], [18.9346645, 44.7470911], [18.9346451, 44.7470653], [18.9346209, 44.7470102], [18.9346209, 44.7469792], [18.9346282, 44.7469448], [18.9346403, 44.7469173], [18.9346645, 44.7468915], [18.9347033, 44.746876], [18.9347469, 44.7468691], [18.9347881, 44.7468708], [18.9348268, 44.7468794], [18.934868, 44.7468967], [18.9349044, 44.7469139], [18.9349407, 44.7469328], [18.934977, 44.7469483], [18.9350182, 44.746962], [18.9350643, 44.7469655], [18.9351079, 44.746962], [18.9351442, 44.7469448], [18.935166, 44.746919], [18.9351878, 44.7468915], [18.9352096, 44.7468674], [18.9352387, 44.746845], [18.9352726, 44.7468244], [18.9353138, 44.7468123], [18.935355, 44.7468123], [18.9354034, 44.7468141], [18.935447, 44.7468175], [18.9354906, 44.7468192], [18.935573, 44.7468192], [18.9356142, 44.7468106], [18.9356966, 44.7467814], [18.9357281, 44.7467538], [18.9357305, 44.7467229], [18.9357281, 44.7466936], [18.9357208, 44.7466644], [18.9357038, 44.7466386], [18.9356675, 44.7466179], [18.9356287, 44.7466093], [18.93559, 44.7466076], [18.9355512, 44.7466093], [18.9355124, 44.7466162], [18.9354713, 44.7466265], [18.9353913, 44.7466489], [18.9353501, 44.7466575], [18.9353065, 44.7466592], [18.9352605, 44.7466558], [18.9352169, 44.7466454], [18.9351854, 44.7466282], [18.9351612, 44.7466059], [18.9351442, 44.7465801], [18.9351297, 44.7465525], [18.9351151, 44.7465216], [18.9351054, 44.7464889], [18.935103, 44.7464476], [18.9351054, 44.7464183], [18.9351176, 44.7463891], [18.9351418, 44.7463615], [18.9351757, 44.7463409], [18.9352169, 44.7463254], [18.9352605, 44.7463065], [18.9352992, 44.7462927], [18.9353453, 44.7462789], [18.935384, 44.7462686], [18.9354228, 44.7462566], [18.9354567, 44.7462342], [18.9354809, 44.7462067], [18.9355052, 44.7461809], [18.935527, 44.7461551], [18.9355536, 44.7461224], [18.9355754, 44.7460948], [18.9355972, 44.746069], [18.9356287, 44.7460467], [18.9356626, 44.7460277], [18.9357038, 44.7460105], [18.9357402, 44.7459985], [18.9357789, 44.7459864], [18.9358201, 44.7459744], [18.9358637, 44.7459606], [18.9359049, 44.7459486], [18.9359461, 44.7459348], [18.9359873, 44.7459228], [18.9360236, 44.745909], [18.9360624, 44.7458935], [18.9360987, 44.7458763], [18.9361278, 44.7458539], [18.9361617, 44.7457954], [18.9361738, 44.7457645], [18.9361762, 44.7457318], [18.9361762, 44.7457025], [18.9361738, 44.7456733], [18.9361738, 44.7456423], [18.9361714, 44.7456113], [18.9361714, 44.7455821], [18.9361666, 44.7455528], [18.9361593, 44.7455201], [18.9361448, 44.7454909], [18.9361157, 44.7454668], [18.9360793, 44.7454565], [18.9360333, 44.7454582], [18.9359897, 44.7454668], [18.9359558, 44.7454823], [18.9359049, 44.7455287], [18.9358831, 44.7455528], [18.9358637, 44.7455786], [18.9358419, 44.7456045], [18.9358128, 44.7456268], [18.9357814, 44.7456475], [18.935745, 44.7456647], [18.9357063, 44.7456819], [18.9356723, 44.7456974], [18.9356384, 44.7457094], [18.9356069, 44.7457249], [18.9355779, 44.7457473], [18.9355633, 44.7457748], [18.9355488, 44.7458058], [18.9355342, 44.7458643], [18.9355221, 44.7458952], [18.9355076, 44.7459228], [18.9354906, 44.7459537], [18.9354713, 44.7459796], [18.9354543, 44.7460071], [18.9354301, 44.7460312], [18.9354034, 44.7460553], [18.9353744, 44.7460776], [18.935338, 44.7460931], [18.9353017, 44.7461069], [18.9352678, 44.7461172], [18.935229, 44.7461275], [18.9351878, 44.7461361], [18.935149, 44.7461344], [18.9351079, 44.7461258], [18.9350715, 44.7461069], [18.9350497, 44.7460828], [18.9350425, 44.7460535], [18.9350425, 44.7459916], [18.9350546, 44.7459623], [18.9350715, 44.7459314], [18.9351079, 44.7458729], [18.9351224, 44.7458436], [18.9351394, 44.7458127], [18.9351442, 44.7457817], [18.9351466, 44.7457524], [18.9351466, 44.7457232], [18.9351418, 44.7456905], [18.9351369, 44.7456303], [18.9351442, 44.7455425], [18.9351442, 44.7455133], [18.9351418, 44.7454823], [18.9351369, 44.745453], [18.9351272, 44.7454255], [18.9351006, 44.7453997], [18.9350667, 44.7453859], [18.9350279, 44.7453756], [18.9349892, 44.7453704], [18.934948, 44.745367], [18.9348171, 44.7453618], [18.9347687, 44.7453584], [18.9347299, 44.7453567], [18.9346839, 44.7453498], [18.9346403, 44.7453412], [18.934604, 44.7453274], [18.93457, 44.7453068], [18.9345458, 44.7452844], [18.9345264, 44.7452569], [18.9345095, 44.7452293], [18.9344998, 44.7452001], [18.9344998, 44.745133], [18.9345095, 44.745102], [18.9345434, 44.7450504], [18.9345531, 44.7450194], [18.9345628, 44.7449902], [18.9345676, 44.7449558], [18.9345676, 44.7449248], [18.9345628, 44.7448611], [18.9345628, 44.7448284], [18.9345555, 44.7446133], [18.9345555, 44.7445824], [18.9345628, 44.7445514], [18.9345846, 44.7445273], [18.9346161, 44.7445049], [18.9346573, 44.7444946], [18.9346984, 44.744486], [18.9347445, 44.7444826], [18.9348317, 44.7444826], [18.9348753, 44.7444774], [18.9349165, 44.7444705], [18.9349552, 44.7444602], [18.9349916, 44.7444464], [18.9350279, 44.7444275], [18.9350521, 44.7444017], [18.935057, 44.7443725], [18.935057, 44.7443415], [18.9350497, 44.7443122], [18.9350376, 44.7442795], [18.935011, 44.7442503], [18.9349867, 44.7442279], [18.9349552, 44.744209], [18.9349189, 44.7441952], [18.9348826, 44.7441797], [18.9348462, 44.744166], [18.9348123, 44.744147], [18.9347808, 44.7441264], [18.9347517, 44.7440989], [18.9347324, 44.7440731], [18.934713, 44.7440438], [18.9346936, 44.7440163], [18.9346791, 44.7439905], [18.9346597, 44.7439629], [18.9346427, 44.7439337], [18.9346282, 44.7439061], [18.9346088, 44.7438769], [18.934587, 44.7438511], [18.9345337, 44.7438029], [18.9344465, 44.7437289], [18.934415, 44.74371], [18.9343811, 44.7436945], [18.9343447, 44.7436773], [18.934306, 44.7436635], [18.9342648, 44.7436566], [18.9342188, 44.7436549], [18.9341776, 44.7436549], [18.934054, 44.7436601], [18.9340153, 44.743667], [18.9339789, 44.7436756], [18.9339401, 44.7436911], [18.9339087, 44.7437065], [18.9338699, 44.743722], [18.9338311, 44.7437324], [18.9337924, 44.743741], [18.9337488, 44.743741], [18.93371, 44.7437375], [18.9336712, 44.7437324], [18.9336349, 44.7437237], [18.9335961, 44.7437134], [18.9335598, 44.7437014], [18.9335259, 44.7436842], [18.9334944, 44.7436652], [18.9334653, 44.7436446], [18.9334387, 44.7436239], [18.9334169, 44.7435981], [18.9333999, 44.7435706], [18.9333829, 44.7435448], [18.9333636, 44.7435138], [18.9333442, 44.743488], [18.93332, 44.7434588], [18.9332182, 44.7433572], [18.9331867, 44.7433314], [18.9331625, 44.7433073], [18.9331383, 44.7432798], [18.9331189, 44.7432523], [18.9330995, 44.7432265], [18.9330753, 44.7431989], [18.9330535, 44.7431714], [18.9330292, 44.7431456], [18.9330026, 44.7431163], [18.9329759, 44.7430922], [18.9329517, 44.7430664], [18.9329251, 44.7430423], [18.9329008, 44.7430165], [18.9328693, 44.742989], [18.9328451, 44.7429632], [18.932816, 44.7429357], [18.9327942, 44.7429098], [18.9327724, 44.7428789], [18.9327313, 44.7428238], [18.9327167, 44.742798], [18.9326876, 44.7427429], [18.9326755, 44.7427154], [18.932661, 44.7426861], [18.932644, 44.7426586], [18.9325883, 44.7425743], [18.9325641, 44.7425485], [18.9325374, 44.7425244], [18.9324623, 44.7424625], [18.9324405, 44.7424384], [18.9324187, 44.7424108], [18.9324042, 44.7423816], [18.9323921, 44.742354], [18.9323848, 44.7423231], [18.9323872, 44.7422921], [18.9323921, 44.7422611], [18.9324018, 44.7422302], [18.9324139, 44.7422009], [18.9324357, 44.7421751], [18.9324648, 44.7421527], [18.9325011, 44.742139], [18.9325423, 44.7421235], [18.9326174, 44.742089], [18.9326561, 44.7420753], [18.9326949, 44.7420581], [18.9327337, 44.7420426], [18.9327724, 44.7420305], [18.9328039, 44.7420082], [18.9328378, 44.741991], [18.9328669, 44.7419669], [18.9328887, 44.7419393], [18.9329057, 44.7419084], [18.9329202, 44.7418791], [18.9329251, 44.7418499], [18.9329299, 44.7418172], [18.9329323, 44.7417845], [18.9329396, 44.7417535], [18.9329541, 44.7417242], [18.9329784, 44.7416984], [18.933005, 44.7416761], [18.9330389, 44.7416554], [18.9330922, 44.741609], [18.9331213, 44.7415866], [18.9331528, 44.7415659], [18.9331819, 44.7415418], [18.9332061, 44.741516], [18.9332279, 44.7414885], [18.9332424, 44.741461], [18.933257, 44.7414317], [18.9332667, 44.7414007], [18.933286, 44.741368], [18.9333078, 44.7413405], [18.9333272, 44.741313], [18.9333514, 44.7412854], [18.9333733, 44.7412562], [18.9333975, 44.7412287], [18.9334459, 44.7411805], [18.9334798, 44.7411512], [18.9335138, 44.7411306], [18.9335574, 44.7411134], [18.933601, 44.7410996], [18.9336446, 44.7410824], [18.9336833, 44.7410617], [18.9337124, 44.7410377], [18.9337415, 44.7410118], [18.9337633, 44.7409843], [18.9337851, 44.7409585], [18.9338021, 44.740931], [18.9338142, 44.7408983], [18.9338311, 44.7408639], [18.9338481, 44.7408312], [18.9338699, 44.7408019], [18.9338965, 44.7407778], [18.933945, 44.7407503], [18.9339789, 44.7407279], [18.9340879, 44.7406625], [18.9341194, 44.7406402], [18.9341437, 44.7406161], [18.934163, 44.7405868], [18.9341727, 44.7405558], [18.93418, 44.7405266], [18.9341848, 44.7404973], [18.9341897, 44.7404663], [18.9342066, 44.7404354], [18.9342236, 44.7404096], [18.9342478, 44.7403838], [18.9342745, 44.7403597], [18.9342963, 44.7403321], [18.9343302, 44.7402771], [18.9343447, 44.7402426], [18.9343568, 44.7402117], [18.9343617, 44.7401824], [18.9343617, 44.7400878], [18.9343641, 44.7400534], [18.9343641, 44.7400241], [18.934369, 44.7399639], [18.9344029, 44.7398778], [18.934415, 44.7398503], [18.9344247, 44.7398193], [18.9344271, 44.7397883], [18.9344247, 44.7397591], [18.9344101, 44.7397298], [18.9343908, 44.7397023], [18.9343665, 44.7396782], [18.9343326, 44.7396593], [18.9343011, 44.7396438], [18.9342236, 44.7396266], [18.93418, 44.7396214], [18.9341412, 44.739618], [18.9341025, 44.7396128], [18.9340613, 44.7396094], [18.9340225, 44.7396008], [18.9339789, 44.7395922], [18.9339426, 44.7395801], [18.9339087, 44.7395664], [18.9338796, 44.739544], [18.9338554, 44.7395199], [18.9338311, 44.7394889], [18.9338142, 44.7394614], [18.9337996, 44.7394321], [18.9337996, 44.7394012], [18.9338093, 44.7393719], [18.9338287, 44.7393444], [18.9338481, 44.7393151], [18.9338723, 44.739291], [18.9338941, 44.7392635], [18.9339692, 44.7391895], [18.9340031, 44.7391671], [18.9340346, 44.7391413], [18.934054, 44.7391103], [18.9340685, 44.7390828], [18.9340685, 44.7389847], [18.9340637, 44.7389537], [18.9340637, 44.738921], [18.9340613, 44.7388883], [18.9340613, 44.7388574], [18.934054, 44.7388264], [18.9340516, 44.7387954], [18.9340467, 44.7387644], [18.9340419, 44.7387042], [18.9340419, 44.738675], [18.9340516, 44.738644], [18.9340855, 44.738508], [18.9340855, 44.7384771], [18.9340928, 44.7384461], [18.9341049, 44.7384186], [18.9341218, 44.7383876], [18.9341437, 44.7383618], [18.9341679, 44.738336], [18.9341945, 44.7383119], [18.9342212, 44.7382895], [18.9342502, 44.7382671], [18.9343108, 44.7382241], [18.9343423, 44.7382052], [18.9343738, 44.7381794], [18.9343932, 44.7381518], [18.9343932, 44.7381226], [18.9343762, 44.7380967], [18.9343375, 44.738083], [18.9342963, 44.7380847], [18.9342551, 44.7380881], [18.9342139, 44.7380967], [18.9341751, 44.7381054], [18.9341364, 44.7381122], [18.934054, 44.7381294], [18.9340104, 44.7381363], [18.9339668, 44.7381398], [18.933882, 44.7381501], [18.9338384, 44.7381501], [18.9337996, 44.7381415], [18.9337681, 44.7381226], [18.9337318, 44.7381088], [18.9336906, 44.7380967], [18.9336519, 44.7380881], [18.9334847, 44.7380537], [18.9334508, 44.7380382], [18.9334193, 44.7380228], [18.9333829, 44.7380038], [18.9333563, 44.7379814], [18.9333296, 44.7379556], [18.9333054, 44.7379264], [18.933286, 44.7378971], [18.9332715, 44.7378696], [18.9332521, 44.7378111], [18.9332449, 44.7377801], [18.93324, 44.7377491], [18.93324, 44.7377182], [18.9332739, 44.7376149], [18.9329008, 44.7374153], [18.9325229, 44.7373344], [18.9325617, 44.7374256], [18.9325047, 44.7374351], [18.9324635, 44.7374376], [18.932357, 44.7374463], [18.9322067, 44.737442], [18.9320505, 44.7374187], [18.9316944, 44.7372931], [18.9312995, 44.7371503], [18.9309518, 44.7370117], [18.9307568, 44.7369222], [18.9307411, 44.7369128], [18.9306187, 44.7368448], [18.9305993, 44.7368302], [18.9304346, 44.7366856], [18.9302335, 44.7365195], [18.9299537, 44.7363466], [18.9297042, 44.7361994], [18.9295873, 44.7361458], [18.9294982, 44.7360945], [18.9294789, 44.736091], [18.9294595, 44.7360859], [18.9294377, 44.7360807], [18.9294159, 44.7360738], [18.929319, 44.7360308], [18.928826, 44.7357443], [18.9284226, 44.7355369], [18.9281076, 44.7354018], [18.9280883, 44.7353966], [18.9280701, 44.7353923], [18.9280519, 44.7353863], [18.9280338, 44.7353794], [18.9280144, 44.7353743], [18.9279926, 44.73537], [18.9279502, 44.7353665], [18.9279272, 44.7353657], [18.927863, 44.7353657], [18.9278436, 44.7353674], [18.9278193, 44.7353682], [18.9278012, 44.7353717], [18.9277806, 44.7353743], [18.9277588, 44.7353768], [18.927737, 44.7353794], [18.9275977, 44.7354044], [18.9272852, 44.7354887], [18.9272646, 44.7354921], [18.9272415, 44.7354973], [18.9272197, 44.7355007], [18.9271749, 44.7355042], [18.9271531, 44.7355042], [18.9271192, 44.7355033], [18.927078, 44.735499], [18.9270574, 44.7354939], [18.9270368, 44.7354878], [18.9270187, 44.7354818], [18.9270005, 44.7354767], [18.9269835, 44.7354698], [18.9268709, 44.7354267], [18.9265002, 44.7352667], [18.9261053, 44.7351531], [18.9257322, 44.7349759], [18.9255008, 44.7348684], [18.9253059, 44.7347779], [18.9252647, 44.7347607], [18.9250975, 44.7346557], [18.9250636, 44.7346385], [18.9246251, 44.734327], [18.9238838, 44.7339192], [18.9219408, 44.7330707], [18.9215774, 44.7327454], [18.9213763, 44.7322136], [18.9212189, 44.7315665], [18.9210057, 44.731267], [18.9205502, 44.730792], [18.9203734, 44.7306406], [18.9202377, 44.7305717], [18.9202014, 44.7305579], [18.9199785, 44.7304977], [18.9197192, 44.7303858], [18.9186969, 44.729675], [18.9184304, 44.7294237], [18.9180331, 44.729138], [18.9174032, 44.7287525], [18.9170931, 44.72841], [18.9167975, 44.7281811], [18.9164487, 44.7279986], [18.91625, 44.7278007], [18.9159714, 44.7275597], [18.9156541, 44.7273119], [18.9152543, 44.7269177], [18.915029, 44.7264667], [18.9148764, 44.7260382], [18.9145009, 44.7257266], [18.9144694, 44.7257008], [18.9144379, 44.7256767], [18.9144137, 44.7256543], [18.9143894, 44.7256302], [18.9143676, 44.7256044], [18.9143483, 44.7255803], [18.9143071, 44.7255252], [18.9142901, 44.725496], [18.914261, 44.7254374], [18.9142971, 44.7253381], [18.9141372, 44.7251338], [18.9136505, 44.7247838], [18.9128157, 44.7243468], [18.9118287, 44.72368], [18.9112763, 44.7233117], [18.9112497, 44.7232893], [18.9112206, 44.7232617], [18.9111916, 44.7232376], [18.9111358, 44.7231877], [18.9111043, 44.7231619], [18.9110268, 44.7230844], [18.9106925, 44.7228142], [18.912486, 44.7218008], [18.912893, 44.7213412], [18.9128833, 44.7213033], [18.9128712, 44.721274], [18.9128542, 44.7212482], [18.9128324, 44.7212224], [18.912813, 44.7211983], [18.9127888, 44.7211725], [18.9127597, 44.7211467], [18.9127307, 44.7211226], [18.9127064, 44.7210985], [18.9126749, 44.7210744], [18.9126459, 44.7210537], [18.912612, 44.7210331], [18.9125805, 44.721009], [18.912549, 44.7209831], [18.9124981, 44.7209367], [18.9124739, 44.7209091], [18.9124545, 44.7208816], [18.9124448, 44.7208523], [18.9124424, 44.720823], [18.9124327, 44.7207628], [18.9124206, 44.7207335], [18.9124036, 44.720706], [18.9123818, 44.7206819], [18.9123309, 44.7206681], [18.9122631, 44.720644], [18.9122292, 44.7206234], [18.9121977, 44.7205993], [18.9121783, 44.7205717], [18.9121662, 44.7205425], [18.9121565, 44.7205115], [18.9121444, 44.7204822], [18.9121202, 44.7204581], [18.9120862, 44.7204426], [18.9120499, 44.7204271], [18.9120184, 44.7204082], [18.9119748, 44.72036], [18.9119457, 44.7203393], [18.9119142, 44.7203221], [18.9118852, 44.7202997], [18.9118561, 44.7202791], [18.9118076, 44.7202309], [18.9117955, 44.7202016], [18.9117955, 44.7201706], [18.9117883, 44.7201396], [18.9117665, 44.7201104], [18.9117374, 44.7200846], [18.9117132, 44.7200605], [18.9116914, 44.7200364], [18.9116744, 44.7200088], [18.9116744, 44.7199796], [18.9116792, 44.7199486], [18.9116889, 44.7199193], [18.911701, 44.7198883], [18.9117035, 44.7198573], [18.911701, 44.7198281], [18.9116986, 44.7197919], [18.9116841, 44.7197644], [18.9116671, 44.7197386], [18.911655, 44.7197076], [18.9116623, 44.7196749], [18.9116671, 44.7196439], [18.9116647, 44.7196146], [18.9116599, 44.7195853], [18.9116381, 44.7195544], [18.9116114, 44.7195303], [18.9115848, 44.7195079], [18.911563, 44.7194821], [18.911546, 44.7194545], [18.9115339, 44.7194218], [18.9115363, 44.7193925], [18.9115436, 44.7193616], [18.9115557, 44.7193323], [18.9115557, 44.7193013], [18.9115533, 44.719272], [18.9115363, 44.7192445], [18.9115048, 44.7192221], [18.9114394, 44.719186], [18.9114103, 44.7191619], [18.9113861, 44.7191378], [18.9113667, 44.719112], [18.9113546, 44.7190827], [18.9113473, 44.7190517], [18.9113425, 44.7190207], [18.9113473, 44.7189915], [18.911357, 44.7189622], [18.9113716, 44.7189329], [18.9113861, 44.7189054], [18.9114031, 44.7188761], [18.9114418, 44.7188176], [18.9114467, 44.7187832], [18.9114418, 44.7187522], [18.9114103, 44.7187298], [18.911374, 44.7187212], [18.9113401, 44.7187074], [18.9112989, 44.7186902], [18.9112698, 44.7186678], [18.9112214, 44.7186196], [18.9111899, 44.7185938], [18.9110881, 44.7185611], [18.9110494, 44.7185628], [18.9110106, 44.7185628], [18.9109694, 44.7185559], [18.9109331, 44.7185404], [18.9109016, 44.7185198], [18.9108773, 44.7184974], [18.9108531, 44.7184699], [18.9108095, 44.7184182], [18.9107877, 44.7183941], [18.9107611, 44.7183683], [18.9107368, 44.7183442], [18.9107126, 44.7183166], [18.910686, 44.7182908], [18.9106617, 44.7182667], [18.9106375, 44.7182443], [18.910606, 44.718222], [18.9105382, 44.718191], [18.9105139, 44.7181634], [18.9104946, 44.7181376], [18.9104679, 44.7181152], [18.910434, 44.7181015], [18.9103928, 44.7180946], [18.9103589, 44.7180791], [18.9103347, 44.7180515], [18.9103177, 44.7180257], [18.9102402, 44.717919], [18.9105745, 44.7177434], [18.9108192, 44.7175282], [18.9109379, 44.7173285], [18.9109161, 44.7173027], [18.9108919, 44.7172769], [18.9108459, 44.717239], [18.9108071, 44.7172183], [18.9107635, 44.7171994], [18.9107296, 44.7171822], [18.9106908, 44.7171667], [18.9106545, 44.7171512], [18.9106205, 44.7171357], [18.9105842, 44.7171219], [18.9105454, 44.7171064], [18.9104049, 44.7170651], [18.9103686, 44.7170496], [18.9103298, 44.7170324], [18.9102959, 44.7170135], [18.910262, 44.7169911], [18.9102329, 44.716967], [18.910199, 44.7169377], [18.9101748, 44.7169136], [18.910153, 44.7168878], [18.9101336, 44.7168603], [18.9101215, 44.7168276], [18.9101215, 44.7167966], [18.9101263, 44.7167656], [18.9101263, 44.7166743], [18.9101215, 44.7166416], [18.9101021, 44.7166141], [18.9100512, 44.7165676], [18.9099907, 44.7165383], [18.9094674, 44.7163989], [18.9093196, 44.7164574], [18.9089998, 44.7161097], [18.9090313, 44.7159771], [18.9088544, 44.7157602], [18.9090604, 44.7155295], [18.9090967, 44.7155157], [18.9091306, 44.7154968], [18.9091621, 44.7154744], [18.9093874, 44.7152455], [18.9096176, 44.7149631], [18.9096515, 44.7149425], [18.9097193, 44.714908], [18.9097557, 44.7148908], [18.9097968, 44.7148771], [18.9098283, 44.7148564], [18.9098623, 44.714791], [18.9094964, 44.7147342], [18.9086364, 44.7142039], [18.9092057, 44.7135738], [18.9092324, 44.7135497], [18.9092566, 44.7135239], [18.9094383, 44.7134275], [18.9094722, 44.7134103], [18.909511, 44.7133948], [18.9095449, 44.7133741], [18.9095667, 44.7133466], [18.9095764, 44.7133156], [18.9095764, 44.7132829], [18.9095715, 44.7132519], [18.9095812, 44.7130831], [18.9095812, 44.7130539], [18.9095837, 44.7130246], [18.9095837, 44.7129936], [18.9095909, 44.7129644], [18.9096079, 44.7129334], [18.9096273, 44.7129041], [18.9096539, 44.71288], [18.9096757, 44.7128559], [18.9097024, 44.7128318], [18.9097242, 44.7128042], [18.9100658, 44.7124789], [18.9102862, 44.7121586], [18.9102499, 44.7121449], [18.910216, 44.7121276], [18.9101506, 44.7120915], [18.9101239, 44.7120691], [18.9100948, 44.7120433], [18.9100682, 44.7120175], [18.910044, 44.7119916], [18.9100222, 44.7119658], [18.9100052, 44.71194], [18.9099907, 44.7119124], [18.9099834, 44.7118832], [18.909981, 44.7118539], [18.9100294, 44.7113236], [18.9100222, 44.7112926], [18.9100125, 44.7112634], [18.9099955, 44.7112341], [18.9099737, 44.71121], [18.9099204, 44.7111652], [18.9098938, 44.7111446], [18.9098623, 44.7111239], [18.9098308, 44.711105], [18.9092736, 44.7109345], [18.9096297, 44.7099876], [18.9079594, 44.7092228], [18.9079006, 44.709197], [18.9078743, 44.709188], [18.9078388, 44.7091763], [18.9078079, 44.7091629], [18.9077691, 44.7091526], [18.9077255, 44.7091388], [18.9076892, 44.7091267], [18.9076504, 44.7091112], [18.907614, 44.7090957], [18.9075801, 44.7090802], [18.9074271, 44.7089919], [18.9071507, 44.7088025], [18.9070935, 44.7087694], [18.9070127, 44.7087002], [18.9066933, 44.7083063], [18.9067467, 44.7082779], [18.9071974, 44.7076891], [18.9075971, 44.7071742], [18.9078418, 44.7068092], [18.9075244, 44.706625], [18.9074953, 44.7066026], [18.9074663, 44.7065819], [18.9074396, 44.7065596], [18.9074154, 44.7065354], [18.9073815, 44.7064803], [18.9073669, 44.7064511], [18.9073548, 44.7064235], [18.9073451, 44.7063908], [18.9073839, 44.7062513], [18.9076867, 44.7059173], [18.9076819, 44.7057451], [18.9078224, 44.7056039], [18.9075244, 44.7054318], [18.9072095, 44.7053818], [18.9073161, 44.7044572], [18.9073766, 44.7039131], [18.9075462, 44.7038631], [18.9075438, 44.7037994], [18.9077424, 44.7037512], [18.907992, 44.7036909], [18.9081567, 44.7036066], [18.9083287, 44.7035239], [18.9085468, 44.7034464], [18.9088133, 44.7034327], [18.9091185, 44.7034499], [18.909368, 44.703455], [18.9095594, 44.7034361], [18.9098332, 44.7033965], [18.9101118, 44.7033879], [18.910308, 44.7034034], [18.9105115, 44.7034154], [18.9107611, 44.7034085], [18.9110954, 44.70335], [18.9113909, 44.7033087], [18.9114321, 44.7033035], [18.9115944, 44.7032708], [18.9116381, 44.7032639], [18.9117471, 44.7032432], [18.9118416, 44.703226], [18.9119821, 44.7031967], [18.9121008, 44.7031813], [18.9122031, 44.7032329], [18.9123881, 44.7032623], [18.9126071, 44.7033621], [18.9128277, 44.7034723], [18.9130787, 44.703568], [18.9132187, 44.7036315], [18.9133289, 44.7037095], [18.9133875, 44.7037352], [18.9134599, 44.7037805], [18.9136101, 44.7038597], [18.9138784, 44.70397], [18.9139638, 44.7040009], [18.9144217, 44.7042781], [18.914458, 44.7042936], [18.9144943, 44.7043074], [18.9145355, 44.7043143], [18.9145767, 44.7043229], [18.9146155, 44.7043315], [18.9146567, 44.7043418], [18.9147003, 44.7043487], [18.9148359, 44.704359], [18.9148795, 44.7043642], [18.9149207, 44.7043711], [18.9149434, 44.7043721], [18.9149958, 44.7043935], [18.9157585, 44.7047669], [18.9161732, 44.7044451], [18.9167571, 44.7047551], [18.9180871, 44.7051511], [18.9184384, 44.7051631], [18.919439, 44.7053543], [18.9195819, 44.7053198], [18.9196885, 44.7052182], [18.9198508, 44.7044021], [18.9196618, 44.7043866], [18.9196207, 44.7043814], [18.9195819, 44.7043797], [18.9195407, 44.7043711], [18.9195092, 44.7043504], [18.9194874, 44.7043246], [18.9194874, 44.7042953], [18.9194923, 44.7042643], [18.9196234, 44.7037701], [18.9196337, 44.7037288], [18.9196611, 44.7036922], [18.9196954, 44.7036581], [18.9197365, 44.7036192], [18.9197742, 44.7035851], [18.9198153, 44.7035412], [18.9198461, 44.7035023], [18.9198701, 44.7034658], [18.9198975, 44.7034292], [18.9199523, 44.7033464], [18.919966, 44.703305], [18.9199832, 44.7032612], [18.9199969, 44.7032198], [18.9199969, 44.7031784], [18.9200071, 44.702986], [18.9200106, 44.7029446], [18.920014, 44.7029008], [18.9200243, 44.702857], [18.9200414, 44.702818], [18.9200722, 44.702779], [18.9201031, 44.7027449], [18.9201408, 44.7027109], [18.9201887, 44.7026841], [18.9202333, 44.7026573], [18.9202847, 44.7026305], [18.9203361, 44.702611], [18.920384, 44.7025867], [18.9204286, 44.7025526], [18.9204594, 44.7025185], [18.92048, 44.7024746], [18.9204868, 44.7024332], [18.9204834, 44.7023845], [18.9204834, 44.7023431], [18.9204868, 44.7022993], [18.9204971, 44.702253], [18.9205245, 44.7022141], [18.9205622, 44.70218], [18.9206033, 44.7021508], [18.9206547, 44.7021264], [18.9207061, 44.7021045], [18.9207575, 44.702085], [18.9208774, 44.702046], [18.9208877, 44.7019779], [18.9209459, 44.7019657], [18.921011, 44.7019584], [18.9210727, 44.7019633], [18.9211343, 44.7019633], [18.9212611, 44.7019706], [18.9213194, 44.7019754], [18.9213742, 44.7019852], [18.921429, 44.7020022], [18.9214838, 44.7020266], [18.9215146, 44.7020607], [18.9215318, 44.7021021], [18.9215283, 44.7021435], [18.9215215, 44.7021849], [18.9215078, 44.7022238], [18.9214975, 44.7022652], [18.9215009, 44.702309], [18.9215249, 44.7023456], [18.9215729, 44.7023675], [18.9216277, 44.7023845], [18.921686, 44.7023967], [18.9217476, 44.7023992], [18.9218059, 44.7023894], [18.9218538, 44.7023578], [18.9218881, 44.7023212], [18.9219258, 44.7022823], [18.9219635, 44.7022457], [18.9220046, 44.7022116], [18.9220594, 44.7021775], [18.9221108, 44.7021508], [18.9221656, 44.702124], [18.922217, 44.7020996], [18.9222718, 44.7020777], [18.9223301, 44.7020558], [18.9223849, 44.7020363], [18.9224328, 44.702012], [18.9224842, 44.7019949], [18.9225459, 44.701973], [18.9226042, 44.7019584], [18.9226693, 44.7019511], [18.9227275, 44.7019633], [18.922772, 44.7019949], [18.922796, 44.7020314], [18.9227994, 44.7020704], [18.9227926, 44.7021118], [18.9227789, 44.7021532], [18.922772, 44.7021946], [18.9227549, 44.7022384], [18.9227343, 44.702275], [18.9227138, 44.7023115], [18.9226658, 44.7023845], [18.9226384, 44.7024211], [18.922611, 44.7024625], [18.9225802, 44.702499], [18.9225562, 44.7025331], [18.9225356, 44.7025672], [18.9225151, 44.7026037], [18.9224911, 44.7026378], [18.922474, 44.7026768], [18.9224705, 44.7027182], [18.9224774, 44.7027596], [18.9225014, 44.7027937], [18.9225493, 44.7028131], [18.9226042, 44.7028277], [18.9226658, 44.7028302], [18.9227309, 44.7028302], [18.9227926, 44.7028277], [18.9228577, 44.702818], [18.9229125, 44.7028034], [18.9229708, 44.7027815], [18.9230256, 44.7027571], [18.923077, 44.7027279], [18.9231626, 44.702667], [18.9232003, 44.7026354], [18.923238, 44.7025988], [18.9232791, 44.7025647], [18.9233099, 44.7025307], [18.9233476, 44.7024966], [18.9233887, 44.7024649], [18.9234333, 44.7024308], [18.9235361, 44.7023699], [18.9235769, 44.7023348], [18.9236098, 44.7022866], [18.9236832, 44.7022175], [18.9238503, 44.7016682], [18.9239109, 44.7015236], [18.9239448, 44.7012929], [18.9239473, 44.7012636], [18.9239473, 44.7012326], [18.9239448, 44.7012016], [18.9239376, 44.7011706], [18.9239254, 44.701143], [18.9239109, 44.7011172], [18.9239036, 44.7010845], [18.9239085, 44.7010535], [18.9239303, 44.7010294], [18.9239618, 44.7010087], [18.9240005, 44.7009949], [18.9240417, 44.7009812], [18.9240805, 44.7009726], [18.9241168, 44.7009571], [18.9241532, 44.7009398], [18.9242622, 44.7008934], [18.9244197, 44.7006815], [18.9246401, 44.7004336], [18.9247528, 44.7003142], [18.9248967, 44.7001291], [18.9249138, 44.6998783], [18.9249104, 44.6997444], [18.9249652, 44.6995666], [18.9252256, 44.6992524], [18.9255716, 44.69859], [18.9256093, 44.6984853], [18.9256025, 44.6983903], [18.9255442, 44.6983173], [18.9254791, 44.6982271], [18.9254209, 44.6981078], [18.9253935, 44.6979714], [18.9254175, 44.6978326], [18.9254003, 44.6976548], [18.9253387, 44.6975014], [18.9253592, 44.6974016], [18.9255202, 44.69727], [18.9256127, 44.6971458], [18.9256436, 44.6969583], [18.9256127, 44.6968097], [18.9254517, 44.6966052], [18.9253078, 44.6964274], [18.9251502, 44.6960791], [18.9251502, 44.6959598], [18.9252085, 44.6958624], [18.9252736, 44.6957114], [18.9253078, 44.6955993], [18.9253832, 44.6955945], [18.92551, 44.6955506], [18.9255785, 44.6954483], [18.9255853, 44.6953168], [18.9255785, 44.6952705], [18.9255339, 44.6951561], [18.9254963, 44.6950635], [18.92551, 44.6949807], [18.9255682, 44.6948784], [18.9257087, 44.6946787], [18.9257532, 44.6942598], [18.9260102, 44.6941356], [18.9262774, 44.6932588], [18.9266269, 44.6933148], [18.928035, 44.6933002], [18.9280338, 44.693169], [18.9279328, 44.6930986], [18.9277446, 44.6929768], [18.9277058, 44.6929511], [18.9276605, 44.6929269], [18.927571, 44.6928845], [18.9274859, 44.6928546], [18.9274125, 44.692832], [18.9273326, 44.6928141], [18.9272772, 44.6928053], [18.9272043, 44.6927955], [18.9271014, 44.6927877], [18.9270047, 44.6927797], [18.9269108, 44.6927747], [18.9267591, 44.6927688], [18.9266783, 44.6927641], [18.9266127, 44.6927583], [18.9265472, 44.6927494], [18.9264642, 44.6927362], [18.9264015, 44.6927255], [18.9262243, 44.6926835], [18.926128, 44.6926579], [18.9260595, 44.6926399], [18.9259563, 44.6926175], [18.9258543, 44.6926043], [18.9257846, 44.6925979], [18.9256052, 44.6925928], [18.925414, 44.6925917], [18.9250704, 44.6926132], [18.9248633, 44.6926306], [18.9247245, 44.6926478], [18.9244436, 44.6926937], [18.9241749, 44.6927561], [18.9238782, 44.6928336], [18.9237619, 44.6928599], [18.9236779, 44.6928753], [18.9235035, 44.6929069], [18.9234105, 44.6929211], [18.9232749, 44.6929314], [18.9232077, 44.6929365], [18.9231138, 44.6929325], [18.9230398, 44.6929223], [18.9229834, 44.6929071], [18.9229443, 44.6928965], [18.922908, 44.6928798], [18.9228591, 44.6928534], [18.9227579, 44.6927852], [18.9226601, 44.692708], [18.9225613, 44.6926332], [18.9223941, 44.6925005], [18.9221701, 44.6923298], [18.9220693, 44.6922541], [18.9219596, 44.6921786], [18.9219035, 44.6921453], [18.9217973, 44.6920951], [18.9217025, 44.6920567], [18.9215874, 44.6920215], [18.9215371, 44.6919979], [18.9214902, 44.6919813], [18.9214295, 44.6919529], [18.9200076, 44.6917731], [18.9194012, 44.6917292], [18.9191237, 44.6917], [18.9189729, 44.6916537], [18.9187982, 44.6915733], [18.91862, 44.6914832], [18.9185241, 44.6914345], [18.9184179, 44.6913688], [18.9182637, 44.691303], [18.9181164, 44.6912567], [18.918017, 44.691208], [18.9179177, 44.6911447], [18.9177829, 44.6910574], [18.9175716, 44.6908719], [18.9174414, 44.6907403], [18.9173558, 44.6906283], [18.9173297, 44.6905641], [18.9173042, 44.6905108], [18.9172239, 44.6903944], [18.9171534, 44.6903299], [18.9169237, 44.6901053], [18.9168407, 44.6900191], [18.9167681, 44.689974], [18.9166895, 44.6899252], [18.9164213, 44.6897799], [18.9162233, 44.6896543], [18.9160427, 44.6895032], [18.91585, 44.689311], [18.9154614, 44.6890467], [18.914995, 44.6887127], [18.9143731, 44.6883701], [18.9142803, 44.6883067], [18.9138427, 44.6880568], [18.9134439, 44.687825], [18.9131263, 44.6876712], [18.9128508, 44.6875523], [18.912616, 44.6874358], [18.9123625, 44.6873493], [18.9119452, 44.687234], [18.9116122, 44.6871101], [18.9114567, 44.687039], [18.9113354, 44.6869633], [18.9111289, 44.6867393], [18.9107478, 44.686482], [18.9103856, 44.6861246], [18.9103181, 44.6860434], [18.9100376, 44.6854717], [18.9100478, 44.6851137], [18.9101198, 44.6846411], [18.9099326, 44.6843198], [18.9095408, 44.6838884], [18.9089172, 44.6833939], [18.9076562, 44.6820664], [18.9069301, 44.6814158], [18.9061763, 44.6812623], [18.9059879, 44.68116], [18.9058508, 44.6810358], [18.9057754, 44.6804584], [18.9058131, 44.680188], [18.9055596, 44.6794474], [18.9047545, 44.6784121], [18.9041378, 44.6776836], [18.9040692, 44.6773401], [18.9038602, 44.6770916], [18.903432, 44.676714], [18.9032504, 44.6764777], [18.9023836, 44.6760172], [18.9021198, 44.6758394], [18.9020033, 44.6757517], [18.9017395, 44.6756274], [18.9015613, 44.6755836], [18.9013626, 44.6755348], [18.9012427, 44.6753887], [18.901133, 44.6753497], [18.9009754, 44.6753131], [18.9007939, 44.6752327], [18.9007216, 44.6751912], [18.9005437, 44.675089], [18.9004341, 44.6750037], [18.9002799, 44.6749282], [18.8999819, 44.6748746], [18.8997455, 44.6748795], [18.8995604, 44.6749038], [18.8993524, 44.6749361], [18.8992537, 44.6748788], [18.899194, 44.6747833], [18.8991651, 44.6747382], [18.8991517, 44.6746805], [18.899183, 44.6745844], [18.8992586, 44.6745056], [18.8993045, 44.6744451], [18.899359, 44.674356], [18.899364, 44.6743125], [18.8993472, 44.6742531], [18.899335, 44.674222], [18.8992848, 44.6741493], [18.8991953, 44.6740572], [18.8991198, 44.6739887], [18.8990537, 44.6739286], [18.8989729, 44.6738552], [18.8988547, 44.6737045], [18.8987842, 44.6734799], [18.8987387, 44.6733614], [18.8987049, 44.6732733], [18.8986317, 44.6731757]]], [[[18.9475705, 44.6014565], [18.9475837, 44.6013894], [18.9476273, 44.6013267], [18.9483181, 44.6005666], [18.9484478, 44.600097], [18.9488394, 44.600422], [18.9493183, 44.6008836], [18.9499534, 44.6010948], [18.9500174, 44.6011711], [18.9499137, 44.6011409], [18.949796, 44.601144], [18.949773, 44.6011698], [18.9497391, 44.6011933], [18.9496815, 44.6011886], [18.9496178, 44.601175], [18.9495063, 44.6012007], [18.9494208, 44.6012347], [18.949307, 44.6013123], [18.9492031, 44.6014313], [18.9491151, 44.6014928], [18.9489441, 44.6015851], [18.9488085, 44.6016396], [18.9486739, 44.6016813], [18.9484998, 44.6016949], [18.9482412, 44.6016951], [18.9481079, 44.6016853], [18.9479822, 44.601709], [18.9478278, 44.6016658], [18.947695, 44.6016218], [18.9475972, 44.6015408], [18.9475705, 44.6014565]]]]}}]}