{"type": "FeatureCollection", "features": [{"type": "Feature", "properties": {"name": "Općina Usora, Zeničko-dobojski kanton, Federacija Bosne i Hercegovine, 74230, Bosna i Hercegovina / Босна и Херцеговина", "source": "OpenStreetMap relation 2528283", "licence": "ODbL 1.0"}, "geometry": {"type": "Polygon", "coordinates": [[[17.9162859, 44.7027204], [17.916507, 44.7025934], [17.916761, 44.7025058], [17.9169777, 44.7023677], [17.9173401, 44.7021872], [17.9177548, 44.7020331], [17.9180238, 44.7018446], [17.9188869, 44.7024816], [17.9192837, 44.7026388], [17.9200372, 44.7031083], [17.9207605, 44.7028064], [17.9209837, 44.7028156], [17.9213012, 44.7027393], [17.9215416, 44.7027454], [17.922151, 44.7027912], [17.9226359, 44.7029955], [17.922902, 44.7031298], [17.9235285, 44.7036422], [17.9238204, 44.7040784], [17.9238204, 44.7041943], [17.9237302, 44.7043559], [17.9235629, 44.7045115], [17.9235243, 44.7049995], [17.9234427, 44.705213], [17.9232024, 44.7055852], [17.9231037, 44.7059878], [17.9229492, 44.7062226], [17.9225715, 44.7064727], [17.922417, 44.7067106], [17.9225629, 44.7067808], [17.9227089, 44.7067442], [17.9229277, 44.7067259], [17.9230951, 44.7065917], [17.9231852, 44.7064819], [17.9233226, 44.7063812], [17.92355, 44.7063202], [17.9237388, 44.706247], [17.9239148, 44.7061555], [17.9238976, 44.7060579], [17.9240006, 44.7059603], [17.9241851, 44.705878], [17.9247645, 44.7057438], [17.9253696, 44.7055211], [17.9255756, 44.7055181], [17.9257816, 44.7054906], [17.9259576, 44.7056187], [17.9261979, 44.7056004], [17.9265155, 44.7055486], [17.9268159, 44.7054754], [17.9270948, 44.7053564], [17.9272064, 44.7054082], [17.9272321, 44.7055486], [17.9271774, 44.7057659], [17.927289, 44.7058574], [17.9272547, 44.7062417], [17.9273748, 44.7065528], [17.9274177, 44.7068395], [17.9273748, 44.7073397], [17.9274778, 44.7075471], [17.927701, 44.7075776], [17.9277697, 44.7078094], [17.9277353, 44.7079985], [17.9278212, 44.7082181], [17.9280271, 44.7086878], [17.9283303, 44.7090398], [17.9284848, 44.709113], [17.9284934, 44.7092716], [17.9282445, 44.7094424], [17.9279441, 44.709601], [17.9279784, 44.7098633], [17.9281071, 44.7100707], [17.9282445, 44.7103574], [17.9305276, 44.7102598], [17.9311713, 44.7102903], [17.9323643, 44.7104611], [17.9333257, 44.7105953], [17.9345959, 44.7106197], [17.9351109, 44.7107051], [17.9353513, 44.7107966], [17.9349722, 44.7124022], [17.9349201, 44.712735], [17.9365268, 44.7129015], [17.9366764, 44.7128506], [17.9369626, 44.7128506], [17.9374895, 44.7129338], [17.9380879, 44.7131326], [17.9390572, 44.713507], [17.9393499, 44.7137381], [17.9395905, 44.7139369], [17.9397727, 44.7140155], [17.9398442, 44.714242], [17.9399288, 44.7143945], [17.940176, 44.7144546], [17.9408004, 44.7145933], [17.9410346, 44.7147597], [17.9412688, 44.7148198], [17.9415875, 44.7148059], [17.9418672, 44.7147227], [17.9423095, 44.7146765], [17.9425697, 44.7146534], [17.9427909, 44.7145471], [17.9433178, 44.7140802], [17.9437471, 44.7134284], [17.9437406, 44.7126796], [17.9438707, 44.7117597], [17.9439422, 44.7114222], [17.9438772, 44.7109091], [17.9438967, 44.710641], [17.9450025, 44.7093004], [17.9451196, 44.7088658], [17.9449765, 44.7081262], [17.945061, 44.7077933], [17.9450936, 44.7072894], [17.9446447, 44.7071137], [17.9445992, 44.7069982], [17.9447943, 44.7065035], [17.9448659, 44.7063509], [17.945022, 44.7062215], [17.9451456, 44.7060643], [17.9451456, 44.7059117], [17.9453017, 44.70581], [17.9455034, 44.7057176], [17.9456725, 44.7057453], [17.9457831, 44.705602], [17.9460433, 44.7052691], [17.9461343, 44.7050981], [17.9458546, 44.7049779], [17.9460042, 44.7048484], [17.9461148, 44.7048068], [17.9461278, 44.7046404], [17.9460823, 44.7044832], [17.9462189, 44.704326], [17.9460172, 44.7041966], [17.9461083, 44.7040394], [17.9466222, 44.7038082], [17.9465701, 44.7037019], [17.9465441, 44.7034799], [17.9466157, 44.7033135], [17.947032, 44.7028188], [17.9472531, 44.7026154], [17.9472401, 44.7024859], [17.9469019, 44.7021484], [17.9462785, 44.7020619], [17.94627, 44.7019155], [17.9459524, 44.7017386], [17.945755, 44.7016105], [17.9459352, 44.70122], [17.9459095, 44.7008052], [17.9458408, 44.7004513], [17.9456863, 44.7005489], [17.9456262, 44.7002805], [17.9453859, 44.7000731], [17.9456348, 44.7000487], [17.9454632, 44.6999023], [17.9452486, 44.6995667], [17.9450082, 44.6996216], [17.9450475, 44.699417], [17.9452941, 44.6992205], [17.9455481, 44.6991674], [17.9458396, 44.6987478], [17.9461833, 44.6982167], [17.9463925, 44.697829], [17.9467063, 44.6977812], [17.9466914, 44.6976325], [17.9467661, 44.6974094], [17.9469081, 44.6972448], [17.9469155, 44.6970801], [17.9470949, 44.6968783], [17.9473414, 44.6967136], [17.947446, 44.6963577], [17.9475955, 44.6962621], [17.9475955, 44.6960603], [17.9476851, 44.6958], [17.947715, 44.695731], [17.9479401, 44.6954433], [17.9481373, 44.6952751], [17.9482408, 44.6950579], [17.9485218, 44.6949492], [17.9486401, 44.6949107], [17.9487141, 44.6946724], [17.9488817, 44.6945462], [17.9491797, 44.6942628], [17.9495573, 44.693976], [17.9496404, 44.6936967], [17.9497144, 44.6934164], [17.9496503, 44.6932447], [17.9496897, 44.6928942], [17.9498672, 44.6928031], [17.9501235, 44.6927926], [17.9501285, 44.6924422], [17.9500644, 44.692323], [17.9497144, 44.6923055], [17.9497489, 44.6921863], [17.9498672, 44.6920356], [17.9497735, 44.6914749], [17.9496602, 44.6910158], [17.9495665, 44.6907179], [17.9492411, 44.6906548], [17.9489799, 44.6904831], [17.9488024, 44.6902728], [17.9485182, 44.6901856], [17.9483309, 44.6899263], [17.9481682, 44.6898176], [17.9482372, 44.6896319], [17.9480795, 44.6894321], [17.9481732, 44.6891553], [17.9482175, 44.6889765], [17.9484591, 44.6888679], [17.9484591, 44.6886681], [17.9482027, 44.6885384], [17.9481239, 44.6884228], [17.9482224, 44.6883632], [17.9480203, 44.6882475], [17.9479464, 44.6879742], [17.9479809, 44.687834], [17.947971, 44.6877429], [17.9477936, 44.6876622], [17.947764, 44.6875186], [17.947621, 44.6874274], [17.9477147, 44.6872767], [17.9481633, 44.6869718], [17.9482816, 44.6869227], [17.9482224, 44.6867966], [17.9482717, 44.6866879], [17.9481633, 44.6865898], [17.9479851, 44.6866318], [17.9479508, 44.6864945], [17.9478049, 44.6864456], [17.9479636, 44.6863389], [17.9480709, 44.6863633], [17.9480924, 44.6862809], [17.9479508, 44.6861222], [17.9477534, 44.6860673], [17.9479551, 44.6859971], [17.9481053, 44.6858903], [17.9480495, 44.6858324], [17.9478864, 44.6858934], [17.947616, 44.6859331], [17.9475516, 44.6858842], [17.9476332, 44.6856584], [17.9478091, 44.6855639], [17.9481353, 44.6854876], [17.9482297, 44.6855578], [17.9483842, 44.6856127], [17.9485945, 44.6855852], [17.9485516, 44.6854906], [17.9484014, 44.6854235], [17.9484958, 44.6853472], [17.9486245, 44.6853045], [17.9487275, 44.6853777], [17.9487576, 44.685454], [17.948955, 44.6854083], [17.9491009, 44.6852679], [17.9489679, 44.6851214], [17.9487275, 44.6848102], [17.9485816, 44.6846302], [17.9484872, 44.6844075], [17.9482984, 44.6842396], [17.9483627, 44.6841206], [17.9484915, 44.6837362], [17.948543, 44.6836233], [17.9486546, 44.6836141], [17.9486803, 44.683489], [17.9486417, 44.6833975], [17.9486717, 44.6832754], [17.9488005, 44.6832693], [17.9489164, 44.6831564], [17.9488134, 44.6830161], [17.9489893, 44.6829703], [17.949088, 44.6827964], [17.9492339, 44.6826255], [17.949161, 44.6825065], [17.9493841, 44.682241], [17.9493412, 44.6821098], [17.9490837, 44.6819908], [17.9491438, 44.681881], [17.9489893, 44.6817681], [17.9491266, 44.6816308], [17.9490923, 44.6813836], [17.9488992, 44.6812554], [17.9488992, 44.6811456], [17.9487833, 44.6810205], [17.9489679, 44.6809594], [17.949088, 44.6807397], [17.9488906, 44.6806696], [17.9488777, 44.6805109], [17.9489035, 44.6803431], [17.9488005, 44.6802912], [17.9488692, 44.6802179], [17.9490451, 44.6802637], [17.9492082, 44.680279], [17.9493884, 44.6801813], [17.9492425, 44.6800074], [17.9494957, 44.6798487], [17.9494013, 44.6796931], [17.9491738, 44.6796565], [17.9490837, 44.6795283], [17.9491395, 44.679449], [17.949264, 44.6795649], [17.9493841, 44.6795039], [17.9493241, 44.6792964], [17.94947, 44.6792476], [17.94947, 44.6791194], [17.949088, 44.6790614], [17.9491438, 44.6789546], [17.9491481, 44.6787929], [17.9491052, 44.6785671], [17.9492211, 44.6785274], [17.9494056, 44.6786037], [17.9494957, 44.6784755], [17.9493241, 44.6783901], [17.9489421, 44.6783931], [17.9486074, 44.6783992], [17.9485044, 44.6782772], [17.9484014, 44.6778194], [17.9483241, 44.6777218], [17.9483756, 44.6774472], [17.94844, 44.6773587], [17.9481782, 44.6771084], [17.9482469, 44.6769772], [17.9480709, 44.6767483], [17.9480108, 44.6765683], [17.9478263, 44.6765439], [17.9478521, 44.6761807], [17.9478649, 44.6759457], [17.947719, 44.6755612], [17.9478091, 44.6753171], [17.9479593, 44.6751767], [17.9482297, 44.6750546], [17.9483456, 44.6748563], [17.948646, 44.6745847], [17.9490365, 44.6744199], [17.9495987, 44.6740262], [17.9497232, 44.6738278], [17.9495172, 44.6736356], [17.9496202, 44.6734952], [17.9495086, 44.6732632], [17.9493756, 44.6729825], [17.9495687, 44.6724423], [17.9496888, 44.6723538], [17.9498262, 44.672247], [17.9499463, 44.6719906], [17.9501652, 44.6716793], [17.9501137, 44.6712368], [17.9501437, 44.670718], [17.9501698, 44.6704969], [17.9500965, 44.6702113], [17.9500493, 44.6699885], [17.9501437, 44.6698909], [17.950324, 44.6698207], [17.9504399, 44.6697841], [17.9505042, 44.6695674], [17.951281, 44.668783], [17.9516072, 44.6685388], [17.9518604, 44.6685358], [17.9519848, 44.6683893], [17.9521307, 44.6680871], [17.9522552, 44.667788], [17.9526929, 44.6673516], [17.9528774, 44.6672386], [17.9529933, 44.6669578], [17.9531392, 44.6668418], [17.9533881, 44.6668052], [17.9535641, 44.6667289], [17.9541992, 44.6663718], [17.9541821, 44.6662161], [17.9541821, 44.6660086], [17.9551836, 44.6644793], [17.9567567, 44.664984], [17.9564377, 44.6657586], [17.9568794, 44.6661613], [17.9572305, 44.6663788], [17.9575816, 44.6664835], [17.9582158, 44.6663788], [17.9584423, 44.6661452], [17.9587368, 44.6661211], [17.958884, 44.6659278], [17.9591762, 44.6657347], [17.9592449, 44.6655393], [17.9595024, 44.6653928], [17.9597599, 44.6652829], [17.9601204, 44.6653379], [17.9602491, 44.6655332], [17.960498, 44.6657469], [17.9610645, 44.6658995], [17.9614937, 44.6660887], [17.9630043, 44.6664122], [17.9631674, 44.6665099], [17.9632189, 44.666693], [17.9632961, 44.6669433], [17.9635279, 44.6670715], [17.9636652, 44.6672852], [17.9636137, 44.667627], [17.9639399, 44.6677857], [17.9642832, 44.6679627], [17.964575, 44.668036], [17.9645492, 44.6683229], [17.9649956, 44.668506], [17.9652101, 44.6687258], [17.9652101, 44.6689089], [17.9653217, 44.6690615], [17.9656908, 44.6692385], [17.9661371, 44.6694338], [17.9666693, 44.6694705], [17.9670984, 44.669446], [17.9673988, 44.6693362], [17.967931, 44.6691408], [17.9685404, 44.6696292], [17.9692785, 44.6699283], [17.9703943, 44.6702274], [17.9715273, 44.6704471], [17.9725916, 44.6705692], [17.9736731, 44.6705753], [17.9746172, 44.6704959], [17.9753296, 44.670209], [17.9758446, 44.669678], [17.9761278, 44.6692385], [17.9765913, 44.6688967], [17.9770033, 44.6687013], [17.9775549, 44.6686093], [17.9783875, 44.6686185], [17.9792331, 44.6688036], [17.9800397, 44.6692569], [17.9810414, 44.6699786], [17.9814838, 44.6705614], [17.9820302, 44.6719029], [17.9823164, 44.6729946], [17.9828888, 44.6739012], [17.9830579, 44.6742991], [17.983188, 44.6750021], [17.9833589, 44.675321], [17.983711, 44.6755352], [17.9844181, 44.6756677], [17.9850052, 44.6756861], [17.9856078, 44.6756516], [17.985959, 44.6755757], [17.9861449, 44.6754464], [17.9868697, 44.6747431], [17.9874421, 44.6745118], [17.9879105, 44.6744286], [17.9883658, 44.6744933], [17.9889382, 44.6747986], [17.9890293, 44.6752797], [17.9885609, 44.676288], [17.9883918, 44.6768708], [17.9884308, 44.6774721], [17.9887821, 44.6779717], [17.9896277, 44.678388], [17.9905254, 44.6787487], [17.9914751, 44.678869], [17.9924117, 44.6788505], [17.9929061, 44.678758], [17.9935306, 44.678462], [17.9949616, 44.6758995], [17.9953649, 44.6753907], [17.9957942, 44.6752149], [17.9966138, 44.6746784], [17.9959373, 44.6745211], [17.9952999, 44.6743546], [17.9948055, 44.6743546], [17.9946364, 44.673744], [17.994142, 44.6732722], [17.994181, 44.6729576], [17.9940119, 44.6727911], [17.9937387, 44.6723285], [17.9934525, 44.6720787], [17.9932704, 44.6719307], [17.9936867, 44.6717457], [17.99409, 44.6712646], [17.9945973, 44.6708852], [17.9938428, 44.6705429], [17.9946234, 44.6692014], [17.9952088, 44.6690349], [17.9951936, 44.6688606], [17.9953975, 44.6685223], [17.9955107, 44.6682404], [17.9955107, 44.6677813], [17.9952842, 44.6672577], [17.9950691, 44.6666455], [17.9948765, 44.6665811], [17.9948765, 44.6658401], [17.9946613, 44.6656548], [17.9945821, 44.665236], [17.9948086, 44.6649701], [17.9953862, 44.6642774], [17.9958392, 44.663778], [17.9958958, 44.6634477], [17.9957826, 44.6629966], [17.9956254, 44.6626437], [17.9955958, 44.6623352], [17.9957733, 44.6621248], [17.9962268, 44.6619285], [17.996779, 44.6617111], [17.9968973, 44.6615428], [17.9968874, 44.6613254], [17.9970747, 44.6611781], [17.9972522, 44.6608485], [17.9974987, 44.6605119], [17.9977748, 44.6601192], [17.9981987, 44.6597475], [17.9983959, 44.6598737], [17.9987015, 44.6599719], [17.9988987, 44.6597054], [17.9993818, 44.6595231], [17.9995692, 44.6589691], [17.9992142, 44.6586184], [17.9997466, 44.6580924], [17.9994607, 44.6577488], [18.0002692, 44.657342], [18.0009298, 44.6570895], [18.0014846, 44.6568679], [18.0020212, 44.6565636], [18.0023873, 44.6566805], [18.0026451, 44.6565449], [18.0023948, 44.6560241], [18.0021632, 44.6558487], [18.0015791, 44.6554672], [18.000889, 44.6550359], [18.0004601, 44.6546887], [18.0000115, 44.6542679], [17.9998636, 44.6540329], [17.9997551, 44.653549], [17.999622, 44.6528161], [17.9989876, 44.6527746], [17.9987144, 44.6517612], [17.9990006, 44.6519], [17.9989876, 44.651701], [17.998851, 44.6514974], [17.9984867, 44.6513031], [17.9987859, 44.651229], [17.9987469, 44.6511596], [17.9991502, 44.6510254], [17.99956, 44.6506876], [17.9998202, 44.6504285], [18.0003406, 44.6501277], [18.0009195, 44.6498223], [18.0011146, 44.6496927], [18.0012382, 44.6494798], [18.0016285, 44.6496973], [18.0020318, 44.6497482], [18.0024286, 44.6498547], [18.0026238, 44.6499379], [18.0029165, 44.6499379], [18.0032027, 44.6501878], [18.003658, 44.6504794], [18.0039897, 44.6509791], [18.004302, 44.6514974], [18.0045166, 44.6517797], [18.0047573, 44.6519555], [18.0049459, 44.6518075], [18.0054663, 44.6518028], [18.0059412, 44.6518352], [18.0066957, 44.6521638], [18.007034, 44.6520157], [18.0072616, 44.6516316], [18.0075674, 44.6512799], [18.0079772, 44.6509421], [18.0077952, 44.6506954], [18.0075687, 44.6504215], [18.0074611, 44.6501919], [18.0073762, 44.6498333], [18.0074323, 44.6496449], [18.0084623, 44.6500051], [18.0091231, 44.6503471], [18.009518, 44.650744], [18.009681, 44.6510676], [18.0096896, 44.651263], [18.0099128, 44.6515683], [18.0099471, 44.6518491], [18.010093, 44.6520506], [18.0108569, 44.6523742], [18.0114663, 44.65282], [18.0121101, 44.6531802], [18.0125049, 44.6535832], [18.0130919, 44.653985], [18.0140707, 44.6544528], [18.0143098, 44.6544793], [18.0146087, 44.6544209], [18.0148702, 44.6542986], [18.0151766, 44.6542242], [18.0155203, 44.6542508], [18.0160433, 44.6544049], [18.0162152, 44.6544209], [18.0164319, 44.6542774], [18.0163142, 44.6556421], [18.0162401, 44.6565519], [18.0161829, 44.6569884], [18.0163131, 44.6575014], [18.0168459, 44.6583858], [18.0169455, 44.6586238], [18.0168968, 44.6588606], [18.0168019, 44.6590125], [18.0163905, 44.6594541], [18.0162774, 44.6597993], [18.0162666, 44.6598854], [18.0162585, 44.6599977], [18.0162652, 44.6600511], [18.0162869, 44.6600952], [18.016435, 44.660203], [18.0165857, 44.6603068], [18.0168164, 44.66041], [18.016921, 44.6604918], [18.0169849, 44.6606225], [18.0169961, 44.6607704], [18.0169639, 44.660903], [18.0169152, 44.6610036], [18.0168486, 44.6610871], [18.0167574, 44.6611615], [18.0165434, 44.661294], [18.0158664, 44.66152], [18.0155273, 44.6618024], [18.0154721, 44.6619786], [18.0155805, 44.66243], [18.0159388, 44.6628432], [18.0164189, 44.6630534], [18.016834, 44.6633007], [18.0169383, 44.6634857], [18.017207, 44.6640214], [18.0173914, 44.6642026], [18.0179196, 44.6645008], [18.018121, 44.6646578], [18.0182085, 44.6648329], [18.0182996, 44.6650218], [18.0183492, 44.6651944], [18.018367, 44.6653526], [18.0183586, 44.6654825], [18.0183171, 44.6655893], [18.018246, 44.6656694], [18.0182112, 44.6657272], [18.0180396, 44.6659531], [18.0179765, 44.6660939], [18.0179254, 44.6663113], [18.0178845, 44.6665044], [18.017912, 44.6666309], [18.0179898, 44.666773], [18.0181243, 44.6669424], [18.018258, 44.6670668], [18.0184805, 44.6672075], [18.0185826, 44.6672919], [18.0186698, 44.6673939], [18.0187918, 44.6675847], [18.0189192, 44.6677955], [18.0190721, 44.6680778], [18.0193803, 44.6684513], [18.0195307, 44.6686872], [18.019626, 44.6689142], [18.0196787, 44.6691069], [18.0197601, 44.6694894], [18.0198218, 44.6698337], [18.0198258, 44.6700063], [18.0197838, 44.6702121], [18.0190339, 44.6713825], [18.0185902, 44.6721152], [18.0183684, 44.6722519], [18.0181367, 44.672322], [18.0178803, 44.672322], [18.0176043, 44.6721713], [18.0172657, 44.671831], [18.0164038, 44.6711926], [18.0161339, 44.671114], [18.0158704, 44.6711001], [18.0155842, 44.6711533], [18.0150996, 44.6712968], [18.0146085, 44.6715095], [18.0137755, 44.671782], [18.0135292, 44.6719129], [18.0134386, 44.6720478], [18.0134019, 44.6723698], [18.013153, 44.672408], [18.0129882, 44.6724265], [18.0126942, 44.6724551], [18.0125418, 44.672481], [18.0124495, 44.6724108], [18.0123637, 44.67233], [18.0122693, 44.6723086], [18.0118723, 44.6722796], [18.0118208, 44.6723849], [18.0112672, 44.6722781], [18.0112393, 44.6721957], [18.0111192, 44.672069], [18.0110634, 44.6719897], [18.0108402, 44.671805], [18.0105419, 44.6718859], [18.0106085, 44.6724566], [18.0106256, 44.6725787], [18.0117007, 44.6729861], [18.0123873, 44.673305], [18.0132757, 44.6738437], [18.0132392, 44.6738879], [18.0131834, 44.6738956], [18.0130225, 44.673804], [18.0129195, 44.6737124], [18.0128315, 44.6737323], [18.0129173, 44.6738681], [18.0122457, 44.6741672], [18.0111914, 44.6746173], [18.0109932, 44.674732], [18.0109168, 44.6748569], [18.010996, 44.6750864], [18.0111942, 44.6752918], [18.0113698, 44.6752998], [18.012256, 44.675485], [18.0131479, 44.6747361], [18.013414, 44.6746757], [18.0134027, 44.6743434], [18.0134197, 44.6741904], [18.0135273, 44.6740334], [18.0144305, 44.6746777], [18.0150081, 44.6752173], [18.0160132, 44.676083], [18.0164549, 44.6763749], [18.0171344, 44.6767132], [18.018058, 44.6770779], [18.0196109, 44.677751], [18.0204338, 44.6781467], [18.0211638, 44.6784042], [18.0217637, 44.6785784], [18.0226821, 44.6788201], [18.0234215, 44.6790129], [18.0238405, 44.6791636], [18.0241018, 44.6792828], [18.0237419, 44.6796754], [18.022894, 44.6801276], [18.0236828, 44.6812037], [18.0240279, 44.6818626], [18.02458, 44.6830228], [18.0248018, 44.6840953], [18.0249251, 44.684891], [18.0251469, 44.6860756], [18.025837, 44.6867731], [18.0258765, 44.687099], [18.0257927, 44.687467], [18.0251567, 44.6886516], [18.0241905, 44.6893385], [18.0229877, 44.6903093], [18.0230034, 44.6910434], [18.0230922, 44.6912887], [18.0233387, 44.6916707], [18.0241422, 44.6926344], [18.0252908, 44.6940993], [18.0256162, 44.6944532], [18.0262225, 44.6948002], [18.0276521, 44.6953363], [18.0280071, 44.6955466], [18.0285592, 44.695911], [18.0317783, 44.6964752], [18.0323945, 44.696766], [18.032991, 44.6969097], [18.0342037, 44.6973547], [18.0352882, 44.6977682], [18.0359093, 44.6979294], [18.0367671, 44.6981116], [18.037689, 44.6981292], [18.0383052, 44.6980941], [18.0386749, 44.6980381], [18.038876, 44.6980082], [18.0398126, 44.6982149], [18.0403499, 44.6982605], [18.0412619, 44.6984637], [18.0416612, 44.6987055], [18.0420162, 44.6989893], [18.0426127, 44.6996446], [18.0431303, 44.7003629], [18.0435493, 44.7011092], [18.0440669, 44.7013825], [18.0444597, 44.7015256], [18.0447441, 44.7016195], [18.0456345, 44.7016979], [18.0461916, 44.7015788], [18.046517, 44.7015612], [18.049041, 44.7022165], [18.0500072, 44.7022866], [18.05121, 44.702735], [18.0516438, 44.7027035], [18.0519248, 44.7025949], [18.0524769, 44.7025178], [18.0532706, 44.7023286], [18.0539904, 44.7023041], [18.0544833, 44.7023391], [18.0549566, 44.7023987], [18.0556508, 44.7025953], [18.056058, 44.7027865], [18.0563457, 44.7029962], [18.0566595, 44.7032405], [18.0570742, 44.7033733], [18.0578364, 44.7034397], [18.0584603, 44.7033919], [18.0591552, 44.7032671], [18.0598463, 44.7030918], [18.060276, 44.7030918], [18.0607355, 44.7031795], [18.0609373, 44.7032883], [18.0610381, 44.7034397], [18.0611539, 44.7036309], [18.0613893, 44.7039947], [18.0618003, 44.7042974], [18.0619678, 44.7043717], [18.0621083, 44.7044153], [18.0584754, 44.7056149], [18.0550309, 44.7064278], [18.0536912, 44.7069032], [18.0512058, 44.7078909], [18.0508943, 44.7083566], [18.0496473, 44.7089207], [18.0487857, 44.7097497], [18.0475556, 44.711004], [18.042023, 44.7147137], [18.0384611, 44.7167633], [18.0347185, 44.7185699], [18.0333681, 44.7194659], [18.0332623, 44.7195052], [18.0318574, 44.7200271], [18.0294442, 44.7217027], [18.0284728, 44.7220985], [18.0274619, 44.7222631], [18.0257193, 44.7227746], [18.0230105, 44.7229078], [18.0196562, 44.7232187], [18.0130058, 44.7240164], [18.0119284, 44.7240159], [18.0091134, 44.7236549], [18.00786, 44.7233842], [18.0042324, 44.7230763], [18.0028387, 44.7227091], [17.9994278, 44.7220952], [17.998492, 44.7220214], [17.9932271, 44.7214084], [17.9919206, 44.7213911], [17.9908755, 44.7212559], [17.9863449, 44.7210966], [17.9808878, 44.7209691], [17.9766329, 44.7211427], [17.9743096, 44.7218615], [17.9669868, 44.7239653], [17.9639112, 44.7247411], [17.9530991, 44.7278285], [17.9505959, 44.7286047], [17.9462612, 44.7279644], [17.9438991, 44.7272392], [17.9404013, 44.72679], [17.938368, 44.726171], [17.9374731, 44.7258367], [17.9312017, 44.7243566], [17.9306246, 44.724161], [17.9270526, 44.7220938], [17.9266782, 44.7217701], [17.924298, 44.7190605], [17.9235178, 44.7179926], [17.9220539, 44.7163876], [17.920464, 44.7145152], [17.9199921, 44.7137884], [17.9183764, 44.7103327], [17.9178882, 44.708528], [17.9173794, 44.7070196], [17.9169703, 44.7056059], [17.9167974, 44.7044493], [17.9165558, 44.7039842], [17.9162859, 44.7027204]]]}}]}