{"type": "FeatureCollection", "features": [{"type": "Feature", "properties": {"name": "Općina Vareš, Zeničko-dobojski kanton, Federacija Bosne i Hercegovine, 71330, Bosna i Hercegovina / Босна и Херцеговина", "source": "OpenStreetMap relation 2528285", "licence": "ODbL 1.0"}, "geometry": {"type": "Polygon", "coordinates": [[[18.2148239, 44.1782193], [18.2157182, 44.1758946], [18.215223, 44.1742705], [18.216531, 44.17203], [18.2161903, 44.1704465], [18.2157353, 44.1689564], [18.2164049, 44.1676453], [18.216834, 44.1664139], [18.217755, 44.1642749], [18.2185897, 44.1589029], [18.2205056, 44.154972], [18.2219433, 44.152051], [18.2228111, 44.1504412], [18.2251376, 44.1446412], [18.2249912, 44.1399341], [18.2248336, 44.1364004], [18.2239529, 44.1321468], [18.2237716, 44.1304515], [18.2293891, 44.1268037], [18.2311392, 44.1260398], [18.2313609, 44.1259036], [18.231667, 44.1260855], [18.2313394, 44.1271204], [18.2312627, 44.1276719], [18.2313493, 44.1278261], [18.2311034, 44.1282276], [18.2313931, 44.1288917], [18.2316077, 44.1290842], [18.2315111, 44.1293691], [18.2315969, 44.1302085], [18.2318973, 44.1304857], [18.232702, 44.1310094], [18.2328093, 44.1315022], [18.2329273, 44.131687], [18.2331204, 44.1317717], [18.2333243, 44.1319719], [18.2336998, 44.1321105], [18.2339251, 44.1324956], [18.2343221, 44.1325264], [18.2345259, 44.1328883], [18.2345179, 44.1332002], [18.2350811, 44.1335062], [18.2353064, 44.1336987], [18.2355881, 44.1338046], [18.2438076, 44.1296771], [18.2463413, 44.1328595], [18.2482415, 44.1342234], [18.2514086, 44.134678], [18.2552091, 44.1324049], [18.2596431, 44.1314957], [18.264077, 44.1314957], [18.268511, 44.1319503], [18.2735783, 44.1333142], [18.2786457, 44.134678], [18.2818128, 44.1333142], [18.2830796, 44.1301317], [18.2792791, 44.1283131], [18.2742117, 44.1278585], [18.2697778, 44.1251305], [18.2691444, 44.1251305], [18.2691444, 44.1224023], [18.2678775, 44.1210382], [18.2647104, 44.1187646], [18.2647104, 44.1142171], [18.2666107, 44.1105788], [18.2691444, 44.1087596], [18.2672441, 44.1060307], [18.2628102, 44.1019371], [18.2596431, 44.1005725], [18.25795, 44.0973178], [18.2583979, 44.0941011], [18.2606374, 44.0915276], [18.2628769, 44.0902408], [18.2633248, 44.0876672], [18.2628769, 44.0854151], [18.2606374, 44.0812326], [18.2615332, 44.0776932], [18.2619811, 44.0754408], [18.2651164, 44.072223], [18.2646685, 44.070614], [18.2615332, 44.0673958], [18.2570542, 44.0644993], [18.2557106, 44.0622464], [18.25795, 44.0593497], [18.2581162, 44.0588719], [18.2583493, 44.0582166], [18.266235, 44.0595044], [18.2667792, 44.0593018], [18.2673776, 44.0590187], [18.2685149, 44.0588645], [18.269223, 44.0589262], [18.2697379, 44.0595352], [18.2703388, 44.0597357], [18.2720279, 44.0595311], [18.2727957, 44.0619022], [18.273375, 44.0619176], [18.2740295, 44.0615205], [18.2753706, 44.0616979], [18.2758856, 44.0616554], [18.2776022, 44.0624495], [18.2790683, 44.0627575], [18.2803058, 44.0632899], [18.2808408, 44.0630734], [18.2818723, 44.0618867], [18.2824302, 44.0615321], [18.2826394, 44.0601713], [18.2835138, 44.0589686], [18.2846993, 44.0588028], [18.28655, 44.0582014], [18.2882398, 44.0583787], [18.2898009, 44.0585599], [18.2901549, 44.0582785], [18.2913697, 44.058197], [18.2923408, 44.0577306], [18.2927191, 44.056536], [18.2924963, 44.0545808], [18.2929659, 44.0544002], [18.2936311, 44.054485], [18.2936311, 44.0542075], [18.2931054, 44.0532359], [18.2929766, 44.05174], [18.291893, 44.0501207], [18.2907879, 44.0489871], [18.290863, 44.048509], [18.2911742, 44.0483162], [18.2909059, 44.0481234], [18.2909059, 44.0478073], [18.2915604, 44.046905], [18.2919896, 44.0468202], [18.2921398, 44.046558], [18.2918715, 44.0456943], [18.2911742, 44.0456943], [18.2910669, 44.0453858], [18.2926762, 44.0452856], [18.2931268, 44.0456095], [18.2933736, 44.04645], [18.2951116, 44.04645], [18.295927, 44.0469667], [18.2970106, 44.0471826], [18.2988989, 44.0466351], [18.299352, 44.0463069], [18.3009506, 44.0458365], [18.3016348, 44.045864], [18.3022381, 44.045528], [18.3043031, 44.0457522], [18.3048505, 44.0455037], [18.3062613, 44.0452436], [18.3064627, 44.0449231], [18.3071302, 44.0446962], [18.3085299, 44.0446288], [18.3098593, 44.0435763], [18.310975, 44.0434375], [18.3123207, 44.0427946], [18.3123851, 44.0421468], [18.3129, 44.0416224], [18.312943, 44.0407432], [18.3126058, 44.0404914], [18.3127989, 44.0396739], [18.3133077, 44.0385528], [18.3140588, 44.0380129], [18.3145523, 44.037072], [18.3190584, 44.0350512], [18.321054, 44.0352826], [18.3217191, 44.0357608], [18.3222993, 44.0355707], [18.3233392, 44.0366323], [18.3258015, 44.0368984], [18.3267756, 44.0378601], [18.327564, 44.0382863], [18.3320457, 44.0387996], [18.3332419, 44.0384603], [18.3350176, 44.0386107], [18.3351248, 44.0389346], [18.3354708, 44.0393176], [18.3355755, 44.040265], [18.3364333, 44.0413363], [18.3364069, 44.0420774], [18.3356452, 44.042891], [18.3354199, 44.0444797], [18.3364767, 44.0463807], [18.3362943, 44.047252], [18.3368576, 44.0477533], [18.3367771, 44.0489678], [18.3377212, 44.0492801], [18.3377695, 44.049897], [18.3380664, 44.0499308], [18.3389068, 44.0510846], [18.339941, 44.051461], [18.3406287, 44.0521602], [18.3416855, 44.0525882], [18.3418936, 44.0535253], [18.3427799, 44.0540494], [18.3437991, 44.0550903], [18.3454567, 44.0558768], [18.3454621, 44.0561274], [18.3459167, 44.0565399], [18.345961, 44.05691], [18.3464169, 44.0573456], [18.3497482, 44.0595121], [18.3510893, 44.0605761], [18.3514595, 44.0611427], [18.3514863, 44.0616901], [18.3522749, 44.0621026], [18.3525967, 44.0625035], [18.3534926, 44.0630123], [18.3536602, 44.0627134], [18.3554506, 44.0624418], [18.356066, 44.0620175], [18.3572316, 44.0618867], [18.3595715, 44.0609476], [18.3633423, 44.0618496], [18.3634333, 44.0613021], [18.3635076, 44.059836], [18.3674613, 44.0598334], [18.3707614, 44.0596826], [18.3761207, 44.0614169], [18.3855836, 44.0658586], [18.3864727, 44.0677963], [18.3895941, 44.0676985], [18.3899086, 44.0693374], [18.3929092, 44.0701384], [18.3928954, 44.0716443], [18.3919629, 44.0719385], [18.3935557, 44.0733911], [18.4013781, 44.0741204], [18.403527, 44.0735508], [18.4041997, 44.0714922], [18.4063747, 44.0690251], [18.4080752, 44.0692449], [18.4115885, 44.0659185], [18.4088808, 44.0648718], [18.4096237, 44.0608822], [18.4122317, 44.0601618], [18.4154733, 44.0606865], [18.4180884, 44.057644], [18.427542, 44.0593757], [18.4285845, 44.0670717], [18.4326071, 44.0722461], [18.4349988, 44.0727608], [18.4306184, 44.0771674], [18.4306184, 44.082935], [18.4284597, 44.085511], [18.4237589, 44.0887531], [18.4253419, 44.0904455], [18.4282053, 44.0917045], [18.4333063, 44.0930554], [18.4377015, 44.0929266], [18.4403056, 44.0910067], [18.4418688, 44.0928376], [18.4456968, 44.0932509], [18.4509262, 44.0955514], [18.4573151, 44.1019827], [18.456475, 44.1026903], [18.4548961, 44.1058384], [18.457244, 44.1058754], [18.4611372, 44.1073831], [18.4609991, 44.1083614], [18.4698612, 44.1110213], [18.4712654, 44.1116839], [18.4750859, 44.1130616], [18.4757155, 44.1181695], [18.4812639, 44.1166058], [18.4811151, 44.1184871], [18.482685, 44.119046], [18.4835014, 44.1205679], [18.4878183, 44.1206566], [18.4837503, 44.1253955], [18.4780495, 44.1285781], [18.4723487, 44.131306], [18.474249, 44.1335791], [18.4786829, 44.137216], [18.4831168, 44.1353976], [18.4888176, 44.1335791], [18.4907179, 44.1335791], [18.4945184, 44.1344884], [18.4983189, 44.1353976], [18.5021194, 44.1376705], [18.5065534, 44.1408526], [18.5103539, 44.1426708], [18.5154212, 44.1431253], [18.5192218, 44.1431253], [18.5255559, 44.1449435], [18.5255538, 44.145092], [18.5255559, 44.1467615], [18.5236557, 44.1490341], [18.5217554, 44.1535789], [18.5230223, 44.1590322], [18.5242891, 44.162213], [18.5249225, 44.1649394], [18.5217554, 44.1690286], [18.5185883, 44.1731175], [18.5141544, 44.1776605], [18.5052865, 44.1808404], [18.5052759, 44.1808359], [18.4989523, 44.178569], [18.4932515, 44.1762976], [18.4856505, 44.1767519], [18.4799497, 44.1781148], [18.4767826, 44.1808404], [18.4812166, 44.1831116], [18.4831168, 44.1849285], [18.4850171, 44.1899247], [18.4824834, 44.1935581], [18.4799497, 44.1976453], [18.48185, 44.1990077], [18.4831168, 44.2030945], [18.48185, 44.206273], [18.4761492, 44.2099054], [18.4717153, 44.2148995], [18.4736155, 44.2153535], [18.4729821, 44.221255], [18.4679148, 44.2239786], [18.4577801, 44.2271559], [18.4533461, 44.2276098], [18.4470119, 44.2271559], [18.442578, 44.2253403], [18.438144, 44.2226168], [18.4362438, 44.2235247], [18.4337101, 44.2271559], [18.4318099, 44.2316947], [18.4292762, 44.233964], [18.4248422, 44.2362332], [18.4204083, 44.2371408], [18.410907, 44.236687], [18.4064731, 44.2344178], [18.3969718, 44.2271559], [18.3919044, 44.2257942], [18.3887373, 44.2257942], [18.3805029, 44.2239786], [18.371635, 44.2194392], [18.3684679, 44.2189852], [18.3646674, 44.2194392], [18.3678345, 44.2276098], [18.3684679, 44.2326024], [18.3646674, 44.2357793], [18.3615003, 44.2403174], [18.3583332, 44.2421326], [18.3526324, 44.2425864], [18.3488319, 44.2425864], [18.344398, 44.245309], [18.3424977, 44.247124], [18.3336298, 44.2503001], [18.3285625, 44.2512075], [18.3228617, 44.2525686], [18.3196946, 44.2543834], [18.3177943, 44.2575591], [18.312727, 44.2616419], [18.3139938, 44.2625492], [18.3165275, 44.2657244], [18.3209614, 44.2670852], [18.3272956, 44.266178], [18.3317296, 44.2670852], [18.3336298, 44.2702602], [18.3367969, 44.2711674], [18.3424977, 44.2747957], [18.3405974, 44.2766098], [18.3380638, 44.2775168], [18.3361635, 44.2802378], [18.3361635, 44.2834121], [18.3374303, 44.2856794], [18.337575, 44.291475], [18.3330961, 44.2940398], [18.3295129, 44.2940398], [18.3115971, 44.2889101], [18.3062223, 44.2844214], [18.3008476, 44.2812149], [18.2963686, 44.2767255], [18.2927855, 44.27416], [18.2883065, 44.2728772], [18.282036, 44.2690286], [18.2799125, 44.2604703], [18.2792791, 44.258202], [18.2824462, 44.2550263], [18.2868801, 44.2518505], [18.2745766, 44.2453989], [18.2738793, 44.2446457], [18.271704, 44.2438598], [18.2681393, 44.2408488], [18.2666239, 44.2387542], [18.2654169, 44.2385736], [18.264277, 44.2385428], [18.262909, 44.2383593], [18.2624155, 44.2382373], [18.2617476, 44.2380951], [18.2614942, 44.2380259], [18.2612944, 44.2378923], [18.2610986, 44.2378279], [18.2607056, 44.2375118], [18.2603073, 44.2370977], [18.2597762, 44.2367057], [18.2591808, 44.2364174], [18.2588428, 44.2360446], [18.2584405, 44.2353643], [18.258135, 44.2350858], [18.2583225, 44.2346571], [18.2576465, 44.2340757], [18.2565844, 44.2328699], [18.2561338, 44.2323586], [18.2546103, 44.2319205], [18.2536071, 44.23149], [18.2531726, 44.231217], [18.25284, 44.2309095], [18.2526791, 44.2306251], [18.2526415, 44.2302869], [18.2500613, 44.2258086], [18.2501739, 44.2254281], [18.2492512, 44.2250974], [18.248468, 44.2247438], [18.2483017, 44.2244978], [18.2482454, 44.2242882], [18.2477814, 44.223875], [18.2474461, 44.223579], [18.2471401, 44.2234159], [18.2464242, 44.2230062], [18.2463598, 44.2227832], [18.246054, 44.2221028], [18.2456249, 44.2217337], [18.2455069, 44.2213723], [18.2448524, 44.2210802], [18.2437581, 44.220986], [18.2434952, 44.2208456], [18.2433075, 44.2205381], [18.2431251, 44.2200691], [18.2430821, 44.2196769], [18.2430339, 44.2194924], [18.2428837, 44.2192617], [18.2427533, 44.219204], [18.242645, 44.219156], [18.2423875, 44.2191445], [18.2421568, 44.2190118], [18.2417303, 44.2187888], [18.2411027, 44.218735], [18.2409613, 44.2187054], [18.2404911, 44.2186081], [18.2400942, 44.2182736], [18.2394665, 44.2178315], [18.2385331, 44.2170626], [18.2384634, 44.2169357], [18.2384366, 44.2166762], [18.2384393, 44.2165897], [18.2381737, 44.2164032], [18.2379645, 44.216186], [18.2378358, 44.2160899], [18.2377875, 44.2159438], [18.2376802, 44.2157246], [18.2374871, 44.2155285], [18.2371679, 44.2152459], [18.2370928, 44.2151191], [18.2370499, 44.214971], [18.2371195, 44.2147957], [18.2372403, 44.2145789], [18.2366502, 44.2142751], [18.2363874, 44.2140636], [18.236323, 44.2136984], [18.2360601, 44.2135157], [18.2358134, 44.2133062], [18.235808, 44.2131178], [18.2357544, 44.2127333], [18.2356203, 44.2126103], [18.2353869, 44.2125295], [18.2353064, 44.2125084], [18.235175, 44.2124545], [18.2350999, 44.2123565], [18.2346258, 44.2120724], [18.2349819, 44.211799], [18.2353198, 44.2114991], [18.2355881, 44.2111684], [18.235871, 44.2108185], [18.2359368, 44.2105339], [18.236028, 44.2104109], [18.236044, 44.2101802], [18.2361621, 44.2099995], [18.2363015, 44.2098149], [18.2366878, 44.209365], [18.23679, 44.2091452], [18.2368594, 44.2089959], [18.2368624, 44.2089335], [18.2368863, 44.2084268], [18.2368702, 44.2081691], [18.2367253, 44.2080538], [18.2367039, 44.2079038], [18.2365644, 44.2074501], [18.2363605, 44.2072078], [18.2362264, 44.2069886], [18.2361245, 44.2066848], [18.2362318, 44.2061196], [18.2356846, 44.2057043], [18.2349035, 44.2052483], [18.2343328, 44.2048583], [18.2337052, 44.2041738], [18.233571, 44.203993], [18.233512, 44.2039353], [18.2331687, 44.2034623], [18.2330722, 44.2031239], [18.2331848, 44.2029047], [18.2331419, 44.2028316], [18.2330024, 44.2026471], [18.2329219, 44.2025048], [18.2323265, 44.2018933], [18.2319671, 44.2015164], [18.2318357, 44.2014895], [18.2317686, 44.2014414], [18.2316962, 44.2013434], [18.2315165, 44.2011511], [18.2313716, 44.200928], [18.2306957, 44.2007127], [18.2302129, 44.2003358], [18.2299715, 44.2002973], [18.2297797, 44.2001425], [18.2293975, 44.1997974], [18.2289791, 44.1995974], [18.22843, 44.1989896], [18.2282173, 44.1988128], [18.2278633, 44.1986898], [18.2271766, 44.198559], [18.2265115, 44.1983283], [18.2254815, 44.1976206], [18.2244515, 44.1968514], [18.2232928, 44.1963745], [18.2222199, 44.1956514], [18.2219356, 44.1923303], [18.2172672, 44.1875958], [18.2171232, 44.1850232], [18.2165336, 44.1829887], [18.2180004, 44.1813979], [18.2152891, 44.1801266], [18.2148239, 44.1782193]]]}}]}