{"type": "FeatureCollection", "features": [{"type": "Feature", "properties": {"name": "Općina Velika Kladuša, Unsko-sanski kanton, Federacija Bosne i Hercegovine, Bosna i Hercegovina / Босна и Херцеговина", "source": "OpenStreetMap relation 2528286", "licence": "ODbL 1.0"}, "geometry": {"type": "Polygon", "coordinates": [[[15.7646135, 45.1628245], [15.7646937, 45.1627116], [15.7650467, 45.1625247], [15.7655674, 45.1625257], [15.765672, 45.1623855], [15.7658537, 45.1623528], [15.7659419, 45.1621182], [15.7663155, 45.1616388], [15.7662288, 45.1613334], [15.7663316, 45.1612382], [15.7664199, 45.1610037], [15.7662677, 45.1606222], [15.766602, 45.1603005], [15.76677, 45.1600159], [15.7666565, 45.1599267], [15.7666753, 45.1598411], [15.7668214, 45.1598941], [15.7669077, 45.1597945], [15.766934, 45.1596278], [15.7667695, 45.159575], [15.7669875, 45.1594701], [15.7669357, 45.1593399], [15.7671053, 45.1590687], [15.7669174, 45.1589216], [15.7670092, 45.1588895], [15.7668625, 45.1588094], [15.7669059, 45.1586022], [15.7670938, 45.1584434], [15.7672044, 45.1582762], [15.7671835, 45.1574259], [15.7673631, 45.1573078], [15.7674487, 45.1572936], [15.7676674, 45.1568827], [15.7675945, 45.1564873], [15.767479, 45.1564116], [15.7675202, 45.1562853], [15.7677912, 45.1562744], [15.7678975, 45.1562018], [15.7680223, 45.156093], [15.7678474, 45.1559591], [15.7684465, 45.1557662], [15.7683475, 45.1556138], [15.7684065, 45.1553345], [15.7686013, 45.1550407], [15.7686636, 45.1546533], [15.7687824, 45.15445], [15.7686847, 45.1539782], [15.7691679, 45.1520852], [15.7692237, 45.1516798], [15.7694199, 45.1512556], [15.7698272, 45.1507579], [15.7699851, 45.1505003], [15.7715181, 45.1494731], [15.771725, 45.1493322], [15.7720955, 45.1489878], [15.7725975, 45.1478415], [15.7725755, 45.1477427], [15.7727917, 45.1474532], [15.7735116, 45.1472099], [15.774664, 45.1467296], [15.7759366, 45.1460415], [15.7759842, 45.1458567], [15.7759747, 45.1456768], [15.7759887, 45.1447813], [15.7761528, 45.1445777], [15.7760698, 45.1439124], [15.7759175, 45.1438144], [15.7759675, 45.1436926], [15.7757564, 45.1428346], [15.7755271, 45.1422827], [15.7750725, 45.1415794], [15.7748707, 45.1411173], [15.7751892, 45.1408632], [15.7752995, 45.1403356], [15.7754398, 45.1396647], [15.7752665, 45.1392473], [15.7755903, 45.1387457], [15.776065, 45.1381216], [15.7763786, 45.1379215], [15.7766329, 45.1376318], [15.7770409, 45.1373635], [15.777249, 45.1373036], [15.7779152, 45.1370335], [15.7783122, 45.1370623], [15.7787109, 45.1367537], [15.7789806, 45.1367249], [15.7791424, 45.1366382], [15.7794315, 45.1366318], [15.78063, 45.1364616], [15.7815767, 45.1361941], [15.7817655, 45.1359949], [15.7818306, 45.1359404], [15.7818108, 45.135828], [15.7818821, 45.1356971], [15.781662, 45.1355816], [15.7816225, 45.1354829], [15.7814082, 45.1353269], [15.7814425, 45.1351511], [15.7812518, 45.1350535], [15.7812028, 45.1349503], [15.7809592, 45.134736], [15.7807373, 45.1344361], [15.7807064, 45.1342653], [15.7804227, 45.1341547], [15.7804843, 45.1339428], [15.7802737, 45.1337733], [15.7800012, 45.1337122], [15.7800352, 45.133478], [15.7798541, 45.1333532], [15.7799371, 45.1331007], [15.7796855, 45.1330619], [15.7795434, 45.1329549], [15.7794304, 45.1327712], [15.7793214, 45.1327494], [15.7792464, 45.132669], [15.7792774, 45.1324978], [15.7791145, 45.1324404], [15.7789568, 45.1324054], [15.7790062, 45.1323061], [15.7790942, 45.132229], [15.7790291, 45.1321845], [15.7788659, 45.1322127], [15.7786658, 45.1321105], [15.7787223, 45.1319932], [15.7789174, 45.1319153], [15.778788, 45.1317497], [15.7788237, 45.131574], [15.7787896, 45.1314572], [15.7786926, 45.1314534], [15.7786029, 45.131571], [15.7785151, 45.1315491], [15.7783091, 45.1312895], [15.7782215, 45.1310562], [15.7779984, 45.1309497], [15.7779042, 45.1309683], [15.7776781, 45.1308259], [15.7778365, 45.1301949], [15.7781432, 45.1295628], [15.77864, 45.1289386], [15.7789987, 45.1283782], [15.7792226, 45.1278997], [15.7798298, 45.1273331], [15.7803462, 45.1269246], [15.7808279, 45.1260709], [15.7814198, 45.1256574], [15.7816692, 45.1252508], [15.7826737, 45.1250909], [15.7831325, 45.1247143], [15.7834081, 45.1246494], [15.7840044, 45.1243977], [15.784342, 45.124103], [15.7845574, 45.1236471], [15.7846017, 45.1235156], [15.7845356, 45.1234413], [15.7846043, 45.1233565], [15.784558, 45.1232247], [15.7846441, 45.1231335], [15.7845704, 45.1230367], [15.7845826, 45.1228825], [15.7847642, 45.1226777], [15.784732, 45.1224805], [15.7848298, 45.1223673], [15.7847891, 45.1223001], [15.7850325, 45.1222005], [15.785137, 45.1222887], [15.7852588, 45.1220837], [15.7853342, 45.1220117], [15.7855324, 45.1220418], [15.7855547, 45.121873], [15.7858804, 45.1218735], [15.7858924, 45.1218139], [15.7858395, 45.1217867], [15.7858774, 45.1216553], [15.785949, 45.1216127], [15.7861908, 45.1217376], [15.7863408, 45.1216758], [15.7864431, 45.1215491], [15.7865963, 45.1215373], [15.7868249, 45.1212968], [15.7869779, 45.1212557], [15.7869996, 45.121106], [15.7870911, 45.1210132], [15.7869879, 45.1209531], [15.7871328, 45.1209189], [15.7871849, 45.1208313], [15.7873017, 45.1208463], [15.7873969, 45.1207174], [15.7875157, 45.1207459], [15.7875634, 45.1206887], [15.7874784, 45.1206348], [15.7875636, 45.1205313], [15.7875313, 45.1203762], [15.7876001, 45.1203009], [15.7875784, 45.1202268], [15.787666, 45.1201841], [15.7876586, 45.1201042], [15.7877607, 45.1200765], [15.7877575, 45.1200247], [15.7876849, 45.1199877], [15.7878169, 45.1199564], [15.7878159, 45.1198754], [15.7878979, 45.1197725], [15.7880149, 45.1197885], [15.7879966, 45.119954], [15.7880312, 45.1199863], [15.7880914, 45.1199804], [15.7881441, 45.1199378], [15.7881166, 45.1198463], [15.7883224, 45.119738], [15.7887125, 45.1198484], [15.7888445, 45.1199752], [15.7889349, 45.11997], [15.7890343, 45.1198602], [15.7892299, 45.1198773], [15.7895577, 45.1197305], [15.789555, 45.1198819], [15.7896329, 45.119888], [15.7897009, 45.1197532], [15.7898285, 45.1198946], [15.7897719, 45.1200047], [15.7898543, 45.1200947], [15.7903781, 45.1200673], [15.7903065, 45.1198356], [15.7902868, 45.1196063], [15.7901505, 45.1195122], [15.7902877, 45.1192711], [15.7901521, 45.11906], [15.7902053, 45.1189477], [15.7898949, 45.1188407], [15.7898389, 45.1183], [15.789757, 45.1180093], [15.789605, 45.1177555], [15.7896995, 45.1176334], [15.7899041, 45.1174936], [15.7898012, 45.1173549], [15.7899374, 45.1172644], [15.7901023, 45.1174686], [15.7901804, 45.1174237], [15.790117, 45.1172649], [15.7903364, 45.1171633], [15.7902483, 45.1170554], [15.790242, 45.1168878], [15.7903818, 45.1168289], [15.7904552, 45.1166196], [15.7903759, 45.1162271], [15.7904986, 45.116188], [15.790492, 45.1161239], [15.7904102, 45.116075], [15.7908689, 45.1158531], [15.790818, 45.1156897], [15.7908874, 45.1155868], [15.7910493, 45.1155807], [15.7911689, 45.115104], [15.791107, 45.1149948], [15.7909684, 45.1149525], [15.7907756, 45.1148014], [15.7902776, 45.114861], [15.7901761, 45.1148213], [15.7901041, 45.1146739], [15.7894384, 45.1143792], [15.7893927, 45.1142384], [15.7892765, 45.1141549], [15.788646, 45.1140591], [15.7885456, 45.1139765], [15.788573, 45.1138346], [15.7881483, 45.1137307], [15.7881369, 45.1135418], [15.7879354, 45.1135657], [15.7878929, 45.1135317], [15.7879456, 45.1134964], [15.7878935, 45.1133961], [15.7876504, 45.1134028], [15.7875892, 45.1133431], [15.7877063, 45.1131893], [15.7875044, 45.1130163], [15.7874671, 45.1129445], [15.7875216, 45.1128154], [15.787507, 45.1126872], [15.7873649, 45.1127428], [15.7872337, 45.1127263], [15.7871326, 45.1126044], [15.7871477, 45.1125452], [15.7875049, 45.1125288], [15.7875756, 45.1124668], [15.7870957, 45.11223], [15.7868728, 45.1118469], [15.7869757, 45.1117056], [15.7869547, 45.1115712], [15.7868155, 45.1114856], [15.7864709, 45.111501], [15.7864015, 45.1114176], [15.7865147, 45.1113313], [15.7865143, 45.111248], [15.7864199, 45.111143], [15.7862693, 45.1108167], [15.786302, 45.1107118], [15.7861572, 45.1105746], [15.7859756, 45.1106568], [15.7858062, 45.1105865], [15.7857011, 45.1103409], [15.785479, 45.1101276], [15.7857207, 45.1100871], [15.7859212, 45.1098219], [15.7856223, 45.1097424], [15.7855581, 45.1095882], [15.7856726, 45.109592], [15.7857027, 45.109531], [15.7854943, 45.1093429], [15.7851818, 45.1093124], [15.7849776, 45.1092969], [15.7847266, 45.1090709], [15.7848022, 45.108968], [15.7847329, 45.1088313], [15.7842875, 45.1087353], [15.784246, 45.1085922], [15.7844981, 45.1084504], [15.7844493, 45.108359], [15.784168, 45.1084144], [15.7840261, 45.1082573], [15.7840836, 45.1081653], [15.7839795, 45.1081053], [15.7832375, 45.1079764], [15.783167, 45.107874], [15.7830802, 45.1079151], [15.7822868, 45.1076804], [15.7822858, 45.1075567], [15.7819702, 45.1075297], [15.7820008, 45.1074512], [15.7818014, 45.1071657], [15.7816825, 45.1071801], [15.7815641, 45.10711], [15.7815268, 45.106761], [15.7814035, 45.1066921], [15.7811372, 45.1067878], [15.7810738, 45.106569], [15.7811905, 45.1065079], [15.7810913, 45.1063444], [15.7811716, 45.1062341], [15.7812905, 45.1062699], [15.7814959, 45.1061943], [15.7811249, 45.1059532], [15.7809, 45.1052978], [15.7808299, 45.105115], [15.7806216, 45.1051007], [15.7805682, 45.1050245], [15.7807348, 45.1046629], [15.7806174, 45.1046085], [15.780531, 45.1046879], [15.7803575, 45.1045423], [15.7804136, 45.104286], [15.7803552, 45.1041981], [15.7801383, 45.1041894], [15.7801039, 45.1041126], [15.7801365, 45.103996], [15.7799775, 45.1039887], [15.7799435, 45.103877], [15.7800417, 45.1037458], [15.7796952, 45.1037914], [15.7797033, 45.1036829], [15.7797621, 45.1036807], [15.7797684, 45.1035592], [15.7799741, 45.1034521], [15.7799392, 45.1033977], [15.7796008, 45.1033889], [15.7794565, 45.1032251], [15.7797411, 45.1027821], [15.7799507, 45.1027818], [15.7799799, 45.1024206], [15.7796451, 45.1023879], [15.7796441, 45.1021383], [15.7798639, 45.1020693], [15.7798121, 45.1019981], [15.7795788, 45.1020076], [15.7795298, 45.1019073], [15.77957, 45.1018794], [15.7794425, 45.1017391], [15.7796478, 45.1016444], [15.7795055, 45.1015768], [15.7794952, 45.1014665], [15.7795904, 45.1014632], [15.7796362, 45.1013216], [15.7798825, 45.1013295], [15.7799739, 45.1011692], [15.7798914, 45.1011731], [15.7797591, 45.1007893], [15.7794612, 45.1007261], [15.7794328, 45.1005014], [15.7795587, 45.1004228], [15.7794917, 45.1003316], [15.779524, 45.100261], [15.7795924, 45.1000317], [15.779689, 45.0998364], [15.7795882, 45.0997201], [15.7796159, 45.0996609], [15.7799017, 45.0996562], [15.7798312, 45.0995492], [15.7800011, 45.099552], [15.7800652, 45.0994756], [15.7798953, 45.0994155], [15.7799366, 45.0992493], [15.7798782, 45.0991614], [15.7798854, 45.099095], [15.7797965, 45.0990483], [15.7798446, 45.0989608], [15.7800177, 45.0989607], [15.7801584, 45.0987634], [15.780246, 45.0986408], [15.7800306, 45.0985624], [15.780019, 45.0984714], [15.7800588, 45.0984289], [15.7800191, 45.0982509], [15.7797895, 45.0981737], [15.7798257, 45.097989], [15.7797864, 45.0979004], [15.779575, 45.0979446], [15.7792642, 45.0976981], [15.779432, 45.0977066], [15.7795202, 45.0975957], [15.7795275, 45.0974865], [15.7793897, 45.0974588], [15.7794363, 45.0973746], [15.7797255, 45.0973907], [15.7798281, 45.0972843], [15.7797385, 45.0971701], [15.779434, 45.0970992], [15.7792747, 45.0971716], [15.7792053, 45.0971007], [15.7793124, 45.0970302], [15.7792823, 45.0967998], [15.7791798, 45.0966847], [15.7791201, 45.096612], [15.7790919, 45.0964018], [15.7792031, 45.096406], [15.779239, 45.0963113], [15.7791208, 45.0961912], [15.7793179, 45.0959711], [15.7792288, 45.0958418], [15.7792174, 45.095654], [15.7791358, 45.0955482], [15.7791785, 45.0954776], [15.7789834, 45.0952012], [15.7788485, 45.0952656], [15.7786886, 45.095129], [15.7782139, 45.0951412], [15.77792, 45.0951882], [15.7778389, 45.095119], [15.7777118, 45.0951856], [15.7773716, 45.0950963], [15.7761572, 45.0953205], [15.7759095, 45.0952537], [15.7756378, 45.095305], [15.7755564, 45.0952116], [15.7746893, 45.0953378], [15.7743204, 45.095306], [15.7740248, 45.0952315], [15.7738276, 45.0952649], [15.7735829, 45.0952588], [15.7732725, 45.0951456], [15.7721105, 45.0944802], [15.7716629, 45.0942689], [15.7711637, 45.0939258], [15.7709521, 45.0936078], [15.7705493, 45.0934086], [15.7700314, 45.0922204], [15.7698593, 45.0917529], [15.7693169, 45.0911756], [15.7690645, 45.0901672], [15.7687791, 45.0897321], [15.7687722, 45.0893924], [15.7692472, 45.089059], [15.7691967, 45.0890133], [15.7694053, 45.0888335], [15.7695115, 45.0888143], [15.7696102, 45.0886561], [15.7697362, 45.0886907], [15.7701778, 45.0886416], [15.7702752, 45.0884441], [15.7703922, 45.088409], [15.7709566, 45.0878676], [15.7711873, 45.0875459], [15.7717306, 45.0875592], [15.7718248, 45.0873718], [15.7717082, 45.0873208], [15.7717448, 45.0870371], [15.7719341, 45.0870633], [15.7719143, 45.0869387], [15.7724101, 45.0866804], [15.7724558, 45.0864709], [15.7725818, 45.0863975], [15.7730828, 45.0864616], [15.7732598, 45.0863462], [15.7731615, 45.0862879], [15.7731941, 45.0861864], [15.7733919, 45.0860703], [15.773561, 45.085838], [15.7734937, 45.0857873], [15.7732748, 45.0857364], [15.773509, 45.0856263], [15.7733889, 45.0854893], [15.7733943, 45.0853014], [15.773753, 45.0852399], [15.7737412, 45.0848953], [15.7740226, 45.0845075], [15.7740586, 45.0844094], [15.7739536, 45.0843972], [15.7738573, 45.0842038], [15.7739283, 45.0841083], [15.7740803, 45.0841403], [15.7744101, 45.083984], [15.7743155, 45.083861], [15.7740465, 45.0836226], [15.7736934, 45.0835857], [15.7731751, 45.0834733], [15.7715484, 45.0828848], [15.7702338, 45.0821349], [15.7691326, 45.0814786], [15.7690946, 45.0811916], [15.7692022, 45.0808077], [15.7694045, 45.0804493], [15.7693951, 45.0803289], [15.769438, 45.0801105], [15.7695178, 45.0800638], [15.7695234, 45.0797769], [15.7694815, 45.0796727], [15.7695191, 45.0795194], [15.7696336, 45.0794674], [15.7697146, 45.0792464], [15.7699556, 45.0790951], [15.7701877, 45.0788252], [15.7709897, 45.0785443], [15.771103, 45.0782994], [15.7713832, 45.077284], [15.7738894, 45.0772642], [15.7738722, 45.0771118], [15.7740217, 45.0770063], [15.7741898, 45.076811], [15.7741898, 45.0765235], [15.7741562, 45.076315], [15.7741263, 45.0761145], [15.7741636, 45.0759562], [15.7743579, 45.0757874], [15.7745223, 45.0757425], [15.7745933, 45.0755948], [15.7748212, 45.0751938], [15.775008, 45.074959], [15.7753741, 45.0747242], [15.7753704, 45.0744577], [15.7754152, 45.0741991], [15.7755721, 45.0739643], [15.7757327, 45.0738034], [15.7761512, 45.0735923], [15.7762296, 45.0734551], [15.7763865, 45.0733338], [15.7765173, 45.0732441], [15.7765621, 45.0731016], [15.7767863, 45.0729143], [15.7767863, 45.0727454], [15.7769096, 45.072537], [15.7769993, 45.0723523], [15.7769768, 45.0721597], [15.7770628, 45.0720304], [15.7771263, 45.0718958], [15.7772981, 45.0715396], [15.7772757, 45.0713787], [15.7773878, 45.0712283], [15.7773392, 45.070975], [15.7774252, 45.0706927], [15.7773056, 45.0703734], [15.7773131, 45.070136], [15.7773841, 45.0699645], [15.7773841, 45.0695608], [15.7774812, 45.0695027], [15.7780752, 45.069537], [15.7784003, 45.0695661], [15.7786543, 45.0696478], [15.7787739, 45.069632], [15.7789494, 45.0695555], [15.7791998, 45.069603], [15.7794912, 45.0696769], [15.7798013, 45.0697006], [15.7801375, 45.0696663], [15.7803542, 45.0697771], [15.7806531, 45.0698985], [15.7808585, 45.0699539], [15.781191, 45.0701914], [15.7813928, 45.0703523], [15.7815833, 45.070537], [15.7817552, 45.0708616], [15.781856, 45.0711096], [15.7820279, 45.071318], [15.782125, 45.0715502], [15.7823417, 45.0717613], [15.7829619, 45.0720964], [15.7833915, 45.0723127], [15.7839407, 45.072661], [15.784008, 45.0728166], [15.7840715, 45.0730304], [15.7841836, 45.0732071], [15.7843143, 45.0732388], [15.7844414, 45.0732704], [15.7844862, 45.0734235], [15.7846954, 45.0736477], [15.7847776, 45.0738113], [15.7847664, 45.0739089], [15.7846618, 45.0740672], [15.7848299, 45.0740435], [15.785125, 45.0740593], [15.7858498, 45.074178], [15.7863019, 45.0742229], [15.786952, 45.0743917], [15.7868772, 45.0746582], [15.7867726, 45.0748719], [15.7867054, 45.0752861], [15.7868399, 45.0753099], [15.7870267, 45.0753442], [15.7871313, 45.0751806], [15.7872957, 45.0751964], [15.7874152, 45.0748244], [15.7875011, 45.0746846], [15.7878038, 45.0744946], [15.7886257, 45.0749722], [15.788394, 45.0752228], [15.7887079, 45.0753969], [15.7890628, 45.0754101], [15.7898772, 45.0751041], [15.7898137, 45.0750249], [15.7901911, 45.074959], [15.7902733, 45.075207], [15.7905348, 45.0752149], [15.7904488, 45.0756185], [15.7904601, 45.0759668], [15.790178, 45.0759977], [15.7901994, 45.0761341], [15.7897574, 45.076222], [15.7898218, 45.0763887], [15.7902552, 45.0767948], [15.7904312, 45.0770523], [15.790487, 45.0772039], [15.7901308, 45.0773918], [15.7902381, 45.0775493], [15.7902981, 45.0777251], [15.790281, 45.0778463], [15.7901394, 45.0780403], [15.7903926, 45.0781585], [15.7907745, 45.0779675], [15.7903883, 45.0786221], [15.790281, 45.0788827], [15.7903711, 45.0793646], [15.7905041, 45.0794979], [15.7906114, 45.0796524], [15.7907316, 45.0798524], [15.7907616, 45.0801009], [15.7908861, 45.0801888], [15.7909762, 45.0803706], [15.7908217, 45.0806373], [15.7906372, 45.0805797], [15.7901136, 45.0807403], [15.7903883, 45.0811161], [15.7904698, 45.0817737], [15.7906243, 45.0817524], [15.7906973, 45.0818524], [15.791856, 45.0816888], [15.7923495, 45.0815646], [15.7922336, 45.0825948], [15.7923452, 45.0826857], [15.7923452, 45.0827554], [15.7921092, 45.0829039], [15.7911951, 45.0834403], [15.7900964, 45.0838221], [15.7894613, 45.084013], [15.7896415, 45.0843917], [15.7907573, 45.0841311], [15.7908646, 45.0845402], [15.7906071, 45.0845856], [15.7900879, 45.0846978], [15.7901994, 45.0851917], [15.7903282, 45.0852129], [15.7903282, 45.085325], [15.7905127, 45.0854947], [15.7907058, 45.0854825], [15.7909247, 45.0853432], [15.7918002, 45.0854825], [15.7922765, 45.0853341], [15.7924396, 45.0854583], [15.7929632, 45.0855128], [15.7924654, 45.0859552], [15.7925126, 45.0863158], [15.7928774, 45.0867976], [15.7928774, 45.0869097], [15.7930467, 45.0869866], [15.7931377, 45.0865896], [15.7937039, 45.0861953], [15.793837, 45.0860135], [15.7940687, 45.0859862], [15.7943949, 45.0859741], [15.794588, 45.0859165], [15.7946824, 45.0858014], [15.7946609, 45.0856499], [15.7944077, 45.0852681], [15.794382, 45.0847105], [15.7947468, 45.0843045], [15.7948626, 45.0843348], [15.7952403, 45.0843803], [15.7953347, 45.08425], [15.7953605, 45.0839136], [15.7953691, 45.0835742], [15.7957081, 45.08345], [15.7962316, 45.08345], [15.7964033, 45.0838257], [15.7969784, 45.0842984], [15.7970513, 45.0842075], [15.7974719, 45.084256], [15.7976994, 45.0840469], [15.7974419, 45.083847], [15.7970342, 45.08345], [15.7970127, 45.083353], [15.7977122, 45.0829531], [15.7976221, 45.0826531], [15.7981113, 45.0823349], [15.7984332, 45.0822197], [15.7998966, 45.0820834], [15.8002485, 45.082044], [15.8005017, 45.0818773], [15.8006734, 45.0817379], [15.8006219, 45.0815258], [15.8005661, 45.0814228], [15.8010682, 45.0813167], [15.8014158, 45.0811925], [15.8016519, 45.0814076], [15.802051, 45.0814228], [15.8023814, 45.0813834], [15.8028234, 45.0812319], [15.8032269, 45.0809077], [15.8028492, 45.0806592], [15.8030895, 45.0802925], [15.8029908, 45.0801107], [15.8028749, 45.0798652], [15.8028492, 45.0795289], [15.8022484, 45.0792834], [15.8019351, 45.0791137], [15.8015489, 45.0787985], [15.8014244, 45.0784197], [15.8013686, 45.0780167], [15.8011111, 45.0775621], [15.800785, 45.0774318], [15.8007549, 45.0772773], [15.8004374, 45.0771257], [15.8002099, 45.0770015], [15.8001026, 45.0769287], [15.8000339, 45.076759], [15.8000726, 45.0765166], [15.7999267, 45.0761499], [15.7999438, 45.0758135], [15.8000082, 45.075759], [15.8003301, 45.0756529], [15.8006176, 45.0755317], [15.800815, 45.0754923], [15.8010897, 45.0756802], [15.8013429, 45.0759256], [15.8016476, 45.0759408], [15.801845, 45.0759499], [15.8019437, 45.0757984], [15.8019952, 45.0757408], [15.801948, 45.0755256], [15.8018621, 45.0754408], [15.8016347, 45.0753135], [15.8016519, 45.0751104], [15.8017634, 45.0750286], [15.8022655, 45.0750922], [15.8026518, 45.075071], [15.8027548, 45.0748589], [15.8029565, 45.0747407], [15.8034843, 45.0745316], [15.8038706, 45.0742709], [15.8043727, 45.0738648], [15.8048576, 45.0735042], [15.8045315, 45.0733011], [15.8042182, 45.0732163], [15.8041281, 45.0730072], [15.8039521, 45.0723889], [15.8039435, 45.0720828], [15.8041367, 45.07191], [15.8048748, 45.072207], [15.8052052, 45.0722343], [15.8051752, 45.072401], [15.8054928, 45.0724525], [15.805879, 45.0726283], [15.8060206, 45.0725616], [15.8064455, 45.0724647], [15.8068961, 45.072401], [15.8072566, 45.0723677], [15.8077415, 45.0724313], [15.8083338, 45.0724343], [15.8088531, 45.0723495], [15.8095397, 45.072695], [15.8096727, 45.0728405], [15.8096684, 45.0731193], [15.8096341, 45.073292], [15.8095697, 45.073489], [15.8096642, 45.0736406], [15.8094625, 45.0738163], [15.8092607, 45.0738436], [15.8100418, 45.0744164], [15.8104753, 45.0741315], [15.8107671, 45.0737648], [15.8104838, 45.0735618], [15.8105439, 45.073486], [15.810368, 45.0731163], [15.8103851, 45.0729284], [15.811149, 45.0729314], [15.8113078, 45.072701], [15.8113894, 45.072498], [15.8114966, 45.0723071], [15.8117284, 45.0720828], [15.8123421, 45.0719221], [15.8125524, 45.0718252], [15.8136022, 45.0711268], [15.8138289, 45.0708831], [15.813962, 45.0704026], [15.8134838, 45.0696889], [15.8133014, 45.0695671], [15.814243, 45.0692433], [15.8141198, 45.0690448], [15.8148198, 45.0688359], [15.8146916, 45.0687106], [15.8151205, 45.0686131], [15.815012, 45.0683624], [15.8151008, 45.0679551], [15.8150209, 45.0673158], [15.81589, 45.0674709], [15.8163388, 45.0674984], [15.816612, 45.0674617], [15.8169178, 45.0672963], [15.817256, 45.067016], [15.8175552, 45.0665337], [15.8182122, 45.0662672], [15.8179455, 45.0657894], [15.8181472, 45.0655091], [15.8180821, 45.065307], [15.8187001, 45.0646132], [15.8193766, 45.0644432], [15.8198449, 45.0639057], [15.8204043, 45.0635381], [15.8206515, 45.0633727], [15.8207035, 45.0627892], [15.820684, 45.0621322], [15.8205929, 45.061829], [15.8209702, 45.0617509], [15.8221931, 45.0618979], [15.8224143, 45.0614476], [15.8225964, 45.061319], [15.8230062, 45.0609974], [15.8230517, 45.0606574], [15.822772, 45.0603495], [15.8224728, 45.0599084], [15.8224906, 45.0596888], [15.822811, 45.0593928], [15.8229145, 45.0592604], [15.8230378, 45.059048], [15.8235455, 45.0587869], [15.8233483, 45.0585779], [15.8232251, 45.0584352], [15.8231856, 45.0579859], [15.8229983, 45.0577352], [15.8228988, 45.0576455], [15.8228128, 45.0576059], [15.8227456, 45.0574555], [15.8227306, 45.0572945], [15.8227829, 45.0571837], [15.8227418, 45.0571441], [15.8226274, 45.0570729], [15.8225998, 45.0568282], [15.822781, 45.0567349], [15.8229441, 45.0565591], [15.8232445, 45.0560801], [15.823502, 45.0558922], [15.8238416, 45.0559214], [15.8239326, 45.0560179], [15.8239717, 45.0561925], [15.8239456, 45.056505], [15.8240237, 45.0567118], [15.8241798, 45.0567118], [15.8243424, 45.0565877], [15.8245311, 45.0563442], [15.8250254, 45.0560271], [15.8252791, 45.0559398], [15.8260402, 45.0559444], [15.826502, 45.0559214], [15.8266906, 45.0558617], [15.8266256, 45.0560363], [15.8263719, 45.0563717], [15.8264955, 45.0566658], [15.8268012, 45.0570794], [15.8270549, 45.0572264], [15.8275753, 45.0572677], [15.8279526, 45.0574148], [15.8281542, 45.0575434], [15.8281217, 45.0576537], [15.827894, 45.0576951], [15.8277639, 45.0578145], [15.8277704, 45.0579432], [15.8279721, 45.0580719], [15.8280566, 45.0582143], [15.8283624, 45.0585635], [15.8285477, 45.0586217], [15.8288996, 45.0586459], [15.8290884, 45.0586096], [15.8294918, 45.058367], [15.8304445, 45.0577001], [15.8308308, 45.0574818], [15.8311827, 45.0574273], [15.8317148, 45.0574879], [15.8321955, 45.0575243], [15.8318178, 45.0582882], [15.831732, 45.0586399], [15.8318264, 45.0591552], [15.8323242, 45.0597797], [15.8332113, 45.0606104], [15.8335711, 45.0607775], [15.8338521, 45.0609203], [15.8341134, 45.0611466], [15.8345127, 45.0613312], [15.8349958, 45.0614356], [15.8353113, 45.0615331], [15.8356268, 45.0614983], [15.8358634, 45.0614844], [15.8361493, 45.0615401], [15.8370318, 45.0619196], [15.8374606, 45.062052], [15.8380966, 45.0621007], [15.8390825, 45.0621947], [15.8397184, 45.0622191], [15.8402656, 45.0622504], [15.8404529, 45.0622365], [15.8409903, 45.0621982], [15.8422523, 45.0623305], [15.8430805, 45.0624837], [15.8448108, 45.0624211], [15.8452988, 45.0623201], [15.8463932, 45.0621042], [15.8468615, 45.0620485], [15.8470636, 45.062052], [15.8483256, 45.0622748], [15.8490355, 45.0624454], [15.8497181, 45.0624709], [15.8501442, 45.0624919], [15.8501185, 45.0631982], [15.8501785, 45.0636013], [15.8500798, 45.0643834], [15.8499382, 45.0647501], [15.8494232, 45.065417], [15.8491014, 45.0656959], [15.8488696, 45.0657625], [15.8485048, 45.065805], [15.8480499, 45.0657868], [15.8477066, 45.0658595], [15.8474749, 45.0660323], [15.8470843, 45.066487], [15.8466766, 45.0671204], [15.8461316, 45.0681358], [15.8459514, 45.0683025], [15.8457754, 45.0683965], [15.8455437, 45.068442], [15.845166, 45.0685753], [15.8448777, 45.068733], [15.8445266, 45.068945], [15.8441245, 45.0692809], [15.8431166, 45.0698848], [15.8427598, 45.0701648], [15.8426805, 45.0703887], [15.8423181, 45.0712206], [15.841967, 45.0716285], [15.8417179, 45.0720164], [15.8421052, 45.0721965], [15.8423456, 45.0725542], [15.8425344, 45.0732088], [15.8426803, 45.073524], [15.8431009, 45.0737968], [15.8437704, 45.0738513], [15.8455299, 45.0738513], [15.8475555, 45.0739786], [15.8488005, 45.0741608], [15.850018, 45.0743487], [15.8510939, 45.0745367], [15.8520339, 45.0743887], [15.8539423, 45.0744367], [15.8549162, 45.0744007], [15.8555335, 45.0743527], [15.8564508, 45.0744447], [15.8569548, 45.0745647], [15.8575324, 45.0748646], [15.8582346, 45.0751645], [15.8585007, 45.0752405], [15.8587839, 45.0751565], [15.85905, 45.0753085], [15.8591973, 45.0753245], [15.8592539, 45.0750366], [15.8596673, 45.0747286], [15.8595823, 45.0744367], [15.8598032, 45.0743088], [15.8606866, 45.0746367], [15.8613548, 45.0748286], [15.8617908, 45.0749726], [15.8620513, 45.0751525], [15.8622778, 45.0753525], [15.8624024, 45.0751605], [15.8627251, 45.0751205], [15.8631102, 45.0752285], [15.8636312, 45.0754005], [15.8641635, 45.0755524], [15.8645315, 45.0755364], [15.864809, 45.0754085], [15.8650921, 45.0753805], [15.8654772, 45.0754085], [15.8661284, 45.0755884], [15.8665758, 45.0757444], [15.8668872, 45.0758443], [15.867748, 45.0760643], [15.8682463, 45.0761922], [15.8685577, 45.0760963], [15.8689088, 45.0759083], [15.8691466, 45.0757564], [15.8693788, 45.0753845], [15.869526, 45.0748806], [15.8697469, 45.0745767], [15.8698205, 45.0742688], [15.8696733, 45.0740008], [15.8691183, 45.0731571], [15.8686483, 45.0725612], [15.8685181, 45.0720453], [15.868637, 45.0715374], [15.8687565, 45.071017], [15.8686551, 45.070819], [15.86854, 45.0706185], [15.8683133, 45.0704422], [15.8687774, 45.0702223], [15.8690308, 45.0699487], [15.8692199, 45.0700419], [15.8693401, 45.0700328], [15.8695289, 45.0699085], [15.8699752, 45.0698782], [15.8700825, 45.0699024], [15.8704301, 45.0702722], [15.8702842, 45.0703995], [15.8704387, 45.0707238], [15.8708078, 45.0709754], [15.871679, 45.0712481], [15.8726274, 45.0717179], [15.8728205, 45.0719907], [15.8731295, 45.0721604], [15.8732711, 45.0723271], [15.8733055, 45.0725756], [15.8734171, 45.0725847], [15.8738762, 45.0725483], [15.8741337, 45.0724998], [15.8740822, 45.0723695], [15.874889, 45.0723574], [15.8757001, 45.0723422], [15.8766185, 45.072418], [15.8773223, 45.072315], [15.8777858, 45.0721968], [15.8782879, 45.0722028], [15.8784596, 45.0721998], [15.8786313, 45.0721331], [15.8788845, 45.0719664], [15.8795196, 45.0717785], [15.8801247, 45.0716452], [15.8805067, 45.071633], [15.8810646, 45.0716573], [15.8815667, 45.0716906], [15.8825795, 45.0719028], [15.8829872, 45.0719452], [15.8830644, 45.0720331], [15.8830988, 45.0721937], [15.8832962, 45.0723241], [15.8834807, 45.0723241], [15.8836223, 45.0722483], [15.8837554, 45.0721543], [15.8842789, 45.0720937], [15.8846566, 45.0721362], [15.8849999, 45.0720968], [15.8851759, 45.0721846], [15.8855321, 45.0722998], [15.885826, 45.0723465], [15.8862847, 45.0723585], [15.8864942, 45.0723785], [15.8870265, 45.0725704], [15.8872644, 45.0725904], [15.8873712, 45.0726754], [15.8874876, 45.0727537], [15.8871523, 45.0730205], [15.8871, 45.0731867], [15.8871411, 45.0733212], [15.8871636, 45.0736616], [15.8873055, 45.07387], [15.8874849, 45.0741022], [15.887638, 45.074271], [15.8877576, 45.0743475], [15.8878174, 45.0744452], [15.8877837, 45.0745349], [15.887653, 45.0746615], [15.8875895, 45.0748277], [15.8875857, 45.0749253], [15.8876717, 45.0751338], [15.8876642, 45.0753132], [15.8875895, 45.0755216], [15.8876455, 45.0757933], [15.8878174, 45.076007], [15.8882096, 45.0762946], [15.8883703, 45.0765505], [15.888445, 45.0767167], [15.888445, 45.0769119], [15.8884076, 45.0770518], [15.8882993, 45.0771283], [15.8881723, 45.0772839], [15.8882694, 45.0775029], [15.8882096, 45.0776533], [15.8880714, 45.0778116], [15.8878958, 45.0779092], [15.8876754, 45.0779646], [15.8875521, 45.0782126], [15.8875259, 45.0784896], [15.8874363, 45.0786848], [15.887313, 45.0793153], [15.8872868, 45.0795448], [15.887384, 45.0797506], [15.8874288, 45.079864], [15.8874064, 45.0799484], [15.8872831, 45.0801173], [15.8872906, 45.0803336], [15.8873391, 45.080724], [15.8874176, 45.0809667], [15.8876081, 45.081096], [15.8877202, 45.0811408], [15.8877688, 45.0812727], [15.8878697, 45.0817476], [15.8877949, 45.0822567], [15.8877352, 45.0828529], [15.8877352, 45.0832512], [15.8875745, 45.0833804], [15.8873541, 45.0835783], [15.8870814, 45.0837049], [15.8868423, 45.0837919], [15.886521, 45.0838078], [15.8864537, 45.0838394], [15.8866069, 45.0840821], [15.8868198, 45.0843037], [15.8868946, 45.0845569], [15.8867713, 45.0846361], [15.886633, 45.0846783], [15.8868086, 45.0849025], [15.8869768, 45.0849843], [15.8873317, 45.0853615], [15.8874811, 45.0855699], [15.8876754, 45.0856279], [15.8878061, 45.0857202], [15.8878174, 45.0858521], [15.8879108, 45.0860077], [15.8877949, 45.0861185], [15.8874101, 45.0861475], [15.8872159, 45.0866434], [15.8871598, 45.086741], [15.8869693, 45.0867648], [15.8868161, 45.0866909], [15.8866779, 45.0867832], [15.8866667, 45.0868861], [15.8868572, 45.0869916], [15.8870179, 45.0870707], [15.8870365, 45.0871604], [15.8869954, 45.0874242], [15.886902, 45.0874796], [15.8867115, 45.0874532], [15.8866517, 45.087535], [15.8867115, 45.0876985], [15.8866928, 45.0878515], [15.8868497, 45.0880256], [15.8867862, 45.0886323], [15.886577, 45.089355], [15.8863902, 45.08993], [15.8863566, 45.0901146], [15.8865172, 45.0901779], [15.8866443, 45.0901383], [15.8867563, 45.0902148], [15.8867302, 45.0903467], [15.8867152, 45.0904338], [15.8869132, 45.0904971], [15.8869431, 45.0905946], [15.8870477, 45.0906078], [15.887171, 45.0905182], [15.8873242, 45.0905155], [15.8873504, 45.090687], [15.8874213, 45.0907951], [15.8875857, 45.0907977], [15.8876044, 45.0909191], [15.8874886, 45.0910984], [15.8874961, 45.0911907], [15.8876754, 45.0912593], [15.8877912, 45.0912619], [15.8878211, 45.0913437], [15.8877837, 45.0914387], [15.8876193, 45.0916576], [15.8874811, 45.0920321], [15.8872719, 45.0924066], [15.8875446, 45.0925411], [15.8886729, 45.0929368], [15.8889606, 45.0929236], [15.8893827, 45.0929499], [15.8898946, 45.092942], [15.8901449, 45.0928339], [15.8906754, 45.092491], [15.8910639, 45.092098], [15.8911461, 45.0918765], [15.8911536, 45.0916681], [15.8911984, 45.091349], [15.8914263, 45.0910378], [15.8916057, 45.0908637], [15.892181, 45.0904733], [15.8924201, 45.0902623], [15.8925322, 45.0899537], [15.8924836, 45.0895792], [15.8921773, 45.0886402], [15.8919793, 45.0882973], [15.8919905, 45.0880678], [15.8920465, 45.0874506], [15.8922109, 45.0869125], [15.8923902, 45.0865696], [15.8926592, 45.0862319], [15.8930216, 45.0860051], [15.893724, 45.0857413], [15.893851, 45.0856015], [15.8940266, 45.0853325], [15.8944488, 45.0849157], [15.8950764, 45.0845437], [15.8954298, 45.0841859], [15.8957002, 45.0839586], [15.8960006, 45.0838799], [15.8962667, 45.0839253], [15.8966143, 45.0839465], [15.8969876, 45.0841253], [15.8973353, 45.084195], [15.8976657, 45.0842374], [15.8979017, 45.0843435], [15.8989102, 45.0851464], [15.8991377, 45.0852586], [15.8993866, 45.0852858], [15.8996527, 45.0852555], [15.8998329, 45.0851646], [15.9005067, 45.0846828], [15.901026, 45.0844556], [15.9019875, 45.0840646], [15.9022364, 45.0840374], [15.9025454, 45.0840737], [15.9029102, 45.0842071], [15.9033522, 45.0844434], [15.9037042, 45.0845283], [15.9037385, 45.084304], [15.9038157, 45.0837435], [15.9037943, 45.0834768], [15.9036102, 45.0831407], [15.903769, 45.0824711], [15.9047732, 45.081362], [15.9046874, 45.0812377], [15.9045371, 45.0807165], [15.9046573, 45.0805074], [15.9044084, 45.0803468], [15.9045457, 45.0802135], [15.9053568, 45.079859], [15.9053955, 45.0797165], [15.9057817, 45.0795105], [15.9060606, 45.0794074], [15.9061937, 45.0792802], [15.9060478, 45.0784347], [15.906198, 45.0783316], [15.9064812, 45.0782801], [15.906846, 45.0782771], [15.9070262, 45.0781589], [15.9075369, 45.0781741], [15.9076743, 45.0780528], [15.9077343, 45.0778165], [15.9075283, 45.0772377], [15.9073138, 45.0769346], [15.9071292, 45.0766013], [15.9070538, 45.0764105], [15.9067063, 45.0758356], [15.9065179, 45.0753937], [15.9063785, 45.0749958], [15.9068282, 45.074953], [15.9073912, 45.0749462], [15.9082484, 45.0749972], [15.9086783, 45.0742261], [15.9089348, 45.0743087], [15.9090272, 45.0741913], [15.9094687, 45.0740369], [15.9096963, 45.0740185], [15.9099825, 45.0740645], [15.911303, 45.0740369], [15.9116608, 45.0738761], [15.9122657, 45.0735362], [15.9128511, 45.0728104], [15.9133325, 45.0727139], [15.9136772, 45.072544], [15.9141391, 45.072227], [15.9145554, 45.0720524], [15.9149131, 45.0717171], [15.9151733, 45.0714966], [15.9152319, 45.0713312], [15.9153875, 45.0713369], [15.9157327, 45.0713496], [15.9159344, 45.0715288], [15.9165003, 45.0710464], [15.9168646, 45.0708489], [15.9176777, 45.0705457], [15.9180614, 45.0703665], [15.9193884, 45.0701368], [15.9201104, 45.0700082], [15.9202926, 45.0698842], [15.9203641, 45.0696223], [15.9205964, 45.0694465], [15.9210437, 45.0694465], [15.92161, 45.0694425], [15.9219611, 45.0693265], [15.9220347, 45.0691945], [15.9222159, 45.0689746], [15.922516, 45.0687266], [15.9227142, 45.0686466], [15.9230823, 45.0686706], [15.9232126, 45.0678348], [15.923054, 45.0672068], [15.9230823, 45.0667629], [15.9232748, 45.066363], [15.9237675, 45.066091], [15.9244527, 45.065891], [15.9251662, 45.065627], [15.925959, 45.0654271], [15.9265422, 45.0654351], [15.9268593, 45.0650271], [15.927301, 45.0648151], [15.9276012, 45.0648231], [15.9276861, 45.0644632], [15.927771, 45.0639512], [15.9282977, 45.0640592], [15.9284732, 45.0641512], [15.9286318, 45.0643232], [15.9287337, 45.0646031], [15.9286997, 45.0648511], [15.9289602, 45.0646471], [15.9290168, 45.0644552], [15.9290395, 45.0642672], [15.9289092, 45.0638672], [15.9287337, 45.0633753], [15.9287337, 45.0631273], [15.9288017, 45.0629033], [15.9287677, 45.0627353], [15.928796, 45.0625673], [15.9289715, 45.0624113], [15.9295661, 45.0623513], [15.9310724, 45.0624473], [15.9312366, 45.0623193], [15.9323239, 45.0620193], [15.9319048, 45.0615354], [15.932573, 45.0613354], [15.9323578, 45.0611234], [15.9319445, 45.0607394], [15.9328845, 45.0602754], [15.933094, 45.0604754], [15.9338358, 45.0610194], [15.9343568, 45.0613794], [15.9347305, 45.0616194], [15.9348777, 45.0618073], [15.9349174, 45.0620313], [15.9351835, 45.0619513], [15.9356875, 45.0615914], [15.9361519, 45.0612994], [15.9368314, 45.0608834], [15.9369503, 45.0604914], [15.9367691, 45.0603594], [15.9368993, 45.0600114], [15.9367804, 45.0595034], [15.9369578, 45.0589481], [15.9370758, 45.0587435], [15.9376229, 45.0589572], [15.9378719, 45.059036], [15.9386207, 45.0590406], [15.9391207, 45.0590542], [15.9394104, 45.0591406], [15.9397344, 45.0594362], [15.9398781, 45.0594801], [15.9398981, 45.0594801], [15.9399339, 45.0594801], [15.9400498, 45.0594407], [15.9401099, 45.0593482], [15.9401228, 45.0592543], [15.9401485, 45.0592133], [15.9402, 45.0592255], [15.9403052, 45.0592967], [15.9405742, 45.0591271], [15.9421732, 45.0582932], [15.9425393, 45.0577865], [15.9439087, 45.0568667], [15.944436, 45.0566709], [15.9446334, 45.0567656], [15.9448156, 45.0567568], [15.9449979, 45.0565961], [15.9452484, 45.0565388], [15.9452466, 45.0566761], [15.9453437, 45.0567245], [15.9455743, 45.0568732], [15.9455238, 45.0570542], [15.9459345, 45.0571902], [15.9460522, 45.0574169], [15.94626, 45.0580642], [15.9463084, 45.0586568], [15.9461807, 45.0589782], [15.9463539, 45.0590999], [15.9470716, 45.0591105], [15.9475882, 45.0591974], [15.9483676, 45.0595286], [15.9488945, 45.0596618], [15.9490151, 45.0598134], [15.9494469, 45.0598634], [15.9494728, 45.0599933], [15.9497767, 45.0599178], [15.949856, 45.0598555], [15.9500349, 45.0597658], [15.9503104, 45.0598887], [15.9504295, 45.0598742], [15.9505826, 45.0599], [15.9506123, 45.0597674], [15.9507357, 45.0597407], [15.950962, 45.0597247], [15.9511145, 45.0595749], [15.9509482, 45.0593795], [15.9511853, 45.0592693], [15.9516446, 45.0592548], [15.9521466, 45.0593718], [15.9523932, 45.0594575], [15.9524696, 45.0593642], [15.9527144, 45.0592378], [15.9540909, 45.0594235], [15.954728, 45.0597143], [15.9551229, 45.0599621], [15.9552427, 45.0598737], [15.9555216, 45.0598712], [15.9556554, 45.0599645], [15.9558861, 45.059912], [15.9559203, 45.0597802], [15.9562163, 45.0596287], [15.9564187, 45.0596981], [15.9565899, 45.0598386], [15.9568001, 45.0597715], [15.9570606, 45.059863], [15.9572754, 45.0598897], [15.9572802, 45.0599996], [15.9573842, 45.0600845], [15.957649, 45.0600739], [15.9578382, 45.0599676], [15.9578548, 45.059815], [15.9579093, 45.0596501], [15.9577986, 45.0595457], [15.9578323, 45.0594471], [15.9583585, 45.0593341], [15.9585073, 45.0594295], [15.9584872, 45.0595989], [15.9585833, 45.0596735], [15.9587112, 45.0596408], [15.9588392, 45.0595428], [15.9590928, 45.0594689], [15.9600492, 45.05963], [15.9609231, 45.0599376], [15.9617547, 45.0600039], [15.9620276, 45.0601597], [15.9623058, 45.0601514], [15.9625551, 45.0602266], [15.9627393, 45.0602288], [15.9627892, 45.0603228], [15.9629337, 45.0603855], [15.9631406, 45.0607178], [15.9632388, 45.0608881], [15.9634384, 45.0609855], [15.9635817, 45.0610306], [15.963666, 45.0609721], [15.9638095, 45.0609674], [15.9639008, 45.0610476], [15.964044, 45.0610556], [15.9641023, 45.0611198], [15.9640329, 45.0612736], [15.9640715, 45.0613705], [15.9639875, 45.0615389], [15.9639478, 45.0617153], [15.9640489, 45.0618177], [15.9626651, 45.0673445], [15.9660327, 45.0709122], [15.972768, 45.0756687], [15.9744518, 45.0776504], [15.9761357, 45.0835953], [15.9783808, 45.0879544], [15.9806259, 45.0907283], [15.9803278, 45.0974615], [15.9800646, 45.103407], [15.9823097, 45.1065762], [15.9879225, 45.1081607], [15.9884837, 45.1093491], [15.9901676, 45.1117258], [15.9912901, 45.1160828], [15.9912901, 45.1216276], [15.9901676, 45.1240038], [15.9929739, 45.1255879], [15.9957803, 45.1267759], [15.9974641, 45.1275679], [15.9997092, 45.1263799], [16.0008318, 45.1247958], [16.0047607, 45.1255879], [16.0092509, 45.1271719], [16.011496, 45.1283599], [16.015425, 45.1303398], [16.0171088, 45.1303398], [16.0187926, 45.1287559], [16.0260892, 45.1263799], [16.0300181, 45.1263799], [16.0328245, 45.1271719], [16.0367534, 45.1259839], [16.0373147, 45.1247958], [16.0389985, 45.1228157], [16.0434887, 45.1180632], [16.0462951, 45.1141024], [16.0451726, 45.1113297], [16.0446113, 45.1097452], [16.0457339, 45.1073685], [16.0485402, 45.1065762], [16.0524692, 45.1065762], [16.0558368, 45.1073685], [16.0597657, 45.1077646], [16.0636947, 45.1077646], [16.0676236, 45.1073685], [16.0681849, 45.1069723], [16.0693074, 45.1065762], [16.07043, 45.1057839], [16.0721138, 45.1049916], [16.0732364, 45.1030108], [16.0743589, 45.1014261], [16.0743589, 45.1002375], [16.0732364, 45.0998414], [16.0732364, 45.097068], [16.0737976, 45.0942944], [16.0754815, 45.0927095], [16.0760427, 45.0907283], [16.0771653, 45.0899358], [16.0794104, 45.0891432], [16.0878295, 45.0899358], [16.0895134, 45.090332], [16.0917585, 45.0927095], [16.0945648, 45.0931057], [16.099055, 45.0946907], [16.1018614, 45.0950869], [16.1051591, 45.0958272], [16.1047401, 45.0963971], [16.1044488, 45.0970382], [16.1040461, 45.0972318], [16.1040289, 45.0977822], [16.1038834, 45.0978778], [16.1036664, 45.0980205], [16.1032835, 45.0982722], [16.1028, 45.0996169], [16.1024669, 45.099686], [16.1018493, 45.0998141], [16.1013974, 45.0999078], [16.0995322, 45.1009525], [16.0977285, 45.1014424], [16.0970654, 45.102262], [16.096641, 45.1024983], [16.0961739, 45.1030114], [16.0961098, 45.1030819], [16.0956681, 45.1039906], [16.0950032, 45.1039499], [16.0921903, 45.1038708], [16.0899516, 45.1043494], [16.0893184, 45.1049742], [16.088761, 45.1059749], [16.0877673, 45.1079248], [16.0865229, 45.1089666], [16.0844049, 45.1106074], [16.0848384, 45.1115689], [16.0844271, 45.1120648], [16.0850552, 45.1132482], [16.0853989, 45.1139091], [16.0856724, 45.1150577], [16.0855399, 45.1168664], [16.0854985, 45.1173886], [16.0847835, 45.1184575], [16.0851592, 45.1188423], [16.0849282, 45.1194924], [16.0848683, 45.1196717], [16.0862866, 45.1209503], [16.0852256, 45.1220651], [16.085884, 45.1242923], [16.0857851, 45.1256091], [16.0854525, 45.1262405], [16.0848184, 45.1268208], [16.0850583, 45.1274738], [16.0845837, 45.1281814], [16.0849674, 45.1287688], [16.0846899, 45.1307046], [16.0856801, 45.1314045], [16.0858132, 45.1318335], [16.084851, 45.1330142], [16.0838986, 45.1342708], [16.0836392, 45.1346131], [16.0826382, 45.1347977], [16.0818807, 45.1360988], [16.0819556, 45.1368687], [16.0819955, 45.1372787], [16.0818118, 45.1374641], [16.0812552, 45.1380256], [16.0811062, 45.1382204], [16.0804876, 45.1390292], [16.0799837, 45.1394318], [16.0796264, 45.1397173], [16.0794737, 45.1398393], [16.079096, 45.140376], [16.0780869, 45.1422387], [16.0771871, 45.1425629], [16.0767013, 45.1425651], [16.074942, 45.143568], [16.0740362, 45.1443983], [16.0733753, 45.1448273], [16.0724202, 45.1457129], [16.0723628, 45.1457249], [16.072252, 45.1457482], [16.0708154, 45.14605], [16.0706532, 45.1472412], [16.0702752, 45.1474586], [16.0698719, 45.147946], [16.0697887, 45.1480465], [16.0697938, 45.1482849], [16.0694612, 45.1486443], [16.0683199, 45.1497035], [16.0671768, 45.1508318], [16.0664859, 45.1511299], [16.0663379, 45.1511693], [16.0661271, 45.1512254], [16.0656771, 45.1513363], [16.0653555, 45.1514309], [16.0651137, 45.1519382], [16.0648915, 45.152416], [16.0647295, 45.1527994], [16.0644229, 45.152747], [16.0641112, 45.1534991], [16.0637875, 45.1533661], [16.0634166, 45.153785], [16.0631437, 45.1540931], [16.063026, 45.154226], [16.0628635, 45.1541831], [16.0625387, 45.1546063], [16.0623901, 45.1548001], [16.0617985, 45.1555167], [16.0613414, 45.1558314], [16.0605099, 45.1560455], [16.0598104, 45.1572924], [16.0594925, 45.1573654], [16.0577033, 45.1576404], [16.0566529, 45.1579612], [16.0531764, 45.1628726], [16.0510327, 45.1680113], [16.0516097, 45.1715831], [16.0471519, 45.1718849], [16.0464079, 45.1726939], [16.046462, 45.1738878], [16.0462698, 45.174989], [16.0462121, 45.1753195], [16.0468671, 45.1756492], [16.0473322, 45.1760584], [16.04769, 45.1762846], [16.0478879, 45.1764097], [16.0479458, 45.1768351], [16.0482146, 45.1770942], [16.0487029, 45.1787101], [16.0483208, 45.1785602], [16.0474636, 45.1791342], [16.0465114, 45.1791593], [16.0462031, 45.179604], [16.0457306, 45.179661], [16.0451499, 45.1796428], [16.0441173, 45.1794333], [16.0438861, 45.1794942], [16.0437134, 45.179691], [16.0431219, 45.1802916], [16.0415837, 45.1800945], [16.0391215, 45.1797414], [16.0376076, 45.179907], [16.0365176, 45.1802692], [16.034875, 45.1804644], [16.032888, 45.1804833], [16.0300642, 45.1810542], [16.0275601, 45.1806746], [16.0224091, 45.1809158], [16.0212025, 45.1807038], [16.0204602, 45.1805733], [16.0200123, 45.1804946], [16.0177526, 45.1794969], [16.0175941, 45.1795002], [16.0168145, 45.1795229], [16.0156618, 45.1798926], [16.0155348, 45.1812188], [16.0154138, 45.1815904], [16.0146936, 45.1827959], [16.0146719, 45.1832773], [16.0152443, 45.1837834], [16.0160681, 45.1841435], [16.0165019, 45.1843776], [16.0168513, 45.1848471], [16.0174118, 45.1854316], [16.0181828, 45.1859164], [16.0190359, 45.1871467], [16.0200124, 45.1884932], [16.0216068, 45.1889836], [16.0221812, 45.1892498], [16.0232438, 45.1906148], [16.0238039, 45.1913344], [16.0251117, 45.1921087], [16.0253875, 45.1930878], [16.0256038, 45.1934015], [16.0258535, 45.1937634], [16.026323, 45.1944442], [16.0267769, 45.1957219], [16.0269995, 45.1962309], [16.0272952, 45.1969071], [16.0275171, 45.1974147], [16.027648, 45.1980044], [16.0296189, 45.1989812], [16.030045, 45.2000763], [16.0304063, 45.2010048], [16.0304493, 45.2011153], [16.0296644, 45.2011353], [16.0252194, 45.2012486], [16.0236269, 45.2012741], [16.022761, 45.2011001], [16.0222686, 45.2016112], [16.0217472, 45.2020338], [16.0207773, 45.2035695], [16.0207792, 45.203897], [16.0207698, 45.204302], [16.0202516, 45.2052383], [16.0200043, 45.2055947], [16.020135, 45.2058023], [16.0208755, 45.206978], [16.020545, 45.20874], [16.0195998, 45.2089531], [16.019404, 45.209681], [16.0183408, 45.2098934], [16.017601, 45.2100736], [16.017225, 45.2103057], [16.0171002, 45.2103285], [16.0174845, 45.2107296], [16.0170366, 45.211154], [16.0172318, 45.2118222], [16.0165489, 45.2136519], [16.0164887, 45.2138131], [16.0161205, 45.2147998], [16.0160037, 45.2151127], [16.0155941, 45.21621], [16.0154625, 45.2164667], [16.0150094, 45.2173503], [16.0149317, 45.2175564], [16.0148154, 45.2177822], [16.0146821, 45.2179885], [16.0141548, 45.2176883], [16.0137784, 45.2176719], [16.012921, 45.2176346], [16.0109281, 45.2188098], [16.0106814, 45.2188608], [16.0102747, 45.2187992], [16.0063984, 45.2169023], [16.0042998, 45.2173357], [16.0025801, 45.2188302], [16.0007404, 45.2204521], [16.0006332, 45.2207979], [16.0002706, 45.2218765], [15.9909402, 45.223127], [15.9885493, 45.2238579], [15.9862008, 45.2250621], [15.9848691, 45.226631], [15.982285, 45.2285328], [15.9807677, 45.2289119], [15.9799056, 45.2297651], [15.9771795, 45.2301771], [15.9769701, 45.2300211], [15.9760472, 45.2293338], [15.9753584, 45.2294098], [15.9742615, 45.2289877], [15.9728265, 45.2288432], [15.9719983, 45.2279932], [15.9712884, 45.2277599], [15.9705076, 45.2269767], [15.9693369, 45.225744], [15.9695399, 45.2256243], [15.966813, 45.2235767], [15.9659971, 45.2218243], [15.9626256, 45.221106], [15.9572092, 45.2207767], [15.9549845, 45.2185752], [15.9536628, 45.2172673], [15.9476816, 45.2157022], [15.9463931, 45.2144097], [15.9445878, 45.2132912], [15.9422495, 45.2140551], [15.9403799, 45.2147214], [15.9363828, 45.213973], [15.935094, 45.2134878], [15.9341828, 45.2136008], [15.9308287, 45.212728], [15.929903, 45.2123526], [15.9291736, 45.2113678], [15.9289329, 45.2110286], [15.9277852, 45.2108605], [15.9269717, 45.2111372], [15.9267894, 45.2115522], [15.9273083, 45.2125897], [15.9273364, 45.2142891], [15.9268735, 45.2147535], [15.925485, 45.2145559], [15.9245874, 45.2140125], [15.9239141, 45.2126687], [15.9227079, 45.2116115], [15.9220728, 45.2117346], [15.9213597, 45.2120145], [15.9211267, 45.2124883], [15.9218804, 45.2141508], [15.9228239, 45.2152212], [15.9235354, 45.2162355], [15.9239279, 45.2173747], [15.9243239, 45.2178649], [15.9248265, 45.2183735], [15.9254708, 45.2186478], [15.926023, 45.2191515], [15.9262672, 45.2196588], [15.9263699, 45.2208222], [15.9263531, 45.2219877], [15.9264286, 45.2238221], [15.9263487, 45.2242929], [15.9257423, 45.2254175], [15.9246747, 45.2269029], [15.92402, 45.2273179], [15.9232619, 45.2275541], [15.9221149, 45.228307], [15.9219023, 45.2284216], [15.9214211, 45.228681], [15.9211571, 45.2292222], [15.9209397, 45.229733], [15.9212795, 45.2302366], [15.9214371, 45.2306303], [15.9213078, 45.2307801], [15.9204975, 45.2307465], [15.9199842, 45.2309627], [15.9191448, 45.2311078], [15.9192816, 45.2309104], [15.9196665, 45.2306561], [15.9195609, 45.230464], [15.9175171, 45.230521], [15.9166385, 45.230592], [15.9162906, 45.2305884], [15.9160924, 45.2304956], [15.9159196, 45.2302479], [15.9158716, 45.2293517], [15.91593, 45.2290304], [15.9162773, 45.2286569], [15.9167356, 45.2284124], [15.9169968, 45.2284694], [15.9172845, 45.2285716], [15.917517, 45.2287036], [15.9184974, 45.2291047], [15.9187311, 45.2290881], [15.9192628, 45.228859], [15.9193008, 45.2286238], [15.9190943, 45.2283484], [15.9181527, 45.2279064], [15.9179109, 45.2277461], [15.9175721, 45.227222], [15.9173825, 45.2271406], [15.916685, 45.2265503], [15.9157896, 45.2262445], [15.9154798, 45.2260056], [15.9151277, 45.2253618], [15.9148214, 45.2252086], [15.9139032, 45.2249261], [15.9137431, 45.2247811], [15.9134329, 45.2247194], [15.9127381, 45.2249177], [15.9122681, 45.2250768], [15.9118707, 45.2259422], [15.9117868, 45.2260438], [15.9114125, 45.2261241], [15.9112356, 45.2260873], [15.910997, 45.2259524], [15.9109975, 45.2256552], [15.9116536, 45.225339], [15.9117639, 45.2248834], [15.911552, 45.2246631], [15.9106216, 45.2243983], [15.9102432, 45.2243412], [15.9093265, 45.2244422], [15.9090662, 45.2244956], [15.9088518, 45.2246353], [15.9087817, 45.2248229], [15.9088726, 45.22531], [15.9087444, 45.2255482], [15.9084509, 45.2256296], [15.9081201, 45.225602], [15.9077785, 45.2253913], [15.9076874, 45.2251842], [15.907476, 45.2249468], [15.9069261, 45.2249503], [15.9065939, 45.2252483], [15.9064892, 45.2257897], [15.9062786, 45.225798], [15.906071, 45.2257092], [15.9053907, 45.2257451], [15.9050285, 45.2259627], [15.9050796, 45.226152], [15.9050838, 45.2268379], [15.9049197, 45.2271956], [15.9045142, 45.2275154], [15.9032506, 45.2275827], [15.9027994, 45.2275246], [15.9021712, 45.2277098], [15.9012458, 45.2278277], [15.9006047, 45.2279041], [15.9001636, 45.2277776], [15.8998124, 45.2276182], [15.8990603, 45.2273386], [15.8984579, 45.2271984], [15.8977731, 45.227114], [15.8973191, 45.2268731], [15.8966189, 45.2267542], [15.8961964, 45.2268281], [15.8956798, 45.2278949], [15.8954114, 45.2287767], [15.8949379, 45.2291984], [15.8943934, 45.2292932], [15.8930024, 45.2292901], [15.8918174, 45.2291584], [15.8915908, 45.2288865], [15.8910681, 45.22741], [15.8911079, 45.2268791], [15.8907192, 45.226622], [15.8899275, 45.226599], [15.8890874, 45.2265637], [15.8885237, 45.2264811], [15.8880104, 45.2263364], [15.8874905, 45.226172], [15.8873264, 45.2261], [15.8873851, 45.225624], [15.8878905, 45.2249183], [15.8884752, 45.2241597], [15.889039, 45.2237851], [15.8905395, 45.2230472], [15.8920367, 45.2224697], [15.8930929, 45.2220418], [15.8936057, 45.2218567], [15.8941936, 45.2214815], [15.8942648, 45.2211542], [15.8943665, 45.2202256], [15.8943848, 45.2200249], [15.8946472, 45.2198608], [15.8949024, 45.219193], [15.894922, 45.2190325], [15.8948049, 45.2189141], [15.8940419, 45.2188511], [15.8934971, 45.2187791], [15.8932897, 45.2186105], [15.8933567, 45.2184149], [15.8938148, 45.2182992], [15.8940545, 45.2181926], [15.8941548, 45.2180252], [15.8940945, 45.217637], [15.8938933, 45.2171363], [15.8939316, 45.2169092], [15.8939621, 45.2167289], [15.8937722, 45.2166115], [15.8929615, 45.2168469], [15.8926378, 45.2168574], [15.8925921, 45.2168689], [15.8923857, 45.216921], [15.8923485, 45.2169304], [15.8922716, 45.2169858], [15.8916748, 45.2174156], [15.8914446, 45.2175735], [15.891226, 45.2175711], [15.8909465, 45.2174321], [15.8905127, 45.2167959], [15.8902435, 45.216401], [15.8898965, 45.2161715], [15.8895443, 45.2160394], [15.8892533, 45.2160553], [15.889055, 45.2164645], [15.8890479, 45.2167602], [15.8890333, 45.2173635], [15.8893051, 45.2177886], [15.8895897, 45.2180993], [15.8899316, 45.2184261], [15.8900169, 45.2185735], [15.8899146, 45.2186724], [15.8895989, 45.2186771], [15.8893286, 45.2185725], [15.8889573, 45.218618], [15.8884766, 45.2190602], [15.8882772, 45.2191604], [15.8878036, 45.2192992], [15.8874446, 45.219482], [15.8867761, 45.2198754], [15.8860993, 45.2199885], [15.8857057, 45.2195594], [15.8855277, 45.219562], [15.8851062, 45.2198202], [15.884888, 45.2198349], [15.8845375, 45.21976], [15.8840426, 45.2194583], [15.8837105, 45.2191828], [15.8837573, 45.2183064], [15.8835908, 45.2181543], [15.8833581, 45.2181976], [15.8827594, 45.218317], [15.882307, 45.2182649], [15.8819188, 45.2183101], [15.8812716, 45.2184749], [15.880972, 45.2186632], [15.8808015, 45.2189087], [15.8808087, 45.2192629], [15.8810258, 45.2197375], [15.8813, 45.2199378], [15.8814206, 45.2202693], [15.8810638, 45.2206174], [15.8807726, 45.2206743], [15.8803442, 45.2206622], [15.8798593, 45.2205701], [15.8789786, 45.2203576], [15.8788819, 45.2202146], [15.8796109, 45.2197241], [15.8798633, 45.2190446], [15.8797182, 45.2188444], [15.8792332, 45.2188152], [15.878504, 45.2194198], [15.8778488, 45.2195961], [15.8772264, 45.2195154], [15.8769681, 45.2193322], [15.8767182, 45.2190518], [15.8766058, 45.2187661], [15.8765181, 45.2183144], [15.8760496, 45.2181539], [15.8756048, 45.2182275], [15.8752322, 45.2184556], [15.8749485, 45.2187752], [15.875181, 45.2195126], [15.8752036, 45.2201125], [15.8750011, 45.2202209], [15.8744354, 45.2201402], [15.8741528, 45.2200083], [15.8737089, 45.2197392], [15.8733449, 45.2197615], [15.872949, 45.2196467], [15.8726905, 45.2196063], [15.8722472, 45.2197581], [15.8720594, 45.2198226], [15.8720185, 45.2199712], [15.8721476, 45.2200399], [15.8724465, 45.2201431], [15.8726077, 45.2203263], [15.8724453, 45.2205888], [15.8721538, 45.220737], [15.8718142, 45.220765], [15.8714505, 45.2207075], [15.870651, 45.2203749], [15.8701496, 45.2203188], [15.8690991, 45.2202014], [15.8678872, 45.2199197], [15.8676286, 45.2199021], [15.8674047, 45.2199829], [15.867266, 45.220033], [15.8670296, 45.2201185], [15.8665447, 45.2201006], [15.8657776, 45.219768], [15.8647676, 45.2195152], [15.862514, 45.2187863], [15.8615611, 45.2184135], [15.8597202, 45.2176566], [15.8583876, 45.2171231], [15.8573211, 45.2169101], [15.8566744, 45.216932], [15.8563019, 45.2171143], [15.8558699, 45.2182793], [15.855441, 45.2184159], [15.85485, 45.218672], [15.8546918, 45.2188015], [15.8541342, 45.2191395], [15.8533988, 45.219552], [15.8531399, 45.2196037], [15.8527356, 45.2197071], [15.8518538, 45.2197995], [15.8517974, 45.2199654], [15.8521782, 45.2201822], [15.8523569, 45.2205309], [15.8515564, 45.2208519], [15.8509664, 45.2211899], [15.850272, 45.221934], [15.8498849, 45.2226206], [15.8495455, 45.2229011], [15.8490691, 45.2233647], [15.8483821, 45.2238343], [15.8474607, 45.224407], [15.8466599, 45.2246194], [15.8455599, 45.2249178], [15.8441602, 45.2250048], [15.8426051, 45.2249579], [15.8421617, 45.2249445], [15.8421371, 45.2249437], [15.8414486, 45.2246127], [15.8407039, 45.2244359], [15.8402151, 45.2244046], [15.8402091, 45.2244042], [15.8400406, 45.2243927], [15.8388791, 45.2243133], [15.8382447, 45.2240744], [15.8377425, 45.2236588], [15.837269, 45.2231962], [15.835611, 45.2219836], [15.8349777, 45.221653], [15.8337292, 45.2212261], [15.8332552, 45.2209639], [15.8328933, 45.2206859], [15.8324723, 45.2202727], [15.8324569, 45.2195519], [15.8326793, 45.2192855], [15.8325334, 45.2189704], [15.8320847, 45.2188275], [15.8316248, 45.2188511], [15.8314507, 45.2188006], [15.8311793, 45.2186449], [15.830395, 45.2185609], [15.8289663, 45.2189426], [15.8284851, 45.219007], [15.8280916, 45.2189477], [15.827693, 45.2189289], [15.8272786, 45.2188074], [15.8270456, 45.2184156], [15.8268392, 45.2173184], [15.8270727, 45.2168799], [15.827765, 45.2160915], [15.8285514, 45.2154713], [15.8289601, 45.2152036], [15.8291828, 45.2151491], [15.8301237, 45.2146432], [15.8306874, 45.2141804], [15.8310469, 45.2138], [15.8313844, 45.2132429], [15.8315483, 45.2131622], [15.8316839, 45.213031], [15.8319607, 45.2127338], [15.8319128, 45.2125353], [15.8316515, 45.2122993], [15.8313527, 45.2118927], [15.8312442, 45.2114332], [15.8311802, 45.2112353], [15.8310063, 45.2110816], [15.8301503, 45.2109086], [15.8297565, 45.2108437], [15.829133, 45.2106388], [15.8286403, 45.2102398], [15.8282076, 45.2096725], [15.8280157, 45.2090786], [15.8274849, 45.2083949], [15.827155, 45.2081099], [15.826818, 45.2076305], [15.8266739, 45.2073383], [15.8259073, 45.2069955], [15.8256321, 45.2069974], [15.824801, 45.20681], [15.8244697, 45.2066729], [15.8241692, 45.2062521], [15.8240341, 45.2059337], [15.8238657, 45.2059528], [15.8237246, 45.2061024], [15.8234232, 45.2063205], [15.8230451, 45.2064267], [15.8224199, 45.2064853], [15.8221387, 45.2063478], [15.821693, 45.2063375], [15.8217518, 45.2068365], [15.8219606, 45.2070195], [15.8226039, 45.2071634], [15.8227166, 45.207257], [15.8226997, 45.2073517], [15.8221959, 45.2075622], [15.821857, 45.2078347], [15.8217797, 45.2081052], [15.8215702, 45.2083137], [15.8211765, 45.2084335], [15.8208113, 45.2083237], [15.8207332, 45.2080317], [15.8212653, 45.2078524], [15.8213427, 45.2076494], [15.8206379, 45.2072765], [15.8202214, 45.2073515], [15.8202752, 45.2076121], [15.820271, 45.2077606], [15.8201215, 45.2078246], [15.8196174, 45.2075178], [15.8192294, 45.2073677], [15.8188529, 45.2076313], [15.818613, 45.207705], [15.8182218, 45.2077258], [15.8181317, 45.2078344], [15.8182464, 45.2079416], [15.8186124, 45.2081145], [15.8187772, 45.2082348], [15.8189083, 45.2084948], [15.8188433, 45.2086797], [15.818507, 45.2087496], [15.8181929, 45.2086034], [15.8180968, 45.2083836], [15.8176128, 45.2082611], [15.8174143, 45.2082896], [15.8169245, 45.2089139], [15.8170499, 45.20984], [15.8167931, 45.2101342], [15.8165832, 45.2101987], [15.816497, 45.2101319], [15.8164947, 45.2098484], [15.8164005, 45.2097771], [15.815642, 45.2097556], [15.815404, 45.2099102], [15.8154564, 45.2099729], [15.8157531, 45.2102946], [15.8157727, 45.2104386], [15.8157097, 45.2105425], [15.8151906, 45.2109107], [15.8149932, 45.2109615], [15.8145429, 45.2109062], [15.8144552, 45.2107854], [15.8145274, 45.2104339], [15.8146792, 45.2101449], [15.8146262, 45.2100508], [15.8139128, 45.2098579], [15.8136381, 45.2098913], [15.8135589, 45.2099729], [15.8134806, 45.2104009], [15.8133393, 45.2104199], [15.813151, 45.2103853], [15.8130016, 45.2103953], [15.8126998, 45.2105549], [15.8125522, 45.210574], [15.8123848, 45.2105078], [15.8123113, 45.2103147], [15.8120302, 45.2100198], [15.8116016, 45.2098744], [15.8114587, 45.2098979], [15.8110772, 45.2101481], [15.8106339, 45.2102502], [15.8104321, 45.2102112], [15.8102171, 45.2101452], [15.8100656, 45.2099528], [15.8100485, 45.2097639], [15.8099415, 45.2094588], [15.8097518, 45.2093746], [15.8093899, 45.2090982], [15.8092259, 45.2090409], [15.8089425, 45.2089664], [15.8087893, 45.2088865], [15.8086905, 45.2087702], [15.8086843, 45.2087792], [15.8085056, 45.2086815], [15.8081291, 45.2082837], [15.8077231, 45.2081607], [15.8074584, 45.208068], [15.8071264, 45.2081019], [15.8066754, 45.2083346], [15.8064454, 45.2083811], [15.8059489, 45.2085557], [15.8056041, 45.208702], [15.8051499, 45.2087683], [15.8049345, 45.2086123], [15.8051632, 45.2080753], [15.8059921, 45.2073855], [15.8061803, 45.2071367], [15.806237, 45.2069248], [15.8066549, 45.2067239], [15.8071117, 45.2064417], [15.8076918, 45.2061766], [15.8077966, 45.2061624], [15.8078956, 45.2062877], [15.808071, 45.2063719], [15.808643, 45.2062013], [15.8088286, 45.20611], [15.8088634, 45.2059838], [15.809215, 45.2058599], [15.8095129, 45.2056642], [15.8094624, 45.2055792], [15.8092032, 45.2053155], [15.8086974, 45.2051077], [15.808419, 45.2051636], [15.8080049, 45.2051351], [15.8075307, 45.2050169], [15.8073256, 45.2048654], [15.8071292, 45.2046508], [15.8068724, 45.2044366], [15.806025, 45.2041997], [15.8055674, 45.2041984], [15.8052693, 45.2039845], [15.8051371, 45.203972], [15.8050612, 45.204346], [15.8049431, 45.2043873], [15.8044482, 45.2043683], [15.804149, 45.2042579], [15.8042639, 45.2041131], [15.8044043, 45.2038692], [15.8043077, 45.2034424], [15.8038128, 45.2031489], [15.8036623, 45.2033749], [15.8036709, 45.2035864], [15.8035991, 45.2037398], [15.8034084, 45.2038132], [15.803154, 45.2038284], [15.8026633, 45.2035575], [15.8030215, 45.2031815], [15.8030427, 45.2029294], [15.8027718, 45.2028998], [15.802472, 45.2029154], [15.8022873, 45.2027367], [15.802179, 45.2025575], [15.8014952, 45.2020179], [15.8011659, 45.2012868], [15.801119, 45.2010577], [15.801167, 45.2007424], [15.8013259, 45.2005523], [15.801378, 45.2001829], [15.8013442, 45.1990313], [15.8016293, 45.1985433], [15.8015491, 45.1981615], [15.8008458, 45.197298], [15.8007232, 45.1972944], [15.8003682, 45.1976119], [15.8002717, 45.1975406], [15.8001495, 45.197285], [15.7993975, 45.1969213], [15.7992273, 45.1969315], [15.7990101, 45.1972074], [15.7986555, 45.1973944], [15.7985747, 45.197305], [15.7986976, 45.1969937], [15.7984615, 45.1967748], [15.7980834, 45.1969215], [15.7978153, 45.1968694], [15.7974151, 45.1966291], [15.7971151, 45.1962938], [15.7970678, 45.1960422], [15.7966403, 45.1956088], [15.7962351, 45.1954226], [15.7960386, 45.1951359], [15.7960385, 45.1950145], [15.795933, 45.1949792], [15.7958654, 45.1948582], [15.7953926, 45.194794], [15.7952243, 45.1948627], [15.795021, 45.1948956], [15.7948766, 45.1950361], [15.7946826, 45.19515], [15.7944975, 45.1952818], [15.7943819, 45.19526], [15.7944176, 45.1950843], [15.7943177, 45.195058], [15.7941888, 45.1951669], [15.7940829, 45.1951001], [15.7938088, 45.1951245], [15.7936427, 45.1950762], [15.7935186, 45.1951311], [15.7933431, 45.1952717], [15.7931973, 45.1953628], [15.7929149, 45.1953692], [15.7926785, 45.1954743], [15.7925734, 45.1954706], [15.7924612, 45.1953994], [15.7921753, 45.1953789], [15.7918957, 45.1954753], [15.7916657, 45.1954049], [15.7915643, 45.1954281], [15.7914245, 45.1952761], [15.7913714, 45.1953439], [15.7912817, 45.195358], [15.7910867, 45.195121], [15.7909628, 45.1951308], [15.7907778, 45.1949836], [15.7906903, 45.1948223], [15.7904895, 45.1947291], [15.7904613, 45.1946528], [15.7903484, 45.1945412], [15.7901997, 45.1944747], [15.7901913, 45.1943353], [15.789928, 45.1942831], [15.7898131, 45.1941984], [15.7896439, 45.1942086], [15.7891133, 45.1939873], [15.7890126, 45.1940015], [15.788536, 45.1937663], [15.7883881, 45.1937088], [15.7882983, 45.1937229], [15.7881593, 45.1936655], [15.7880239, 45.1937158], [15.7879697, 45.1936577], [15.7879816, 45.1935947], [15.7878792, 45.1935504], [15.7877897, 45.193407], [15.7876465, 45.1934035], [15.7874915, 45.1933596], [15.7874367, 45.1932429], [15.7872908, 45.1932755], [15.7872245, 45.1932624], [15.7871186, 45.1931372], [15.7870088, 45.1930705], [15.7870507, 45.1929982], [15.7868902, 45.1928958], [15.7868176, 45.1927073], [15.7866443, 45.192659], [15.786637, 45.1925331], [15.786558, 45.1925112], [15.7864295, 45.1925975], [15.7863489, 45.19258], [15.7863857, 45.1924763], [15.7862776, 45.1924231], [15.786312, 45.1923329], [15.7862537, 45.1922028], [15.7861289, 45.1921946], [15.786128, 45.1923072], [15.7858715, 45.1923359], [15.785723, 45.1921255], [15.7854156, 45.1920376], [15.7852679, 45.1919396], [15.7853538, 45.1918265], [15.7852009, 45.1918186], [15.7851445, 45.1917559], [15.7850314, 45.1917568], [15.7849868, 45.1917975], [15.7848655, 45.1917759], [15.7848203, 45.1916727], [15.7848721, 45.1916139], [15.7847479, 45.1914392], [15.784745, 45.1913403], [15.7848282, 45.1913217], [15.7847649, 45.1908272], [15.7848377, 45.1907322], [15.7847332, 45.1906564], [15.7845502, 45.1906532], [15.784394, 45.1905688], [15.7844199, 45.1904966], [15.7842621, 45.1904662], [15.7843396, 45.1903757], [15.7844169, 45.1903302], [15.7841716, 45.1900753], [15.7840915, 45.1899229], [15.7841591, 45.1898055], [15.784097, 45.1897429], [15.7839928, 45.1895682], [15.7838316, 45.1895243], [15.7838191, 45.1894254], [15.7837231, 45.1894395], [15.7836384, 45.1893546], [15.7837766, 45.1893492], [15.7838266, 45.1892814], [15.7838451, 45.1891867], [15.783948, 45.189141], [15.7839375, 45.1890196], [15.7838271, 45.1890294], [15.7837101, 45.1889042], [15.7838867, 45.188795], [15.7837877, 45.1887102], [15.7837712, 45.1886653], [15.7838594, 45.1886062], [15.7837663, 45.1884764], [15.7836589, 45.1883736], [15.7835539, 45.1883744], [15.7832561, 45.1883359], [15.7832647, 45.1882638], [15.7831205, 45.1882513], [15.7830967, 45.188139], [15.7830029, 45.1880271], [15.7830625, 45.1878558], [15.783186, 45.18781], [15.7831537, 45.1877246], [15.7829836, 45.1876718], [15.7827059, 45.1877143], [15.7826273, 45.1876113], [15.7826796, 45.1874805], [15.7827718, 45.1873088], [15.7828709, 45.1872902], [15.7828075, 45.1872276], [15.7827073, 45.1872373], [15.7826187, 45.187157], [15.7825958, 45.1872831], [15.7825365, 45.1873105], [15.7825263, 45.1873735], [15.7824352, 45.1874056], [15.7823774, 45.1873071], [15.782318, 45.1873254], [15.7822752, 45.1872763], [15.7823919, 45.1872035], [15.7823334, 45.1871184], [15.7822027, 45.1871507], [15.7821135, 45.1871469], [15.7819932, 45.1870802], [15.7819231, 45.1871212], [15.7816119, 45.1870469], [15.7815077, 45.1869351], [15.7813804, 45.1868639], [15.781099, 45.1868794], [15.7810199, 45.1867989], [15.7809012, 45.1867817], [15.7806044, 45.1866533], [15.7805889, 45.1865769], [15.7804783, 45.1865731], [15.780395, 45.1865287], [15.7803069, 45.1866013], [15.7802084, 45.186548], [15.7801002, 45.1865397], [15.780008, 45.1864954], [15.7799896, 45.1863606], [15.7798236, 45.1863887], [15.7798185, 45.1862987], [15.7797176, 45.1863129], [15.7796733, 45.1862592], [15.7795071, 45.1862693], [15.7795046, 45.1861434], [15.7792114, 45.1860599], [15.779061, 45.1859889], [15.7790717, 45.1858989], [15.7791713, 45.1859657], [15.7792148, 45.1859519], [15.7792153, 45.1858754], [15.7793449, 45.1857485], [15.7792281, 45.1857043], [15.7792424, 45.1854613], [15.7791167, 45.1852866], [15.7791827, 45.1852232], [15.7791398, 45.185165], [15.7790226, 45.1852063], [15.7790119, 45.1851254], [15.7788868, 45.1851667], [15.7788235, 45.1851446], [15.7788783, 45.1850723], [15.7788376, 45.1850006], [15.778716, 45.1850644], [15.778624, 45.1850245], [15.7786617, 45.1849343], [15.7784947, 45.1848769], [15.7784847, 45.184787], [15.778358, 45.1847654], [15.7782325, 45.1845997], [15.7782915, 45.1845499], [15.7782978, 45.1844868], [15.7781633, 45.1843708], [15.7779855, 45.1844035], [15.777782, 45.1843508], [15.7776518, 45.1842437], [15.7774518, 45.1843307], [15.7773366, 45.1843449], [15.7772561, 45.184278], [15.777333, 45.184201], [15.7771095, 45.184189], [15.7771709, 45.1840941], [15.7769887, 45.1839603], [15.7768954, 45.184114], [15.7768416, 45.1840873], [15.7768842, 45.1840015], [15.7768138, 45.1839705], [15.7766801, 45.1839624], [15.7767587, 45.1838359], [15.7767259, 45.1836562], [15.7765835, 45.1836346], [15.7765434, 45.1833919], [15.7771607, 45.1821099], [15.7774188, 45.1814422], [15.7773832, 45.181051], [15.777302, 45.1805791], [15.7769286, 45.1801362], [15.7766312, 45.1796658], [15.7765469, 45.1794459], [15.7766979, 45.1790264], [15.7768935, 45.1784356], [15.7771954, 45.1780646], [15.7773543, 45.1777126], [15.7776117, 45.1771619], [15.777698, 45.1768016], [15.7776981, 45.1768014], [15.7777275, 45.1766212], [15.7775784, 45.1763567], [15.7767851, 45.1757907], [15.7764912, 45.1755857], [15.7756539, 45.1748266], [15.7751733, 45.1748613], [15.7746346, 45.1745995], [15.7743335, 45.1747456], [15.7741461, 45.1747018], [15.7737907, 45.1746997], [15.7737261, 45.1745156], [15.7737623, 45.1743714], [15.7733388, 45.1739784], [15.7732008, 45.1736553], [15.7726507, 45.1730832], [15.7725629, 45.1734077], [15.772433, 45.173503], [15.7721115, 45.1734782], [15.7717262, 45.1735664], [15.7713784, 45.1733077], [15.7711252, 45.1733319], [15.7707755, 45.1731229], [15.7708469, 45.1729874], [15.7707789, 45.1727224], [15.770886, 45.1725326], [15.7707935, 45.1722723], [15.7704429, 45.1724007], [15.7703491, 45.1724013], [15.7703455, 45.1723068], [15.7705679, 45.1721749], [15.7704448, 45.1718922], [15.7702842, 45.1720058], [15.7698914, 45.1717745], [15.7695245, 45.1718624], [15.7694554, 45.1716874], [15.7695978, 45.171466], [15.7689941, 45.1714386], [15.768852, 45.1713496], [15.7687154, 45.171004], [15.7683258, 45.1707097], [15.7680126, 45.1708287], [15.7676778, 45.170714], [15.7676361, 45.1701563], [15.7677634, 45.1701105], [15.7677898, 45.1698764], [15.767503, 45.1698963], [15.7673068, 45.1697896], [15.7671544, 45.1695117], [15.7675097, 45.1690414], [15.7680427, 45.1689433], [15.7680526, 45.1687273], [15.7678844, 45.1683954], [15.7678689, 45.168022], [15.7676071, 45.1678259], [15.7674336, 45.1678675], [15.7671098, 45.1682701], [15.7669239, 45.1683299], [15.7667229, 45.1681783], [15.7666096, 45.1679585], [15.7667635, 45.1678135], [15.7667337, 45.1675617], [15.7669207, 45.1673895], [15.7669228, 45.1671961], [15.7665597, 45.1670365], [15.7662998, 45.1673352], [15.7661383, 45.1672733], [15.7659803, 45.1670494], [15.7654915, 45.1671157], [15.7655636, 45.1668677], [15.7652228, 45.1667035], [15.764986, 45.1664802], [15.7651785, 45.1663709], [15.7652016, 45.1662537], [15.7649533, 45.1662329], [15.7646908, 45.1661672], [15.7647316, 45.1660679], [15.7649544, 45.1660214], [15.7650664, 45.1658452], [15.7648941, 45.1656663], [15.7652918, 45.1655782], [15.7652195, 45.1654572], [15.765374, 45.1652987], [15.7653264, 45.1651325], [15.7657081, 45.1649499], [15.7654678, 45.1648166], [15.7650446, 45.1645629], [15.7650247, 45.1643201], [15.7648168, 45.16421], [15.7646724, 45.1641336], [15.7646413, 45.1640167], [15.7647845, 45.1640203], [15.764821, 45.1639571], [15.7650296, 45.1639736], [15.7650532, 45.163843], [15.7652101, 45.1637519], [15.7650904, 45.1635953], [15.7651742, 45.1635002], [15.7650339, 45.1632897], [15.7650362, 45.1631187], [15.7647772, 45.1628324], [15.7646135, 45.1628245]]]}}]}