{"type": "FeatureCollection", "features": [{"type": "Feature", "properties": {"name": "Opština Višegrad, Република Српска / Republika Srpska, Bosna i Hercegovina / Босна и Херцеговина", "source": "OpenStreetMap relation 2528287", "licence": "ODbL 1.0"}, "geometry": {"type": "Polygon", "coordinates": [[[19.109838, 43.7918068], [19.1098697, 43.7910417], [19.1110396, 43.789979], [19.111222, 43.7896305], [19.1117155, 43.7892277], [19.1117155, 43.7887475], [19.111383, 43.7885152], [19.1123593, 43.7873456], [19.1123485, 43.7868887], [19.1120052, 43.7866486], [19.1119623, 43.7859282], [19.1116932, 43.785701], [19.1116083, 43.7847896], [19.1142818, 43.781384], [19.1169446, 43.7776562], [19.1175413, 43.7768421], [19.120134, 43.7745471], [19.1228843, 43.772194], [19.1230601, 43.7720736], [19.1274536, 43.769067], [19.130728, 43.7667334], [19.132587, 43.7654603], [19.1336289, 43.7607394], [19.1348147, 43.7591927], [19.1350508, 43.7578288], [19.1354116, 43.7539251], [19.1356087, 43.7504512], [19.1379046, 43.745677], [19.139564, 43.7420425], [19.1412935, 43.7377079], [19.1421431, 43.7355034], [19.1427878, 43.7333079], [19.1437626, 43.7281579], [19.1441273, 43.7275842], [19.1429901, 43.7268554], [19.1460275, 43.7231149], [19.1453504, 43.7228701], [19.1448897, 43.7226717], [19.1428399, 43.7201253], [19.1423035, 43.7200943], [19.1409189, 43.7190166], [19.1409087, 43.7181247], [19.1413055, 43.7175877], [19.1421747, 43.7178766], [19.1436124, 43.7178921], [19.1443205, 43.7171942], [19.1438699, 43.71676], [19.1438484, 43.7156123], [19.144063, 43.715085], [19.1453953, 43.7147403], [19.1468096, 43.7138287], [19.1479039, 43.7134099], [19.1497922, 43.7130842], [19.1500497, 43.7125724], [19.150629, 43.7121536], [19.1530323, 43.7117659], [19.1538143, 43.7108219], [19.1572714, 43.7100073], [19.1605425, 43.7088964], [19.1635251, 43.7074849], [19.1641507, 43.707005], [19.1661599, 43.7044748], [19.1671085, 43.7031571], [19.1676207, 43.6999663], [19.1692094, 43.6986074], [19.1703915, 43.6971691], [19.1711855, 43.6970915], [19.1710138, 43.6958349], [19.1713357, 43.6954935], [19.1713571, 43.6950436], [19.1713357, 43.6939886], [19.1707349, 43.6928716], [19.1706276, 43.6915528], [19.1708809, 43.6911354], [19.1707863, 43.6909713], [19.1705543, 43.6905893], [19.1704993, 43.6904569], [19.1704222, 43.6902709], [19.1703631, 43.6901016], [19.1703315, 43.6900174], [19.1702973, 43.6899384], [19.1701419, 43.6896831], [19.1700211, 43.6894866], [19.1698791, 43.6893037], [19.169664, 43.6890385], [19.1694663, 43.6888269], [19.1693546, 43.6887087], [19.169352, 43.6887042], [19.170013, 43.6884489], [19.1700818, 43.6883979], [19.1777711, 43.6852029], [19.1823054, 43.6772298], [19.1913434, 43.6812809], [19.1956151, 43.6813257], [19.1960859, 43.6813306], [19.1961202, 43.6812809], [19.1964123, 43.6813058], [19.1966357, 43.6814425], [19.1969622, 43.6815046], [19.2033369, 43.6818525], [19.20344, 43.6820327], [19.2036806, 43.6821135], [19.2037665, 43.6822315], [19.2038438, 43.6824179], [19.2041531, 43.6826416], [19.2043765, 43.6826727], [19.2046858, 43.6830206], [19.20466, 43.6832194], [19.2050552, 43.6835238], [19.2051153, 43.683673], [19.2049693, 43.6839153], [19.2052614, 43.6841265], [19.2054418, 43.6845552], [19.205459, 43.6848161], [19.2059573, 43.6848037], [19.2074006, 43.687121], [19.2114431, 43.6920596], [19.2122977, 43.6931035], [19.2125554, 43.6930786], [19.212597, 43.6933546], [19.2127474, 43.6936372], [19.212975, 43.6938826], [19.2133745, 43.6941218], [19.213585, 43.6942771], [19.214079, 43.6947957], [19.214268, 43.6950069], [19.2144141, 43.6952399], [19.2146031, 43.6954884], [19.2148651, 43.6957461], [19.2150413, 43.6959232], [19.2151487, 43.696035], [19.2152217, 43.6961747], [19.2152818, 43.6963859], [19.2153505, 43.6966686], [19.2154279, 43.6968177], [19.2155911, 43.6969947], [19.2157758, 43.6971344], [19.2159348, 43.6973115], [19.2161195, 43.6975661], [19.2162956, 43.6978394], [19.2163858, 43.6980475], [19.216476, 43.6982805], [19.2166049, 43.6985196], [19.2166908, 43.6986562], [19.2167295, 43.6987836], [19.2167423, 43.6989792], [19.2167209, 43.6992028], [19.2166178, 43.6994637], [19.2164202, 43.6996935], [19.2162397, 43.6999793], [19.2161023, 43.7003581], [19.215982, 43.7008675], [19.2159219, 43.7012029], [19.2159391, 43.7016532], [19.2159906, 43.702119], [19.2160679, 43.7023737], [19.2161753, 43.7026221], [19.2163042, 43.7030103], [19.2164588, 43.703296], [19.2166135, 43.7037369], [19.2166467, 43.7038717], [19.2167252, 43.7041903], [19.2167595, 43.7046934], [19.2166478, 43.705212], [19.2165233, 43.7054263], [19.2162483, 43.7058331], [19.2161195, 43.7061747], [19.2159648, 43.7064293], [19.2158231, 43.7067895], [19.2157071, 43.7072646], [19.2153634, 43.7079943], [19.214951, 43.708752], [19.214543, 43.7092985], [19.2142466, 43.7096867], [19.2135764, 43.7105685], [19.2129922, 43.7114907], [19.2125755, 43.7122359], [19.2121116, 43.7132481], [19.2114243, 43.7144808], [19.2108702, 43.7153191], [19.21017, 43.7160084], [19.2094483, 43.7167225], [19.2090875, 43.7171168], [19.2088254, 43.7175297], [19.2097017, 43.7178153], [19.2099681, 43.7178774], [19.2100411, 43.7178929], [19.2101141, 43.7178991], [19.2103289, 43.717896], [19.2104019, 43.7178898], [19.2104793, 43.7178774], [19.2105523, 43.7178619], [19.2106898, 43.7178371], [19.2107585, 43.7178308], [19.2108401, 43.7178308], [19.2109174, 43.7178339], [19.2111623, 43.7178371], [19.2114415, 43.7178836], [19.2120042, 43.7178495], [19.2122319, 43.7178557], [19.212597, 43.717955], [19.213091, 43.7178867], [19.2135979, 43.7177874], [19.2143668, 43.7175545], [19.2148265, 43.7172999], [19.2152818, 43.717182], [19.2158746, 43.716797], [19.2161152, 43.7167287], [19.2167595, 43.7167349], [19.2177733, 43.7167845], [19.2225071, 43.7139592], [19.223667, 43.7180575], [19.2276791, 43.7192435], [19.228796, 43.7192435], [19.2341833, 43.7195603], [19.2356604, 43.7196471], [19.2395008, 43.7191131], [19.2532383, 43.7162692], [19.2650629, 43.7152872], [19.2655755, 43.7152446], [19.2686769, 43.7166355], [19.269158, 43.7167908], [19.2694158, 43.7166914], [19.2693814, 43.7164803], [19.2693471, 43.7162816], [19.269433, 43.7160829], [19.269622, 43.7159463], [19.2698282, 43.7158221], [19.2701203, 43.71576], [19.2703952, 43.7156606], [19.2706701, 43.7155985], [19.2710481, 43.7155613], [19.2714433, 43.7155488], [19.2717698, 43.7155488], [19.2720447, 43.7155116], [19.2722853, 43.7154247], [19.272543, 43.7153253], [19.2727664, 43.7152259], [19.273007, 43.7151017], [19.2731101, 43.7149155], [19.2731444, 43.7146671], [19.2732131, 43.7144808], [19.2734881, 43.7144311], [19.273763, 43.7143566], [19.2739692, 43.7142075], [19.274141, 43.7140585], [19.2743128, 43.7138598], [19.2744331, 43.7136735], [19.2746221, 43.7134996], [19.275172, 43.7132388], [19.2753266, 43.7130649], [19.27555, 43.7129035], [19.2757905, 43.7127669], [19.2760655, 43.7126427], [19.2762373, 43.7124564], [19.2764263, 43.7122949], [19.2766325, 43.7121583], [19.2768902, 43.7120341], [19.2771823, 43.7119596], [19.2774401, 43.7118726], [19.2776635, 43.7117733], [19.2778525, 43.7115994], [19.2779899, 43.7114255], [19.2781446, 43.7112516], [19.2784195, 43.7112019], [19.2786257, 43.711351], [19.2788319, 43.7115], [19.2790724, 43.7116491], [19.2792958, 43.7117857], [19.2795364, 43.7118975], [19.2800518, 43.7120713], [19.280344, 43.7120838], [19.2805501, 43.7119347], [19.2806361, 43.7117236], [19.2806189, 43.7115124], [19.2806189, 43.7113013], [19.2806704, 43.7110902], [19.2807735, 43.7109039], [19.2809969, 43.7107797], [19.2812718, 43.7107797], [19.2815124, 43.7109163], [19.2816842, 43.7110777], [19.2818732, 43.7112268], [19.2821138, 43.7113386], [19.2824059, 43.7113386], [19.2826464, 43.7112144], [19.2930248, 43.6957492], [19.2982826, 43.6962213], [19.3090886, 43.6998031], [19.3094514, 43.6999234], [19.3148811, 43.6927551], [19.3147093, 43.6926433], [19.3149498, 43.6924942], [19.3155169, 43.69237], [19.315809, 43.6923451], [19.3164158, 43.6923897], [19.316644, 43.6924825], [19.3168378, 43.6925906], [19.3170633, 43.6926655], [19.3173355, 43.6926763], [19.3176142, 43.6926772], [19.3179304, 43.6927066], [19.3182333, 43.6927385], [19.3185479, 43.6927625], [19.3188331, 43.6928048], [19.319108, 43.6928421], [19.3194001, 43.6928794], [19.3196922, 43.6929042], [19.3205514, 43.6929042], [19.3208263, 43.6929788], [19.3211184, 43.6929415], [19.3213418, 43.6928173], [19.3216339, 43.69278], [19.3219528, 43.6928025], [19.3222396, 43.6928265], [19.3225252, 43.6928389], [19.3228581, 43.6927078], [19.3230257, 43.6925812], [19.3233006, 43.6925191], [19.3235927, 43.6924942], [19.3239707, 43.6925191], [19.3241425, 43.6923576], [19.3243487, 43.6922209], [19.3246237, 43.6920718], [19.324933, 43.6919724], [19.3252251, 43.6919227], [19.3255343, 43.6919227], [19.3258265, 43.6920221], [19.3261357, 43.6920345], [19.3263076, 43.691873], [19.3265653, 43.6918109], [19.326909, 43.6917985], [19.3272011, 43.6917861], [19.3274416, 43.6916867], [19.327665, 43.6915624], [19.3279743, 43.6915624], [19.3282664, 43.6915748], [19.3285241, 43.6915003], [19.3287303, 43.6913636], [19.3289709, 43.6912145], [19.3291771, 43.691053], [19.3294004, 43.6909164], [19.329641, 43.6907797], [19.3298987, 43.6906554], [19.3301908, 43.6905436], [19.3304658, 43.6904442], [19.3307235, 43.6903821], [19.3309984, 43.69032], [19.3312734, 43.6902454], [19.3315311, 43.6901833], [19.3317717, 43.6900963], [19.3320122, 43.6899845], [19.3322081, 43.6898618], [19.3323698, 43.6896754], [19.3325615, 43.6895061], [19.3328413, 43.6893808], [19.3331291, 43.6892887], [19.333404, 43.6891893], [19.3336446, 43.6890278], [19.3338334, 43.6887519], [19.3340515, 43.6885169], [19.3341721, 43.6883627], [19.3343769, 43.6882252], [19.3345782, 43.6881732], [19.3347909, 43.6881587], [19.3349517, 43.6881911], [19.3351962, 43.6882418], [19.3351738, 43.6883196], [19.335191, 43.6885308], [19.3352764, 43.6887118], [19.3354487, 43.6888787], [19.3356721, 43.6887296], [19.3358955, 43.688593], [19.3369264, 43.6882699], [19.3371155, 43.6881208], [19.3372357, 43.6879344], [19.3374247, 43.6877978], [19.337734, 43.6877853], [19.3379918, 43.6876984], [19.3382323, 43.6875741], [19.3384729, 43.6874623], [19.3388165, 43.6873505], [19.3393664, 43.6872014], [19.3396585, 43.6871268], [19.3399162, 43.6870771], [19.3401912, 43.687015], [19.3404317, 43.686928], [19.3406723, 43.686841], [19.34093, 43.6867043], [19.3412221, 43.6866049], [19.3414799, 43.6865552], [19.341961, 43.6865055], [19.3423046, 43.6864807], [19.3425795, 43.6863937], [19.3427857, 43.6862695], [19.3429576, 43.6860831], [19.3432668, 43.686021], [19.3435933, 43.6859837], [19.343937, 43.6859464], [19.3442119, 43.6858594], [19.3444353, 43.6857227], [19.3445212, 43.6855239], [19.344693, 43.6853624], [19.3449679, 43.6852506], [19.34526, 43.6851636], [19.3455521, 43.685089], [19.3458099, 43.6850021], [19.3460848, 43.6849524], [19.346669, 43.684853], [19.3469268, 43.6848033], [19.3471673, 43.6847163], [19.3473391, 43.6845547], [19.3472876, 43.6843311], [19.347236, 43.684095], [19.347236, 43.6838962], [19.3474766, 43.6837595], [19.3477687, 43.6837098], [19.348078, 43.6837098], [19.3483529, 43.6837719], [19.3486278, 43.6837222], [19.3488512, 43.683598], [19.3490059, 43.683424], [19.3491949, 43.6832873], [19.3494526, 43.6831879], [19.3496616, 43.6831673], [19.3499177, 43.6829306], [19.3500621, 43.6828625], [19.3502042, 43.6828344], [19.3503977, 43.6828275], [19.3506672, 43.682939], [19.3508364, 43.6830605], [19.3511021, 43.6831879], [19.3521503, 43.6836104], [19.352408, 43.6837222], [19.3527173, 43.6837968], [19.3529751, 43.6838713], [19.3531984, 43.6840204], [19.353439, 43.6841323], [19.3536452, 43.6843187], [19.3538342, 43.6844926], [19.3539373, 43.684679], [19.3541263, 43.684853], [19.3543497, 43.6849648], [19.3546074, 43.6850766], [19.3548823, 43.685176], [19.3550198, 43.6851387], [19.3549511, 43.684766], [19.3549167, 43.6845423], [19.3548823, 43.6843311], [19.3547792, 43.6841198], [19.354668, 43.6839591], [19.3546099, 43.6838434], [19.3547964, 43.6837968], [19.355037, 43.6836974], [19.3552775, 43.6836228], [19.3555353, 43.6834985], [19.3557586, 43.6833246], [19.3559648, 43.683163], [19.3561882, 43.6830512], [19.3565147, 43.6830512], [19.3567724, 43.6831382], [19.3569786, 43.6832873], [19.3572879, 43.6830512], [19.3578721, 43.6831258], [19.3583189, 43.6828524], [19.3590577, 43.682753], [19.3592983, 43.6826287], [19.3594185, 43.6824299], [19.3595388, 43.6822435], [19.3597966, 43.682169], [19.3600715, 43.6822559], [19.362496, 43.6820281], [19.3631128, 43.6819701], [19.3631128, 43.6822311], [19.3629925, 43.6822684], [19.3628723, 43.6824548], [19.3628723, 43.682666], [19.3629582, 43.6828772], [19.3631472, 43.6830264], [19.3633706, 43.6831755], [19.3636283, 43.6832873], [19.3638689, 43.683424], [19.364075, 43.6835731], [19.3642641, 43.6837471], [19.3644187, 43.6839335], [19.3645733, 43.6841447], [19.3647108, 43.6843435], [19.3649342, 43.6844802], [19.3651747, 43.684592], [19.3653637, 43.684766], [19.3657589, 43.6851263], [19.3658964, 43.6853251], [19.366137, 43.6854121], [19.3662744, 43.6855985], [19.3663947, 43.6857973], [19.3669446, 43.6859464], [19.3669961, 43.6861576], [19.3672195, 43.6863067], [19.3674085, 43.6861452], [19.3673741, 43.685934], [19.3674085, 43.6857103], [19.3675631, 43.6855239], [19.367735, 43.6853376], [19.3678037, 43.6851139], [19.3680442, 43.6850021], [19.368302, 43.6849399], [19.3685082, 43.6847908], [19.3687144, 43.6846293], [19.3689893, 43.6845672], [19.3692642, 43.6845796], [19.3697969, 43.6846541], [19.3701062, 43.6847287], [19.3703467, 43.6848405], [19.3706388, 43.6848405], [19.3709481, 43.6848033], [19.3715323, 43.6847536], [19.3718072, 43.6847038], [19.372065, 43.6846293], [19.3722884, 43.6845175], [19.3725289, 43.6844056], [19.3728554, 43.6843559], [19.3731647, 43.6843559], [19.3733537, 43.6845175], [19.373474, 43.6847038], [19.373663, 43.6848778], [19.3738692, 43.6850393], [19.3740925, 43.6851636], [19.3743503, 43.685263], [19.3746252, 43.6853624], [19.3749173, 43.6854121], [19.3752094, 43.6854121], [19.3755187, 43.6853624], [19.3757936, 43.68535], [19.3760685, 43.68535], [19.3763606, 43.6854245], [19.3766184, 43.6854991], [19.3769105, 43.6855115], [19.3772026, 43.6854867], [19.3774775, 43.685437], [19.3777524, 43.6854494], [19.3780274, 43.6855115], [19.3782336, 43.6856606], [19.3785085, 43.6856855], [19.3787834, 43.6856855], [19.3790583, 43.6857724], [19.3792473, 43.6859464], [19.3793161, 43.6861701], [19.3795566, 43.6863689], [19.37978, 43.6864931], [19.3800721, 43.6865304], [19.3802955, 43.6866795], [19.3805017, 43.6868286], [19.3807766, 43.6869156], [19.3810515, 43.6869777], [19.3813608, 43.6870274], [19.3816529, 43.6871144], [19.381945, 43.6872262], [19.3821856, 43.6873505], [19.3824777, 43.6874623], [19.3827182, 43.6875865], [19.3829072, 43.6877605], [19.382976, 43.6879841], [19.3830103, 43.6881954], [19.3830963, 43.6883942], [19.3833368, 43.6884936], [19.3836117, 43.6885681], [19.3838695, 43.6886427], [19.3839897, 43.6886924], [19.3851596, 43.6921737], [19.38533, 43.6926806], [19.3777009, 43.693426], [19.3773057, 43.6942087], [19.3802267, 43.7014886], [19.3802061, 43.7017502], [19.3802869, 43.7021283], [19.3802611, 43.7023084], [19.380347, 43.702532], [19.3805876, 43.7026438], [19.3806563, 43.702855], [19.380536, 43.7030662], [19.3806219, 43.7032773], [19.3808969, 43.7033767], [19.3810102, 43.7035642], [19.3810859, 43.7037618], [19.3811718, 43.7039605], [19.3812749, 43.7041593], [19.381378, 43.7043456], [19.381567, 43.7045319], [19.3818247, 43.7046189], [19.3820825, 43.704681], [19.3823574, 43.7047058], [19.3826495, 43.7046934], [19.3829244, 43.7047458], [19.3831993, 43.7048176], [19.3834571, 43.7049418], [19.383732, 43.7049667], [19.3840413, 43.7049543], [19.3852613, 43.7049543], [19.3855362, 43.7049915], [19.3858111, 43.7050164], [19.3861032, 43.7050536], [19.3863953, 43.7050164], [19.3866702, 43.7049543], [19.3867617, 43.7049077], [19.3869818, 43.7046977], [19.3870875, 43.7044896], [19.387117, 43.7043083], [19.3872168, 43.7041224], [19.3874467, 43.7040195], [19.3876733, 43.7040463], [19.3878902, 43.7041469], [19.3881377, 43.7042544], [19.388403, 43.704282], [19.3886763, 43.704254], [19.3888481, 43.7041244], [19.3889727, 43.703973], [19.3891789, 43.7038239], [19.389471, 43.7037742], [19.3896772, 43.7039357], [19.389849, 43.704122], [19.3900552, 43.7042587], [19.3907941, 43.7047307], [19.3909487, 43.704917], [19.391069, 43.7051282], [19.3911893, 43.7053145], [19.3913772, 43.7054729], [19.3916006, 43.7056134], [19.3919539, 43.7057237], [19.3925123, 43.7057741], [19.3928388, 43.7057989], [19.3931481, 43.705861], [19.3934058, 43.7059604], [19.3936464, 43.7060722], [19.3939041, 43.7061716], [19.3940588, 43.7063827], [19.3941103, 43.7065939], [19.3940932, 43.706805], [19.3939901, 43.7070162], [19.3939729, 43.7072398], [19.3939729, 43.7074509], [19.3941275, 43.7076248], [19.3943853, 43.7077242], [19.3946238, 43.7077825], [19.3952723, 43.7078391], [19.3956148, 43.7078491], [19.3964564, 43.7079338], [19.3970088, 43.70811], [19.3972494, 43.708214], [19.397461, 43.7083204], [19.3977359, 43.7083825], [19.398028, 43.7083701], [19.3983373, 43.7084198], [19.3986294, 43.7084943], [19.3994198, 43.7087924], [19.3996775, 43.7088793], [19.3999353, 43.7090159], [19.4001414, 43.7091526], [19.400382, 43.7092519], [19.4006741, 43.7092768], [19.4009834, 43.7092519], [19.4012755, 43.7092271], [19.4019073, 43.7092065], [19.4023065, 43.7092023], [19.4025642, 43.7093016], [19.4027876, 43.7094382], [19.4028907, 43.7096246], [19.4030625, 43.7097984], [19.4033202, 43.7099848], [19.4035608, 43.7100965], [19.4038357, 43.7101586], [19.4041278, 43.7101959], [19.4044199, 43.7102083], [19.4047464, 43.7102207], [19.4050557, 43.7102207], [19.4053306, 43.7101711], [19.4056055, 43.7100965], [19.4058976, 43.7100717], [19.4068427, 43.7100717], [19.4071096, 43.7100613], [19.407341, 43.7099723], [19.4076159, 43.7099848], [19.4078592, 43.7100868], [19.4080031, 43.710083], [19.4080707, 43.7100064], [19.4083204, 43.710022], [19.4084407, 43.7102332], [19.4084063, 43.7104567], [19.4082345, 43.710643], [19.4079252, 43.7108169], [19.4076675, 43.7109411], [19.4068599, 43.7115621], [19.4066709, 43.7117484], [19.4065334, 43.7119471], [19.4064131, 43.7121334], [19.4062241, 43.7122949], [19.4060179, 43.7124688], [19.4058117, 43.7126302], [19.4056227, 43.7128165], [19.4054853, 43.7130028], [19.4054165, 43.7132264], [19.4053306, 43.71345], [19.4051588, 43.7136238], [19.4050213, 43.7138225], [19.4049182, 43.7140213], [19.4044887, 43.7146919], [19.4043856, 43.7148906], [19.4042653, 43.7151017], [19.4041622, 43.7153005], [19.4040935, 43.715524], [19.4040108, 43.7159723], [19.4039303, 43.7161089], [19.4038867, 43.7162266], [19.4039216, 43.7166169], [19.4039045, 43.716828], [19.4038014, 43.7170267], [19.4036295, 43.7172006], [19.403389, 43.717362], [19.4031312, 43.7174738], [19.4029766, 43.7175235], [19.4035952, 43.7181196], [19.4038357, 43.7180078], [19.4045221, 43.7196152], [19.4044543, 43.7198582], [19.4044715, 43.7203797], [19.4044887, 43.7205909], [19.4044887, 43.720802], [19.4043856, 43.7210131], [19.4042997, 43.7212118], [19.4041794, 43.721398], [19.4038873, 43.7214477], [19.4036467, 43.7215843], [19.4035093, 43.7217706], [19.4034062, 43.7219693], [19.4032687, 43.7221555], [19.4035493, 43.7223448], [19.4037898, 43.7225517], [19.403956, 43.7222797], [19.4044027, 43.7223666], [19.4046949, 43.7223666], [19.4049698, 43.7223045], [19.4052275, 43.7222052], [19.4054853, 43.7221183], [19.4057602, 43.7220438], [19.4060351, 43.7219693], [19.406688, 43.7217085], [19.4071863, 43.7217954], [19.4079767, 43.7217457], [19.4096263, 43.7221183], [19.4102964, 43.7221431], [19.4106229, 43.722168], [19.410915, 43.7221431], [19.4112243, 43.7220934], [19.411482, 43.722168], [19.4117569, 43.722168], [19.4119288, 43.7220065], [19.4121693, 43.7219072], [19.4124786, 43.7218823], [19.4127363, 43.7219444], [19.4129769, 43.7220438], [19.4134924, 43.7222425], [19.4136814, 43.7223915], [19.4139563, 43.7226274], [19.4202623, 43.7255704], [19.4202623, 43.7257815], [19.420984, 43.7257194], [19.4212589, 43.7256573], [19.4215339, 43.7255828], [19.4218088, 43.7255207], [19.4220665, 43.7254338], [19.4223243, 43.725322], [19.422582, 43.7252227], [19.4228397, 43.7251358], [19.4230803, 43.725024], [19.4232865, 43.7248874], [19.4234927, 43.7247508], [19.4237161, 43.7246018], [19.4238535, 43.7244404], [19.4240082, 43.7242665], [19.4241284, 43.7240803], [19.4242831, 43.7238692], [19.4243518, 43.7236581], [19.4244205, 43.7234594], [19.4244721, 43.7232483], [19.4245923, 43.7231167], [19.4249017, 43.7228882], [19.4250563, 43.7227268], [19.4251938, 43.7225653], [19.4252969, 43.7223915], [19.4254, 43.7221928], [19.4254515, 43.7219817], [19.4254859, 43.7217706], [19.4254859, 43.7215471], [19.4254687, 43.7213484], [19.426345, 43.7205412], [19.4279602, 43.7208516], [19.4288709, 43.7216464], [19.4348161, 43.72223], [19.4402114, 43.7215595], [19.4470592, 43.722309], [19.4501945, 43.7226522], [19.451741, 43.7256449], [19.4524111, 43.7259677], [19.452686, 43.7260422], [19.4529266, 43.7259553], [19.4531843, 43.7258932], [19.4534592, 43.7259056], [19.4537685, 43.7258932], [19.4540434, 43.725856], [19.4543356, 43.7258435], [19.4545933, 43.725918], [19.4548339, 43.7260298], [19.455126, 43.7260795], [19.4553493, 43.7259801], [19.4555727, 43.725856], [19.4558304, 43.725769], [19.4561226, 43.7257442], [19.4564147, 43.7257442], [19.4567239, 43.7257566], [19.457016, 43.725769], [19.4573082, 43.725769], [19.4575831, 43.7257815], [19.4578752, 43.7257815], [19.4580986, 43.7259305], [19.4579955, 43.7261416], [19.4582876, 43.7261664], [19.4585453, 43.7260919], [19.4588202, 43.7261043], [19.4591295, 43.7261664], [19.4594216, 43.7262409], [19.4596965, 43.7262906], [19.4599715, 43.7263651], [19.4602464, 43.7264396], [19.4605213, 43.7265016], [19.4607962, 43.7265886], [19.4610712, 43.7266631], [19.4613117, 43.72675], [19.4613976, 43.726067], [19.4611571, 43.7258187], [19.4613289, 43.7256449], [19.4616038, 43.7255704], [19.46181, 43.725707], [19.4618616, 43.725918], [19.4621193, 43.7259925], [19.4624114, 43.7260422], [19.4626863, 43.7261291], [19.4628753, 43.7262906], [19.4628753, 43.7265141], [19.4622224, 43.7272839], [19.4626348, 43.7274577], [19.4627379, 43.7273832], [19.4668617, 43.72824], [19.4669476, 43.7285256], [19.4671538, 43.7281034], [19.4689236, 43.7268742], [19.4691298, 43.7267252], [19.4692329, 43.7265513], [19.4692501, 43.7263402], [19.4692157, 43.7261291], [19.4692157, 43.725918], [19.4692845, 43.725707], [19.4694047, 43.7255207], [19.4695422, 43.7253469], [19.4696969, 43.7251854], [19.4698515, 43.7250116], [19.4700577, 43.7248626], [19.4702982, 43.724726], [19.4705732, 43.7246639], [19.4708825, 43.7246266], [19.4711746, 43.7246142], [19.4714838, 43.7246142], [19.4717931, 43.724577], [19.4721024, 43.7245149], [19.4723773, 43.7244652], [19.4726351, 43.7243659], [19.4729272, 43.724279], [19.4731677, 43.7241796], [19.4734255, 43.7240927], [19.473666, 43.7239809], [19.4738894, 43.7238692], [19.4741815, 43.7238071], [19.4744736, 43.7237698], [19.4747142, 43.7236457], [19.47481, 43.723466], [19.4749204, 43.7232856], [19.4750235, 43.7231117], [19.4756249, 43.722764], [19.4762091, 43.7228137], [19.4764325, 43.7229379], [19.4767074, 43.7229627], [19.4768458, 43.7229274], [19.4769995, 43.7228882], [19.47724, 43.722764], [19.4774634, 43.7226274], [19.4776524, 43.7224784], [19.4778758, 43.7223418], [19.4781679, 43.7222921], [19.4784772, 43.7222921], [19.4787693, 43.7223294], [19.478838, 43.7225281], [19.4788552, 43.7227392], [19.4788208, 43.7229627], [19.4787177, 43.7231614], [19.4786147, 43.7234097], [19.4785803, 43.7236332], [19.4785631, 43.7238568], [19.4785975, 43.7240803], [19.4788037, 43.7242169], [19.4791129, 43.7242417], [19.4794051, 43.7242045], [19.4795253, 43.7240182], [19.4795425, 43.7238071], [19.4794394, 43.7233849], [19.4793879, 43.7231738], [19.4794222, 43.7229751], [19.4796456, 43.7228509], [19.4799377, 43.7228385], [19.4807968, 43.7228385], [19.4810718, 43.7228013], [19.4813123, 43.7227143], [19.4815357, 43.7225777], [19.4817247, 43.7224411], [19.4819137, 43.7222921], [19.4821199, 43.7221555], [19.4824636, 43.7221307], [19.4828072, 43.7220686], [19.4837179, 43.7218451], [19.4842506, 43.7216216], [19.4845083, 43.7215098], [19.4847489, 43.7214353], [19.4853846, 43.7212614], [19.4856767, 43.7212118], [19.4859688, 43.7211497], [19.4862438, 43.7210752], [19.4865187, 43.7209758], [19.4867764, 43.7208641], [19.4870342, 43.7207399], [19.4875153, 43.7204915], [19.487773, 43.7203797], [19.4880479, 43.720268], [19.4883744, 43.7201562], [19.488615, 43.7200445], [19.4889242, 43.7199327], [19.4891992, 43.7198458], [19.4895085, 43.7197961], [19.4898177, 43.7197837], [19.490127, 43.7197837], [19.4904191, 43.7197464], [19.4905738, 43.719585], [19.4906081, 43.7193863], [19.4906769, 43.7191876], [19.4907628, 43.7189765], [19.4908487, 43.7187902], [19.4909518, 43.7186039], [19.4910721, 43.7184052], [19.4911752, 43.7182313], [19.4912783, 43.7180326], [19.4913985, 43.7178588], [19.491536, 43.7176725], [19.4917422, 43.7175235], [19.492189, 43.7172503], [19.4924123, 43.7171137], [19.4926529, 43.7169646], [19.4928763, 43.716828], [19.4931512, 43.7167038], [19.4933917, 43.7166169], [19.4936323, 43.7165175], [19.4939072, 43.716443], [19.494165, 43.7163685], [19.4947148, 43.7162195], [19.4949897, 43.716145], [19.4953849, 43.7160829], [19.4956598, 43.7160208], [19.495952, 43.7159587], [19.4962612, 43.7158966], [19.4965705, 43.7158469], [19.4968626, 43.7158096], [19.4971547, 43.7157972], [19.4982029, 43.715909], [19.4983232, 43.7156606], [19.4984263, 43.7154743], [19.498495, 43.715288], [19.4986346, 43.7150917], [19.4988897, 43.7149605], [19.4991979, 43.7148949], [19.4994916, 43.7148782], [19.4997665, 43.7148409], [19.5000414, 43.7148285], [19.5003335, 43.7148161], [19.5006256, 43.7147913], [19.5009006, 43.7147788], [19.5011755, 43.7147043], [19.5014504, 43.714605], [19.501691, 43.7144932], [19.5019143, 43.7143814], [19.5021377, 43.71422], [19.5023095, 43.7140585], [19.5024126, 43.7138598], [19.5024298, 43.7136611], [19.5022752, 43.7134872], [19.5020002, 43.7134375], [19.501691, 43.7134375], [19.5010724, 43.7135369], [19.5007631, 43.7135617], [19.5005569, 43.7134251], [19.5005741, 43.7132264], [19.5004366, 43.7127793], [19.5003851, 43.7125806], [19.5003163, 43.712357], [19.5001961, 43.7121707], [19.5001273, 43.7119471], [19.5002648, 43.7117236], [19.5004366, 43.7115497], [19.5006428, 43.7114007], [19.5008662, 43.7112889], [19.5010896, 43.7111895], [19.501605, 43.7110156], [19.50188, 43.7110156], [19.5021549, 43.7110405], [19.502447, 43.7110405], [19.5027563, 43.7109411], [19.5029625, 43.7108169], [19.5030484, 43.7106306], [19.5029453, 43.7104319], [19.5026704, 43.7103449], [19.5023879, 43.7102468], [19.5021527, 43.7101176], [19.5020002, 43.7100096], [19.501691, 43.7099848], [19.5013989, 43.7100593], [19.5011239, 43.7101462], [19.5008318, 43.7101586], [19.5006085, 43.7099972], [19.5006256, 43.7097984], [19.5007116, 43.7095873], [19.500849, 43.7094258], [19.5009865, 43.7092644], [19.5012098, 43.7090656], [19.5020862, 43.7094134], [19.5024298, 43.7092892], [19.5027219, 43.7093389], [19.503014, 43.7093265], [19.5032718, 43.7092644], [19.5035295, 43.7092023], [19.5038216, 43.7091402], [19.5041137, 43.7091029], [19.5044058, 43.7091029], [19.5046979, 43.7091153], [19.50499, 43.7091153], [19.505265, 43.7090905], [19.5055399, 43.7089911], [19.5057976, 43.7089042], [19.5061069, 43.7089538], [19.5063818, 43.7089911], [19.5067083, 43.7089911], [19.5070176, 43.7089787], [19.5072753, 43.708929], [19.5075502, 43.7088917], [19.5078424, 43.7088669], [19.5084609, 43.7088669], [19.5087359, 43.7088545], [19.5089936, 43.7087179], [19.5091998, 43.7085688], [19.5094575, 43.7084819], [19.5097324, 43.7084819], [19.5100246, 43.7084943], [19.5103167, 43.7085315], [19.5106711, 43.7086673], [19.5116431, 43.7086585], [19.51238, 43.7087303], [19.5130329, 43.7087737], [19.5133766, 43.7087179], [19.5138018, 43.7086061], [19.5138749, 43.7085843], [19.5142872, 43.7084912], [19.5146824, 43.7084881], [19.5150605, 43.7085626], [19.5154771, 43.7087179], [19.5156747, 43.708752], [19.5158637, 43.708721], [19.5160785, 43.708752], [19.5163363, 43.70887], [19.5166928, 43.7090812], [19.5169033, 43.7091898], [19.5169463, 43.7092333], [19.517015, 43.7092954], [19.5172899, 43.7093979], [19.5173629, 43.7093979], [19.517814, 43.7095128], [19.5183123, 43.7096836], [19.5187461, 43.7098574], [19.5189999, 43.7099825], [19.519079, 43.7100161], [19.5191561, 43.7100405], [19.5191921, 43.7100471], [19.5192419, 43.7100501], [19.5192692, 43.7100501], [19.519289, 43.7100457], [19.5193213, 43.7100321], [19.5193303, 43.7099922], [19.5196241, 43.7102495], [19.5196398, 43.7102685], [19.5197877, 43.7105393], [19.5197923, 43.710561], [19.5197687, 43.7107903], [19.5197625, 43.7108122], [19.519658, 43.7110383], [19.5196493, 43.7110599], [19.5195847, 43.7112435], [19.5195747, 43.7112648], [19.5194214, 43.7115241], [19.5194094, 43.7115448], [19.5192749, 43.711786], [19.519264, 43.711807], [19.5191633, 43.7120194], [19.5191561, 43.7120411], [19.5191197, 43.7122235], [19.5191177, 43.7122459], [19.5191199, 43.712393], [19.5191178, 43.7124154], [19.5190558, 43.7127052], [19.5190526, 43.7127276], [19.5190404, 43.7129167], [19.5190396, 43.7129392], [19.5190379, 43.7131902], [19.5190424, 43.7132122], [19.519079, 43.7132979], [19.5190864, 43.7133197], [19.51915, 43.7135734], [19.5191537, 43.7135957], [19.5191797, 43.7139113], [19.5191749, 43.713933], [19.5189607, 43.7143321], [19.5189445, 43.7143509], [19.5186873, 43.7145555], [19.5186619, 43.7145667], [19.518322, 43.7146319], [19.5182988, 43.714635], [19.5182915, 43.7146353], [19.5182693, 43.7146402], [19.5178574, 43.7147785], [19.5178285, 43.7147868], [19.5177053, 43.7148162], [19.5176751, 43.7148209], [19.5173438, 43.7148451], [19.5173129, 43.7148467], [19.5170689, 43.7148552], [19.5170382, 43.7148578], [19.5165394, 43.7149233], [19.5165093, 43.7149286], [19.5162355, 43.7149884], [19.5162052, 43.7149926], [19.5158202, 43.7150162], [19.5157897, 43.7150198], [19.515482, 43.7150712], [19.5154519, 43.7150768], [19.5150706, 43.7151548], [19.5150405, 43.7151607], [19.5145403, 43.7152555], [19.5145103, 43.7152612], [19.514234, 43.7153137], [19.514204, 43.7153193], [19.5137832, 43.7153974], [19.5137785, 43.7153983], [19.5137491, 43.7154052], [19.5133591, 43.7155174], [19.5133326, 43.7155287], [19.5131785, 43.7156182], [19.5131553, 43.7156331], [19.5128841, 43.7158236], [19.5128653, 43.7158411], [19.5126657, 43.7160952], [19.5126497, 43.7161145], [19.5124718, 43.7163192], [19.5124532, 43.716337], [19.5122751, 43.7164798], [19.512253, 43.7164956], [19.5119542, 43.7166897], [19.511932, 43.7167054], [19.511698, 43.7168865], [19.5116764, 43.7169026], [19.5114934, 43.7170347], [19.5114725, 43.7170512], [19.5111765, 43.7173073], [19.5111587, 43.7173256], [19.5111135, 43.717383], [19.5110985, 43.7174027], [19.5109764, 43.7175707], [19.5109613, 43.7175903], [19.5108018, 43.7177857], [19.5107847, 43.7178045], [19.510541, 43.7180467], [19.5105237, 43.7180654], [19.510468, 43.7181309], [19.5104491, 43.7181486], [19.5102672, 43.718286], [19.510246, 43.7183025], [19.510216, 43.7183264], [19.5098529, 43.7186159], [19.5098334, 43.7186334], [19.5097539, 43.7187132], [19.5097367, 43.7187319], [19.5095633, 43.7189342], [19.5095487, 43.718954], [19.5094455, 43.7191194], [19.5094396, 43.7191307], [19.5094445, 43.7191402], [19.5094402, 43.7191519], [19.5092687, 43.7195364], [19.5092588, 43.7195577], [19.5091278, 43.7198261], [19.5091165, 43.7198471], [19.5090455, 43.7199681], [19.5090305, 43.7199877], [19.5089265, 43.7200923], [19.5089088, 43.7201108], [19.5088183, 43.7202105], [19.5088015, 43.7202294], [19.5086493, 43.7204068], [19.5086329, 43.7204259], [19.508512, 43.720565], [19.5084932, 43.7205828], [19.5084513, 43.7206157], [19.5084261, 43.7206275], [19.5082838, 43.7206622], [19.5082537, 43.7206676], [19.507882, 43.7207083], [19.5078521, 43.7207137], [19.5076746, 43.720758], [19.5076451, 43.7207651], [19.5074601, 43.7208076], [19.5074373, 43.7208206], [19.5073814, 43.7208861], [19.5073579, 43.7208958], [19.5071915, 43.7208961], [19.5071611, 43.7208993], [19.506932, 43.7209484], [19.5069017, 43.7209527], [19.5067521, 43.7209636], [19.5067213, 43.7209664], [19.5065128, 43.7209892], [19.5064823, 43.7209929], [19.5063242, 43.7210144], [19.5062935, 43.7210175], [19.5061867, 43.7210247], [19.5061562, 43.7210287], [19.5059607, 43.7210674], [19.5059334, 43.7210772], [19.5056131, 43.7212538], [19.5055922, 43.7212701], [19.5052905, 43.7216102], [19.5052736, 43.721629], [19.5051437, 43.7217728], [19.5051244, 43.7217903], [19.5048552, 43.7219928], [19.5048307, 43.7220061], [19.5044254, 43.7221617], [19.5044025, 43.722176], [19.5041148, 43.7224621], [19.5040929, 43.7224776], [19.5038316, 43.7226068], [19.5038088, 43.7226218], [19.5036393, 43.7227654], [19.5036204, 43.7227831], [19.5034754, 43.7229328], [19.5034563, 43.7229505], [19.5032514, 43.7231234], [19.5032276, 43.7231372], [19.5031176, 43.7231794], [19.5030892, 43.7231882], [19.5029627, 43.7232187], [19.5029329, 43.7232242], [19.502824, 43.7232377], [19.5027931, 43.7232401], [19.5025587, 43.7232475], [19.5025277, 43.723247], [19.5022451, 43.7232292], [19.502215, 43.7232246], [19.5018228, 43.7231291], [19.5017926, 43.723125], [19.5016153, 43.7231203], [19.5015844, 43.7231196], [19.5014607, 43.7231167], [19.5014298, 43.7231165], [19.5010944, 43.7231196], [19.5010635, 43.7231213], [19.5009106, 43.723136], [19.5008845, 43.7231456], [19.5008334, 43.7231843], [19.5008078, 43.723196], [19.5006703, 43.7232298], [19.5006407, 43.7232365], [19.5004893, 43.7232696], [19.5004615, 43.723279], [19.5002118, 43.7233997], [19.5001877, 43.7234137], [19.5000827, 43.7234865], [19.5000577, 43.7234995], [19.4999384, 43.723544], [19.4999104, 43.7235537], [19.4996998, 43.72362], [19.4996709, 43.7236281], [19.4995571, 43.7236563], [19.4995286, 43.7236651], [19.4993423, 43.7237339], [19.4993139, 43.7237426], [19.4991126, 43.7237914], [19.4990843, 43.7238003], [19.4989694, 43.7238458], [19.4989422, 43.7238566], [19.4987039, 43.7239547], [19.4986762, 43.7239649], [19.4984654, 43.7240332], [19.4984431, 43.7240473], [19.4983171, 43.7241955], [19.4983003, 43.7242144], [19.4981249, 43.7244055], [19.4981081, 43.7244244], [19.4979936, 43.7245567], [19.4979699, 43.7245671], [19.4979218, 43.7245699], [19.4979013, 43.7245813], [19.4978779, 43.7246294], [19.4978666, 43.7246504], [19.4977971, 43.7247703], [19.4977859, 43.7247913], [19.4977189, 43.724928], [19.4977094, 43.7249494], [19.4976361, 43.7251325], [19.4976246, 43.7251534], [19.4975054, 43.7253202], [19.4974939, 43.725341], [19.4973459, 43.7257015], [19.4973364, 43.7257229], [19.4972725, 43.725855], [19.4972636, 43.7258766], [19.4972555, 43.7259003], [19.4972461, 43.7259217], [19.4971371, 43.7261233], [19.4971216, 43.7261424], [19.4968026, 43.7264197], [19.4967793, 43.726434], [19.4963262, 43.7266291], [19.4962983, 43.7266389], [19.4958257, 43.7267695], [19.4957968, 43.7267775], [19.4952846, 43.7269168], [19.4952551, 43.7269237], [19.4949024, 43.726993], [19.4948727, 43.7269998], [19.494404, 43.7271206], [19.4943746, 43.7271279], [19.4940877, 43.727196], [19.4940595, 43.7272053], [19.4937072, 43.7273562], [19.4936811, 43.7273684], [19.493506, 43.7274586], [19.4934789, 43.7274691], [19.4929206, 43.7276203], [19.4928909, 43.7276268], [19.492215, 43.7277422], [19.4921849, 43.7277479], [19.4916586, 43.7278599], [19.4916308, 43.7278694], [19.4913682, 43.7279966], [19.4913442, 43.7280107], [19.4909793, 43.728267], [19.4909553, 43.7282811], [19.4903354, 43.7285824], [19.4903117, 43.7285967], [19.4899004, 43.7289035], [19.4898794, 43.7289201], [19.4895433, 43.7292042], [19.4895231, 43.7292213], [19.4892208, 43.7294772], [19.4891982, 43.7294925], [19.4887339, 43.7297393], [19.4887078, 43.7297515], [19.4881929, 43.7299631], [19.4881647, 43.7299722], [19.4879189, 43.7300318], [19.4878895, 43.7300389], [19.4873287, 43.7301758], [19.4873008, 43.7301852], [19.4868809, 43.7303702], [19.4868546, 43.7303822], [19.4864213, 43.7305828], [19.4863952, 43.7305951], [19.4863427, 43.7306206], [19.4863183, 43.7306343], [19.486316, 43.7306357], [19.4858687, 43.7309214], [19.4858456, 43.7309364], [19.4854195, 43.7312167], [19.4853968, 43.731232], [19.4852331, 43.7313447], [19.4852092, 43.7313589], [19.4847663, 43.7315862], [19.4847413, 43.7315994], [19.4843838, 43.731793], [19.48436, 43.7318072], [19.483953, 43.7320764], [19.4839282, 43.7320896], [19.4835389, 43.7322517], [19.4835114, 43.7322621], [19.4832258, 43.7323608], [19.4831984, 43.7323712], [19.4828042, 43.7325379], [19.4827805, 43.7325518], [19.4825068, 43.7327707], [19.4824835, 43.7327853], [19.482356, 43.7328465], [19.48233, 43.7328587], [19.4822955, 43.7328745], [19.4822708, 43.732888], [19.4818051, 43.7331875], [19.48178, 43.7332006], [19.4813492, 43.7333805], [19.4813244, 43.7333938], [19.4809427, 43.733655], [19.4809229, 43.7336721], [19.4806982, 43.7339226], [19.4806851, 43.7339427], [19.480526, 43.734306], [19.4805174, 43.7343277], [19.4803983, 43.7346648], [19.4803946, 43.734687], [19.4803962, 43.7347778], [19.480398, 43.7348002], [19.4804528, 43.7352111], [19.4804547, 43.7352335], [19.4804637, 43.7354617], [19.480449, 43.7354706], [19.4804085, 43.7354642], [19.4803891, 43.7354727], [19.4802851, 43.7357357], [19.4802749, 43.7357569], [19.4800432, 43.7361611], [19.4800346, 43.7361826], [19.4799976, 43.7363419], [19.4799891, 43.7363633], [19.4797771, 43.7367312], [19.4797649, 43.7367519], [19.4796031, 43.737022], [19.4795851, 43.7370396], [19.4794261, 43.7371373], [19.4794112, 43.7371556], [19.4793088, 43.737519], [19.4793014, 43.7375408], [19.4792531, 43.7376604], [19.479245, 43.7376822], [19.4791198, 43.7380591], [19.4791106, 43.7380806], [19.4789942, 43.7383041], [19.4789825, 43.7383248], [19.478836, 43.7385587], [19.478824, 43.7385794], [19.478667, 43.7388676], [19.4786559, 43.7388887], [19.4785525, 43.7390905], [19.4785407, 43.7391112], [19.4783592, 43.7393977], [19.4781953, 43.7396111], [19.4781813, 43.7396313], [19.4781292, 43.7397174], [19.4781172, 43.7397381], [19.4779555, 43.7400307], [19.4779343, 43.7400395], [19.477913, 43.7400373], [19.4778958, 43.7400469], [19.4778469, 43.7403239], [19.4778492, 43.7403459], [19.4779275, 43.7405488], [19.4779258, 43.7405701], [19.4778396, 43.7407219], [19.4778255, 43.7407419], [19.4775883, 43.7410224], [19.4775716, 43.7410413], [19.4775577, 43.7410564], [19.477543, 43.7410761], [19.4774559, 43.7412212], [19.4774423, 43.7412414], [19.4773813, 43.7413247], [19.4773744, 43.7413458], [19.4773797, 43.7414998], [19.4773764, 43.741522], [19.4773147, 43.7417052], [19.4773117, 43.7417274], [19.4773177, 43.7418356], [19.4773225, 43.7418577], [19.4774317, 43.7421481], [19.4774423, 43.7421692], [19.4775835, 43.7423939], [19.4775913, 43.7424154], [19.4776153, 43.7426235], [19.477616, 43.7426459], [19.477597, 43.7429484], [19.4775931, 43.7429706], [19.4775401, 43.7431494], [19.4775305, 43.7431706], [19.4774421, 43.7433135], [19.4774307, 43.7433344], [19.4773266, 43.743553], [19.4773234, 43.7435748], [19.4773521, 43.7437453], [19.4773537, 43.7437678], [19.4773486, 43.7439983], [19.4773523, 43.7440204], [19.4774161, 43.7441957], [19.4774267, 43.7442167], [19.4775528, 43.7444115], [19.47756, 43.7444329], [19.4775666, 43.7445811], [19.477564, 43.7446034], [19.4774913, 43.7448596], [19.4774932, 43.7448813], [19.4775441, 43.7449881], [19.4775596, 43.7450071], [19.4777954, 43.7451959], [19.4778097, 43.745215], [19.4778662, 43.7453661], [19.4778563, 43.7453817], [19.4777934, 43.7454029], [19.4777733, 43.7454179], [19.4777058, 43.7455312], [19.4776974, 43.7455527], [19.4776707, 43.7456845], [19.4776638, 43.7457064], [19.4775834, 43.7458932], [19.4775754, 43.7459149], [19.4775178, 43.7460993], [19.4775107, 43.7461211], [19.4774767, 43.7462201], [19.4774683, 43.7462417], [19.4773797, 43.7464433], [19.4773682, 43.746464], [19.4772895, 43.7465799], [19.4772803, 43.7466011], [19.4772465, 43.7467626], [19.4772406, 43.7467848], [19.4771629, 43.7470191], [19.4771614, 43.7470238], [19.477152, 43.7470452], [19.4770272, 43.7472662], [19.4770149, 43.7472869], [19.4769416, 43.7474048], [19.4769248, 43.7474234], [19.4767885, 43.7475337], [19.4767689, 43.7475511], [19.4766983, 43.7476188], [19.4766803, 43.7476371], [19.476629, 43.747693], [19.4766143, 43.7477127], [19.4765899, 43.7477544], [19.4765755, 43.7477742], [19.476491, 43.7478695], [19.476472, 43.7478872], [19.4763688, 43.7479673], [19.4763487, 43.7479844], [19.4762605, 43.7480669], [19.4762414, 43.7480847], [19.4761745, 43.748147], [19.4761504, 43.7481595], [19.4760443, 43.7481867], [19.4760164, 43.7481845], [19.4759898, 43.7481726], [19.4759729, 43.7481777], [19.4759097, 43.748362], [19.4758975, 43.7483824], [19.4758621, 43.7484222], [19.4758434, 43.7484401], [19.4756649, 43.7485863], [19.475645, 43.7486036], [19.4755505, 43.7486918], [19.4755313, 43.7487095], [19.4754306, 43.7488012], [19.4754108, 43.7488185], [19.4752642, 43.7489432], [19.4752427, 43.7489594], [19.4751301, 43.7490359], [19.4751083, 43.749052], [19.4749221, 43.7492016], [19.4748991, 43.7492167], [19.4747765, 43.7492823], [19.4747511, 43.7492952], [19.474628, 43.7493539], [19.4746026, 43.7493668], [19.4745359, 43.7494034], [19.4745118, 43.7494175], [19.4744531, 43.7494543], [19.4744295, 43.7494689], [19.4743311, 43.7495293], [19.474307, 43.7495435], [19.474227, 43.7495887], [19.4742025, 43.7496024], [19.4740859, 43.7496669], [19.4740675, 43.7496841], [19.4740145, 43.749778], [19.4739994, 43.7497975], [19.4738388, 43.7499586], [19.4738193, 43.7499763], [19.4737023, 43.7500729], [19.4736794, 43.7500879], [19.4736469, 43.7501049], [19.4736229, 43.750119], [19.473491, 43.7502079], [19.4734701, 43.7502244], [19.473421, 43.7502698], [19.4734116, 43.7502899], [19.473413, 43.7503728], [19.4734081, 43.7503947], [19.4733744, 43.7504656], [19.4733706, 43.7504874], [19.4733708, 43.750489], [19.4733564, 43.7505], [19.4733195, 43.7504995], [19.4732884, 43.7504983], [19.4730622, 43.7504848], [19.4730313, 43.7504851], [19.4726709, 43.7505145], [19.4726401, 43.7505164], [19.4725318, 43.750521], [19.4725029, 43.7505274], [19.4722319, 43.7506443], [19.4722063, 43.7506568], [19.4719372, 43.7508037], [19.4719096, 43.7508126], [19.4717561, 43.7508341], [19.4717293, 43.7508438], [19.4715589, 43.7509564], [19.4715339, 43.7509693], [19.4714045, 43.7510203], [19.4713801, 43.7510339], [19.4711607, 43.7512017], [19.4711356, 43.751214], [19.4710131, 43.7512492], [19.4709836, 43.7512562], [19.4707992, 43.7512909], [19.4707687, 43.7512929], [19.4705488, 43.7512815], [19.470518, 43.7512825], [19.470355, 43.7513023], [19.4703262, 43.7513097], [19.4702477, 43.7513416], [19.4702195, 43.7513509], [19.4701183, 43.751377], [19.470093, 43.7513889], [19.4700561, 43.7514175], [19.4700349, 43.7514339], [19.4698717, 43.7515623], [19.4698544, 43.7515807], [19.4698316, 43.7516149], [19.4698183, 43.7516352], [19.4697302, 43.7517759], [19.4697209, 43.7517971], [19.4696698, 43.751993], [19.4696576, 43.7520129], [19.4695805, 43.7520864], [19.46956, 43.7521032], [19.4694127, 43.7522085], [19.4693947, 43.7522265], [19.4692933, 43.7523718], [19.469272, 43.7523862], [19.4690312, 43.7524593], [19.4690041, 43.75247], [19.4686257, 43.7526585], [19.4686024, 43.7526733], [19.4683513, 43.7528757], [19.4683329, 43.7528937], [19.467891, 43.7534173], [19.4678721, 43.7534349], [19.4675045, 43.7537084], [19.467481, 43.7537229], [19.4673123, 43.7538101], [19.4672964, 43.7538276], [19.4672659, 43.7539344], [19.4672657, 43.7539565], [19.4672811, 43.7540137], [19.4672874, 43.7540358], [19.4674004, 43.7544211], [19.4674067, 43.754443], [19.4674864, 43.7547373], [19.4674887, 43.7547595], [19.4674616, 43.755181], [19.4674574, 43.7552032], [19.4674263, 43.7552998], [19.4674145, 43.7553203], [19.4671546, 43.7556212], [19.4671497, 43.7556394], [19.4671505, 43.7556416], [19.467146, 43.7556601], [19.4670074, 43.7558352], [19.4669927, 43.755855], [19.4667328, 43.7562316], [19.4667179, 43.7562513], [19.4664209, 43.7566144], [19.466174, 43.7569073], [19.4661577, 43.7569264], [19.4658437, 43.757294], [19.4658841, 43.7574754], [19.4659977, 43.7579197], [19.465981, 43.7581958], [19.4659793, 43.7582183], [19.4659521, 43.7585505], [19.4659633, 43.7588652], [19.4659623, 43.7592618], [19.4659215, 43.7599557], [19.4660298, 43.7602233], [19.4660624, 43.7602705], [19.4660828, 43.7605003], [19.4659197, 43.761222], [19.4656097, 43.7622707], [19.4656505, 43.7627303], [19.4654669, 43.7631721], [19.4654914, 43.7636199], [19.4654343, 43.7640352], [19.4653935, 43.764483], [19.4652589, 43.7645272], [19.4650346, 43.7646509], [19.4643248, 43.7650751], [19.463403, 43.7654698], [19.4631461, 43.7655375], [19.4625546, 43.7657761], [19.4620692, 43.765891], [19.4616369, 43.7659264], [19.4610454, 43.7660648], [19.4606498, 43.7662946], [19.4601618, 43.7665438], [19.4596056, 43.7667276], [19.4589122, 43.7669426], [19.4582636, 43.76714], [19.4577882, 43.7678271], [19.4574531, 43.7680461], [19.4571124, 43.7682901], [19.4569483, 43.7684084], [19.4567821, 43.7685419], [19.4566866, 43.7686222], [19.4564892, 43.7687998], [19.4559092, 43.769341], [19.4557628, 43.7695456], [19.4556033, 43.7698762], [19.4551939, 43.7706334], [19.4550424, 43.770843], [19.4549956, 43.7708798], [19.4549063, 43.7710103], [19.4547592, 43.7712503], [19.4545376, 43.7713287], [19.4539431, 43.7714418], [19.4536886, 43.771558], [19.4533775, 43.771642], [19.4530872, 43.7717711], [19.4528225, 43.7718426], [19.4524633, 43.7719407], [19.4520175, 43.772043], [19.4517182, 43.7720917], [19.4514852, 43.7724737], [19.4513585, 43.7726101], [19.4510398, 43.7730065], [19.4509615, 43.7730438], [19.4508789, 43.7730818], [19.4504033, 43.7733442], [19.4499275, 43.7735376], [19.4492886, 43.7739796], [19.4488402, 43.7743325], [19.4484479, 43.7746252], [19.4479102, 43.7749738], [19.4475577, 43.7751213], [19.4474623, 43.7751669], [19.4473066, 43.7752247], [19.4471589, 43.7752655], [19.4470148, 43.7753218], [19.4466118, 43.7754262], [19.4462083, 43.7755063], [19.4456166, 43.7756754], [19.4452523, 43.7758027], [19.4450346, 43.775872], [19.4445778, 43.7759015], [19.4436027, 43.7760111], [19.4431408, 43.7760451], [19.4424729, 43.7761147], [19.4418445, 43.7761405], [19.4414365, 43.7761307], [19.4406576, 43.7761177], [19.440613, 43.7761098], [19.4401419, 43.7761175], [19.4396838, 43.7761755], [19.4392194, 43.776275], [19.4391171, 43.7762813], [19.4388306, 43.7763727], [19.4385918, 43.7763218], [19.4382912, 43.7762907], [19.4381965, 43.7762705], [19.4376817, 43.7761803], [19.4374732, 43.7761635], [19.4370383, 43.7761342], [19.4365157, 43.7761331], [19.4363125, 43.7761222], [19.4358435, 43.7761995], [19.4354125, 43.7761931], [19.4349108, 43.7762255], [19.4345203, 43.7762785], [19.4342286, 43.7763874], [19.4339515, 43.7764291], [19.4336423, 43.7764375], [19.4333772, 43.7764316], [19.4330386, 43.7763904], [19.4327531, 43.7763874], [19.4323983, 43.7764287], [19.4319822, 43.7765259], [19.4314927, 43.7767026], [19.4312602, 43.7768528], [19.4310517, 43.7772412], [19.4308325, 43.7777952], [19.4307229, 43.7783074], [19.4307633, 43.7785657], [19.4308325, 43.7788364], [19.4308556, 43.7790196], [19.4308844, 43.7791737], [19.4309133, 43.7794236], [19.4309479, 43.7798609], [19.4312709, 43.7801316], [19.4313055, 43.7802483], [19.4314266, 43.7802691], [19.4315247, 43.7804232], [19.4316747, 43.7807439], [19.4317554, 43.7810354], [19.4317727, 43.7813228], [19.4316862, 43.7817351], [19.4317093, 43.7819183], [19.4316112, 43.7823139], [19.4316631, 43.7826888], [19.4316631, 43.7831219], [19.4317035, 43.7832801], [19.4315824, 43.7834051], [19.4315478, 43.7837424], [19.4314439, 43.7839923], [19.4312363, 43.784263], [19.4309882, 43.7848085], [19.4307575, 43.7852041], [19.4306075, 43.7854415], [19.4303768, 43.7857247], [19.4301345, 43.7861494], [19.4299211, 43.7863993], [19.4297769, 43.7867283], [19.4296384, 43.786974], [19.4295981, 43.787253], [19.4294192, 43.7875487], [19.4290212, 43.7882358], [19.4285309, 43.7887979], [19.4282656, 43.788977], [19.4279829, 43.7892227], [19.4275445, 43.7894975], [19.4270715, 43.7896849], [19.4265062, 43.7898556], [19.4263389, 43.7899472], [19.4258313, 43.7902137], [19.4251218, 43.7910215], [19.4247699, 43.7913463], [19.4244256, 43.7915807], [19.42402, 43.7919168], [19.42393, 43.7922046], [19.4238607, 43.7924961], [19.4237954, 43.7924785], [19.4237669, 43.7927258], [19.4237098, 43.7931645], [19.4236568, 43.7933146], [19.42362, 43.793347], [19.4235589, 43.7936503], [19.423461, 43.7938417], [19.4233019, 43.7942274], [19.4230612, 43.7947073], [19.4226166, 43.7953197], [19.4220681, 43.7958546], [19.4214797, 43.7964625], [19.4210586, 43.7967789], [19.4208493, 43.7967994], [19.4204863, 43.7968793], [19.419969, 43.7970126], [19.4194301, 43.7971395], [19.418765, 43.7971945], [19.4179316, 43.7970801], [19.4176552, 43.7969454], [19.4173812, 43.7966082], [19.4170351, 43.7963771], [19.416865, 43.7961606], [19.4166862, 43.7961502], [19.4165275, 43.7959191], [19.4164785, 43.795713], [19.4164468, 43.7955215], [19.4163602, 43.7952467], [19.4162564, 43.794976], [19.4161064, 43.79467], [19.415942, 43.7944639], [19.415668, 43.7942349], [19.4154719, 43.794162], [19.4149701, 43.7941329], [19.4146759, 43.794087], [19.4142173, 43.7939913], [19.4139433, 43.7939746], [19.4131155, 43.7940225], [19.4126737, 43.7940654], [19.4121407, 43.7940183], [19.4117455, 43.793983], [19.4113994, 43.7939288], [19.4108197, 43.7940038], [19.4101073, 43.7941245], [19.4097064, 43.7942349], [19.4095824, 43.7943473], [19.4092334, 43.7944951], [19.4088411, 43.7947428], [19.4085066, 43.7950114], [19.4082009, 43.7953174], [19.4078692, 43.7957317], [19.407451, 43.7962855], [19.4067415, 43.7968164], [19.4062483, 43.7972619], [19.4059887, 43.7974076], [19.4057147, 43.7974825], [19.4054234, 43.7975325], [19.4046937, 43.7976345], [19.4039294, 43.7976761], [19.4027757, 43.7976512], [19.4022969, 43.7975762], [19.4017864, 43.7973951], [19.401074, 43.7971016], [19.4007856, 43.797035], [19.4005664, 43.7970245], [19.400327, 43.7970245], [19.4001482, 43.7970516], [19.3999924, 43.797087], [19.39988, 43.7971328], [19.3994704, 43.7971619], [19.3987176, 43.7972681], [19.397812, 43.7974201], [19.3974226, 43.7975096], [19.3970102, 43.7975679], [19.396572, 43.7976774], [19.3957498, 43.797926], [19.3954037, 43.7980613], [19.3950259, 43.7981321], [19.3945327, 43.7983048], [19.3944412, 43.7983855], [19.3943654, 43.7984547], [19.394224, 43.7989106], [19.3942004, 43.7989741], [19.3942298, 43.7992125], [19.394299, 43.7994248], [19.3942904, 43.800295], [19.3944173, 43.8006155], [19.3945788, 43.8012817], [19.3944259, 43.8018208], [19.394374, 43.8021414], [19.394374, 43.8022829], [19.3943481, 43.8024453], [19.394325, 43.802514], [19.3941173, 43.8027825], [19.3938289, 43.803432], [19.3935132, 43.8039032], [19.3934411, 43.804114], [19.3930364, 43.8049403], [19.3927681, 43.8054436], [19.3924785, 43.8061637], [19.3923604, 43.8065431], [19.3922531, 43.8070387], [19.3921995, 43.8077974], [19.3920922, 43.8084014], [19.3918133, 43.8087808], [19.3915343, 43.809044], [19.3913197, 43.8091911], [19.3912194, 43.8092676], [19.3905146, 43.8094677], [19.3900682, 43.8094958], [19.3898597, 43.8095225], [19.3895225, 43.8096069], [19.3890703, 43.8097392], [19.3889982, 43.8100978], [19.3888442, 43.8102483], [19.3886473, 43.8105465], [19.3886317, 43.8106928], [19.3885323, 43.8109207], [19.3883296, 43.8110951], [19.3883471, 43.8112076], [19.3882945, 43.8113609], [19.3881396, 43.8116598], [19.3879066, 43.8118989], [19.3875246, 43.8120748], [19.3871562, 43.8123322], [19.3870782, 43.8127269], [19.386979, 43.8129736], [19.3868467, 43.8132143], [19.3866013, 43.8134629], [19.3861879, 43.8136857], [19.3859343, 43.8138508], [19.3857882, 43.8139721], [19.38562, 43.8140716], [19.385281, 43.8141949], [19.3851321, 43.8144117], [19.3849447, 43.814527], [19.3848454, 43.8146225], [19.3847848, 43.8147478], [19.3840681, 43.8152312], [19.3834479, 43.8155713], [19.3831474, 43.8157145], [19.3826292, 43.8160228], [19.3821551, 43.8163311], [19.3816231, 43.8165618], [19.3814797, 43.8166931], [19.380526, 43.8172421], [19.3799251, 43.8176418], [19.3795943, 43.817978], [19.3795171, 43.8181112], [19.3790292, 43.8186323], [19.3788335, 43.818875], [19.3787094, 43.8190898], [19.3785248, 43.8193762], [19.3782684, 43.8196148], [19.3781168, 43.8198973], [19.3780672, 43.8198973], [19.3778384, 43.8202473], [19.3776344, 43.8203965], [19.3772016, 43.8205735], [19.3768075, 43.8208082], [19.3763829, 43.8211204], [19.375964, 43.8214744], [19.3758482, 43.8216315], [19.3754871, 43.8219378], [19.3752032, 43.8220989], [19.3748393, 43.8222361], [19.374401, 43.8224828], [19.3741336, 43.8225961], [19.3735989, 43.82298], [19.3734362, 43.8232783], [19.3731413, 43.8234334], [19.372805, 43.8237774], [19.3725404, 43.8240618], [19.3723695, 43.8242707], [19.3722041, 43.8244099], [19.3720387, 43.8245928], [19.3719615, 43.8247857], [19.3719064, 43.8250681], [19.3719753, 43.8253187], [19.3718705, 43.8255613], [19.3716776, 43.8257741], [19.3714764, 43.8259093], [19.3713054, 43.8261022], [19.3712613, 43.8264463], [19.3711979, 43.8267525], [19.3712751, 43.827029], [19.3712944, 43.8271383], [19.3714047, 43.8272935], [19.3714598, 43.8272716], [19.3715866, 43.8274406], [19.3718375, 43.8276633], [19.3723447, 43.8279318], [19.3726424, 43.8282321], [19.3728133, 43.8283355], [19.3728711, 43.828419], [19.3728491, 43.8285503], [19.3729401, 43.8288883], [19.373224, 43.8293019], [19.3734693, 43.8297494], [19.3736843, 43.8299601], [19.3737836, 43.830509], [19.3738718, 43.8307655], [19.3740234, 43.83103], [19.3741998, 43.8312109], [19.3743238, 43.8314436], [19.3746078, 43.8321674], [19.3746932, 43.8324915], [19.3747428, 43.8326605], [19.3747483, 43.8327938], [19.3747897, 43.8329827], [19.3747483, 43.8332093], [19.3747153, 43.8335911], [19.3746767, 43.8336408], [19.3747042, 43.83379], [19.3746877, 43.834134], [19.374696, 43.8344461], [19.374514, 43.8345794], [19.3742852, 43.8347941], [19.3740592, 43.8350307], [19.3738663, 43.8351301], [19.3737229, 43.8351838], [19.3734803, 43.8351441], [19.3733342, 43.8352296], [19.373235, 43.835331], [19.3730421, 43.8354344], [19.3728877, 43.8355298], [19.3726368, 43.8355934], [19.372397, 43.8356213], [19.3719615, 43.8355934], [19.3715425, 43.8355735], [19.3707762, 43.8356809], [19.3704564, 43.8356292], [19.370269, 43.8356133], [19.3701036, 43.8356312], [19.3700016, 43.8357088], [19.3696901, 43.8360468], [19.3693097, 43.8361462], [19.3690947, 43.8361283], [19.3686399, 43.8361899], [19.3682347, 43.8362217], [19.3677275, 43.8363649], [19.3673443, 43.8365399], [19.3673443, 43.8364763], [19.367077, 43.8366194], [19.3666717, 43.8367606], [19.3659799, 43.837029], [19.3653596, 43.8371563], [19.364993, 43.8372477], [19.3642874, 43.837705], [19.364133, 43.8378879], [19.3635707, 43.8382657], [19.3633777, 43.8384685], [19.362457, 43.8390491], [19.3623799, 43.839232], [19.3625011, 43.8395939], [19.362209, 43.8402221], [19.3612662, 43.8411606], [19.3604889, 43.8419161], [19.3600478, 43.8421904], [19.3594469, 43.8427789], [19.3588074, 43.8433316], [19.3586089, 43.8434191], [19.3580174, 43.8438827], [19.3574457, 43.8443257], [19.3572803, 43.8444887], [19.3568503, 43.8448266], [19.3565195, 43.8449817], [19.3561887, 43.8452561], [19.3555382, 43.8455582], [19.3550751, 43.8456378], [19.3549097, 43.8456338], [19.3545899, 43.8458366], [19.3541048, 43.8459042], [19.353763, 43.8461348], [19.3535259, 43.8464369], [19.3534543, 43.8466596], [19.3534102, 43.8471566], [19.3529857, 43.8476814], [19.3525336, 43.8481267], [19.3522745, 43.8484289], [19.3519768, 43.8488106], [19.3517121, 43.8493234], [19.3516846, 43.8494705], [19.3515302, 43.8499039], [19.3511994, 43.8502299], [19.3509183, 43.8504128], [19.3503945, 43.8506036], [19.3499204, 43.8506672], [19.3494739, 43.8506712], [19.3490714, 43.8508422], [19.3485422, 43.8512676], [19.3480956, 43.8518083], [19.3476766, 43.8522217], [19.3473734, 43.8523808], [19.3470043, 43.8525486], [19.3461164, 43.8529532], [19.3459014, 43.8532951], [19.3458738, 43.8537285], [19.3459676, 43.8539749], [19.3460172, 43.8543645], [19.3459951, 43.8549251], [19.3458187, 43.8551954], [19.345532, 43.8554777], [19.3450634, 43.8557758], [19.3447106, 43.8559507], [19.3438892, 43.8566981], [19.3432221, 43.8571632], [19.3430016, 43.8574057], [19.3429685, 43.8577158], [19.3430512, 43.8580258], [19.3431063, 43.8583518], [19.3430512, 43.8584989], [19.3429299, 43.8586857], [19.3424888, 43.858964], [19.3423151, 43.8591047], [19.342035, 43.8593492], [19.3417946, 43.8595566], [19.3416895, 43.859763], [19.3418052, 43.8600412], [19.341298, 43.8605659], [19.3408901, 43.8608362], [19.3404545, 43.8609913], [19.3401238, 43.8611781], [19.3398685, 43.861343], [19.3397048, 43.8614842], [19.3395228, 43.8617107], [19.3391645, 43.8619651], [19.3386683, 43.8624859], [19.338514, 43.8628078], [19.3379498, 43.8632389], [19.3379615, 43.8633148], [19.3379245, 43.8633499], [19.3379888, 43.8634061], [19.3379713, 43.8634511], [19.3377003, 43.8637083], [19.3376115, 43.8639433], [19.3374283, 43.864275], [19.3373464, 43.8645645], [19.3373542, 43.8649017], [19.3373269, 43.8650226], [19.3373152, 43.8652474], [19.3372645, 43.8654301], [19.3372094, 43.8656749], [19.3372149, 43.8660008], [19.3370992, 43.8664818], [19.3369172, 43.8668435], [19.3365534, 43.8673125], [19.3365037, 43.8675192], [19.3364762, 43.8678212], [19.3365313, 43.8680478], [19.3365864, 43.8681193], [19.3365258, 43.868163], [19.3361123, 43.8683578], [19.3360076, 43.8684572], [19.3358808, 43.8686161], [19.3357319, 43.8687672], [19.3356603, 43.8688506], [19.3352413, 43.8691209], [19.3355004, 43.8694587], [19.3358036, 43.8696495], [19.3350648, 43.8699277], [19.3348057, 43.8700748], [19.3346844, 43.8702457], [19.3346679, 43.8703291], [19.3342379, 43.8705278], [19.3343096, 43.8710127], [19.3339016, 43.8713982], [19.3333338, 43.8720341], [19.3330746, 43.8720898], [19.3326612, 43.8723083], [19.3323635, 43.872519], [19.3319831, 43.8729164], [19.3316798, 43.8733893], [19.3312829, 43.8739338], [19.3308088, 43.8744743], [19.3304063, 43.8748121], [19.3298771, 43.8751578], [19.3290612, 43.8757102], [19.3284272, 43.8761394], [19.3278593, 43.8770137], [19.3276443, 43.8774111], [19.3274403, 43.8775422], [19.3267677, 43.8779078], [19.3264425, 43.8782496], [19.3253454, 43.8785834], [19.3248878, 43.8788377], [19.3247445, 43.8788099], [19.3242979, 43.8790443], [19.323934, 43.8795331], [19.323697, 43.879553], [19.3231732, 43.879696], [19.3227543, 43.879847], [19.3225282, 43.8800894], [19.3221809, 43.8801928], [19.3215965, 43.8801093], [19.3209515, 43.8799504], [19.3199426, 43.8801292], [19.3195677, 43.8801848], [19.3195622, 43.8802842], [19.3187794, 43.8807411], [19.3183714, 43.8811147], [19.3180572, 43.8812696], [19.3179083, 43.8816233], [19.3174948, 43.8819173], [19.3164694, 43.8822471], [19.3161221, 43.8826525], [19.3156094, 43.8830895], [19.3155542, 43.8835624], [19.3151904, 43.8839359], [19.3150801, 43.8847266], [19.3149368, 43.8850763], [19.3147273, 43.8854379], [19.3146281, 43.8854975], [19.3143193, 43.8859028], [19.3143138, 43.886022], [19.3141594, 43.8861451], [19.3139885, 43.8864948], [19.3141925, 43.8873292], [19.3142697, 43.8874643], [19.3144682, 43.8876669], [19.3151849, 43.8884894], [19.3153447, 43.8886046], [19.3154715, 43.8887834], [19.3151959, 43.8896892], [19.3150195, 43.8899197], [19.3147163, 43.8902693], [19.3146336, 43.8904004], [19.3142421, 43.8906428], [19.3139279, 43.8907699], [19.3136633, 43.8910401], [19.3134648, 43.8915327], [19.3131285, 43.8918307], [19.3125221, 43.8921247], [19.3123016, 43.8921724], [19.3116345, 43.8927643], [19.3110115, 43.8932371], [19.3102783, 43.893694], [19.3100853, 43.8937536], [19.3097821, 43.8940277], [19.3098262, 43.8941111], [19.3094954, 43.8943376], [19.3093411, 43.8945005], [19.3092198, 43.894715], [19.3092143, 43.8950447], [19.3092694, 43.8956248], [19.309512, 43.8960181], [19.3097821, 43.8964988], [19.3099861, 43.8968444], [19.3101129, 43.8969675], [19.3103334, 43.8971701], [19.3105539, 43.897341], [19.3105539, 43.8974959], [19.3104602, 43.8976667], [19.3100136, 43.8981514], [19.3090213, 43.8985804], [19.3088228, 43.8987274], [19.3087842, 43.8990611], [19.3086519, 43.8994186], [19.3082826, 43.8997801], [19.3078746, 43.9000303], [19.307643, 43.9001813], [19.3072241, 43.9003283], [19.3069895, 43.9004611], [19.3064522, 43.9013174], [19.3064633, 43.9015279], [19.3062372, 43.9018616], [19.3057741, 43.9021834], [19.3053386, 43.9023661], [19.3051897, 43.9024376], [19.3045557, 43.9033035], [19.3045282, 43.9034704], [19.3037178, 43.9040582], [19.3027916, 43.9045428], [19.3023175, 43.9050235], [19.3019205, 43.9052062], [19.3014464, 43.9056232], [19.300432, 43.9060959], [19.2998256, 43.9070611], [19.2992081, 43.9078078], [19.2988939, 43.9082209], [19.2985686, 43.9085784], [19.2976755, 43.9092178], [19.2972564, 43.9095163], [19.2969533, 43.9099129], [19.2967603, 43.9103339], [19.2966721, 43.9108939], [19.2966666, 43.9117438], [19.2967162, 43.912423], [19.2967658, 43.9129194], [19.2968651, 43.913265], [19.2968375, 43.9140235], [19.2966776, 43.9145358], [19.2965508, 43.9147185], [19.2962366, 43.9151395], [19.2957294, 43.9159457], [19.295575, 43.9161323], [19.2954923, 43.9169862], [19.2954758, 43.9173198], [19.2943291, 43.9188447], [19.2941802, 43.9195913], [19.2939983, 43.9198375], [19.2931052, 43.9202624], [19.2926752, 43.9206357], [19.2923389, 43.9210407], [19.2920632, 43.9213743], [19.2913858, 43.9219279], [19.2912971, 43.9220136], [19.2912741, 43.9220433], [19.2912663, 43.9220644], [19.2912569, 43.9224814], [19.2912495, 43.9225027], [19.291113, 43.9226923], [19.2910957, 43.9227109], [19.2909073, 43.9228695], [19.2908865, 43.9228863], [19.2904932, 43.9231916], [19.2904713, 43.9232076], [19.2903229, 43.9233082], [19.290302, 43.9233248], [19.2900344, 43.9235747], [19.290017, 43.9235933], [19.289814, 43.9238457], [19.2897985, 43.9238652], [19.289771, 43.9238996], [19.2897592, 43.9239202], [19.2896714, 43.9241619], [19.2896555, 43.92418], [19.2894315, 43.9243174], [19.2894066, 43.9243308], [19.2893198, 43.9243716], [19.2893012, 43.9243883], [19.289202, 43.9245768], [19.2891852, 43.924595], [19.2887593, 43.92489], [19.2887367, 43.9249055], [19.2883979, 43.9251363], [19.2883748, 43.9251514], [19.2882948, 43.9252019], [19.2882697, 43.925215], [19.2878112, 43.9254162], [19.2877847, 43.925428], [19.2873377, 43.9256323], [19.2873106, 43.9256334], [19.2872685, 43.925618], [19.2872398, 43.9256165], [19.2868713, 43.9257047], [19.2868413, 43.9257104], [19.2867546, 43.9257226], [19.2867241, 43.9257271], [19.2862988, 43.9257916], [19.2862729, 43.9258021], [19.2861908, 43.925865], [19.2861692, 43.9258811], [19.2857398, 43.9261925], [19.2857158, 43.9262066], [19.2853386, 43.9263824], [19.2853125, 43.9263945], [19.2852131, 43.9264412], [19.2851865, 43.9264527], [19.2850262, 43.9265162], [19.2849981, 43.9265259], [19.2846471, 43.9266288], [19.2846189, 43.9266383], [19.2841392, 43.926822], [19.284113, 43.9268342], [19.2837886, 43.9270162], [19.2837684, 43.9270327], [19.2835891, 43.9272507], [19.2835782, 43.9272714], [19.2834801, 43.9276391], [19.283482, 43.9276608], [19.2835493, 43.9278141], [19.2835595, 43.9278353], [19.2836464, 43.9280011], [19.2836522, 43.9280229], [19.28366, 43.9283643], [19.2836586, 43.9283869], [19.2836554, 43.9284096], [19.2836514, 43.9284319], [19.2836493, 43.9284416], [19.283647, 43.9284639], [19.2836486, 43.9286412], [19.2836471, 43.9286636], [19.2835875, 43.9290852], [19.2835835, 43.9291075], [19.2835147, 43.9294199], [19.28351, 43.9294421], [19.2834911, 43.929534], [19.2834887, 43.9295565], [19.283484, 43.9298051], [19.2834834, 43.9298276], [19.2834761, 43.9301083], [19.2834783, 43.9301306], [19.283545, 43.9304323], [19.2835551, 43.9304532], [19.283967, 43.9309738], [19.283973, 43.9309948], [19.2839727, 43.930997], [19.2839567, 43.9310126], [19.2835534, 43.9311403], [19.2835241, 43.9311475], [19.2830599, 43.9312317], [19.2830298, 43.9312374], [19.2826593, 43.931308], [19.2826288, 43.9313092], [19.282277, 43.9312727], [19.2822462, 43.9312732], [19.2819275, 43.9313145], [19.2819011, 43.9313244], [19.2816415, 43.9315096], [19.2816197, 43.9315256], [19.2813906, 43.9316975], [19.2813742, 43.9317161], [19.2812977, 43.9318586], [19.2812818, 43.9318775], [19.2811905, 43.9319528], [19.2811749, 43.9319718], [19.2810983, 43.9321249], [19.2810796, 43.9321412], [19.2809259, 43.932207], [19.2808998, 43.9322191], [19.2805233, 43.9324062], [19.2805042, 43.9324229], [19.2802862, 43.9327834], [19.2802742, 43.9328042], [19.2801744, 43.9329826], [19.2801586, 43.9330016], [19.2798171, 43.9332974], [19.279793, 43.9333107], [19.2793144, 43.9334693], [19.2792869, 43.9334799], [19.2789053, 43.9336496], [19.2788864, 43.933666], [19.2787328, 43.9339501], [19.2787213, 43.9339711], [19.2785772, 43.9342308], [19.2785671, 43.934252], [19.2784967, 43.9344282], [19.2784828, 43.9344478], [19.2782103, 43.9346986], [19.2781937, 43.9347175], [19.277997, 43.9349993], [19.2779791, 43.9350173], [19.2777616, 43.9351758], [19.2777453, 43.9351944], [19.2776754, 43.9353344], [19.277656, 43.9353498], [19.2773851, 43.9354442], [19.277359, 43.9354562], [19.2769314, 43.9357084], [19.2769167, 43.9357266], [19.2768049, 43.9362011], [19.2767868, 43.9362126], [19.27637, 43.9362247], [19.2763406, 43.9362302], [19.2758963, 43.9363923], [19.2758689, 43.9364031], [19.2754615, 43.9365747], [19.2754326, 43.9365788], [19.2751534, 43.9365504], [19.2751227, 43.9365468], [19.2747907, 43.9365034], [19.2747626, 43.9364949], [19.2744946, 43.9363602], [19.2744676, 43.9363583], [19.2741838, 43.936446], [19.274167, 43.9364615], [19.2741109, 43.9367047], [19.274102, 43.9367262], [19.2739602, 43.9369587], [19.2739424, 43.9369766], [19.2734907, 43.9372723], [19.2734691, 43.9372884], [19.2732162, 43.9375071], [19.273207, 43.937527], [19.2732262, 43.9377879], [19.2732212, 43.9378096], [19.2731648, 43.9379106], [19.2731479, 43.9379289], [19.2731019, 43.9379617], [19.2730784, 43.9379764], [19.2725858, 43.9382535], [19.2725586, 43.9382637], [19.2720046, 43.9383849], [19.271978, 43.9383956], [19.2718067, 43.9385025], [19.2717918, 43.9385209], [19.2716756, 43.9389405], [19.2716681, 43.9389624], [19.2716612, 43.938979], [19.2716548, 43.939001], [19.2716431, 43.9390706], [19.2716441, 43.9390928], [19.2716939, 43.9392888], [19.2716846, 43.9393069], [19.271575, 43.9393692], [19.271552, 43.9393842], [19.2710552, 43.9397524], [19.2710311, 43.9397663], [19.2704991, 43.9400044], [19.2704737, 43.9400173], [19.2703505, 43.9400875], [19.2703385, 43.9401057], [19.2703412, 43.9403494], [19.2703384, 43.9403716], [19.2702845, 43.9405777], [19.2702736, 43.9405985], [19.2701123, 43.9407939], [19.2701081, 43.9408145], [19.270293, 43.9413398], [19.2703103, 43.9413562], [19.2706303, 43.9414872], [19.2706482, 43.9415035], [19.2707591, 43.9417768], [19.2707645, 43.9417989], [19.270795, 43.9420916], [19.2707844, 43.9421102], [19.2705405, 43.9422634], [19.2705136, 43.9422734], [19.2702696, 43.9423159], [19.2702414, 43.9423247], [19.2698599, 43.9425074], [19.2698464, 43.9425248], [19.2698332, 43.9428294], [19.2698339, 43.9428519], [19.2698694, 43.943159], [19.2698688, 43.9431814], [19.2698127, 43.9435104], [19.2698092, 43.9435327], [19.2697484, 43.9439726], [19.2697442, 43.9439948], [19.269615, 43.9445439], [19.2696037, 43.9445644], [19.2693086, 43.9448859], [19.2692977, 43.9449065], [19.2692693, 43.9450509], [19.2692532, 43.9450671], [19.2688832, 43.9452028], [19.2688541, 43.9452103], [19.2684609, 43.9452716], [19.2684352, 43.9452823], [19.2680811, 43.9455646], [19.2680637, 43.945583], [19.2678625, 43.9458751], [19.2678402, 43.9458872], [19.2676062, 43.9459189], [19.2675857, 43.9459316], [19.2674173, 43.9462677], [19.2674059, 43.9462887], [19.2671301, 43.9467608], [19.2671088, 43.9467734], [19.2666639, 43.9468389], [19.2666332, 43.9468401], [19.2662995, 43.9468162], [19.2662685, 43.9468163], [19.2656424, 43.946863], [19.2656147, 43.9468711], [19.2653624, 43.9470153], [19.2653527, 43.9470334], [19.2653729, 43.9471248], [19.2653643, 43.9471438], [19.2650694, 43.9473555], [19.2650469, 43.9473711], [19.2648485, 43.9475054], [19.2648219, 43.947511], [19.2645301, 43.9474724], [19.2645009, 43.9474754], [19.2643211, 43.9475396], [19.2642932, 43.9475495], [19.263994, 43.9476527], [19.2639653, 43.9476616], [19.2636701, 43.9477426], [19.263646, 43.9477377], [19.2635044, 43.947607], [19.2634792, 43.9475991], [19.2633317, 43.9476088], [19.2633013, 43.947613], [19.2631991, 43.9476344], [19.2631701, 43.9476423], [19.2628803, 43.9477428], [19.2628515, 43.9477509], [19.262394, 43.9478526], [19.2623644, 43.9478596], [19.262017, 43.9479462], [19.2619916, 43.9479581], [19.2617044, 43.9481785], [19.2616786, 43.9481893], [19.2613827, 43.9482414], [19.2613599, 43.9482539], [19.2612107, 43.9484436], [19.2612028, 43.9484646], [19.2611983, 43.9487699], [19.2611968, 43.9487924], [19.2611642, 43.9490483], [19.2611484, 43.9490636], [19.2606669, 43.9492027], [19.260637, 43.9492077], [19.2601089, 43.9492334], [19.2600795, 43.9492289], [19.2597528, 43.9491031], [19.2597239, 43.9490951], [19.2592909, 43.9490151], [19.2592605, 43.94901], [19.2589112, 43.9489586], [19.2588803, 43.9489561], [19.258376, 43.9489508], [19.2583458, 43.9489468], [19.2580143, 43.9488609], [19.2579975, 43.9488683], [19.2579277, 43.9492515], [19.2579134, 43.9492695], [19.2575914, 43.949453], [19.2575687, 43.9494684], [19.2572476, 43.9497263], [19.2572269, 43.9497432], [19.2569133, 43.9500033], [19.2568893, 43.9500172], [19.2566173, 43.950123], [19.2565896, 43.9501334], [19.2564662, 43.9501783], [19.2564412, 43.9501912], [19.2561437, 43.9504039], [19.256119, 43.9504173], [19.2556763, 43.9505969], [19.2556554, 43.9506124], [19.2553694, 43.9510033], [19.2553498, 43.9510201], [19.255112, 43.9511511], [19.2550849, 43.9511544], [19.2547965, 43.951086], [19.2547662, 43.9510826], [19.2544304, 43.9510842], [19.2544024, 43.9510909], [19.2541457, 43.9512271], [19.2541285, 43.9512445], [19.2540468, 43.9514345], [19.2540371, 43.9514559], [19.2538751, 43.9517924], [19.253855, 43.9518058], [19.2535275, 43.9518641], [19.2535066, 43.9518772], [19.2534815, 43.9519221], [19.2534656, 43.9519412], [19.2534222, 43.9519779], [19.2534022, 43.9519951], [19.2532199, 43.9521504], [19.2532016, 43.9521686], [19.2531726, 43.9522026], [19.253154, 43.9522206], [19.2530566, 43.9522996], [19.2530383, 43.9523176], [19.2528269, 43.9525774], [19.252808, 43.9525952], [19.2524448, 43.9528613], [19.25243, 43.9528802], [19.2523405, 43.9531346], [19.2523262, 43.953154], [19.252013, 43.9534065], [19.2519919, 43.953423], [19.25161, 43.9537131], [19.2515926, 43.9537314], [19.2513624, 43.9540775], [19.2513595, 43.9540985], [19.251451, 43.954353], [19.2514434, 43.9543716], [19.2513147, 43.9544577], [19.2512915, 43.9544727], [19.2510818, 43.9546044], [19.2510582, 43.9546189], [19.2509307, 43.9546962], [19.2509071, 43.9547108], [19.2506983, 43.9548413], [19.2506989, 43.9548556], [19.250245, 43.9548381], [19.2499571, 43.9547941], [19.2497219, 43.9547284], [19.249483, 43.9545925], [19.2479397, 43.9537683], [19.2473946, 43.9535035], [19.2466853, 43.9531993], [19.2461796, 43.9528889], [19.2457855, 43.9526115], [19.2455075, 43.9522726], [19.245236, 43.9520583], [19.2448683, 43.9519086], [19.2439182, 43.9514421], [19.2432067, 43.9511048], [19.2427645, 43.9509551], [19.2423638, 43.95087], [19.2421756, 43.95084], [19.2420311, 43.9508258], [19.2418494, 43.9508306], [19.2416283, 43.9508495], [19.2413524, 43.9509015], [19.2411423, 43.9509109], [19.240954, 43.950892], [19.2406716, 43.9508432], [19.2403213, 43.9508321], [19.2396405, 43.9509141], [19.2388261, 43.9510197], [19.238246, 43.9511458], [19.2378147, 43.9512608], [19.237436, 43.9513002], [19.2368559, 43.9512624], [19.2363918, 43.951182], [19.235746, 43.9510118], [19.2354373, 43.9509645], [19.235203, 43.9509661], [19.2337407, 43.9511174], [19.2330292, 43.9511678], [19.2323068, 43.9511804], [19.2318645, 43.9511489], [19.231164, 43.95116], [19.230886, 43.9511867], [19.230561, 43.9512632], [19.2302095, 43.9513459], [19.2300475, 43.9513806], [19.2299206, 43.9513838], [19.2298045, 43.9513633], [19.2294433, 43.9512466], [19.2283838, 43.9508211], [19.2274534, 43.9502584], [19.2265427, 43.9495208], [19.2256867, 43.9489188], [19.2250015, 43.9483025], [19.2244389, 43.9478155], [19.2242637, 43.9476342], [19.2241389, 43.9474797], [19.2240098, 43.9473899], [19.2237668, 43.9473158], [19.223434, 43.9471882], [19.223156, 43.947029], [19.2230246, 43.9468997], [19.2228911, 43.9467106], [19.2227006, 43.9464615], [19.2224774, 43.9462456], [19.2222913, 43.9461242], [19.2220548, 43.9460407], [19.2216104, 43.9458689], [19.2210325, 43.9456813], [19.220645, 43.9455142], [19.2203495, 43.945333], [19.2198854, 43.9450067], [19.2193206, 43.9445874], [19.2190557, 43.9443652], [19.2185149, 43.9438655], [19.2179917, 43.9434336], [19.217451, 43.942967], [19.2170285, 43.942532], [19.216884, 43.9423476], [19.2166235, 43.9418589], [19.2164856, 43.9416288], [19.2162557, 43.9412694], [19.2161397, 43.9409919], [19.2160171, 43.9406246], [19.2159208, 43.9404181], [19.2158376, 43.9402668], [19.2156624, 43.9400398], [19.2153976, 43.9396883], [19.2152028, 43.9393803], [19.2150274, 43.9392052], [19.2148763, 43.9390869], [19.2146377, 43.9389435], [19.2144035, 43.9387921], [19.2140926, 43.9386093], [19.21353, 43.9383066], [19.2134301, 43.9382186], [19.2131991, 43.938057], [19.2126929, 43.9376457], [19.2123555, 43.9374171], [19.2120118, 43.9372667], [19.2116465, 43.9371295], [19.2111186, 43.9369389], [19.2107867, 43.93684], [19.2098522, 43.9367509], [19.2088222, 43.9366737], [19.2065906, 43.9364728], [19.2040372, 43.9364728], [19.1988266, 43.9373333], [19.1959905, 43.938018], [19.1939735, 43.9383733], [19.1928167, 43.9384618], [19.1910324, 43.9382696], [19.1882443, 43.937848], [19.1833687, 43.93657], [19.1825795, 43.9367663], [19.1818822, 43.9364728], [19.1803693, 43.93638], [19.1792321, 43.9362873], [19.1770997, 43.9357578], [19.1756916, 43.9355302], [19.1737711, 43.9354143], [19.1725588, 43.9349971], [19.1710246, 43.9346185], [19.1703587, 43.933702], [19.1704531, 43.9316613], [19.170515, 43.930308], [19.1710402, 43.9284134], [19.1718507, 43.9274328], [19.1719518, 43.9266807], [19.1741954, 43.9242989], [19.1743183, 43.9235382], [19.1748976, 43.9225181], [19.1760993, 43.9215599], [19.1762252, 43.9208809], [19.1776861, 43.918939], [19.1795322, 43.915452], [19.1802953, 43.914616], [19.1803694, 43.9139242], [19.1829688, 43.9120625], [19.1828744, 43.91183], [19.1840172, 43.9104307], [19.18509, 43.9095032], [19.1853475, 43.9095805], [19.1864419, 43.908823], [19.1871714, 43.9083746], [19.1898729, 43.9053199], [19.1913225, 43.9043052], [19.1922569, 43.9042933], [19.1939276, 43.9036786], [19.1942739, 43.9035512], [19.1953254, 43.9033038], [19.1967845, 43.902237], [19.1971707, 43.9021597], [19.1993594, 43.8993149], [19.1993613, 43.8982562], [19.201591, 43.8963771], [19.2018699, 43.8895733], [19.2020201, 43.888862], [19.2037309, 43.8876134], [19.2043805, 43.8860783], [19.2059118, 43.8839526], [19.2097441, 43.8806342], [19.2134906, 43.8785518], [19.2156603, 43.8767484], [19.2164195, 43.8759433], [19.2173195, 43.8749889], [19.2179666, 43.8740082], [19.2179847, 43.8731328], [19.2163539, 43.8725604], [19.215281, 43.8719262], [19.2125773, 43.8696287], [19.2116332, 43.8689716], [19.2106247, 43.8677805], [19.2104737, 43.8662774], [19.2105079, 43.8654099], [19.2116761, 43.8634797], [19.2122056, 43.8612774], [19.2137223, 43.86019], [19.2140097, 43.859984], [19.2154097, 43.8594881], [19.216547, 43.8592715], [19.2177915, 43.8591632], [19.2189717, 43.8591632], [19.2195296, 43.8590859], [19.2198729, 43.8589312], [19.2191219, 43.8582349], [19.2189776, 43.8577623], [19.2154225, 43.8555095], [19.2119319, 43.8536757], [19.2091012, 43.8520148], [19.2065992, 43.8503166], [19.2041419, 43.850152], [19.206213, 43.8491593], [19.2087459, 43.8474249], [19.2110023, 43.8457901], [19.2128922, 43.8410062], [19.2137146, 43.8388606], [19.2149315, 43.8367482], [19.2143847, 43.8321865], [19.2115474, 43.8303939], [19.2100882, 43.8300224], [19.2078711, 43.8300028], [19.2078352, 43.8289853], [19.2072876, 43.8278046], [19.2018452, 43.8275328], [19.1986513, 43.8275766], [19.1977072, 43.8278398], [19.1946638, 43.8261544], [19.1934371, 43.8256725], [19.1907346, 43.8250776], [19.1897249, 43.8250688], [19.1889398, 43.8245816], [19.1873002, 43.8230717], [19.1858475, 43.8218271], [19.1850209, 43.8209039], [19.1844034, 43.8200992], [19.1840815, 43.8191393], [19.1840958, 43.8182156], [19.1832057, 43.8177097], [19.1831533, 43.8157955], [19.1835022, 43.8153461], [19.1835665, 43.8147577], [19.1839957, 43.8143087], [19.1839742, 43.8134571], [19.1848326, 43.8127448], [19.1849136, 43.8124108], [19.1888022, 43.809586], [19.1887777, 43.8079259], [19.1887891, 43.8064773], [19.1888651, 43.7967942], [19.1882872, 43.7967167], [19.1868496, 43.7958649], [19.1868473, 43.7948017], [19.1808629, 43.7897466], [19.1808573, 43.7893768], [19.1800904, 43.7889102], [19.1798218, 43.7888898], [19.1796827, 43.7888792], [19.1793394, 43.7892819], [19.1781592, 43.789251], [19.177494, 43.7887088], [19.1770863, 43.7887243], [19.1767645, 43.7887862], [19.1758632, 43.7893594], [19.1748762, 43.7888327], [19.1747703, 43.7882976], [19.1726546, 43.7879717], [19.1713165, 43.7876734], [19.1688653, 43.7871271], [19.165864, 43.7870668], [19.1640186, 43.786788], [19.1639328, 43.7860289], [19.1632676, 43.7851769], [19.1632409, 43.784516], [19.1611887, 43.782416], [19.1572165, 43.7784844], [19.1503915, 43.7801693], [19.1499048, 43.7802894], [19.146372, 43.7823832], [19.1449001, 43.7826156], [19.1391065, 43.7836473], [19.1360163, 43.7844411], [19.1359734, 43.785022], [19.1353834, 43.7855255], [19.1355443, 43.7858353], [19.1351366, 43.7861606], [19.1340423, 43.7862226], [19.1336453, 43.7859747], [19.1330512, 43.7860267], [19.1312527, 43.7873147], [19.130237, 43.7877083], [19.1289139, 43.7897776], [19.1282701, 43.7910323], [19.1268539, 43.7910633], [19.1261566, 43.7903125], [19.1245794, 43.7903817], [19.1229594, 43.7913188], [19.1203415, 43.7913343], [19.11772, 43.792538], [19.1159749, 43.7927594], [19.1154814, 43.7929917], [19.1152346, 43.7932628], [19.1150357, 43.7935525], [19.1101186, 43.7937846], [19.1102242, 43.792163], [19.109838, 43.7918068]]]}}]}