{"type": "FeatureCollection", "features": [{"type": "Feature", "properties": {"name": "Grad Visoko, Zeničko-dobojski kanton, Federacija Bosne i Hercegovine, Bosna i Hercegovina / Босна и Херцеговина", "source": "OpenStreetMap relation 2528288", "licence": "ODbL 1.0"}, "geometry": {"type": "Polygon", "coordinates": [[[17.9817823, 44.0607224], [17.9885007, 44.0629754], [17.9925318, 44.0642628], [17.9979065, 44.0645846], [18.0010418, 44.0649064], [18.0014897, 44.0652283], [18.0037292, 44.0636191], [17.9965629, 44.0604006], [17.9943234, 44.0584694], [17.9929797, 44.0578256], [17.9983544, 44.0575037], [18.0032813, 44.0546068], [18.0059687, 44.0536411], [18.013135, 44.0523535], [18.0135829, 44.0520316], [18.0185097, 44.0517097], [18.0234366, 44.0501001], [18.0279155, 44.0478467], [18.0314987, 44.0455931], [18.0323945, 44.0443053], [18.0364255, 44.0407638], [18.0395608, 44.0372221], [18.043144, 44.0372221], [18.0440398, 44.0401199], [18.0462792, 44.0404418], [18.051654, 44.0365781], [18.0543413, 44.0349681], [18.0574766, 44.031748], [18.060164, 44.0269176], [18.0628514, 44.0207985], [18.0650908, 44.0182218], [18.0673303, 44.0150008], [18.0682261, 44.0108133], [18.068674, 43.9969601], [18.0691219, 43.9940601], [18.0691219, 43.9892266], [18.0713614, 43.9843927], [18.0753924, 43.9818145], [18.0803193, 43.980203], [18.0852461, 43.9789138], [18.090173, 43.976013], [18.0937561, 43.9727897], [18.0946519, 43.9724674], [18.0991309, 43.971178], [18.1022661, 43.9705333], [18.107193, 43.9708557], [18.1108464, 43.9684446], [18.1110825, 43.9654083], [18.1089346, 43.9617587], [18.1083037, 43.9589198], [18.1078574, 43.9571188], [18.1073982, 43.9562561], [18.1067888, 43.9555834], [18.1058493, 43.9540913], [18.1062972, 43.9505443], [18.1098804, 43.9469972], [18.1116719, 43.9466747], [18.1143593, 43.9482871], [18.1192864, 43.95091], [18.128692, 43.948932], [18.1313793, 43.9482871], [18.1319326, 43.9477356], [18.137202, 43.9424824], [18.1380978, 43.9395798], [18.1376499, 43.936032], [18.1363062, 43.9344193], [18.1354104, 43.9311937], [18.1354104, 43.9276455], [18.1358583, 43.9234517], [18.1483993, 43.9221613], [18.1492951, 43.9205482], [18.1549641, 43.9211688], [18.155003, 43.9200911], [18.1548454, 43.9192611], [18.1556355, 43.9185918], [18.1582848, 43.9185858], [18.1582856, 43.9184992], [18.1583674, 43.9184047], [18.1583796, 43.9182539], [18.1585201, 43.9181984], [18.1587082, 43.9182918], [18.158821, 43.9186013], [18.1589123, 43.9190939], [18.1588791, 43.9193938], [18.1591784, 43.9194051], [18.1592963, 43.9193912], [18.159539, 43.9193244], [18.1595809, 43.9195318], [18.1600414, 43.9194557], [18.1603835, 43.9193889], [18.160535, 43.9192167], [18.1606022, 43.9190337], [18.1608714, 43.9187715], [18.1615523, 43.9183855], [18.1617882, 43.9180806], [18.1630375, 43.9174236], [18.1640763, 43.9171301], [18.1655246, 43.9166705], [18.166459, 43.9161534], [18.167199, 43.9157291], [18.1681218, 43.9155008], [18.1690475, 43.9150091], [18.1694265, 43.9144827], [18.1698245, 43.9138518], [18.1700455, 43.9132379], [18.1724683, 43.913041], [18.1725937, 43.9128828], [18.1731116, 43.9127395], [18.1735756, 43.9127583], [18.1751115, 43.9130891], [18.1783011, 43.9127043], [18.1795129, 43.9135777], [18.1811728, 43.9131428], [18.1823674, 43.9131314], [18.1829025, 43.9135207], [18.1832779, 43.9136949], [18.1851178, 43.9137418], [18.1865801, 43.913999], [18.1894626, 43.9140392], [18.1901811, 43.9142211], [18.1912343, 43.9143288], [18.1920372, 43.9143399], [18.1921621, 43.9146415], [18.1926266, 43.9145455], [18.1931769, 43.914499], [18.1936253, 43.9144925], [18.1938779, 43.9154365], [18.1945768, 43.9151377], [18.1953309, 43.914905], [18.1960323, 43.914662], [18.1965596, 43.9142751], [18.1970201, 43.9135853], [18.1974517, 43.9129859], [18.1977098, 43.9128154], [18.198044, 43.9127321], [18.1983732, 43.9127398], [18.1990536, 43.9128444], [18.1994396, 43.912839], [18.1998083, 43.9127416], [18.2004149, 43.9125765], [18.2008256, 43.9125225], [18.201025, 43.9125071], [18.2012091, 43.912513], [18.2015946, 43.9125567], [18.2019023, 43.9125761], [18.2024406, 43.9125224], [18.202612, 43.9124563], [18.2034303, 43.9124389], [18.2047836, 43.9124102], [18.2055011, 43.9124062], [18.2058065, 43.9123614], [18.2060397, 43.9122853], [18.2061525, 43.9122273], [18.2064662, 43.9121354], [18.2066076, 43.9120935], [18.2076162, 43.9120566], [18.2079061, 43.9120209], [18.2081071, 43.9119755], [18.2083865, 43.9118821], [18.2090651, 43.911548], [18.2096489, 43.9113004], [18.2098171, 43.9112671], [18.2099835, 43.9112923], [18.2101402, 43.9114039], [18.2102196, 43.9114878], [18.2107497, 43.9116607], [18.2112381, 43.9118156], [18.2119256, 43.9119543], [18.2123536, 43.9120504], [18.2126853, 43.9120759], [18.213004, 43.9120721], [18.2133178, 43.9120394], [18.2135947, 43.9119277], [18.2138222, 43.9117666], [18.2139945, 43.9116203], [18.2143629, 43.9114822], [18.2145727, 43.9113892], [18.2149568, 43.9112679], [18.2153156, 43.9111862], [18.2155659, 43.9109947], [18.2161374, 43.9104383], [18.2164481, 43.9101356], [18.2167767, 43.9099369], [18.217136, 43.9097262], [18.2173587, 43.9094731], [18.2174546, 43.9092154], [18.2176061, 43.9089745], [18.217814, 43.9087658], [18.2181035, 43.9085901], [18.2185493, 43.9084062], [18.2194381, 43.9081463], [18.2197796, 43.9080103], [18.2201907, 43.907772], [18.2207432, 43.907432], [18.2210327, 43.907206], [18.2212196, 43.9069091], [18.2214728, 43.9065595], [18.2218403, 43.906171], [18.2220251, 43.9058979], [18.2222706, 43.9057331], [18.2223623, 43.905591], [18.2224093, 43.9054165], [18.222394, 43.9052042], [18.2224297, 43.9051635], [18.2225625, 43.9051192], [18.2229294, 43.9051056], [18.2234462, 43.9051508], [18.2237472, 43.9051716], [18.224202, 43.905161], [18.2243585, 43.905188], [18.2245313, 43.9052316], [18.2246868, 43.9052231], [18.2248999, 43.9051327], [18.2251629, 43.9050863], [18.2255421, 43.9051389], [18.2259482, 43.9053315], [18.2262603, 43.9053525], [18.2266249, 43.9053321], [18.2272096, 43.9051664], [18.2276642, 43.9052002], [18.2283281, 43.9053016], [18.2287038, 43.9050535], [18.2291677, 43.9050244], [18.2299868, 43.9053617], [18.2306534, 43.9055154], [18.2311758, 43.905409], [18.2318235, 43.9052812], [18.2324857, 43.9052366], [18.2332327, 43.9049601], [18.2350652, 43.9045344], [18.2355708, 43.9042757], [18.2360698, 43.9041852], [18.2366822, 43.9040888], [18.2369865, 43.9040808], [18.2372259, 43.9041014], [18.2374303, 43.9040593], [18.2378229, 43.9038899], [18.2382082, 43.9037777], [18.2380985, 43.9038918], [18.23805, 43.9040134], [18.2380448, 43.9041608], [18.2384461, 43.9046394], [18.2386798, 43.9049045], [18.2391672, 43.9053126], [18.2397035, 43.9058157], [18.2419183, 43.9058194], [18.2430346, 43.9072302], [18.2437024, 43.9083863], [18.2443285, 43.9092871], [18.2443616, 43.910576], [18.2448611, 43.91093], [18.2449607, 43.9119561], [18.2462315, 43.9125889], [18.2460443, 43.9139937], [18.2446713, 43.9170659], [18.2446029, 43.9191404], [18.2439113, 43.9213906], [18.2439232, 43.9226416], [18.2435638, 43.9237563], [18.2420773, 43.9247064], [18.2421641, 43.9257043], [18.2429101, 43.9264345], [18.2429138, 43.9268748], [18.2409878, 43.9279359], [18.2397805, 43.9292072], [18.2394944, 43.9299358], [18.2387965, 43.9306259], [18.2384772, 43.9318744], [18.2368433, 43.9326097], [18.2369279, 43.9334698], [18.2374784, 43.9337107], [18.2381447, 43.9346243], [18.2382242, 43.9356385], [18.2400286, 43.936921], [18.2399006, 43.9387879], [18.2375934, 43.9412202], [18.2375597, 43.942021], [18.2379732, 43.9421913], [18.2385159, 43.9440898], [18.2374025, 43.9442799], [18.2374561, 43.9453634], [18.236219, 43.9465065], [18.2361543, 43.9479009], [18.2340549, 43.949052], [18.2321681, 43.9491718], [18.2312034, 43.9498838], [18.2293304, 43.9499055], [18.2284011, 43.9512617], [18.2282558, 43.9520203], [18.2271, 43.9530717], [18.2247476, 43.9531289], [18.2245512, 43.9542426], [18.2238469, 43.9545882], [18.2237822, 43.9553538], [18.2216701, 43.9560252], [18.2199883, 43.9573409], [18.220507, 43.9581624], [18.2207157, 43.9589172], [18.2215113, 43.9597745], [18.2190596, 43.9613148], [18.2190891, 43.9623433], [18.2186146, 43.9630517], [18.2171238, 43.9627728], [18.2160336, 43.9629031], [18.2137211, 43.9647216], [18.2133328, 43.9656458], [18.2126456, 43.9662185], [18.2126638, 43.9677662], [18.2119599, 43.9686725], [18.2120121, 43.9697185], [18.2113017, 43.9698268], [18.2105546, 43.9703236], [18.2104804, 43.9710968], [18.2103838, 43.9722189], [18.2093591, 43.9738961], [18.2093201, 43.9749737], [18.2103863, 43.9769492], [18.2110914, 43.9769986], [18.2115762, 43.9775527], [18.2129442, 43.9768417], [18.2150436, 43.9767795], [18.2173329, 43.9762585], [18.2207358, 43.9795922], [18.2219857, 43.9808166], [18.2216198, 43.9827196], [18.2206587, 43.9849506], [18.2220972, 43.9854835], [18.2229443, 43.9867469], [18.2220595, 43.9872548], [18.221875, 43.9899314], [18.2231411, 43.9907432], [18.2215016, 43.9919361], [18.2166423, 43.9927145], [18.2198382, 43.9957694], [18.2218617, 43.9956314], [18.2235691, 43.9974689], [18.2252133, 43.9974683], [18.2288854, 43.9989548], [18.2321191, 43.9990487], [18.2346694, 43.9998689], [18.2371915, 44.0001033], [18.2394951, 44.0007291], [18.2418988, 44.0003133], [18.2438102, 43.9994943], [18.243463, 44.0003088], [18.2426708, 44.0005964], [18.2430446, 44.0014742], [18.2429802, 44.0018292], [18.2426369, 44.0020993], [18.2430982, 44.0023231], [18.2431519, 44.0026395], [18.2417464, 44.0031488], [18.2417035, 44.0051437], [18.2409203, 44.0058807], [18.2400851, 44.0061898], [18.2399923, 44.0065096], [18.2396527, 44.0066436], [18.240201, 44.0080511], [18.240098, 44.0093629], [18.2406452, 44.0103645], [18.2407353, 44.0115651], [18.2395144, 44.0126678], [18.2381497, 44.0132458], [18.2374716, 44.0130744], [18.2371115, 44.0134659], [18.2373369, 44.0143764], [18.2371866, 44.0158578], [18.2369184, 44.0161973], [18.236897, 44.0168068], [18.2366287, 44.0172235], [18.2371545, 44.0180876], [18.2370579, 44.0183576], [18.2363176, 44.018674], [18.2360065, 44.0192372], [18.235234, 44.0190674], [18.23385, 44.0196692], [18.2328415, 44.0195149], [18.2321763, 44.0194918], [18.2311892, 44.0197772], [18.2290435, 44.0195612], [18.228394, 44.0192083], [18.2277159, 44.0180711], [18.2270099, 44.0178095], [18.2257578, 44.0167402], [18.2226658, 44.0194406], [18.2213938, 44.0193143], [18.220514, 44.0198775], [18.2197738, 44.0197926], [18.2195806, 44.020703], [18.2188511, 44.0214745], [18.2182717, 44.021652], [18.2182048, 44.0222959], [18.2173598, 44.02284], [18.2166302, 44.0227397], [18.2159811, 44.0229982], [18.2161689, 44.0232643], [18.2160509, 44.0237426], [18.2154608, 44.0242287], [18.2160187, 44.0244755], [18.2179284, 44.0259953], [18.2184541, 44.0259181], [18.2192808, 44.0253408], [18.2201385, 44.0253241], [18.2203638, 44.025571], [18.2203531, 44.0262036], [18.221426, 44.0259336], [18.2218337, 44.0265121], [18.2229495, 44.0265661], [18.2232323, 44.0279945], [18.2228744, 44.0287183], [18.2220697, 44.0286258], [18.2216191, 44.0283635], [18.2207179, 44.0288109], [18.2197523, 44.0289806], [18.2188618, 44.0295746], [18.219881, 44.030616], [18.2198596, 44.0309245], [18.2189476, 44.0310479], [18.2172525, 44.0322435], [18.2168341, 44.0323207], [18.2151711, 44.0332], [18.2148477, 44.0337504], [18.2144308, 44.0338402], [18.2139373, 44.0344804], [18.2128429, 44.0366246], [18.212541, 44.0367639], [18.2118344, 44.03664], [18.2118666, 44.0370103], [18.2132721, 44.0369331], [18.2137334, 44.0371722], [18.2136744, 44.0376697], [18.2130897, 44.0382597], [18.2142377, 44.0393781], [18.2163405, 44.0412368], [18.2162392, 44.0425082], [18.2148599, 44.0425401], [18.2136268, 44.043035], [18.2138407, 44.0438974], [18.2133472, 44.04399], [18.213315, 44.0441674], [18.2137845, 44.0447285], [18.2170257, 44.0458722], [18.2207735, 44.0471602], [18.2290805, 44.0441606], [18.2350058, 44.0417519], [18.2422927, 44.0468156], [18.2428407, 44.0469436], [18.2426974, 44.0472332], [18.2460949, 44.0549266], [18.2512685, 44.0569403], [18.2531733, 44.05735], [18.2583493, 44.0582166], [18.2581162, 44.0588719], [18.25795, 44.0593497], [18.2557106, 44.0622464], [18.2570542, 44.0644993], [18.2615332, 44.0673958], [18.2646685, 44.070614], [18.2651164, 44.072223], [18.2619811, 44.0754408], [18.2615332, 44.0776932], [18.2606374, 44.0812326], [18.2628769, 44.0854151], [18.2633248, 44.0876672], [18.2628769, 44.0902408], [18.2606374, 44.0915276], [18.2583979, 44.0941011], [18.25795, 44.0973178], [18.2596431, 44.1005725], [18.2545757, 44.1001177], [18.2501418, 44.0992079], [18.2469747, 44.0978432], [18.2431742, 44.0955687], [18.2406405, 44.0946589], [18.2317957, 44.092284], [18.2289029, 44.091292], [18.2324518, 44.0873921], [18.2333154, 44.0865813], [18.2314748, 44.0848522], [18.2297294, 44.0839923], [18.2282765, 44.0827532], [18.2255764, 44.0823479], [18.2229048, 44.0828299], [18.2216379, 44.0837399], [18.21911, 44.0849134], [18.2170119, 44.0862049], [18.2149968, 44.0870327], [18.2115032, 44.0869248], [18.2064358, 44.0860149], [18.2070693, 44.0837399], [18.2089695, 44.0814649], [18.2108698, 44.0778246], [18.2083361, 44.0764595], [18.205169, 44.0755493], [18.2001016, 44.0741841], [18.2032687, 44.0719087], [18.2083361, 44.0678128], [18.2115032, 44.0659922], [18.21277, 44.062351], [18.2102364, 44.0609855], [18.2045356, 44.05962], [18.2001016, 44.0577992], [18.1950343, 44.0546127], [18.1925006, 44.0518813], [18.1874333, 44.0505156], [18.1867998, 44.0564336], [18.1861664, 44.0591648], [18.1810991, 44.0618959], [18.1766651, 44.0659922], [18.1715978, 44.0682679], [18.165897, 44.0659922], [18.1614631, 44.0673576], [18.1570291, 44.0669025], [18.1513283, 44.0655371], [18.1481612, 44.0637165], [18.141827, 44.0609855], [18.1348594, 44.0587096], [18.1278918, 44.0587096], [18.1183905, 44.0637165], [18.1107895, 44.0632614], [18.0987545, 44.0678128], [18.0974877, 44.0673576], [18.0930537, 44.0641717], [18.0898866, 44.0669025], [18.0854527, 44.0673576], [18.0803854, 44.0664474], [18.0765848, 44.0669025], [18.0734177, 44.0709985], [18.0689838, 44.0728189], [18.0645499, 44.073274], [18.0531483, 44.0778246], [18.0518815, 44.0769145], [18.0468141, 44.0728189], [18.0411133, 44.0709985], [18.0366794, 44.0714536], [18.0245115, 44.077406], [18.0194055, 44.0768132], [18.0158223, 44.0781003], [18.0144787, 44.0793873], [18.0113434, 44.0793873], [18.0082081, 44.078422], [18.0032813, 44.0768132], [17.9979065, 44.0745607], [17.9929797, 44.0745607], [17.9867092, 44.0739172], [17.9844697, 44.0723082], [17.983126, 44.0687684], [17.9817823, 44.0661938], [17.9817823, 44.0607224]]]}}]}