{"type": "FeatureCollection", "features": [{"type": "Feature", "properties": {"name": "Općina Vitez, Srednjobosanski kanton / Županija Središnja Bosna, Federacija Bosne i Hercegovine, 72250, Bosna i Hercegovina / Босна и Херцеговина", "source": "OpenStreetMap relation 2528289", "licence": "ODbL 1.0"}, "geometry": {"type": "Polygon", "coordinates": [[[17.6942012, 44.0917361], [17.6947866, 44.0910727], [17.6948517, 44.0907177], [17.6949818, 44.0898954], [17.69532, 44.0892787], [17.6956192, 44.0888582], [17.6960746, 44.0881106], [17.6964128, 44.0877182], [17.696608, 44.087251], [17.6971674, 44.0871762], [17.6974536, 44.0870734], [17.6975446, 44.086765], [17.6978829, 44.0864847], [17.6978829, 44.0862604], [17.6977398, 44.0859521], [17.6978959, 44.085597], [17.6976877, 44.0852325], [17.698039, 44.0848213], [17.6985984, 44.0845223], [17.6989106, 44.0845971], [17.6990798, 44.0843167], [17.6991838, 44.0839336], [17.6989757, 44.0837373], [17.6991578, 44.0832981], [17.6995221, 44.0831206], [17.6995221, 44.0825785], [17.6992359, 44.0820459], [17.699457, 44.0817094], [17.7003157, 44.0812048], [17.7005628, 44.0813076], [17.7006929, 44.0816066], [17.7009141, 44.0816066], [17.7013434, 44.081401], [17.7016166, 44.0810179], [17.7015125, 44.0806814], [17.7010182, 44.0804197], [17.7009141, 44.0800459], [17.7017727, 44.0776534], [17.703529, 44.075401], [17.7088629, 44.0744009], [17.7135463, 44.0724942], [17.7157189, 44.070737], [17.7192445, 44.0685777], [17.7215992, 44.067615], [17.7248256, 44.0653995], [17.725398, 44.0647826], [17.7260484, 44.0638197], [17.7264012, 44.063068], [17.7260354, 44.0591828], [17.7267249, 44.0582573], [17.7282991, 44.0557516], [17.7290797, 44.0552188], [17.7301074, 44.0547419], [17.7311481, 44.0543025], [17.7321239, 44.0533488], [17.7332167, 44.0521707], [17.7365991, 44.0495059], [17.7393202, 44.049234], [17.7464541, 44.0506158], [17.7587219, 44.0449944], [17.7595115, 44.0449821], [17.760387, 44.0446859], [17.7616573, 44.0442541], [17.7622924, 44.0441307], [17.763288, 44.0437111], [17.7642665, 44.043378], [17.7648673, 44.0428721], [17.7663265, 44.0423291], [17.7681461, 44.0420083], [17.7694507, 44.0416628], [17.770412, 44.0412432], [17.7721286, 44.0411198], [17.7729354, 44.0411939], [17.7741199, 44.0413049], [17.7752528, 44.0418355], [17.7773643, 44.042798], [17.7784801, 44.0437235], [17.7789264, 44.0444391], [17.7794071, 44.0449204], [17.7799735, 44.0451301], [17.7816901, 44.0453029], [17.7823425, 44.0456113], [17.7828231, 44.0457347], [17.7838016, 44.0457347], [17.7846771, 44.0458705], [17.785913, 44.0461049], [17.7868743, 44.0461049], [17.7876125, 44.0462776], [17.7886253, 44.04629], [17.7899471, 44.0460926], [17.7907024, 44.0456977], [17.7922302, 44.0450808], [17.7942019, 44.04468], [17.7962054, 44.0442779], [17.7971524, 44.0440117], [17.7978327, 44.0437353], [17.7982863, 44.043218], [17.7992821, 44.0424171], [17.7995544, 44.0424368], [17.7993072, 44.0426332], [17.7991901, 44.0429792], [17.7987868, 44.0433532], [17.7985397, 44.0436805], [17.7982404, 44.0439798], [17.7980063, 44.0443538], [17.7979412, 44.044812], [17.7979933, 44.0454012], [17.7979412, 44.0457939], [17.7976336, 44.0461825], [17.797157, 44.0469639], [17.7968707, 44.0475156], [17.7964674, 44.0483385], [17.7961682, 44.0489276], [17.7961032, 44.0494231], [17.7959731, 44.0500683], [17.7957779, 44.0503862], [17.7953962, 44.0508047], [17.7941648, 44.0544535], [17.7948543, 44.0592777], [17.7961032, 44.062905], [17.7971439, 44.0643726], [17.804117, 44.06613], [17.8097762, 44.0700279], [17.8131066, 44.0751593], [17.8156825, 44.0772249], [17.8159817, 44.0784118], [17.8172046, 44.0794118], [17.8178941, 44.0814585], [17.8184665, 44.08215], [17.81913, 44.0825332], [17.8192991, 44.0835518], [17.819182, 44.084206], [17.8188698, 44.0850657], [17.8185446, 44.0858506], [17.817751, 44.0862712], [17.8167493, 44.0868599], [17.8160598, 44.0875233], [17.8158126, 44.087841], [17.8158646, 44.0885325], [17.8156565, 44.0891586], [17.8143815, 44.0904854], [17.8144986, 44.0909807], [17.8142514, 44.0914479], [17.8141474, 44.091859], [17.8142124, 44.0922794], [17.8144856, 44.092812], [17.8146027, 44.0932325], [17.8147068, 44.0934381], [17.8150971, 44.0935689], [17.814967, 44.0946714], [17.8151101, 44.0954842], [17.8155914, 44.0961756], [17.8159687, 44.0967362], [17.8159427, 44.0970258], [17.8152011, 44.0977452], [17.8133408, 44.1002584], [17.8124431, 44.1022483], [17.8093859, 44.1045745], [17.8098542, 44.1057328], [17.8088525, 44.1069379], [17.8091387, 44.1105996], [17.8084362, 44.1114496], [17.8089045, 44.1122342], [17.8089826, 44.1131309], [17.8085793, 44.1136539], [17.8084492, 44.1138874], [17.8088785, 44.1144852], [17.8087354, 44.1149149], [17.808228, 44.1154379], [17.8078638, 44.1161384], [17.8074215, 44.1168576], [17.8074345, 44.1174366], [17.8071613, 44.1179503], [17.8070312, 44.1187255], [17.8066359, 44.1197478], [17.8057562, 44.1220223], [17.8097762, 44.1250293], [17.8084492, 44.1249733], [17.8078898, 44.1252254], [17.8080849, 44.1255336], [17.8088915, 44.1259165], [17.8094119, 44.126318], [17.8104266, 44.1269063], [17.8111942, 44.1273732], [17.8113633, 44.1277561], [17.8114154, 44.1279615], [17.8118577, 44.1279335], [17.812248, 44.1278588], [17.8123521, 44.1282604], [17.8124301, 44.1285685], [17.8128464, 44.1287086], [17.8131456, 44.1289234], [17.8134188, 44.1291008], [17.8141604, 44.1292408], [17.8144986, 44.1298478], [17.8146157, 44.130184], [17.8148629, 44.1305295], [17.814993, 44.1306882], [17.8155524, 44.130903], [17.815058, 44.1313792], [17.8146677, 44.1316033], [17.8151881, 44.131846], [17.8148239, 44.1322849], [17.8151491, 44.132425], [17.8157866, 44.132537], [17.8159427, 44.1330786], [17.8161378, 44.1341897], [17.8165801, 44.1341337], [17.8173087, 44.1337975], [17.8180762, 44.1346005], [17.8186356, 44.1348433], [17.8186096, 44.1349553], [17.8184445, 44.1350394], [17.8182193, 44.1351234], [17.8183364, 44.1364959], [17.8192081, 44.1364679], [17.8196374, 44.1374016], [17.819871, 44.1374714], [17.8202752, 44.1379667], [17.8205267, 44.1382391], [17.820714, 44.138554], [17.8208717, 44.1384868], [17.8213105, 44.1389396], [17.821552, 44.1388512], [17.8220253, 44.1388017], [17.8223908, 44.1389006], [17.8228071, 44.1392507], [17.8233079, 44.1393674], [17.8243292, 44.1394841], [17.8253895, 44.1393207], [17.8258643, 44.1391247], [17.8265278, 44.1390733], [17.8271002, 44.139092], [17.8273084, 44.13926], [17.8275946, 44.1393581], [17.8280564, 44.1394421], [17.8283426, 44.1393768], [17.8286158, 44.1391994], [17.8291557, 44.1388119], [17.8298452, 44.1385365], [17.8303981, 44.1384665], [17.8309705, 44.1384851], [17.8321479, 44.1384501], [17.8325382, 44.1384385], [17.8329675, 44.1384058], [17.8334423, 44.1382564], [17.8338651, 44.1381117], [17.8343792, 44.1380057], [17.8349113, 44.1380549], [17.8356151, 44.1383198], [17.8360872, 44.1384184], [17.8369283, 44.1383691], [17.8373972, 44.1382429], [17.8377857, 44.1379158], [17.8381892, 44.1376584], [17.8388916, 44.1374761], [17.8402365, 44.1371972], [17.8407446, 44.1372026], [17.8415068, 44.1373259], [17.8429265, 44.1377871], [17.8441818, 44.138259], [17.8449962, 44.1385539], [17.8460647, 44.1392671], [17.8472303, 44.1400661], [17.8473879, 44.140151], [17.8478057, 44.1403342], [17.8484109, 44.1404736], [17.8490087, 44.1404843], [17.8495392, 44.1404468], [17.850249, 44.1402698], [17.8507646, 44.139932], [17.8509589, 44.1394977], [17.8508916, 44.1391438], [17.8505628, 44.1388971], [17.8499501, 44.1386075], [17.8495392, 44.1384199], [17.8494495, 44.1382697], [17.8492702, 44.1380284], [17.8492702, 44.1378568], [17.8493524, 44.1376798], [17.8496662, 44.1374332], [17.8501743, 44.1372562], [17.8506675, 44.1370632], [17.8510635, 44.1367843], [17.8517808, 44.1366824], [17.8522665, 44.1366234], [17.8528343, 44.1363124], [17.853447, 44.1361086], [17.8540299, 44.1360443], [17.8547247, 44.1361891], [17.8554869, 44.1363231], [17.8559726, 44.1362642], [17.8562042, 44.1363285], [17.8564284, 44.1363285], [17.8566301, 44.1362266], [17.8566675, 44.1360228], [17.8567497, 44.1357011], [17.8570037, 44.1354544], [17.8573997, 44.1353525], [17.8580647, 44.135315], [17.858528, 44.1352292], [17.8589614, 44.134945], [17.8593275, 44.1347197], [17.8608742, 44.1342585], [17.861995, 44.1340387], [17.8624134, 44.1338939], [17.8628692, 44.1336043], [17.8637584, 44.1324673], [17.8644234, 44.1319418], [17.8647596, 44.1316683], [17.8654321, 44.1312285], [17.8658132, 44.1310354], [17.8660672, 44.1309657], [17.8665977, 44.1308799], [17.8665679, 44.1312768], [17.866665, 44.1342693], [17.8664259, 44.1347841], [17.8663885, 44.1352828], [17.8665828, 44.1359799], [17.8670685, 44.1369184], [17.8675691, 44.1384896], [17.8675691, 44.1388328], [17.8674869, 44.1397068], [17.8675542, 44.1401143], [17.8680322, 44.1407123], [17.8682134, 44.1410537], [17.8681681, 44.1414845], [17.8679869, 44.1418339], [17.8679982, 44.142224], [17.8678057, 44.1424841], [17.8677264, 44.1428173], [17.8678963, 44.1432237], [17.8684402, 44.1435017], [17.8690839, 44.1438897], [17.8692899, 44.1441361], [17.8697877, 44.1442223], [17.8700967, 44.1444133], [17.8701654, 44.1446596], [17.8704401, 44.1449368], [17.8705259, 44.1452509], [17.8705259, 44.1455096], [17.8701654, 44.146261], [17.8701053, 44.1463226], [17.8701225, 44.1465073], [17.8700624, 44.1468276], [17.8702255, 44.1470431], [17.8703542, 44.1471848], [17.8703371, 44.1473265], [17.8700366, 44.1475482], [17.8690839, 44.1479854], [17.8687749, 44.1480778], [17.8684488, 44.1481702], [17.8682514, 44.1484473], [17.8680368, 44.1490201], [17.8680025, 44.1494327], [17.8676763, 44.1499932], [17.8672901, 44.1506583], [17.8671834, 44.1511063], [17.8670497, 44.1521794], [17.8670669, 44.1524627], [17.866818, 44.1530169], [17.8669124, 44.153448], [17.8669382, 44.1538606], [17.8669124, 44.1547289], [17.8670669, 44.1552338], [17.8673158, 44.155788], [17.8677621, 44.1561821], [17.8685518, 44.1565023], [17.8687578, 44.1567117], [17.8690925, 44.1570011], [17.8700023, 44.1572905], [17.8708692, 44.1576169], [17.8717876, 44.1579987], [17.8726459, 44.1584667], [17.873324, 44.1591009], [17.8734613, 44.1593226], [17.8734613, 44.1594149], [17.8733497, 44.1596181], [17.873281, 44.1598398], [17.8732896, 44.1600676], [17.8736072, 44.1608435], [17.8737102, 44.1613607], [17.8736253, 44.1622867], [17.8734978, 44.1622082], [17.8732445, 44.1621454], [17.87286, 44.1622798], [17.8724163, 44.1625627], [17.8721797, 44.16269], [17.8721403, 44.1630225], [17.8719431, 44.1634115], [17.8715684, 44.1637863], [17.871105, 44.164147], [17.8705135, 44.1644228], [17.8702571, 44.1645997], [17.869705, 44.1647977], [17.8689754, 44.165024], [17.8684036, 44.1653281], [17.8679202, 44.1655736], [17.8675261, 44.1657737], [17.8663035, 44.1662688], [17.8649232, 44.1667638], [17.864381, 44.1672589], [17.8635035, 44.16815], [17.8628725, 44.1686521], [17.8619556, 44.16914], [17.8606541, 44.1696422], [17.8596288, 44.1701867], [17.8592147, 44.1705474], [17.8587809, 44.1711414], [17.8584259, 44.1720183], [17.8581499, 44.1725628], [17.8576569, 44.1733902], [17.8573217, 44.1737508], [17.8571048, 44.1739983], [17.8568583, 44.1743024], [17.8563949, 44.1746064], [17.8559611, 44.1747761], [17.8556752, 44.1749883], [17.8551822, 44.1752499], [17.8547582, 44.1754196], [17.8537526, 44.1755964], [17.8528159, 44.1757732], [17.8520568, 44.1757308], [17.8516525, 44.1755257], [17.8511103, 44.1752853], [17.8504103, 44.175158], [17.8492469, 44.1749176], [17.8481722, 44.1748681], [17.8475806, 44.1749812], [17.8470088, 44.1753277], [17.8468707, 44.1755469], [17.8466013, 44.1757259], [17.8459587, 44.1759617], [17.8452115, 44.1762886], [17.845092, 44.1765083], [17.8449276, 44.1769048], [17.8447184, 44.1771246], [17.8443523, 44.1770871], [17.8438217, 44.1772157], [17.8426935, 44.1776176], [17.8419986, 44.1778212], [17.8409525, 44.1780409], [17.8399288, 44.1784428], [17.8396823, 44.1787054], [17.8392265, 44.1796271], [17.8382028, 44.1805273], [17.8377321, 44.1809828], [17.8376424, 44.1812775], [17.8376499, 44.1814972], [17.837605, 44.1816205], [17.8373211, 44.1817866], [17.8371268, 44.181942], [17.8370671, 44.1821402], [17.8370596, 44.1824724], [17.8371268, 44.1827457], [17.8373286, 44.1829868], [17.8377694, 44.1832762], [17.8379562, 44.1834852], [17.8380832, 44.1836834], [17.8381505, 44.184171], [17.8380832, 44.1846747], [17.8381356, 44.1852373], [17.83827, 44.1856498], [17.8386138, 44.186041], [17.8391443, 44.1864536], [17.8396972, 44.1868018], [17.8398466, 44.1869626], [17.8398691, 44.1871233], [17.8398093, 44.1873858], [17.8396299, 44.1876269], [17.8393759, 44.1878091], [17.8391443, 44.1879109], [17.8385091, 44.1885592], [17.8385241, 44.1886771], [17.8386212, 44.1889182], [17.8384867, 44.1891486], [17.8383448, 44.1893093], [17.838158, 44.1894968], [17.838158, 44.1896575], [17.8380085, 44.1899576], [17.8378815, 44.1910237], [17.8380907, 44.192272], [17.8375527, 44.193456], [17.8361779, 44.1950311], [17.8349301, 44.1968364], [17.8347507, 44.1975435], [17.8349301, 44.1984917], [17.8351019, 44.1988935], [17.8352289, 44.1995738], [17.8354083, 44.2005755], [17.8352588, 44.2008541], [17.8350571, 44.2011755], [17.8342128, 44.2016415], [17.8341156, 44.2023753], [17.832285, 44.2024235], [17.8319188, 44.2023325], [17.831478, 44.2023111], [17.8310596, 44.2023003], [17.8307607, 44.20222], [17.8304319, 44.2020539], [17.8295876, 44.2016629], [17.8293111, 44.2016254], [17.8288404, 44.2017968], [17.8280633, 44.2020218], [17.8274954, 44.2021664], [17.8270695, 44.2021771], [17.8268753, 44.2021343], [17.8267183, 44.2020325], [17.826554, 44.2020272], [17.8260683, 44.2021021], [17.8256648, 44.2023378], [17.8248429, 44.2029003], [17.8244469, 44.2031199], [17.8240957, 44.2033502], [17.8238715, 44.2033931], [17.823468, 44.2033877], [17.823214, 44.2033234], [17.8230571, 44.2030877], [17.8228553, 44.203077], [17.8224742, 44.2031467], [17.8221754, 44.2030128], [17.8218615, 44.2028628], [17.8215552, 44.2028521], [17.8212488, 44.2027824], [17.8207856, 44.2025521], [17.820143, 44.2022039], [17.8199786, 44.2021557], [17.819732, 44.20222], [17.8195602, 44.2023753], [17.8192239, 44.2028039], [17.8189767, 44.2031153], [17.8184761, 44.2036885], [17.8180277, 44.2041277], [17.8177961, 44.2042134], [17.8172805, 44.2043098], [17.8169667, 44.204417], [17.8166454, 44.2046419], [17.8162718, 44.204883], [17.8159281, 44.204974], [17.8153304, 44.2051454], [17.8147326, 44.20544], [17.8142992, 44.2057185], [17.8139929, 44.2060828], [17.8136641, 44.2064309], [17.8132307, 44.2068273], [17.812902, 44.2070147], [17.8125284, 44.2071379], [17.8116691, 44.2074218], [17.8113926, 44.2075343], [17.8108322, 44.2080538], [17.810354, 44.2086323], [17.8099879, 44.2089], [17.8098459, 44.2092589], [17.8098534, 44.2097195], [17.8099505, 44.2101105], [17.8099057, 44.2103783], [17.8097413, 44.2105443], [17.8095022, 44.2106568], [17.8092556, 44.2106728], [17.8089343, 44.2105604], [17.8086579, 44.2105068], [17.8082245, 44.2105818], [17.8077612, 44.21078], [17.8076716, 44.2109674], [17.8074549, 44.2113209], [17.8072755, 44.2116208], [17.8069468, 44.2117119], [17.8065358, 44.2120118], [17.8061697, 44.2123385], [17.8059679, 44.2126759], [17.8054897, 44.2130186], [17.8050041, 44.2133346], [17.8047351, 44.213581], [17.8045781, 44.2137148], [17.8044063, 44.213747], [17.804227, 44.2136666], [17.8040327, 44.2134417], [17.8039131, 44.2131739], [17.8038011, 44.2128633], [17.8036441, 44.2126437], [17.8033901, 44.2124991], [17.8031585, 44.2124188], [17.8027176, 44.2124242], [17.8021199, 44.2124831], [17.801552, 44.2124509], [17.8013914, 44.2122621], [17.8012879, 44.2120996], [17.8011647, 44.2119158], [17.8006717, 44.2115908], [17.8003562, 44.2113258], [17.7998139, 44.2115095], [17.7992963, 44.2116544], [17.7987195, 44.2117003], [17.7985371, 44.2116791], [17.7982709, 44.2116014], [17.7979949, 44.2114706], [17.7975315, 44.2111809], [17.7968758, 44.2107145], [17.7962399, 44.2105201], [17.7954216, 44.2099442], [17.7948448, 44.2096615], [17.7944504, 44.2094636], [17.7937455, 44.2093929], [17.7932821, 44.2093258], [17.7928976, 44.209135], [17.7920842, 44.2085237], [17.7918673, 44.20846], [17.7910588, 44.2083788], [17.7907433, 44.2083328], [17.7901222, 44.208142], [17.7893039, 44.2078381], [17.788594, 44.2076968], [17.7880369, 44.2075307], [17.7872482, 44.2072586], [17.7870559, 44.2071102], [17.7865679, 44.20699], [17.786139, 44.2068946], [17.7856017, 44.2068063], [17.7849855, 44.2067391], [17.7846156, 44.206727], [17.7842167, 44.2067724], [17.7830898, 44.206951], [17.7826425, 44.2069389], [17.7828124, 44.2065329], [17.782348, 44.2063909], [17.7821555, 44.2063016], [17.7817025, 44.2066425], [17.7809663, 44.2062853], [17.7805813, 44.2062041], [17.779511, 44.2059159], [17.7793298, 44.20592], [17.779058, 44.2056724], [17.7788655, 44.2054938], [17.7786559, 44.2049701], [17.7781859, 44.2049782], [17.7779821, 44.2051203], [17.7765834, 44.205303], [17.7760851, 44.2055141], [17.7755471, 44.2056196], [17.7750714, 44.2055831], [17.7746581, 44.2055871], [17.7736784, 44.205506], [17.7731065, 44.2055425], [17.7728913, 44.2056521], [17.7727724, 44.2056764], [17.7725006, 44.205648], [17.7722854, 44.2056602], [17.7721948, 44.205717], [17.7719484, 44.2056033], [17.7718851, 44.2055163], [17.7718067, 44.2053851], [17.7716774, 44.2053513], [17.7715187, 44.2053502], [17.7714312, 44.2054596], [17.7713567, 44.2054897], [17.7712972, 44.2054869], [17.7712385, 44.2054486], [17.7711394, 44.2054499], [17.7710905, 44.2052868], [17.7711132, 44.2051406], [17.7712887, 44.2048443], [17.7715623, 44.2045124], [17.7716353, 44.2043401], [17.771631, 44.2041463], [17.7714937, 44.203934], [17.7712963, 44.2037679], [17.7709658, 44.2036879], [17.7707298, 44.2035802], [17.7706311, 44.203411], [17.7704766, 44.2029403], [17.7704294, 44.2026173], [17.7703178, 44.202285], [17.770129, 44.2021066], [17.7697942, 44.2018112], [17.7693393, 44.2015743], [17.7690303, 44.2014574], [17.7686141, 44.2013928], [17.7681935, 44.2013005], [17.7679703, 44.2016297], [17.7678373, 44.2016482], [17.7676399, 44.2016912], [17.7673738, 44.2017928], [17.7670881, 44.2020129], [17.7669205, 44.2021472], [17.7664867, 44.2022532], [17.7656979, 44.2024617], [17.7652493, 44.2026526], [17.7649979, 44.2026844], [17.7647218, 44.2026314], [17.7644803, 44.2025678], [17.7641155, 44.2023911], [17.7637655, 44.2021932], [17.7634697, 44.2019069], [17.7627007, 44.2017832], [17.761769, 44.2011294], [17.7616161, 44.2009633], [17.7615274, 44.2007831], [17.7615718, 44.2006523], [17.7617098, 44.2004968], [17.7617739, 44.2003837], [17.7617295, 44.2002565], [17.7615323, 44.2001116], [17.7613006, 44.1998571], [17.761276, 44.1996769], [17.7611823, 44.1995391], [17.7610098, 44.199426], [17.7607288, 44.199327], [17.7608225, 44.1992104], [17.7604971, 44.1990231], [17.7606943, 44.1988852], [17.7600682, 44.1981183], [17.7598168, 44.1981855], [17.7596393, 44.1980476], [17.7595802, 44.1979027], [17.7595062, 44.1977684], [17.7593682, 44.1977331], [17.7591069, 44.1977613], [17.7591168, 44.1974715], [17.7591858, 44.197316], [17.75924, 44.1971181], [17.7592647, 44.1969343], [17.7592302, 44.1967329], [17.7591168, 44.1966056], [17.7588112, 44.1965137], [17.7583315, 44.1964449], [17.7581106, 44.1967047], [17.7575047, 44.1966641], [17.7569554, 44.1967412], [17.7568875, 44.1964489], [17.7567742, 44.1960957], [17.7568025, 44.1959617], [17.7568818, 44.1958805], [17.757148, 44.1956897], [17.7566213, 44.1955233], [17.7563835, 44.1954867], [17.7558569, 44.1954583], [17.7559078, 44.1952797], [17.755636, 44.1950767], [17.7553529, 44.1943337], [17.7551881, 44.1939431], [17.7551375, 44.1936771], [17.7550808, 44.1935188], [17.7548987, 44.1933775], [17.754648, 44.1932149], [17.7544689, 44.1930736], [17.7544002, 44.1929302], [17.7543047, 44.1927248], [17.7541406, 44.1926178], [17.7540271, 44.1925407], [17.7538331, 44.1924316], [17.753657, 44.192361], [17.7533526, 44.1922326], [17.7531824, 44.1920292], [17.7528869, 44.1917574], [17.7525312, 44.1913869], [17.7523767, 44.1911197], [17.7518273, 44.1906403], [17.7516319, 44.1904669], [17.751096, 44.1902486], [17.7504931, 44.1900774], [17.7500531, 44.1899982], [17.7493171, 44.1895124], [17.7487651, 44.1889865], [17.7486755, 44.1888688], [17.7486099, 44.1887447], [17.7484218, 44.1887361], [17.7480159, 44.189132], [17.7478189, 44.1893225], [17.7476279, 44.1895002], [17.7473614, 44.1897367], [17.7470033, 44.1895363], [17.7467174, 44.1894102], [17.746346, 44.1892982], [17.7459998, 44.1892044], [17.7457878, 44.1890806], [17.7456063, 44.1888264], [17.7454838, 44.1885933], [17.7454036, 44.1884087], [17.7453481, 44.1883126], [17.7453762, 44.1881413], [17.7453732, 44.1880621], [17.7454329, 44.1879508], [17.7454373, 44.1879406], [17.7453677, 44.1879088], [17.7453044, 44.1878892], [17.745259, 44.1878725], [17.7452105, 44.1878528], [17.7451693, 44.1878286], [17.7451535, 44.1878037], [17.7451324, 44.1877931], [17.7450996, 44.1877757], [17.7450627, 44.1877605], [17.7450342, 44.1877537], [17.7449846, 44.1877522], [17.7449646, 44.187728], [17.7449509, 44.1877015], [17.7447314, 44.1875339], [17.7447092, 44.1875241], [17.7446269, 44.1875642], [17.7446058, 44.1875407], [17.7446849, 44.1875014], [17.7445841, 44.1874573], [17.7443887, 44.1873995], [17.7442504, 44.1873151], [17.7441512, 44.1872306], [17.7435488, 44.1865228], [17.743418, 44.1863852], [17.7432568, 44.1861862], [17.7431464, 44.1860396], [17.7430135, 44.1858716], [17.7429449, 44.1857849], [17.7427374, 44.1855847], [17.7424957, 44.1853654], [17.7423874, 44.1852694], [17.7423187, 44.1853366], [17.7421709, 44.1854183], [17.7420021, 44.1855152], [17.7418797, 44.1855999], [17.7417087, 44.1856605], [17.7415969, 44.1857074], [17.7413942, 44.1857543], [17.7412022, 44.18578], [17.7409907, 44.185791], [17.7408578, 44.1857789], [17.7406847, 44.1857546], [17.74048, 44.1857017], [17.7402457, 44.1856472], [17.7399776, 44.1855639], [17.7398299, 44.1854989], [17.7396876, 44.1853987], [17.7399041, 44.1852246], [17.7399997, 44.1851283], [17.7401101, 44.185017], [17.7401967, 44.1849142], [17.7402683, 44.1848265], [17.7402952, 44.184773], [17.7403101, 44.1846873], [17.7402922, 44.184591], [17.7402593, 44.184499], [17.7401967, 44.1843342], [17.7398439, 44.1841449], [17.7384325, 44.1839749], [17.7380871, 44.1838037], [17.7378562, 44.1839171], [17.7374963, 44.183928], [17.7370827, 44.1838494], [17.7368558, 44.1837681], [17.7365036, 44.1835733], [17.7364708, 44.1834577], [17.736545, 44.1832024], [17.7365428, 44.1830047], [17.7364204, 44.1828071], [17.7347745, 44.1820649], [17.7298719, 44.1780008], [17.7285605, 44.1765077], [17.7282886, 44.1763232], [17.7269708, 44.1716651], [17.7252661, 44.169287], [17.7252957, 44.1687779], [17.724783, 44.1681414], [17.7240633, 44.1677383], [17.7233041, 44.1672291], [17.7209083, 44.1656095], [17.7198928, 44.1638697], [17.7190153, 44.1604959], [17.7187097, 44.1583245], [17.714549, 44.1566764], [17.7131252, 44.1561435], [17.7132032, 44.1565075], [17.7104517, 44.1560642], [17.7073685, 44.1558495], [17.7065034, 44.1557235], [17.7060025, 44.1554715], [17.7052154, 44.1549955], [17.7048511, 44.1545568], [17.7043178, 44.1540761], [17.7037193, 44.1537401], [17.6990359, 44.1516352], [17.6999986, 44.1501884], [17.7002263, 44.1492129], [17.7002913, 44.1485501], [17.7013386, 44.1464825], [17.7014166, 44.1460017], [17.7017354, 44.1453482], [17.7018199, 44.1449281], [17.70195, 44.1445594], [17.701911, 44.1442653], [17.7014492, 44.1437799], [17.7009483, 44.1434531], [17.7008898, 44.1432384], [17.7008767, 44.1428603], [17.7011369, 44.1423655], [17.701202, 44.1420715], [17.7009158, 44.1413386], [17.7008247, 44.1412359], [17.7006686, 44.1412079], [17.700532, 44.1407738], [17.7004019, 44.140447], [17.70048, 44.1400082], [17.7003954, 44.1396348], [17.700154, 44.1392796], [17.6994516, 44.1386023], [17.6985248, 44.137456], [17.6979727, 44.1366918], [17.6977065, 44.1365291], [17.6973417, 44.1362531], [17.7017514, 44.1273219], [17.7054934, 44.1197421], [17.7056365, 44.1174633], [17.7060008, 44.1176781], [17.7060138, 44.1181451], [17.7064171, 44.1185654], [17.7071456, 44.1190043], [17.707614, 44.1193032], [17.7079783, 44.1193779], [17.7086157, 44.1192845], [17.709058, 44.1189296], [17.7091101, 44.1185093], [17.7094743, 44.1182291], [17.7096175, 44.1178929], [17.7096044, 44.1168375], [17.7092142, 44.1164172], [17.7081214, 44.1158008], [17.7080563, 44.1155766], [17.7080823, 44.1151843], [17.7085116, 44.1148481], [17.7092011, 44.1140168], [17.709006, 44.1130641], [17.7089019, 44.1119152], [17.7094613, 44.1103553], [17.7097215, 44.1095427], [17.7092142, 44.1082536], [17.7083816, 44.1074129], [17.7084076, 44.1065068], [17.7085507, 44.1057782], [17.7083685, 44.1046385], [17.7082515, 44.1033773], [17.7075359, 44.1024058], [17.7066253, 44.1017144], [17.7056886, 44.1010418], [17.7050901, 44.1004906], [17.7032818, 44.0985754], [17.7024362, 44.0977158], [17.7002246, 44.0968096], [17.6994961, 44.0959407], [17.6989367, 44.0949503], [17.6981821, 44.094315], [17.6975446, 44.0938011], [17.6959835, 44.0933993], [17.6950468, 44.0926518], [17.6942793, 44.0921659], [17.6942012, 44.0917361]]]}}]}