{"type": "FeatureCollection", "features": [{"type": "Feature", "properties": {"name": "Opština Vlasenica, Република Српска / Republika Srpska, 75440, Bosna i Hercegovina / Босна и Херцеговина", "source": "OpenStreetMap relation 2528290", "licence": "ODbL 1.0"}, "geometry": {"type": "Polygon", "coordinates": [[[18.8036893, 44.1948368], [18.8067486, 44.1900526], [18.8127182, 44.180716], [18.8127258, 44.180694], [18.815784, 44.1732588], [18.816272, 44.1720724], [18.825144, 44.1677382], [18.8293785, 44.1674302], [18.8349672, 44.1667917], [18.8388067, 44.1629052], [18.8435055, 44.1584883], [18.8493524, 44.1589047], [18.8507036, 44.1553802], [18.8532129, 44.148591], [18.8598531, 44.1492074], [18.8669004, 44.1474525], [18.8714051, 44.146344], [18.8749981, 44.145466], [18.8809514, 44.1446116], [18.8829676, 44.1441117], [18.8830728, 44.1440899], [18.8841033, 44.1438757], [18.8861418, 44.1437833], [18.8865543, 44.143888], [18.8869082, 44.1439507], [18.8884813, 44.1426805], [18.8908839, 44.1426593], [18.892343, 44.143152], [18.8939516, 44.1433045], [18.8945746, 44.1428132], [18.8954115, 44.142844], [18.8968491, 44.1421973], [18.8975143, 44.1420433], [18.8978671, 44.1414417], [18.8987589, 44.141335], [18.8996172, 44.1409192], [18.9007759, 44.140873], [18.9040589, 44.1385632], [18.9046597, 44.1385016], [18.9068999, 44.1373461], [18.9080856, 44.137022], [18.9098283, 44.1365456], [18.9146985, 44.1357063], [18.9162425, 44.1351062], [18.9190957, 44.1338814], [18.9218732, 44.1325643], [18.9242115, 44.1315096], [18.9291677, 44.1293688], [18.929615, 44.1300468], [18.929851, 44.1308015], [18.9307336, 44.1320099], [18.9327285, 44.1365603], [18.9375446, 44.1357977], [18.9388847, 44.1365613], [18.9388847, 44.1386402], [18.9391637, 44.1401955], [18.9401722, 44.1405497], [18.9401078, 44.1410578], [18.9393997, 44.1414582], [18.9395714, 44.1431828], [18.9387677, 44.143888], [18.9392495, 44.1441683], [18.9399681, 44.1441502], [18.9401936, 44.1449074], [18.940494, 44.1452923], [18.9412021, 44.1455387], [18.9424681, 44.1456002], [18.943305, 44.1453385], [18.9441633, 44.1447996], [18.944335, 44.1434754], [18.9448499, 44.142767], [18.9451504, 44.142844], [18.9458054, 44.1438672], [18.9468884, 44.1438449], [18.947103, 44.1440605], [18.9501071, 44.1441375], [18.951137, 44.1435831], [18.9522743, 44.1426901], [18.9538193, 44.1421973], [18.9547408, 44.1418869], [18.9556843, 44.1406246], [18.9557586, 44.1400167], [18.9581718, 44.1366835], [18.960081, 44.1347436], [18.9610889, 44.1334968], [18.961474, 44.133494], [18.9621663, 44.1334889], [18.9624238, 44.1331578], [18.9633679, 44.1333426], [18.9642262, 44.1336891], [18.9644301, 44.1334581], [18.9650845, 44.1334658], [18.9654493, 44.1337584], [18.9661145, 44.133281], [18.9660501, 44.1330038], [18.9671016, 44.1321722], [18.9680671, 44.1321722], [18.9707279, 44.1312019], [18.9705992, 44.1309247], [18.9714145, 44.1302624], [18.9717314, 44.1298088], [18.9739358, 44.1298004], [18.9739466, 44.1291612], [18.973732, 44.1289995], [18.9735174, 44.1286144], [18.9742086, 44.1282611], [18.9743801, 44.1278382], [18.9750769, 44.1266762], [18.9769008, 44.1249127], [18.97881, 44.1229728], [18.9807402, 44.1208858], [18.9836899, 44.1181057], [18.985942, 44.1159033], [18.9883664, 44.11313], [18.989954, 44.1115775], [18.9905548, 44.11229], [18.9906509, 44.1142153], [18.9917342, 44.1150083], [18.9926576, 44.1161222], [18.9923358, 44.11623], [18.9909625, 44.1154136], [18.9905119, 44.1156909], [18.9910483, 44.116153], [18.9913058, 44.1165844], [18.9922714, 44.1173392], [18.9930653, 44.11737], [18.994824, 44.1182201], [18.9941382, 44.1187564], [18.9956188, 44.1192031], [18.9975929, 44.1191261], [18.9981293, 44.1188643], [18.9995885, 44.1196345], [19.0019488, 44.1197731], [19.0028286, 44.119958], [19.0039873, 44.1195574], [19.00491, 44.1196037], [19.0067768, 44.1185716], [19.0077209, 44.1186178], [19.0085363, 44.1189875], [19.0094161, 44.1189721], [19.0101242, 44.118741], [19.0107658, 44.1191748], [19.0111542, 44.1191877], [19.0126562, 44.1183867], [19.0127635, 44.118094], [19.013257, 44.1180478], [19.0136003, 44.1182635], [19.013493, 44.1186332], [19.0130853, 44.1188797], [19.0132403, 44.1215861], [19.0136111, 44.1219065], [19.0142226, 44.1218834], [19.014523, 44.1221915], [19.0145016, 44.1227306], [19.016276, 44.1242889], [19.0158534, 44.1247947], [19.0158963, 44.1258266], [19.0155385, 44.1266423], [19.0145355, 44.1273807], [19.0145767, 44.1277673], [19.0147805, 44.1280061], [19.0152633, 44.128291], [19.0152419, 44.128676], [19.0151346, 44.1290226], [19.0148985, 44.1295616], [19.0139978, 44.130273], [19.0139758, 44.1307475], [19.0137505, 44.1309401], [19.0139973, 44.1311711], [19.0140295, 44.1320798], [19.0157279, 44.1338013], [19.0171194, 44.1354063], [19.0195542, 44.1362361], [19.0201041, 44.1367353], [19.0180724, 44.1383611], [19.016819, 44.1385324], [19.015633, 44.1387963], [19.0148786, 44.1394398], [19.0136754, 44.1394563], [19.0128386, 44.1393024], [19.0105634, 44.1392931], [19.0089011, 44.1386248], [19.007957, 44.1385478], [19.0074634, 44.1388404], [19.0067768, 44.1383014], [19.0064549, 44.1386248], [19.0058078, 44.1385635], [19.0052748, 44.1381166], [19.0043306, 44.138132], [19.0031504, 44.1385632], [18.999969, 44.1387557], [18.9984083, 44.1391484], [18.9973354, 44.1390714], [18.9969063, 44.138902], [18.9958977, 44.1388558], [18.9948137, 44.1391349], [18.9942455, 44.1403957], [18.9936662, 44.1405959], [18.9936662, 44.1414582], [18.9923894, 44.1420087], [18.9905977, 44.1424822], [18.990088, 44.1425476], [18.9896536, 44.1425361], [18.9888328, 44.1426054], [18.9878672, 44.1432944], [18.9875721, 44.1440682], [18.9859199, 44.1456002], [18.9859414, 44.1463239], [18.9854874, 44.1466336], [18.9836025, 44.1459236], [18.9822936, 44.1450151], [18.9809203, 44.1445224], [18.9805126, 44.1454463], [18.9799547, 44.1461699], [18.9798045, 44.1467088], [18.9787531, 44.1471708], [18.9769721, 44.1483255], [18.9750838, 44.1489106], [18.9750409, 44.1501269], [18.9753842, 44.1506196], [18.9753842, 44.1518051], [18.9756417, 44.1519898], [18.9758134, 44.1529136], [18.9768863, 44.1536679], [18.9773583, 44.1540374], [18.9774656, 44.1544993], [18.9784097, 44.1551767], [18.9791822, 44.1554384], [18.9791393, 44.1561619], [18.9803195, 44.1568393], [18.9811498, 44.1569562], [18.981843, 44.157609], [18.9818859, 44.1580862], [18.9828086, 44.1588098], [18.9831304, 44.1593793], [18.9839887, 44.1601644], [18.9843876, 44.1606524], [18.9850642, 44.1622062], [18.985944, 44.1629289], [18.9854693, 44.1632892], [18.9854264, 44.1637202], [18.9858126, 44.1639973], [18.985877, 44.1645514], [18.9867063, 44.1649646], [18.9876795, 44.165475], [18.9877224, 44.1660907], [18.9872718, 44.1663677], [18.9868963, 44.1666217], [18.9870143, 44.166968], [18.9873345, 44.1670944], [18.9882411, 44.1671139], [18.9872932, 44.1684918], [18.9873147, 44.1688766], [18.9879871, 44.1695757], [18.9886749, 44.1702909], [18.9887631, 44.1704618], [18.9881515, 44.1709082], [18.9880228, 44.1713622], [18.9879262, 44.1716238], [18.9871859, 44.1721779], [18.9869928, 44.1723626], [18.9869285, 44.1725088], [18.9870293, 44.172678], [18.9887953, 44.1734822], [18.9891601, 44.1736515], [18.9894604, 44.1738324], [18.9899544, 44.1742421], [18.9899719, 44.1750219], [18.9900076, 44.1766102], [18.9893854, 44.1773412], [18.9894605, 44.1789647], [18.9897928, 44.1792095], [18.9891708, 44.1796803], [18.9895463, 44.1799727], [18.9913857, 44.1822533], [18.9914453, 44.1830272], [18.9912307, 44.183258], [18.9911985, 44.1841505], [18.991617, 44.1840505], [18.9920568, 44.1840505], [18.9925933, 44.184389], [18.993237, 44.1845352], [18.994621, 44.1847583], [18.9956725, 44.1843813], [18.9965415, 44.1843428], [18.996681, 44.184489], [18.998183, 44.1845583], [18.9984298, 44.1843121], [18.9989233, 44.184589], [18.9996207, 44.1846583], [19.0008759, 44.1844736], [19.0009778, 44.1841021], [19.0029734, 44.1840889], [19.0033543, 44.1842044], [19.0041705, 44.1843392], [19.004749, 44.1842813], [19.0053606, 44.1838581], [19.0053713, 44.1836658], [19.0060043, 44.1831041], [19.0069914, 44.1828349], [19.0069592, 44.1824502], [19.0090084, 44.1807652], [19.009083, 44.1802511], [19.0099525, 44.1798111], [19.010489, 44.1797726], [19.0114334, 44.1795634], [19.0122002, 44.1803459], [19.0119212, 44.1807729], [19.0127742, 44.1812653], [19.0131121, 44.1812614], [19.0135789, 44.1810691], [19.0140241, 44.1807267], [19.0143514, 44.1804305], [19.0149522, 44.1792956], [19.0162289, 44.1786839], [19.0188472, 44.1768236], [19.0207457, 44.1751251], [19.0220963, 44.1722431], [19.0246688, 44.1740567], [19.025402, 44.1736015], [19.0260985, 44.1742146], [19.0261745, 44.175079], [19.0283417, 44.1760331], [19.0284276, 44.1765256], [19.028964, 44.1760793], [19.0296078, 44.1760639], [19.0296721, 44.1765102], [19.0301227, 44.1765717], [19.0304661, 44.1762793], [19.0305304, 44.1753714], [19.0307884, 44.1752185], [19.0310883, 44.175356], [19.031024, 44.1764794], [19.0318887, 44.1772123], [19.0324049, 44.1788888], [19.0318979, 44.1806884], [19.0305304, 44.1828503], [19.0307879, 44.1833734], [19.0303427, 44.1844341], [19.0311864, 44.1863258], [19.0306377, 44.1873741], [19.0308523, 44.1878357], [19.0308738, 44.188805], [19.0306163, 44.1898205], [19.0299511, 44.1903128], [19.0299833, 44.1908129], [19.03023, 44.1911437], [19.0300062, 44.1921708], [19.0287065, 44.1936361], [19.027977, 44.193513], [19.027183, 44.1935899], [19.0274933, 44.194138], [19.0289514, 44.1967132], [19.0308674, 44.1996795], [19.0322875, 44.2018116], [19.0330916, 44.2032543], [19.0334235, 44.2034226], [19.0335793, 44.204373], [19.0366149, 44.2090294], [19.0355623, 44.2097341], [19.0360343, 44.2103186], [19.0368497, 44.2100341], [19.0377831, 44.2109338], [19.0389633, 44.2112491], [19.0402078, 44.2113107], [19.0402937, 44.2123719], [19.040004, 44.2125718], [19.0399933, 44.2131563], [19.0395856, 44.2134946], [19.038856, 44.2129717], [19.0382552, 44.2131409], [19.037698, 44.2143655], [19.0382767, 44.2148788], [19.0390706, 44.2149557], [19.0396499, 44.2155093], [19.0396144, 44.2166731], [19.0389943, 44.2181307], [19.0391783, 44.2203986], [19.0388989, 44.2204689], [19.0377402, 44.2204612], [19.0371609, 44.2201152], [19.0356481, 44.2200998], [19.0352189, 44.2203151], [19.0338886, 44.2206073], [19.0334701, 44.2203689], [19.0325367, 44.2203536], [19.0322792, 44.220492], [19.0318072, 44.2205535], [19.0312064, 44.2204612], [19.0303051, 44.2212301], [19.0285737, 44.2220634], [19.0286422, 44.2229293], [19.0283954, 44.2234444], [19.0284383, 44.2244593], [19.0285778, 44.2248437], [19.0286111, 44.2251889], [19.0282345, 44.2251974], [19.027183, 44.2259201], [19.0275264, 44.2261969], [19.0275478, 44.2270272], [19.0273118, 44.2274424], [19.0273332, 44.228042], [19.0275478, 44.2283188], [19.0267702, 44.2316152], [19.0251875, 44.2329467], [19.0250158, 44.233531], [19.0243292, 44.2341921], [19.0235352, 44.2358063], [19.0238786, 44.2367595], [19.0254235, 44.23719], [19.0264643, 44.2373076], [19.0273762, 44.2375743], [19.0277195, 44.2379586], [19.0289433, 44.2384516], [19.0283847, 44.2387888], [19.028492, 44.2394191], [19.0288567, 44.2396651], [19.028492, 44.2400033], [19.0297365, 44.2403722], [19.0300584, 44.2404183], [19.0314317, 44.2409717], [19.0322759, 44.2420375], [19.032526, 44.24317], [19.0321612, 44.243708], [19.0301442, 44.2435081], [19.0299511, 44.2445073], [19.0299296, 44.2465671], [19.0319037, 44.2469667], [19.032762, 44.2467208], [19.033792, 44.2457217], [19.0362596, 44.2452298], [19.0370941, 44.2446244], [19.0378006, 44.2441118], [19.0384591, 44.2443228], [19.0395704, 44.2444054], [19.0408516, 44.2435619], [19.0411091, 44.2440923], [19.0420696, 44.2445712], [19.0441668, 44.2445534], [19.0467535, 44.2464149], [19.0467417, 44.2468514], [19.0474927, 44.2474202], [19.0475571, 44.2475739], [19.0471816, 44.2478275], [19.048394, 44.2497027], [19.0487373, 44.2505941], [19.0488738, 44.251369], [19.0494776, 44.2519006], [19.0502948, 44.2530368], [19.0513832, 44.2538923], [19.0519667, 44.2534375], [19.0527928, 44.2531993], [19.0534794, 44.2528228], [19.0544987, 44.2525768], [19.0540051, 44.2530302], [19.0535116, 44.2533146], [19.0529644, 44.2539755], [19.0529001, 44.2553202], [19.0532756, 44.2557275], [19.0532219, 44.2562731], [19.0535867, 44.2565958], [19.0532434, 44.2568955], [19.0536082, 44.2571645], [19.0536404, 44.2573796], [19.0516984, 44.2587397], [19.0516662, 44.2597309], [19.0511008, 44.2605144], [19.0511298, 44.2620591], [19.0498853, 44.2633038], [19.0491986, 44.2633806], [19.0490055, 44.2639645], [19.0478897, 44.2655319], [19.0477824, 44.2661466], [19.047482, 44.2663309], [19.0422333, 44.267538], [19.0415382, 44.2681902], [19.0412164, 44.2686665], [19.0405297, 44.2688509], [19.0396844, 44.269609], [19.0396245, 44.2734307], [19.0402293, 44.2743207], [19.0404581, 44.2752581], [19.0413451, 44.2769786], [19.0423464, 44.2779449], [19.0423536, 44.2793291], [19.0417528, 44.2818945], [19.0365473, 44.2833613], [19.0364975, 44.2840007], [19.0311874, 44.2903356], [19.0312303, 44.2911771], [19.0320539, 44.2939293], [19.0361763, 44.2958737], [19.034543, 44.2965786], [19.0335989, 44.2977765], [19.0331054, 44.2979301], [19.0322685, 44.2977765], [19.0298433, 44.2966649], [19.0294361, 44.2971622], [19.0289855, 44.2980069], [19.0280607, 44.2985091], [19.0276551, 44.3000034], [19.0257025, 44.3013087], [19.0255523, 44.3018001], [19.0252518, 44.3023222], [19.0252733, 44.3033972], [19.0262174, 44.3041036], [19.0263676, 44.3046871], [19.0252518, 44.306023], [19.0246081, 44.3060845], [19.0237391, 44.3065144], [19.022516, 44.3068253], [19.0222102, 44.3068253], [19.0217704, 44.3067716], [19.0209228, 44.3066795], [19.0198231, 44.3066104], [19.0193361, 44.3067118], [19.0194154, 44.3062687], [19.0190077, 44.3058388], [19.0193939, 44.305547], [19.0176987, 44.3041036], [19.01757, 44.3036429], [19.017055, 44.3035354], [19.0165861, 44.3032414], [19.01388, 44.3017733], [19.0101671, 44.2997884], [19.0096736, 44.2997884], [19.0091157, 44.2999419], [19.0084487, 44.2998525], [19.0073776, 44.2991894], [19.0073347, 44.2981605], [19.006691, 44.2979148], [19.0067124, 44.2964097], [19.0060472, 44.2959182], [19.0060472, 44.295396], [19.0065622, 44.295135], [19.0057648, 44.2944903], [19.0057897, 44.2930155], [19.0053177, 44.2926315], [19.005521, 44.291821], [19.0046739, 44.2909113], [19.0042722, 44.2899944], [19.0019531, 44.2880032], [18.9996743, 44.2881465], [18.9991379, 44.2883462], [18.9982581, 44.2881772], [18.997271, 44.2877932], [18.9956403, 44.2867026], [18.9956188, 44.2861343], [18.9934525, 44.28463], [18.9933228, 44.2836304], [18.9928492, 44.2832777], [18.9919495, 44.281956], [18.9913764, 44.2819479], [18.9881413, 44.2808189], [18.987658, 44.2806502], [18.9834019, 44.2795042], [18.9822507, 44.2793137], [18.9810705, 44.2789296], [18.980062, 44.2783459], [18.9797401, 44.2777774], [18.978281, 44.2777928], [18.9769292, 44.2773012], [18.9742122, 44.277783], [18.9698052, 44.2793521], [18.9683247, 44.2788682], [18.9674373, 44.2786894], [18.9661896, 44.2786761], [18.9649773, 44.2788375], [18.9637649, 44.2792062], [18.962971, 44.2789834], [18.9627886, 44.2788298], [18.962692, 44.2778926], [18.9623809, 44.2775163], [18.9618541, 44.2772601], [18.9602458, 44.2777774], [18.9594841, 44.2777313], [18.9586043, 44.2775009], [18.9580893, 44.2771859], [18.9575927, 44.2762295], [18.9572525, 44.2756803], [18.9563835, 44.2751734], [18.9556539, 44.2746203], [18.9553857, 44.2741593], [18.9549281, 44.27334], [18.9540338, 44.2734756], [18.9522958, 44.2740749], [18.9513302, 44.2734296], [18.9490892, 44.273477], [18.9465984, 44.2742427], [18.9449128, 44.2744715], [18.9433694, 44.2735986], [18.9434123, 44.273153], [18.9426683, 44.2718042], [18.9418459, 44.2723387], [18.9415669, 44.2731837], [18.9400863, 44.2737676], [18.9394641, 44.2737522], [18.9391468, 44.274241], [18.9385872, 44.2744954], [18.9384985, 44.274843], [18.9376616, 44.2755651], [18.9377045, 44.2761336], [18.9350438, 44.2777774], [18.931632, 44.2802815], [18.930645, 44.2801125], [18.9292717, 44.2801279], [18.9292073, 44.2798821], [18.9295077, 44.2795288], [18.9291644, 44.2791293], [18.9290786, 44.2782076], [18.9269113, 44.2763487], [18.9262032, 44.2749045], [18.9261174, 44.2737522], [18.9249587, 44.2730762], [18.9248514, 44.2725384], [18.9235854, 44.2714629], [18.9229846, 44.2712017], [18.9227056, 44.2707562], [18.9216542, 44.2698189], [18.9211284, 44.2696784], [18.9205813, 44.2692658], [18.9204097, 44.2689431], [18.9198142, 44.268509], [18.9194816, 44.2684668], [18.9192509, 44.2684399], [18.9190364, 44.2678368], [18.9187145, 44.2670224], [18.9187428, 44.2666373], [18.9187574, 44.2664385], [18.919208, 44.2655473], [18.9190408, 44.2648591], [18.9180922, 44.2643718], [18.9177811, 44.2638877], [18.918221, 44.2632423], [18.9187252, 44.2628274], [18.9194226, 44.2628351], [18.9200663, 44.2623818], [18.9206564, 44.262812], [18.9218151, 44.2628735], [18.9220297, 44.2624048], [18.9227056, 44.262351], [18.9227378, 44.2615596], [18.9223762, 44.2613629], [18.9229011, 44.2603398], [18.9233494, 44.2588473], [18.9231562, 44.2584016], [18.923006, 44.2575103], [18.9224267, 44.2569724], [18.9225983, 44.2563884], [18.9221477, 44.2555431], [18.9208174, 44.2546978], [18.9202498, 44.2533912], [18.9190793, 44.2525922], [18.9188218, 44.2515932], [18.9180922, 44.2515625], [18.915796, 44.2526117], [18.9146805, 44.2517315], [18.9145833, 44.2502651], [18.9136934, 44.2499486], [18.9122343, 44.2492108], [18.9117408, 44.2486882], [18.9112901, 44.2464595], [18.9095073, 44.2452832], [18.9097881, 44.2447994], [18.91011, 44.2439539], [18.9109655, 44.2433061], [18.9101636, 44.2428472], [18.9102816, 44.2426012], [18.9093804, 44.2420478], [18.9092731, 44.2415713], [18.9082722, 44.2410456], [18.9083075, 44.2397727], [18.908844, 44.2393576], [18.9088225, 44.2389425], [18.9079213, 44.2388042], [18.9078493, 44.2385593], [18.9077496, 44.23822], [18.9068209, 44.2368309], [18.9060545, 44.2370055], [18.9051318, 44.2367134], [18.9045739, 44.2362214], [18.9041052, 44.2365069], [18.9024307, 44.2359055], [18.9008832, 44.2360523], [18.8987169, 44.2363108], [18.8977273, 44.2360949], [18.8965025, 44.2353189], [18.8934968, 44.2355285], [18.8914203, 44.2355757], [18.8895535, 44.2360984], [18.8882446, 44.2360984], [18.8872361, 44.2365289], [18.8856292, 44.2369278], [18.885262, 44.2366519], [18.8837707, 44.2367057], [18.8832128, 44.2368441], [18.8822265, 44.2362373], [18.8803804, 44.2376665], [18.8803572, 44.2380608], [18.8799405, 44.2381354], [18.8789856, 44.2376819], [18.8783741, 44.2380816], [18.878417, 44.2384352], [18.8779235, 44.2384198], [18.8775587, 44.2381124], [18.8769257, 44.2381124], [18.8766467, 44.2384429], [18.8760459, 44.2383891], [18.8752413, 44.237974], [18.8731599, 44.2379279], [18.8721084, 44.238466], [18.8715505, 44.2378049], [18.8713789, 44.2368825], [18.8704991, 44.2356065], [18.8704292, 44.235138], [18.86957, 44.2341381], [18.8680783, 44.2329525], [18.8680959, 44.2325624], [18.8682783, 44.2321319], [18.8685036, 44.2318782], [18.8685572, 44.2315937], [18.8683748, 44.2313016], [18.8679027, 44.2309557], [18.8677633, 44.2307865], [18.8679242, 44.2305405], [18.8681763, 44.2304099], [18.8682568, 44.2304944], [18.8685679, 44.2307942], [18.8694477, 44.2304714], [18.8696086, 44.2300562], [18.8695764, 44.2296565], [18.8693404, 44.2292413], [18.8687006, 44.228645], [18.8679027, 44.2279805], [18.8678276, 44.2277114], [18.8679671, 44.2272348], [18.8682353, 44.2268196], [18.8694584, 44.2263583], [18.869909, 44.2259047], [18.8699765, 44.2256759], [18.8697696, 44.2254819], [18.8694477, 44.225305], [18.8690293, 44.225182], [18.868525, 44.2252358], [18.8678062, 44.2252973], [18.866979, 44.2255889], [18.8656362, 44.2260656], [18.8634825, 44.2269964], [18.8626993, 44.2270887], [18.8618302, 44.2271348], [18.860693, 44.2270579], [18.8591441, 44.2270897], [18.8581288, 44.2270656], [18.8576352, 44.2268427], [18.8572168, 44.2263891], [18.8567877, 44.2256894], [18.8554251, 44.22469], [18.8547921, 44.2241825], [18.8541522, 44.2235767], [18.8534724, 44.2238212], [18.8529467, 44.223875], [18.8523245, 44.2243824], [18.851952, 44.2249996], [18.8520026, 44.2259201], [18.8524961, 44.227181], [18.8524961, 44.2280113], [18.8523674, 44.2286263], [18.851897, 44.228653], [18.8517134, 44.2282845], [18.8498139, 44.2273655], [18.8488912, 44.2273501], [18.8483763, 44.2275192], [18.8473344, 44.2276837], [18.8467026, 44.2273808], [18.8460588, 44.2276884], [18.8447714, 44.2277499], [18.8443637, 44.2279805], [18.8435483, 44.2275039], [18.843963, 44.2271443], [18.8439407, 44.2266118], [18.8406243, 44.2247432], [18.8394499, 44.2243209], [18.8383126, 44.2236443], [18.8371324, 44.2236136], [18.836832, 44.223875], [18.8356519, 44.2239365], [18.8352871, 44.2237059], [18.8356733, 44.2229524], [18.8356118, 44.2218215], [18.8363278, 44.2212608], [18.8361132, 44.2208226], [18.8359201, 44.2204151], [18.8356626, 44.2200691], [18.8354909, 44.2198461], [18.8352549, 44.2196923], [18.8348043, 44.2196923], [18.8344395, 44.2198384], [18.8340425, 44.2200306], [18.8336241, 44.2203766], [18.8323263, 44.2221377], [18.8318324, 44.2226525], [18.8313925, 44.2229831], [18.8307891, 44.2230683], [18.8300836, 44.2231523], [18.8287532, 44.224098], [18.8278842, 44.2244055], [18.8266182, 44.224567], [18.8247896, 44.2245439], [18.8227665, 44.2241518], [18.8213825, 44.2238596], [18.8208393, 44.2236127], [18.8198183, 44.2228743], [18.8176703, 44.2212762], [18.816804, 44.2207673], [18.8160503, 44.220738], [18.8152557, 44.2208078], [18.8130066, 44.2212208], [18.8123924, 44.2211498], [18.8122882, 44.2211205], [18.8122002, 44.2210832], [18.8121163, 44.2210587], [18.8119061, 44.2209983], [18.8159937, 44.2189672], [18.818999, 44.2170036], [18.8210339, 44.2153289], [18.8213525, 44.2143031], [18.8204357, 44.2125722], [18.8194518, 44.211282], [18.8185179, 44.2103186], [18.8174058, 44.2090941], [18.8116619, 44.2041959], [18.8091286, 44.2007088], [18.8064265, 44.1980014], [18.8036893, 44.1948368]]]}}]}