{"type": "FeatureCollection", "features": [{"type": "Feature", "properties": {"name": "Općina Vogošća, Kanton Sarajevo, Federacija Bosne i Hercegovine, Bosna i Hercegovina / Босна и Херцеговина", "source": "OpenStreetMap relation 2528291", "licence": "ODbL 1.0"}, "geometry": {"type": "Polygon", "coordinates": [[[18.2862037, 43.9146468], [18.2867997, 43.9142239], [18.2871431, 43.9136762], [18.2874438, 43.9136831], [18.2874732, 43.9134293], [18.2878858, 43.9132143], [18.2881251, 43.9129526], [18.2883728, 43.9125851], [18.2894031, 43.9123465], [18.2903165, 43.9121092], [18.2909896, 43.9119708], [18.2917522, 43.9118548], [18.2923837, 43.911873], [18.2928455, 43.9119999], [18.293121, 43.9114872], [18.2934137, 43.9108756], [18.2934327, 43.9104068], [18.2937109, 43.909568], [18.2938382, 43.9091518], [18.2942325, 43.9086846], [18.2942152, 43.9084238], [18.294378, 43.908132], [18.2947381, 43.9074124], [18.2954068, 43.9071358], [18.2960254, 43.9070317], [18.2968067, 43.9070043], [18.2974507, 43.9065936], [18.2984268, 43.9061558], [18.2987678, 43.9058355], [18.299072, 43.9053186], [18.2992718, 43.9045932], [18.2994643, 43.9041858], [18.2997969, 43.9039617], [18.3002886, 43.9037709], [18.3006707, 43.9036821], [18.3011344, 43.9034094], [18.3014596, 43.9031066], [18.3019059, 43.90281], [18.3023801, 43.9026508], [18.3026088, 43.9025299], [18.3027354, 43.9023686], [18.3028866, 43.902252], [18.3035461, 43.9018862], [18.3040794, 43.9016255], [18.3047102, 43.9014086], [18.305954, 43.901003], [18.3065395, 43.9007738], [18.3068002, 43.900586], [18.306892, 43.9002781], [18.3068524, 43.9000177], [18.306947, 43.8998924], [18.3072261, 43.8998112], [18.30743, 43.8998479], [18.3077712, 43.8999588], [18.3080702, 43.9000647], [18.3086032, 43.9001792], [18.3088692, 43.9002728], [18.3089926, 43.9004209], [18.3090649, 43.9005688], [18.3091812, 43.9006634], [18.3094598, 43.9006671], [18.3097718, 43.900586], [18.3101952, 43.9004116], [18.3105562, 43.9001823], [18.3107517, 43.9000492], [18.3109039, 43.9000214], [18.3110379, 43.8999843], [18.3111264, 43.8998885], [18.3112307, 43.8997632], [18.3113601, 43.8996821], [18.3115677, 43.8996226], [18.3119924, 43.8995546], [18.3121484, 43.89974], [18.3122848, 43.899711], [18.3124519, 43.8996048], [18.3126673, 43.8994855], [18.3128982, 43.899437], [18.3131773, 43.8994801], [18.3133529, 43.8996006], [18.3134898, 43.8997073], [18.3136654, 43.8996624], [18.3136561, 43.8991891], [18.3136031, 43.8988859], [18.3134027, 43.8985391], [18.3133297, 43.8982918], [18.3132915, 43.8979339], [18.3132715, 43.8977268], [18.3131709, 43.8975926], [18.3131663, 43.8973874], [18.3132502, 43.8972973], [18.3134608, 43.8972658], [18.3137643, 43.8971726], [18.3141795, 43.8969971], [18.3144474, 43.8967772], [18.3146873, 43.8965026], [18.3147892, 43.896378], [18.3148365, 43.8962445], [18.3148161, 43.8959205], [18.3148558, 43.8954116], [18.3150078, 43.8950976], [18.3150565, 43.8949182], [18.3151832, 43.8947886], [18.3156229, 43.8946341], [18.3159897, 43.8944096], [18.3163565, 43.8933821], [18.3160958, 43.8925507], [18.3169749, 43.8923699], [18.3173025, 43.8924268], [18.3177198, 43.8924149], [18.3180656, 43.8923551], [18.3190841, 43.8920613], [18.3194154, 43.891894], [18.3195948, 43.8916759], [18.3199335, 43.8915006], [18.3202869, 43.8914251], [18.3206514, 43.8914075], [18.3208371, 43.8913611], [18.3212318, 43.8910401], [18.3213641, 43.8908911], [18.321809, 43.8906265], [18.3217657, 43.8903213], [18.322115, 43.8900912], [18.3219993, 43.8897615], [18.3225079, 43.889729], [18.3228844, 43.889735], [18.3232508, 43.8896408], [18.3236714, 43.8896037], [18.3237691, 43.8893788], [18.3233079, 43.8891683], [18.3235762, 43.8887316], [18.3239251, 43.8882743], [18.3241653, 43.8879479], [18.3244727, 43.8877177], [18.3247842, 43.8876118], [18.3251191, 43.8876267], [18.3255087, 43.8877138], [18.3258177, 43.8868123], [18.3263573, 43.8868328], [18.3267736, 43.8869425], [18.3269662, 43.8870538], [18.3271528, 43.8873056], [18.3276615, 43.8887948], [18.3280319, 43.889833], [18.3280948, 43.8901171], [18.3281186, 43.8903662], [18.3280962, 43.8906029], [18.3280213, 43.8907703], [18.3285924, 43.8909233], [18.3292548, 43.8907959], [18.3294799, 43.8906652], [18.3297974, 43.8905898], [18.3301095, 43.8906188], [18.3306445, 43.8905805], [18.3309004, 43.8903411], [18.3311816, 43.8900633], [18.3320352, 43.8891449], [18.3328898, 43.8892714], [18.33406, 43.8893104], [18.3347316, 43.8894394], [18.3351231, 43.8892474], [18.3354904, 43.889003], [18.335788, 43.8887153], [18.3359065, 43.8885063], [18.3359765, 43.8883149], [18.3359629, 43.888077], [18.3359214, 43.8871277], [18.3359212, 43.8867748], [18.3360364, 43.8865874], [18.3362366, 43.8864525], [18.3364202, 43.8861055], [18.3366767, 43.8857936], [18.3370925, 43.8854671], [18.3373511, 43.8853349], [18.3381176, 43.8850656], [18.3383745, 43.8849172], [18.3387988, 43.8846039], [18.3394986, 43.8843721], [18.3398561, 43.8843124], [18.3402455, 43.8840768], [18.3405854, 43.8838516], [18.3405649, 43.8835119], [18.3414962, 43.8827417], [18.3419296, 43.8829552], [18.3423163, 43.8827565], [18.3428484, 43.8823687], [18.3435592, 43.8820486], [18.3444932, 43.8824468], [18.3455867, 43.8829911], [18.3461461, 43.8834625], [18.3466154, 43.8840724], [18.3470903, 43.8844325], [18.3472813, 43.8848012], [18.3473179, 43.8852253], [18.3472968, 43.8855974], [18.3473024, 43.8858367], [18.3476256, 43.8862685], [18.3480676, 43.88621], [18.3481081, 43.8853894], [18.3486578, 43.8854003], [18.3487931, 43.8849036], [18.3494611, 43.8845984], [18.350433, 43.8842294], [18.3511018, 43.883517], [18.3517609, 43.883039], [18.3513342, 43.8826033], [18.3523611, 43.8818014], [18.3531773, 43.8812644], [18.3534026, 43.8813934], [18.3542438, 43.8811993], [18.3548775, 43.8810514], [18.3551168, 43.8811091], [18.3554497, 43.8812332], [18.355994, 43.8812977], [18.356329, 43.8812439], [18.3569006, 43.8810282], [18.3579225, 43.8806405], [18.358789, 43.8801889], [18.3594362, 43.8801103], [18.3601563, 43.8801629], [18.3612688, 43.8803031], [18.3617725, 43.8802697], [18.3621327, 43.8800995], [18.3625537, 43.8797936], [18.3632742, 43.879182], [18.3634643, 43.8790111], [18.3635209, 43.8786477], [18.3635006, 43.8781134], [18.3633518, 43.8778273], [18.3632007, 43.8776536], [18.3630558, 43.877318], [18.3630571, 43.8771281], [18.3640408, 43.8766178], [18.3647709, 43.8771075], [18.3646934, 43.8776109], [18.3653146, 43.8779404], [18.366038, 43.8782552], [18.366959, 43.878425], [18.3678711, 43.8787913], [18.3682044, 43.8790371], [18.3685669, 43.8788392], [18.3692422, 43.8786718], [18.3689938, 43.8783057], [18.3687011, 43.8782431], [18.3683096, 43.8781989], [18.3669347, 43.8775512], [18.3661446, 43.8774551], [18.3658713, 43.8772499], [18.3666987, 43.8769999], [18.3667392, 43.8768689], [18.3668007, 43.876646], [18.3670311, 43.8762587], [18.3669823, 43.8760027], [18.367129, 43.8757997], [18.3675063, 43.8756142], [18.3677551, 43.8755531], [18.3680075, 43.8755395], [18.3682647, 43.8754895], [18.3684831, 43.8754234], [18.3686782, 43.8754318], [18.3689258, 43.8754273], [18.3691835, 43.8754041], [18.3694212, 43.8754013], [18.3696831, 43.8753395], [18.370391, 43.8751794], [18.3707256, 43.8750724], [18.3714809, 43.8746181], [18.3718948, 43.8744109], [18.3720264, 43.874265], [18.372144, 43.8741088], [18.3723048, 43.8738922], [18.3725442, 43.8737322], [18.3727583, 43.8737055], [18.372964, 43.873743], [18.3732214, 43.8737652], [18.373457, 43.8738403], [18.3737703, 43.8739247], [18.3739158, 43.8739989], [18.3740337, 43.8741117], [18.3741725, 43.8743127], [18.3744689, 43.8738451], [18.3746402, 43.873721], [18.3749839, 43.8735271], [18.3757135, 43.8732197], [18.3759783, 43.8731208], [18.376113, 43.8730039], [18.3763561, 43.8728402], [18.3765234, 43.8727347], [18.3767298, 43.8726858], [18.3769808, 43.8726516], [18.377006, 43.872738], [18.3770699, 43.8728181], [18.3771481, 43.8728599], [18.3772762, 43.8728813], [18.3776382, 43.8728979], [18.3780187, 43.8729112], [18.3782969, 43.8729896], [18.3785779, 43.8729879], [18.3791428, 43.8731066], [18.3799445, 43.8732023], [18.3801502, 43.8731913], [18.3803227, 43.8732552], [18.3804527, 43.8733222], [18.3805677, 43.8733616], [18.3806858, 43.8733646], [18.3811189, 43.8733538], [18.3816208, 43.8733968], [18.3821269, 43.8734133], [18.3823695, 43.8734642], [18.3825791, 43.8735434], [18.3823911, 43.8735864], [18.38233, 43.8736341], [18.3823525, 43.8737458], [18.3823321, 43.8739054], [18.382167, 43.874146], [18.3819352, 43.8743604], [18.3818502, 43.8745225], [18.3817354, 43.8745498], [18.3813878, 43.8746541], [18.3813281, 43.8747425], [18.3813242, 43.8749033], [18.3813552, 43.8750519], [18.3818799, 43.8749725], [18.3820495, 43.8751185], [18.3822977, 43.8750911], [18.3833312, 43.8752703], [18.3844212, 43.8755062], [18.3843192, 43.8757293], [18.3841019, 43.8760048], [18.383928, 43.8761868], [18.3837048, 43.8764475], [18.3834333, 43.8769134], [18.383459, 43.8769637], [18.3838658, 43.8771996], [18.384187, 43.8770464], [18.3847589, 43.8777608], [18.3859793, 43.8773271], [18.3863473, 43.8770908], [18.3866094, 43.8768609], [18.3868283, 43.8764578], [18.3869957, 43.8764712], [18.3872233, 43.8765263], [18.3878387, 43.8761693], [18.3879464, 43.8760961], [18.3880728, 43.8760471], [18.3881011, 43.8760361], [18.3882013, 43.8760269], [18.3883015, 43.8760849], [18.3883845, 43.8761724], [18.3884283, 43.87629], [18.3883956, 43.8764107], [18.3882445, 43.8766398], [18.3880568, 43.876969], [18.3877275, 43.8773151], [18.3875403, 43.8774194], [18.3874049, 43.8774516], [18.3872942, 43.8774893], [18.3872223, 43.877558], [18.387056, 43.8778858], [18.3869847, 43.878119], [18.386798, 43.8782713], [18.3866451, 43.8783826], [18.3861638, 43.8786502], [18.385712, 43.8789526], [18.3859596, 43.8790525], [18.3860177, 43.879126], [18.3860063, 43.8792436], [18.3859373, 43.879382], [18.3858398, 43.8795221], [18.3856402, 43.8797854], [18.3856048, 43.8799034], [18.3856562, 43.8799845], [18.385815, 43.8801357], [18.3860254, 43.8804491], [18.3861804, 43.8806246], [18.3862143, 43.8807312], [18.3861399, 43.8808665], [18.386185, 43.881034], [18.3866398, 43.8811388], [18.3867697, 43.8814446], [18.3866152, 43.8815265], [18.386809, 43.8816955], [18.3872235, 43.8819636], [18.3880789, 43.8823997], [18.3882511, 43.8825629], [18.3883311, 43.8827517], [18.389123, 43.8833208], [18.3894573, 43.883549], [18.3898805, 43.8838456], [18.39033, 43.8842213], [18.3906327, 43.8841222], [18.3911787, 43.8837824], [18.3912476, 43.883653], [18.3913479, 43.8836063], [18.3915547, 43.8836123], [18.3917116, 43.8836513], [18.3920622, 43.8837273], [18.392416, 43.8837649], [18.3930242, 43.8836848], [18.3932229, 43.883771], [18.3934268, 43.883745], [18.3936559, 43.8836713], [18.3937944, 43.8836111], [18.3939645, 43.8836145], [18.3941016, 43.8835759], [18.3942223, 43.8834708], [18.3943989, 43.8834703], [18.3944546, 43.8835482], [18.3943651, 43.8837093], [18.3941099, 43.8839807], [18.3937521, 43.8841855], [18.3933273, 43.8844841], [18.3931553, 43.8847583], [18.3929871, 43.8850406], [18.3928484, 43.885194], [18.392665, 43.8853234], [18.3924694, 43.8854157], [18.3922868, 43.8855092], [18.3920376, 43.8857239], [18.3917959, 43.8861934], [18.3917889, 43.8863759], [18.3918419, 43.8865155], [18.3920298, 43.8866928], [18.3920871, 43.8869642], [18.3922507, 43.8873655], [18.3922681, 43.8876203], [18.3921664, 43.8881004], [18.3921566, 43.888347], [18.3924074, 43.8890762], [18.3928865, 43.8890709], [18.3929859, 43.888953], [18.3930062, 43.8888195], [18.3944645, 43.8887475], [18.3944525, 43.8890027], [18.3938036, 43.8893627], [18.3938509, 43.8894849], [18.3938561, 43.8895709], [18.3931507, 43.8900698], [18.3925913, 43.8903636], [18.3922557, 43.8905725], [18.3918012, 43.8907431], [18.3912197, 43.8909755], [18.3908706, 43.8911809], [18.3907795, 43.8912697], [18.3907173, 43.8913744], [18.3907477, 43.8914561], [18.3909017, 43.8915907], [18.3914696, 43.8920061], [18.3918025, 43.8923398], [18.3922115, 43.892853], [18.3922291, 43.8929662], [18.3922205, 43.8931022], [18.3921292, 43.8932145], [18.3920537, 43.8933533], [18.3920239, 43.8934831], [18.3920963, 43.8936493], [18.3922161, 43.8938041], [18.392361, 43.8939506], [18.3924771, 43.8940918], [18.3925053, 43.8942638], [18.3926703, 43.89447], [18.3927167, 43.8945992], [18.3927394, 43.894755], [18.3928216, 43.8950818], [18.3929804, 43.8954721], [18.393003, 43.8955742], [18.3929795, 43.8956113], [18.3928437, 43.8956554], [18.3927661, 43.8957059], [18.3924582, 43.8960915], [18.3920817, 43.8962714], [18.391826, 43.8963279], [18.3913539, 43.8963703], [18.3909446, 43.8964223], [18.3905631, 43.8965143], [18.3903237, 43.8966233], [18.3898764, 43.8968375], [18.3895682, 43.8969866], [18.3893916, 43.8969935], [18.3890811, 43.8969713], [18.3888135, 43.8969996], [18.3885748, 43.8970506], [18.3882049, 43.8972279], [18.3878472, 43.8974821], [18.3875241, 43.8978921], [18.3869093, 43.8981401], [18.386639, 43.8982023], [18.3866361, 43.8985124], [18.3866884, 43.8987126], [18.386772, 43.8988398], [18.3869317, 43.8989897], [18.3869282, 43.8991283], [18.3866791, 43.899334], [18.3864182, 43.8996535], [18.3862582, 43.89999], [18.3862358, 43.9001777], [18.3863039, 43.9003093], [18.3864024, 43.9004013], [18.3863489, 43.9006212], [18.3863012, 43.9007685], [18.386335, 43.900904], [18.3864414, 43.9011515], [18.3864904, 43.9013476], [18.3864832, 43.9016028], [18.3863445, 43.9018467], [18.3860671, 43.9021134], [18.3859068, 43.902277], [18.3854296, 43.902541], [18.3851013, 43.9027578], [18.3846144, 43.9028552], [18.3842426, 43.903042], [18.3840302, 43.9030584], [18.3838587, 43.9030436], [18.383621, 43.9032389], [18.3835913, 43.9033886], [18.3837387, 43.903548], [18.3837767, 43.9037773], [18.3841714, 43.9044081], [18.3844916, 43.9047384], [18.3851695, 43.9050014], [18.3859271, 43.9053154], [18.3873183, 43.9060071], [18.3880989, 43.9065913], [18.3892337, 43.9076109], [18.3897092, 43.9078601], [18.3898945, 43.9080915], [18.3903636, 43.9084017], [18.390867, 43.9086087], [18.3886334, 43.9120274], [18.3909236, 43.9143014], [18.3921679, 43.9152501], [18.3925996, 43.9154026], [18.3938469, 43.9159015], [18.3942812, 43.9158309], [18.3947085, 43.915777], [18.3952785, 43.9159382], [18.3958792, 43.9163164], [18.3962586, 43.9167904], [18.396324, 43.9176052], [18.3961341, 43.9182639], [18.3962348, 43.9186479], [18.3966176, 43.9187525], [18.3972577, 43.9188105], [18.3976975, 43.91904], [18.398056, 43.9193293], [18.3984552, 43.9197826], [18.3987712, 43.9203349], [18.3988233, 43.9207258], [18.3985398, 43.9213789], [18.3983808, 43.921918], [18.3984548, 43.9224335], [18.3974273, 43.9233207], [18.3971593, 43.923663], [18.3973173, 43.9241027], [18.397639, 43.9243708], [18.3999013, 43.9277381], [18.4075418, 43.9247496], [18.4075431, 43.9253754], [18.4071426, 43.9260993], [18.4068714, 43.926751], [18.4075188, 43.9268599], [18.4085811, 43.9262895], [18.4096904, 43.9259371], [18.4096611, 43.9253183], [18.4104549, 43.9255396], [18.4110406, 43.9256334], [18.4116546, 43.925842], [18.4128795, 43.9266809], [18.413213, 43.9271409], [18.4132882, 43.927618], [18.4135002, 43.9279416], [18.4136947, 43.9282442], [18.4135995, 43.9287286], [18.4134164, 43.9290456], [18.4133087, 43.9296812], [18.4135015, 43.9301185], [18.4138933, 43.9304976], [18.4140873, 43.9307506], [18.4140184, 43.9310938], [18.4136682, 43.9314859], [18.4130626, 43.9318541], [18.4133102, 43.9321858], [18.413708, 43.9324093], [18.4141281, 43.9325498], [18.4147907, 43.9324639], [18.4154033, 43.9322878], [18.4159836, 43.9323414], [18.4155547, 43.932962], [18.4153379, 43.9338079], [18.4149903, 43.9343427], [18.4144061, 43.9346286], [18.4138333, 43.9350009], [18.4133015, 43.9355605], [18.4130473, 43.9360444], [18.4128773, 43.9366419], [18.4123676, 43.9375917], [18.4120881, 43.9382661], [18.4117224, 43.9384564], [18.4112724, 43.9386012], [18.4110649, 43.9387823], [18.4114034, 43.9390331], [18.4117321, 43.939181], [18.4121962, 43.9393427], [18.4131425, 43.9394728], [18.4136842, 43.9396035], [18.4139142, 43.9398578], [18.4138059, 43.9402252], [18.4137799, 43.9405066], [18.4142111, 43.940728], [18.4152252, 43.9409682], [18.4155512, 43.9413293], [18.4157979, 43.941906], [18.4160644, 43.9423108], [18.4166614, 43.9428583], [18.4169593, 43.9429869], [18.41746, 43.9429578], [18.4178941, 43.9430965], [18.4181323, 43.9436152], [18.4183556, 43.9437466], [18.4193183, 43.9439705], [18.4195904, 43.9441596], [18.4199573, 43.9446477], [18.4206524, 43.9448636], [18.4210288, 43.9454748], [18.4213192, 43.9456095], [18.4220941, 43.945703], [18.4222863, 43.9459178], [18.4222119, 43.9463514], [18.4223825, 43.9464259], [18.4231706, 43.9464083], [18.423567, 43.9465777], [18.4237576, 43.9467951], [18.4236919, 43.9478061], [18.4239728, 43.9482192], [18.4242912, 43.9485782], [18.4247474, 43.94869], [18.4254058, 43.9486808], [18.4260707, 43.9485507], [18.4264716, 43.9484074], [18.4268481, 43.9484237], [18.4272183, 43.9488471], [18.4276261, 43.9491262], [18.4281161, 43.9493058], [18.4283241, 43.9495417], [18.4284269, 43.9498423], [18.4286067, 43.9500437], [18.428715, 43.9503373], [18.4288476, 43.9504245], [18.4292755, 43.9504521], [18.4295061, 43.950591], [18.4298943, 43.950725], [18.4302742, 43.9507336], [18.4308029, 43.9508191], [18.4312876, 43.9508358], [18.4315607, 43.9508023], [18.4319233, 43.9505719], [18.4321355, 43.9504509], [18.4326684, 43.9504351], [18.4328956, 43.950471], [18.4331381, 43.9505776], [18.4333743, 43.950712], [18.4335332, 43.9509877], [18.4339828, 43.9510458], [18.4341602, 43.9510848], [18.4348697, 43.9516791], [18.4355017, 43.9520945], [18.4358757, 43.9522219], [18.4364149, 43.9522227], [18.4367118, 43.9521249], [18.4369437, 43.951886], [18.437164, 43.9516848], [18.437558, 43.9516111], [18.4378259, 43.9516336], [18.4381877, 43.951898], [18.4389744, 43.9519353], [18.439411, 43.9520168], [18.4399212, 43.9522838], [18.4400728, 43.9524939], [18.4401559, 43.9528483], [18.440321, 43.9529777], [18.4405446, 43.9529919], [18.4407581, 43.952889], [18.4409717, 43.9527995], [18.4412896, 43.9528528], [18.4416886, 43.9530426], [18.4419351, 43.9532861], [18.4422894, 43.9534071], [18.4426362, 43.9534317], [18.4429947, 43.9535023], [18.4440843, 43.9538785], [18.4435741, 43.9546524], [18.4435309, 43.9550069], [18.4428119, 43.9551697], [18.4427229, 43.956978], [18.4427932, 43.9584191], [18.4431795, 43.960391], [18.4441277, 43.9609472], [18.4451814, 43.9612505], [18.4450409, 43.9617561], [18.4439521, 43.9619836], [18.4438966, 43.9624514], [18.4434433, 43.962831], [18.443039, 43.9629696], [18.4436712, 43.9639555], [18.4417395, 43.9644358], [18.4404752, 43.9636774], [18.4405454, 43.9629948], [18.4393761, 43.9623296], [18.4391055, 43.9616297], [18.4376655, 43.9617561], [18.4359797, 43.9608966], [18.4353124, 43.9613011], [18.4334129, 43.9613694], [18.4300092, 43.9611747], [18.42703, 43.959854], [18.4259703, 43.9590005], [18.4247761, 43.9589752], [18.4237287, 43.9592258], [18.4230201, 43.9586719], [18.4219665, 43.9585707], [18.4208075, 43.9582674], [18.4206319, 43.9579387], [18.4189224, 43.958013], [18.4176261, 43.9572043], [18.4168037, 43.9569274], [18.4162769, 43.9563459], [18.4138536, 43.9555875], [18.413116, 43.954829], [18.4130956, 43.9527966], [18.4128533, 43.9525301], [18.4121291, 43.9521828], [18.4110424, 43.9518763], [18.4094669, 43.9514598], [18.4082749, 43.9514969], [18.4074057, 43.9513505], [18.4062661, 43.951494], [18.4034503, 43.9521104], [18.4028014, 43.9520954], [18.402101, 43.9519506], [18.4004883, 43.951028], [18.3997769, 43.9509088], [18.3988708, 43.9510422], [18.3981826, 43.9516776], [18.3988493, 43.9528728], [18.3989983, 43.9533734], [18.3974089, 43.9531589], [18.3970116, 43.953731], [18.3955215, 43.9531947], [18.3931065, 43.9531082], [18.3922931, 43.9542316], [18.3905138, 43.9542739], [18.3850415, 43.956949], [18.3849805, 43.9580721], [18.384146, 43.9581061], [18.3832246, 43.9586487], [18.3824091, 43.9584507], [18.3797787, 43.9587327], [18.3793266, 43.9588903], [18.3768959, 43.9597378], [18.3750707, 43.960935], [18.3738247, 43.9610991], [18.3725291, 43.9610306], [18.3715026, 43.9612417], [18.3705103, 43.9623421], [18.3697081, 43.9636971], [18.3659853, 43.9660317], [18.3651313, 43.9666747], [18.3657783, 43.9669611], [18.3665337, 43.9674355], [18.3668587, 43.9678284], [18.3674749, 43.9684441], [18.3679609, 43.9691779], [18.3684272, 43.9693487], [18.3692389, 43.9695685], [18.3694173, 43.9699982], [18.3696127, 43.9707621], [18.3699827, 43.9711864], [18.3707455, 43.9714692], [18.3712137, 43.9719232], [18.3720689, 43.9722031], [18.372338, 43.9728443], [18.3730374, 43.973192], [18.3737989, 43.9736543], [18.3742588, 43.9748113], [18.3745318, 43.9750107], [18.3747495, 43.9750655], [18.3751582, 43.9747556], [18.3758783, 43.974951], [18.3763216, 43.975202], [18.3764001, 43.9761232], [18.3760884, 43.9769696], [18.3748982, 43.9776269], [18.3727234, 43.9781814], [18.3711435, 43.9792022], [18.3696398, 43.9793954], [18.3686148, 43.9803647], [18.3675611, 43.9805163], [18.3672562, 43.9815677], [18.3641193, 43.9825886], [18.3613096, 43.9821337], [18.3572356, 43.981881], [18.3565847, 43.9827832], [18.3551284, 43.9821843], [18.3536422, 43.9799002], [18.3522485, 43.9797582], [18.3490117, 43.9756605], [18.345784, 43.9741444], [18.3444516, 43.9740463], [18.3438194, 43.9737936], [18.3426253, 43.9738441], [18.3419229, 43.9733386], [18.3403763, 43.9739471], [18.3389025, 43.9735408], [18.3375679, 43.9733892], [18.3367953, 43.9722265], [18.3347609, 43.9711698], [18.3312513, 43.9675828], [18.3310354, 43.9665645], [18.3320288, 43.9649554], [18.3309054, 43.9641505], [18.3304033, 43.9629749], [18.3294901, 43.9624187], [18.3290687, 43.9612558], [18.327821, 43.9603112], [18.3267507, 43.9588794], [18.3267507, 43.9582221], [18.3247137, 43.9557445], [18.3251058, 43.9553385], [18.3254161, 43.9542275], [18.3251351, 43.9527105], [18.3240815, 43.9509911], [18.3241686, 43.9486896], [18.3250122, 43.9475301], [18.3248542, 43.9450742], [18.3257174, 43.944045], [18.3258545, 43.9433377], [18.3247287, 43.9415694], [18.3240482, 43.9401], [18.3219236, 43.9410161], [18.3196782, 43.9412217], [18.3191194, 43.9404628], [18.3190515, 43.9391441], [18.3177901, 43.9391449], [18.3137209, 43.93965], [18.3110518, 43.9404543], [18.3095415, 43.9417362], [18.3071255, 43.9421248], [18.3056782, 43.942596], [18.3050671, 43.9424594], [18.3047307, 43.9423104], [18.3044699, 43.9420247], [18.3039998, 43.9418737], [18.3034083, 43.9418185], [18.3031104, 43.9420026], [18.3029362, 43.9424958], [18.3027911, 43.9423681], [18.302503, 43.9422685], [18.3020828, 43.9419147], [18.3012035, 43.9413149], [18.3009219, 43.9413083], [18.3006208, 43.9415033], [18.3002774, 43.9417311], [18.2995937, 43.9408438], [18.2993458, 43.9407176], [18.2992479, 43.9405386], [18.2989201, 43.940445], [18.2984391, 43.9403572], [18.2979516, 43.9403349], [18.2979006, 43.9403147], [18.2979211, 43.9400182], [18.2978775, 43.9398419], [18.2975819, 43.9396955], [18.2974196, 43.9396873], [18.2972948, 43.9391867], [18.2979237, 43.9389612], [18.2984777, 43.9386866], [18.2989105, 43.9385553], [18.3000651, 43.9383277], [18.3004849, 43.9381093], [18.3006726, 43.9377959], [18.300792, 43.9373819], [18.3008043, 43.9364083], [18.3005013, 43.9357294], [18.300224, 43.9353256], [18.2999184, 43.9351608], [18.2978111, 43.934655], [18.2973194, 43.9335421], [18.2980921, 43.9324293], [18.3005505, 43.9322775], [18.3025173, 43.9307094], [18.3031495, 43.9285847], [18.3034276, 43.9269462], [18.3037351, 43.9258086], [18.3029407, 43.925494], [18.30225, 43.924847], [18.2996374, 43.9252457], [18.2987097, 43.926212], [18.2969682, 43.9264093], [18.2958443, 43.9261058], [18.2923169, 43.9215624], [18.2897218, 43.9184286], [18.2898036, 43.9167458], [18.2883715, 43.9160664], [18.2872749, 43.9159362], [18.2862037, 43.9146468]]]}}]}