{"type": "FeatureCollection", "features": [{"type": "Feature", "properties": {"name": "Grad Zavidovići, Zeničko-dobojski kanton, Federacija Bosne i Hercegovine, Bosna i Hercegovina / Босна и Херцеговина", "source": "OpenStreetMap relation 2528292", "licence": "ODbL 1.0"}, "geometry": {"type": "Polygon", "coordinates": [[[18.0598799, 44.3485144], [18.0616715, 44.3459521], [18.0643589, 44.3433896], [18.0688379, 44.3382642], [18.072421, 44.3350607], [18.0733168, 44.3305754], [18.072421, 44.3241673], [18.072421, 44.3222447], [18.0679421, 44.3183994], [18.0688379, 44.3145538], [18.0715252, 44.310067], [18.072421, 44.3068619], [18.0733168, 44.3023745], [18.0754514, 44.2942855], [18.075714, 44.2915251], [18.0758577, 44.290222], [18.0810499, 44.2914258], [18.082509, 44.2915487], [18.0838716, 44.2921016], [18.0862548, 44.2927193], [18.0870967, 44.2932645], [18.0873756, 44.2946275], [18.0890536, 44.2953346], [18.091967, 44.2966583], [18.0935812, 44.2977151], [18.0960702, 44.2997116], [18.0990743, 44.299988], [18.1025223, 44.3001531], [18.1047284, 44.2976383], [18.1058121, 44.2964941], [18.107636, 44.2955217], [18.1116427, 44.2950535], [18.1151247, 44.2951887], [18.1172051, 44.2950114], [18.120017, 44.2949967], [18.1212884, 44.2952885], [18.1227195, 44.2954357], [18.1244413, 44.2954951], [18.1293656, 44.2959827], [18.1311033, 44.2957215], [18.1349063, 44.2943622], [18.1378137, 44.2933986], [18.1422927, 44.2895514], [18.1440843, 44.2863452], [18.1440843, 44.2837801], [18.1434777, 44.2821288], [18.1436011, 44.2796057], [18.1464981, 44.2771249], [18.147807, 44.2765028], [18.1515939, 44.2736415], [18.1523967, 44.27197], [18.1532979, 44.2700801], [18.1548818, 44.2688786], [18.1558943, 44.2681595], [18.1576109, 44.267299], [18.1592535, 44.2675767], [18.1600785, 44.2670992], [18.1625891, 44.2666997], [18.1628895, 44.2671761], [18.1637478, 44.2672068], [18.1638551, 44.2678214], [18.1646275, 44.2677446], [18.1646061, 44.2672683], [18.166151, 44.2670839], [18.1663227, 44.2666844], [18.168801, 44.2670301], [18.1702715, 44.2678037], [18.1716442, 44.2670839], [18.1739781, 44.2674272], [18.1748199, 44.2683415], [18.1765365, 44.2683899], [18.1780386, 44.2681287], [18.1791115, 44.2675756], [18.1798947, 44.2670147], [18.1817722, 44.2670378], [18.1816435, 44.2672836], [18.1816542, 44.2675295], [18.1818581, 44.2678214], [18.1821906, 44.2680058], [18.1826627, 44.2679981], [18.1828451, 44.2678752], [18.1828022, 44.2677599], [18.1826413, 44.2676678], [18.1824803, 44.267637], [18.182416, 44.267541], [18.1824321, 44.267395], [18.1824213, 44.267153], [18.1824857, 44.2670454], [18.1827003, 44.2669955], [18.1829202, 44.266934], [18.1829685, 44.2671107], [18.1832421, 44.2671492], [18.1834888, 44.2670915], [18.1835532, 44.2669993], [18.1835586, 44.266911], [18.1834406, 44.2668495], [18.1834835, 44.2667958], [18.1836605, 44.2668073], [18.1838322, 44.2668649], [18.1838536, 44.2670647], [18.184154, 44.2673835], [18.1844974, 44.2676562], [18.1849319, 44.2679174], [18.1851572, 44.267952], [18.1854039, 44.267952], [18.1854254, 44.2678291], [18.1854629, 44.2676293], [18.1854951, 44.2676024], [18.1856561, 44.2676678], [18.1858009, 44.2678867], [18.1861221, 44.2680802], [18.1863051, 44.2681076], [18.1865305, 44.2680865], [18.1866914, 44.2679866], [18.1867129, 44.2678982], [18.1866431, 44.2678022], [18.1864607, 44.2675026], [18.1867397, 44.2674526], [18.1871366, 44.2672913], [18.1870186, 44.2664615], [18.1884777, 44.2667458], [18.1891966, 44.2667612], [18.1899556, 44.2666555], [18.1900978, 44.2666383], [18.1901514, 44.2667765], [18.190527, 44.2668572], [18.1919324, 44.2669648], [18.1927746, 44.2670531], [18.1936276, 44.2671645], [18.1949855, 44.2669609], [18.1957509, 44.2668511], [18.1963312, 44.2668803], [18.1965297, 44.2665307], [18.1972539, 44.2660851], [18.1978226, 44.2659929], [18.1985521, 44.2657854], [18.2010395, 44.264719], [18.2025218, 44.2642335], [18.2034016, 44.2640875], [18.2037663, 44.2639108], [18.2051182, 44.2639031], [18.2068674, 44.2640487], [18.2073175, 44.2615834], [18.2075389, 44.2615001], [18.2078178, 44.261211], [18.2079532, 44.2609526], [18.2082215, 44.2608393], [18.2088303, 44.2607759], [18.2093346, 44.2609296], [18.2097074, 44.2609786], [18.2099891, 44.2610967], [18.2103029, 44.2611447], [18.2109976, 44.2610909], [18.2115233, 44.261137], [18.2120597, 44.2612984], [18.2121382, 44.2613781], [18.212284, 44.2613848], [18.2175391, 44.2600476], [18.2229138, 44.2606892], [18.2282886, 44.2606892], [18.2354549, 44.258123], [18.2417254, 44.2555566], [18.2471002, 44.2555566], [18.2542665, 44.2574814], [18.2569539, 44.2594061], [18.2596412, 44.2613307], [18.2685991, 44.2671042], [18.2739739, 44.2671042], [18.282036, 44.2690286], [18.2883065, 44.2728772], [18.2927855, 44.27416], [18.2963686, 44.2767255], [18.3008476, 44.2812149], [18.3062223, 44.2844214], [18.3115971, 44.2889101], [18.3295129, 44.2940398], [18.3330961, 44.2940398], [18.337575, 44.291475], [18.3393666, 44.2901926], [18.3438455, 44.2933986], [18.3492203, 44.2940398], [18.354595, 44.2921162], [18.3581782, 44.2895514], [18.3662403, 44.2844214], [18.3707193, 44.2850626], [18.3751982, 44.2863452], [18.3796772, 44.2889101], [18.3850519, 44.2901926], [18.3966972, 44.2940398], [18.3993846, 44.2933986], [18.4119256, 44.2927574], [18.414613, 44.2940398], [18.4199877, 44.2966044], [18.4271541, 44.299169], [18.4307372, 44.3023745], [18.4370078, 44.310067], [18.4522362, 44.310067], [18.4567151, 44.31199], [18.4594025, 44.3139129], [18.4638815, 44.3164766], [18.4665688, 44.3190403], [18.4665688, 44.3228856], [18.4710478, 44.3235265], [18.4853804, 44.3235265], [18.492947, 44.325593], [18.4898117, 44.3307194], [18.4875723, 44.3329621], [18.4862286, 44.3342435], [18.4826454, 44.3364861], [18.4772707, 44.3403302], [18.4723438, 44.3470569], [18.4696564, 44.3486583], [18.4651775, 44.3496192], [18.4611464, 44.3518612], [18.4575633, 44.3502598], [18.4566675, 44.3496192], [18.454428, 44.3489786], [18.4490533, 44.3509003], [18.4445743, 44.3531422], [18.4396475, 44.3525017], [18.4333769, 44.3480178], [18.4284501, 44.3499395], [18.4253148, 44.3515409], [18.4208359, 44.3525017], [18.4177006, 44.3515409], [18.4127737, 44.3502598], [18.4042637, 44.3489786], [18.4020243, 44.3502598], [18.4002327, 44.3544233], [18.398889, 44.3557043], [18.3993369, 44.3573055], [18.4011285, 44.3589067], [18.4038158, 44.3601876], [18.407399, 44.3627494], [18.4033679, 44.365311], [18.3975453, 44.3688331], [18.3966495, 44.3701138], [18.4015764, 44.3729953], [18.411878, 44.3793981], [18.4127737, 44.3800383], [18.4163569, 44.3800383], [18.4194922, 44.3777975], [18.4235232, 44.3755565], [18.4267966, 44.3771449], [18.4294268, 44.3786515], [18.4287403, 44.3812989], [18.4271375, 44.3841605], [18.4257571, 44.386702], [18.4277505, 44.3878982], [18.4298314, 44.3876914], [18.4328383, 44.3893064], [18.4342727, 44.3918815], [18.4306896, 44.3938018], [18.4263876, 44.3955949], [18.4253148, 44.396042], [18.4221795, 44.3973221], [18.4172527, 44.3992423], [18.4096385, 44.4021223], [18.4056074, 44.4040423], [18.4024722, 44.4043622], [18.398889, 44.4053222], [18.3948579, 44.4088419], [18.3935143, 44.4104416], [18.3934129, 44.4137806], [18.3906888, 44.4146995], [18.3895339, 44.4160394], [18.3863954, 44.4177761], [18.3839066, 44.4194142], [18.3793769, 44.4210376], [18.3763561, 44.419176], [18.3722139, 44.4164988], [18.36888, 44.4149208], [18.36037, 44.4187598], [18.3565073, 44.419301], [18.3532609, 44.4194574], [18.3504623, 44.4198228], [18.3470173, 44.4199455], [18.3397668, 44.4219588], [18.3339442, 44.4257973], [18.3312568, 44.426437], [18.3263242, 44.4288218], [18.3186648, 44.4297611], [18.3181431, 44.432907], [18.3183471, 44.4360322], [18.318313, 44.4383558], [18.3183188, 44.4411044], [18.3173721, 44.4430676], [18.3205073, 44.4449862], [18.3170092, 44.4495032], [18.3153025, 44.4516117], [18.3149112, 44.4546795], [18.314112, 44.4566868], [18.3142368, 44.4584147], [18.3146847, 44.4635295], [18.3182678, 44.4648082], [18.321851, 44.4654475], [18.3267894, 44.4657825], [18.3241021, 44.4673807], [18.3227584, 44.4708967], [18.3214147, 44.4734536], [18.3196231, 44.4760104], [18.3173836, 44.4824019], [18.3146963, 44.4862365], [18.311561, 44.4887927], [18.3106652, 44.4926268], [18.3102173, 44.4961413], [18.3075299, 44.4990165], [18.3061863, 44.5018917], [18.3034989, 44.5054055], [18.3017073, 44.5082803], [18.2976762, 44.509558], [18.2927494, 44.5101968], [18.2896141, 44.5114744], [18.2833274, 44.5141939], [18.2830488, 44.5149181], [18.2828574, 44.5151863], [18.28258, 44.5153015], [18.2822657, 44.5152993], [18.281723, 44.5154907], [18.2813412, 44.5160204], [18.2813159, 44.5164557], [18.2799277, 44.5166274], [18.2784653, 44.5165094], [18.2781142, 44.5162106], [18.2774687, 44.5155322], [18.2768571, 44.51487], [18.2759624, 44.5143774], [18.2749544, 44.5140624], [18.2744448, 44.5137797], [18.2737539, 44.5136102], [18.2730178, 44.5132387], [18.2723383, 44.5128995], [18.2714662, 44.5120515], [18.2708886, 44.5120547], [18.2661807, 44.5115166], [18.2623801, 44.5101615], [18.2598465, 44.5088064], [18.2509786, 44.5088064], [18.251612, 44.5083546], [18.2541457, 44.5051925], [18.2566794, 44.5033855], [18.2554125, 44.5002231], [18.251612, 44.4984159], [18.2484449, 44.4952532], [18.2446444, 44.4925422], [18.2402104, 44.4920904], [18.2357765, 44.4934459], [18.231976, 44.4943496], [18.2269086, 44.4961569], [18.2237415, 44.4961569], [18.2212079, 44.495705], [18.2167739, 44.4961569], [18.2117066, 44.495705], [18.2053724, 44.4948014], [18.2041055, 44.4943496], [18.1965045, 44.4920904], [18.1933374, 44.4920904], [18.1870032, 44.4948014], [18.1851029, 44.4975123], [18.1739933, 44.5028651], [18.1727141, 44.5006007], [18.1709506, 44.4983845], [18.1695231, 44.4968871], [18.1681506, 44.4949385], [18.1665, 44.4930535], [18.1615592, 44.490086], [18.1585993, 44.4880344], [18.1570639, 44.4876059], [18.1543486, 44.487387], [18.1514257, 44.487746], [18.1502089, 44.4877818], [18.1486925, 44.4879699], [18.1462621, 44.4879616], [18.1423371, 44.4874151], [18.1403911, 44.48664], [18.1391242, 44.4856251], [18.1382239, 44.4845083], [18.1375814, 44.4830796], [18.1371928, 44.4806524], [18.1372905, 44.4797777], [18.1376789, 44.4789991], [18.1390974, 44.4778401], [18.1407702, 44.4768968], [18.1399405, 44.4763214], [18.1397903, 44.4762678], [18.1395113, 44.476153], [18.1393182, 44.4758391], [18.1393182, 44.475663], [18.1393397, 44.4754257], [18.1392753, 44.4746984], [18.1391251, 44.4741242], [18.1392968, 44.4739558], [18.1394255, 44.4736726], [18.1400156, 44.4735577], [18.140713, 44.4739175], [18.1410134, 44.4742238], [18.1413996, 44.4740017], [18.1412601, 44.4738793], [18.1417429, 44.4735654], [18.1422043, 44.4730218], [18.1423545, 44.4725165], [18.142215, 44.4720725], [18.1420863, 44.471904], [18.1416893, 44.4712303], [18.1416678, 44.4710848], [18.1417537, 44.4708858], [18.1423437, 44.4706867], [18.142848, 44.4705948], [18.1432879, 44.4703958], [18.1433737, 44.4701661], [18.1432879, 44.4699517], [18.1434166, 44.4695919], [18.1438029, 44.4690789], [18.1444144, 44.4686272], [18.1446504, 44.4683439], [18.1448543, 44.4679993], [18.144865, 44.4676854], [18.1446934, 44.4673485], [18.1445324, 44.4670269], [18.144629, 44.4665063], [18.1446826, 44.4662995], [18.1447685, 44.4659473], [18.1448114, 44.4655262], [18.1447899, 44.4652582], [18.1445539, 44.4649137], [18.1443715, 44.4646457], [18.144232, 44.4642934], [18.1440174, 44.4639489], [18.1439496, 44.4633351], [18.1437278, 44.4629764], [18.1436956, 44.4624557], [18.1435346, 44.4622337], [18.1431377, 44.4617972], [18.1427514, 44.4615522], [18.1421935, 44.4612841], [18.1417966, 44.4610161], [18.1413674, 44.4604878], [18.1409275, 44.4599977], [18.1405949, 44.4595918], [18.1402409, 44.4591477], [18.139919, 44.4588031], [18.1392431, 44.4582211], [18.1381702, 44.4577004], [18.1371724, 44.4572179], [18.1369471, 44.4572026], [18.1348658, 44.4573558], [18.1333852, 44.4574706], [18.1329131, 44.4574706], [18.1322908, 44.4573634], [18.1314433, 44.4575089], [18.1309283, 44.4576085], [18.1294477, 44.4578918], [18.1286269, 44.4580565], [18.1281871, 44.4581866], [18.1274307, 44.458424], [18.1273556, 44.4585006], [18.1273341, 44.4586155], [18.1273985, 44.4587533], [18.1273448, 44.4588452], [18.1271839, 44.458872], [18.1266636, 44.4588069], [18.1262934, 44.4587954], [18.1263417, 44.4582211], [18.1263578, 44.4578267], [18.1263792, 44.4576314], [18.1265938, 44.4574783], [18.1267869, 44.4572562], [18.1268781, 44.4570111], [18.1268889, 44.456701], [18.1268781, 44.4562262], [18.1268299, 44.4559428], [18.1265134, 44.4555753], [18.1257969, 44.4552091], [18.1254751, 44.455056], [18.1250167, 44.4545337], [18.1249757, 44.4542185], [18.1246948, 44.453833], [18.1242902, 44.453541], [18.1239867, 44.4531054], [18.1235868, 44.4523449], [18.1233054, 44.4523702], [18.122254, 44.4523587], [18.121857, 44.4523128], [18.1211221, 44.4521673], [18.1199527, 44.4518609], [18.1197113, 44.4518341], [18.1195718, 44.4517192], [18.1194431, 44.4515469], [18.1190944, 44.4513861], [18.1186008, 44.4512827], [18.1182629, 44.4512329], [18.1178927, 44.4510797], [18.1175548, 44.4509917], [18.1172436, 44.4509457], [18.1168252, 44.4508615], [18.1165731, 44.4507657], [18.1164336, 44.4505857], [18.1163102, 44.4503751], [18.1161386, 44.4501377], [18.1156397, 44.4499462], [18.1153929, 44.4498773], [18.1151462, 44.4498007], [18.1149316, 44.449345], [18.1149208, 44.4491956], [18.1147224, 44.4487667], [18.1143039, 44.4480161], [18.114143, 44.4477021], [18.1140035, 44.4476102], [18.1134993, 44.447817], [18.1128985, 44.4481349], [18.1122118, 44.4483914], [18.1115735, 44.448357], [18.1114018, 44.4482804], [18.1111711, 44.4480659], [18.1106132, 44.4477979], [18.1107098, 44.4468175], [18.1104147, 44.4468022], [18.1095618, 44.4467485], [18.1093955, 44.4463617], [18.1090683, 44.4463541], [18.1089771, 44.4458332], [18.1085801, 44.4458218], [18.1078505, 44.4456456], [18.107475, 44.4455192], [18.1069279, 44.4453469], [18.1067026, 44.4449907], [18.1066382, 44.444895], [18.1064719, 44.4449026], [18.1063002, 44.4448758], [18.1064933, 44.4445311], [18.1066972, 44.4442056], [18.107003, 44.4439413], [18.1077003, 44.4438073], [18.1081939, 44.4437], [18.1086123, 44.443363], [18.1096852, 44.4421298], [18.1104201, 44.4405556], [18.1106454, 44.4400845], [18.1107849, 44.4397781], [18.1107634, 44.4394526], [18.1107044, 44.4391768], [18.1107151, 44.4388512], [18.1109244, 44.4386827], [18.1110853, 44.4385372], [18.111434, 44.438495], [18.1119382, 44.4383878], [18.1124103, 44.4382576], [18.1126088, 44.438066], [18.1127536, 44.4379167], [18.112877, 44.4378362], [18.1131399, 44.4377864], [18.113451, 44.4376562], [18.1135368, 44.437346], [18.1136334, 44.4371008], [18.1139606, 44.4368557], [18.114261, 44.4367293], [18.114599, 44.436691], [18.1148618, 44.4366986], [18.1150603, 44.4366488], [18.1150013, 44.4364228], [18.114835, 44.4357066], [18.1148189, 44.4349941], [18.1148297, 44.43432], [18.1148618, 44.433642], [18.1148726, 44.4333049], [18.1150335, 44.4329716], [18.1151462, 44.4328988], [18.1153876, 44.4329563], [18.1156182, 44.4330865], [18.1159508, 44.4328567], [18.1160635, 44.4327188], [18.1162566, 44.4326537], [18.1164443, 44.4325885], [18.1166589, 44.43224], [18.1171846, 44.4318569], [18.117485, 44.4316769], [18.1179357, 44.4314049], [18.1184614, 44.4311099], [18.118794, 44.4309835], [18.1203174, 44.4311827], [18.1210148, 44.4313053], [18.1214654, 44.4313053], [18.1225383, 44.4311367], [18.1237399, 44.4309912], [18.1241691, 44.430815], [18.1261298, 44.4305047], [18.1259501, 44.4298898], [18.1257447, 44.4291796], [18.1257838, 44.4285548], [18.12594, 44.4278092], [18.126449, 44.4272753], [18.1270979, 44.4266855], [18.1285527, 44.4257738], [18.1293307, 44.4254594], [18.1304819, 44.4249789], [18.1314442, 44.4239986], [18.1315514, 44.4227417], [18.1310169, 44.4212362], [18.1302565, 44.4201727], [18.1293297, 44.4190305], [18.1285143, 44.4182106], [18.1276238, 44.4177431], [18.1265294, 44.41736], [18.1247914, 44.4169691], [18.1245178, 44.41695], [18.1241101, 44.4169653], [18.1233698, 44.417222], [18.1224471, 44.4177699], [18.1218839, 44.4172105], [18.1215459, 44.4169845], [18.1208754, 44.4170573], [18.1202155, 44.4172182], [18.1199849, 44.416904], [18.1198025, 44.4165936], [18.1196362, 44.4162641], [18.1202209, 44.4159767], [18.1210417, 44.4156127], [18.1214869, 44.4153713], [18.121165, 44.4150609], [18.1206554, 44.4147238], [18.1204811, 44.4147161], [18.1203228, 44.4147812], [18.1201646, 44.4148464], [18.1200412, 44.4148713], [18.11995, 44.4148521], [18.1198776, 44.4147716], [18.1197381, 44.4146624], [18.1195369, 44.4145264], [18.1188583, 44.4141873], [18.1187671, 44.4141145], [18.118692, 44.4139976], [18.1184238, 44.4134765], [18.1185955, 44.4134094], [18.1189093, 44.4132657], [18.1191668, 44.4130454], [18.1193411, 44.4128921], [18.119486, 44.4128002], [18.119604, 44.4127676], [18.1197569, 44.4127504], [18.1199822, 44.4126871], [18.1201941, 44.4125856], [18.1203818, 44.4124093], [18.1206393, 44.4119801], [18.1207037, 44.4116774], [18.1207573, 44.4115586], [18.1208914, 44.4112866], [18.1210202, 44.410957], [18.1212616, 44.4107807], [18.1215298, 44.4106466], [18.1216532, 44.4105125], [18.1217658, 44.4102941], [18.1217068, 44.4099798], [18.1216747, 44.4096541], [18.1217498, 44.4095276], [18.1219858, 44.4093897], [18.1222594, 44.4093437], [18.1225383, 44.4093322], [18.1227153, 44.4093207], [18.123064, 44.4094165], [18.1233483, 44.4093897], [18.1236058, 44.4093169], [18.1237829, 44.4092479], [18.1239545, 44.4091521], [18.1247967, 44.4087191], [18.1249469, 44.4085734], [18.125022, 44.408401], [18.1250006, 44.4082247], [18.1248665, 44.407991], [18.1246895, 44.4077955], [18.1240994, 44.4074468], [18.1238204, 44.4073663], [18.1236327, 44.4073012], [18.1234181, 44.407236], [18.1232357, 44.4071287], [18.1231981, 44.4070367], [18.1232786, 44.4066535], [18.1235307, 44.4065194], [18.1236327, 44.4064542], [18.1237292, 44.4063316], [18.1237882, 44.4061323], [18.1237131, 44.4058909], [18.1235468, 44.4057376], [18.1233001, 44.4055881], [18.1230694, 44.4053965], [18.1230104, 44.4052624], [18.1230265, 44.4050592], [18.1230372, 44.4049251], [18.1228495, 44.4046683], [18.1225598, 44.4044116], [18.1221521, 44.4040781], [18.1219697, 44.403967], [18.1216532, 44.4038099], [18.1217337, 44.4035952], [18.1217551, 44.4034688], [18.1216532, 44.4033538], [18.1215191, 44.4032848], [18.121267, 44.4031775], [18.1212133, 44.4031124], [18.1212348, 44.4030242], [18.1214064, 44.4027253], [18.1213099, 44.40248], [18.1214333, 44.4024033], [18.1217229, 44.4022999], [18.1218463, 44.4022385], [18.1220877, 44.4020431], [18.122195, 44.4019281], [18.1223613, 44.4017556], [18.1225008, 44.4016406], [18.1226349, 44.4014375], [18.1237721, 44.4004449], [18.1246131, 44.3988308], [18.1243769, 44.3978184], [18.1270642, 44.3971784], [18.1270642, 44.3933379], [18.1216895, 44.3907775], [18.1172105, 44.3888571], [18.1118358, 44.3862965], [18.1055653, 44.384376], [18.1010863, 44.3830956], [18.0948158, 44.3818152], [18.0858579, 44.3798945], [18.0813789, 44.3766932], [18.0777958, 44.3722111], [18.0769, 44.3709305], [18.072421, 44.3658076], [18.0706294, 44.3632459], [18.0733168, 44.3594033], [18.0733168, 44.3574819], [18.0697336, 44.3549199], [18.0652547, 44.3523578], [18.0598799, 44.3485144]]]}}]}