{"type": "FeatureCollection", "features": [{"type": "Feature", "properties": {"name": "Grad Zenica, Zeničko-dobojski kanton, Federacija Bosne i Hercegovine, Bosna i Hercegovina / Босна и Херцеговина", "source": "OpenStreetMap relation 2528293", "licence": "ODbL 1.0"}, "geometry": {"type": "Polygon", "coordinates": [[[17.7370916, 44.3879798], [17.7372978, 44.3875886], [17.737474, 44.3873576], [17.7378635, 44.3871323], [17.7381399, 44.3870308], [17.7383641, 44.3866837], [17.738663, 44.3862566], [17.7389245, 44.3861177], [17.7395297, 44.3859842], [17.7399482, 44.3858828], [17.7404114, 44.3856532], [17.7406057, 44.3854075], [17.7410839, 44.3853434], [17.7414874, 44.3853168], [17.7420179, 44.385493], [17.7423915, 44.3854075], [17.7426456, 44.3851566], [17.7430939, 44.3848201], [17.7436916, 44.3845264], [17.7439606, 44.3842541], [17.7444837, 44.3835759], [17.7448797, 44.3830152], [17.7449245, 44.3826521], [17.7454102, 44.3820006], [17.7454251, 44.3816161], [17.7452608, 44.3811996], [17.7450291, 44.3806816], [17.7450705, 44.3802406], [17.7452786, 44.3797385], [17.7452396, 44.3795385], [17.7452201, 44.3792828], [17.7454543, 44.3790829], [17.7458641, 44.3785715], [17.7461308, 44.3782786], [17.7465145, 44.3780043], [17.7466056, 44.3777533], [17.7467162, 44.3775162], [17.7470805, 44.3773209], [17.7474707, 44.3770977], [17.747861, 44.3764794], [17.7481512, 44.3762151], [17.7486325, 44.3760167], [17.7491422, 44.3758913], [17.7492271, 44.3758144], [17.7494366, 44.3754582], [17.7496065, 44.3748106], [17.7497764, 44.3744706], [17.7500425, 44.3743248], [17.7502974, 44.3741063], [17.7504276, 44.3739484], [17.7505805, 44.3736165], [17.7505975, 44.3733696], [17.7508636, 44.3733332], [17.7583497, 44.3702568], [17.7591255, 44.3696537], [17.7595899, 44.369346], [17.7599976, 44.3692125], [17.7602298, 44.3692044], [17.7605242, 44.3692853], [17.7606715, 44.3693177], [17.7611811, 44.3692165], [17.7616681, 44.3690101], [17.7624722, 44.3687631], [17.7625515, 44.3685688], [17.7629139, 44.3684676], [17.7633216, 44.3682693], [17.7633273, 44.3680507], [17.7633839, 44.3679657], [17.7638709, 44.3676702], [17.764205, 44.3675973], [17.7646693, 44.3675973], [17.7651733, 44.3675244], [17.7653715, 44.3674637], [17.7655754, 44.3674597], [17.7659887, 44.3675568], [17.7661869, 44.3676499], [17.7663908, 44.367909], [17.7666173, 44.3680264], [17.7666966, 44.3681357], [17.7666173, 44.3684798], [17.7663908, 44.3686215], [17.7662719, 44.368836], [17.766068, 44.3690344], [17.7656716, 44.3691963], [17.7653658, 44.3692853], [17.7652186, 44.3693582], [17.7652413, 44.3694796], [17.7658302, 44.3697144], [17.7660198, 44.3698733], [17.7660001, 44.3700777], [17.7658867, 44.3702221], [17.7656649, 44.3703525], [17.7655318, 44.3706133], [17.7653247, 44.3707402], [17.7650783, 44.3709058], [17.7650684, 44.3710115], [17.7651423, 44.3710996], [17.765305, 44.3711771], [17.7654085, 44.3711771], [17.7656057, 44.3711278], [17.7657684, 44.3711278], [17.7659163, 44.3711665], [17.7660001, 44.3712864], [17.7661628, 44.3713745], [17.766291, 44.3713886], [17.7664881, 44.3713745], [17.7667543, 44.371311], [17.7669908, 44.3713046], [17.768567, 44.3716207], [17.7686611, 44.3716582], [17.7694456, 44.3707217], [17.7696344, 44.37055], [17.7700807, 44.3703904], [17.77063, 44.3702739], [17.7709734, 44.3702002], [17.771248, 44.3700959], [17.7719433, 44.3697462], [17.7727071, 44.3694026], [17.7731535, 44.3692001], [17.7735225, 44.3688136], [17.7738573, 44.3684025], [17.7744753, 44.3679362], [17.7748272, 44.3675435], [17.7750417, 44.3674269], [17.7757026, 44.36639], [17.7768442, 44.3650891], [17.7771703, 44.3645124], [17.7774536, 44.3639724], [17.777754, 44.3637392], [17.7782003, 44.3635428], [17.7786123, 44.3633894], [17.7789213, 44.3632238], [17.7790844, 44.3630581], [17.7792474, 44.3627758], [17.7793161, 44.3624322], [17.7793419, 44.3621192], [17.7789299, 44.3604133], [17.7784321, 44.3597812], [17.7781917, 44.3593762], [17.7779406, 44.3583896], [17.7777336, 44.3576071], [17.7776781, 44.3568595], [17.7820075, 44.3539285], [17.7813741, 44.3498521], [17.7813741, 44.3462284], [17.7889751, 44.3412455], [17.7953093, 44.3389804], [17.7984764, 44.3380743], [17.805444, 44.3276535], [17.8086111, 44.3253878], [17.8143119, 44.3222158], [17.8187458, 44.3194967], [17.8131516, 44.3178958], [17.8124116, 44.317684], [17.8124116, 44.3167776], [17.8143119, 44.3113389], [17.817479, 44.3090726], [17.8193792, 44.3058997], [17.8244466, 44.3018199], [17.8282471, 44.2986466], [17.8333145, 44.2954731], [17.837115, 44.2909392], [17.8396487, 44.2900324], [17.8421823, 44.286405], [17.8415489, 44.2836843], [17.8377484, 44.2796031], [17.8345813, 44.2773356], [17.8269803, 44.275975], [17.8181124, 44.2755215], [17.8143119, 44.2746144], [17.8117782, 44.2723467], [17.8073443, 44.2669039], [17.805444, 44.2632751], [17.8048106, 44.2578314], [17.8048106, 44.2532947], [17.8067108, 44.2469426], [17.8060774, 44.2405899], [17.8041772, 44.2396823], [17.8079777, 44.2342364], [17.8117782, 44.2296978], [17.8124116, 44.2265206], [17.8060774, 44.2219814], [17.8048106, 44.2210736], [17.8013761, 44.2204628], [17.8014888, 44.2200276], [17.8015677, 44.2195966], [17.8017254, 44.2194906], [17.8020804, 44.2191656], [17.8021395, 44.2188829], [17.8020508, 44.2183035], [17.8019258, 44.2177682], [17.8017913, 44.217313], [17.801739, 44.2169703], [17.8014775, 44.2165526], [17.8013281, 44.2160545], [17.8010815, 44.2157064], [17.8007826, 44.2154762], [17.8005136, 44.2151763], [17.8005136, 44.2149674], [17.8005659, 44.2147425], [17.8007453, 44.2144854], [17.8008947, 44.2142605], [17.8009246, 44.2140516], [17.8008125, 44.2136446], [17.8010666, 44.2133179], [17.8012982, 44.2130876], [17.8013355, 44.2128895], [17.8014177, 44.2125735], [17.801552, 44.2124509], [17.8021199, 44.2124831], [17.8027176, 44.2124242], [17.8031585, 44.2124188], [17.8033901, 44.2124991], [17.8036441, 44.2126437], [17.8038011, 44.2128633], [17.8039131, 44.2131739], [17.8040327, 44.2134417], [17.804227, 44.2136666], [17.8044063, 44.213747], [17.8045781, 44.2137148], [17.8047351, 44.213581], [17.8050041, 44.2133346], [17.8054897, 44.2130186], [17.8059679, 44.2126759], [17.8061697, 44.2123385], [17.8065358, 44.2120118], [17.8069468, 44.2117119], [17.8072755, 44.2116208], [17.8074549, 44.2113209], [17.8076716, 44.2109674], [17.8077612, 44.21078], [17.8082245, 44.2105818], [17.8086579, 44.2105068], [17.8089343, 44.2105604], [17.8092556, 44.2106728], [17.8095022, 44.2106568], [17.8097413, 44.2105443], [17.8099057, 44.2103783], [17.8099505, 44.2101105], [17.8098534, 44.2097195], [17.8098459, 44.2092589], [17.8099879, 44.2089], [17.810354, 44.2086323], [17.8108322, 44.2080538], [17.8113926, 44.2075343], [17.8116691, 44.2074218], [17.8125284, 44.2071379], [17.812902, 44.2070147], [17.8132307, 44.2068273], [17.8136641, 44.2064309], [17.8139929, 44.2060828], [17.8142992, 44.2057185], [17.8147326, 44.20544], [17.8153304, 44.2051454], [17.8159281, 44.204974], [17.8162718, 44.204883], [17.8166454, 44.2046419], [17.8169667, 44.204417], [17.8172805, 44.2043098], [17.8177961, 44.2042134], [17.8180277, 44.2041277], [17.8184761, 44.2036885], [17.8189767, 44.2031153], [17.8192239, 44.2028039], [17.8195602, 44.2023753], [17.819732, 44.20222], [17.8199786, 44.2021557], [17.820143, 44.2022039], [17.8207856, 44.2025521], [17.8212488, 44.2027824], [17.8215552, 44.2028521], [17.8218615, 44.2028628], [17.8221754, 44.2030128], [17.8224742, 44.2031467], [17.8228553, 44.203077], [17.8230571, 44.2030877], [17.823214, 44.2033234], [17.823468, 44.2033877], [17.8238715, 44.2033931], [17.8240957, 44.2033502], [17.8244469, 44.2031199], [17.8248429, 44.2029003], [17.8256648, 44.2023378], [17.8260683, 44.2021021], [17.826554, 44.2020272], [17.8267183, 44.2020325], [17.8268753, 44.2021343], [17.8270695, 44.2021771], [17.8274954, 44.2021664], [17.8280633, 44.2020218], [17.8288404, 44.2017968], [17.8293111, 44.2016254], [17.8295876, 44.2016629], [17.8304319, 44.2020539], [17.8307607, 44.20222], [17.8310596, 44.2023003], [17.831478, 44.2023111], [17.8319188, 44.2023325], [17.832285, 44.2024235], [17.8341156, 44.2023753], [17.8342128, 44.2016415], [17.8350571, 44.2011755], [17.8352588, 44.2008541], [17.8354083, 44.2005755], [17.8352289, 44.1995738], [17.8351019, 44.1988935], [17.8349301, 44.1984917], [17.8347507, 44.1975435], [17.8349301, 44.1968364], [17.8361779, 44.1950311], [17.8375527, 44.193456], [17.8380907, 44.192272], [17.8378815, 44.1910237], [17.8380085, 44.1899576], [17.838158, 44.1896575], [17.838158, 44.1894968], [17.8383448, 44.1893093], [17.8384867, 44.1891486], [17.8386212, 44.1889182], [17.8385241, 44.1886771], [17.8385091, 44.1885592], [17.8391443, 44.1879109], [17.8393759, 44.1878091], [17.8396299, 44.1876269], [17.8398093, 44.1873858], [17.8398691, 44.1871233], [17.8398466, 44.1869626], [17.8396972, 44.1868018], [17.8391443, 44.1864536], [17.8386138, 44.186041], [17.83827, 44.1856498], [17.8381356, 44.1852373], [17.8380832, 44.1846747], [17.8381505, 44.184171], [17.8380832, 44.1836834], [17.8379562, 44.1834852], [17.8377694, 44.1832762], [17.8373286, 44.1829868], [17.8371268, 44.1827457], [17.8370596, 44.1824724], [17.8370671, 44.1821402], [17.8371268, 44.181942], [17.8373211, 44.1817866], [17.837605, 44.1816205], [17.8376499, 44.1814972], [17.8376424, 44.1812775], [17.8377321, 44.1809828], [17.8382028, 44.1805273], [17.8392265, 44.1796271], [17.8396823, 44.1787054], [17.8399288, 44.1784428], [17.8409525, 44.1780409], [17.8419986, 44.1778212], [17.8426935, 44.1776176], [17.8438217, 44.1772157], [17.8443523, 44.1770871], [17.8447184, 44.1771246], [17.8449276, 44.1769048], [17.845092, 44.1765083], [17.8452115, 44.1762886], [17.8459587, 44.1759617], [17.8466013, 44.1757259], [17.8468707, 44.1755469], [17.8470088, 44.1753277], [17.8475806, 44.1749812], [17.8481722, 44.1748681], [17.8492469, 44.1749176], [17.8504103, 44.175158], [17.8511103, 44.1752853], [17.8516525, 44.1755257], [17.8520568, 44.1757308], [17.8528159, 44.1757732], [17.8537526, 44.1755964], [17.8547582, 44.1754196], [17.8551822, 44.1752499], [17.8556752, 44.1749883], [17.8559611, 44.1747761], [17.8563949, 44.1746064], [17.8568583, 44.1743024], [17.8571048, 44.1739983], [17.8573217, 44.1737508], [17.8576569, 44.1733902], [17.8581499, 44.1725628], [17.8584259, 44.1720183], [17.8587809, 44.1711414], [17.8592147, 44.1705474], [17.8596288, 44.1701867], [17.8606541, 44.1696422], [17.8619556, 44.16914], [17.8628725, 44.1686521], [17.8635035, 44.16815], [17.864381, 44.1672589], [17.8649232, 44.1667638], [17.8663035, 44.1662688], [17.8675261, 44.1657737], [17.8679202, 44.1655736], [17.8684036, 44.1653281], [17.8689754, 44.165024], [17.869705, 44.1647977], [17.8702571, 44.1645997], [17.8705135, 44.1644228], [17.871105, 44.164147], [17.8715684, 44.1637863], [17.8719431, 44.1634115], [17.8721403, 44.1630225], [17.8721797, 44.16269], [17.8724163, 44.1625627], [17.87286, 44.1622798], [17.8732445, 44.1621454], [17.8734978, 44.1622082], [17.8736253, 44.1622867], [17.8866958, 44.1611582], [17.8902789, 44.163086], [17.8934142, 44.1643712], [17.8956537, 44.1659777], [17.9010284, 44.1637286], [17.9032679, 44.1614795], [17.9064031, 44.1601942], [17.9135392, 44.1528464], [17.9134747, 44.1499537], [17.9118885, 44.1484556], [17.9164896, 44.1443398], [17.9188435, 44.1409111], [17.9220619, 44.1399738], [17.9217244, 44.1382135], [17.9225684, 44.1364833], [17.9220806, 44.1349775], [17.9217032, 44.1350888], [17.9212691, 44.1351514], [17.9207627, 44.1351208], [17.9201522, 44.1350155], [17.919292, 44.1344061], [17.9185187, 44.1340726], [17.9176674, 44.1337763], [17.9179195, 44.1324742], [17.9177454, 44.1304912], [17.9165726, 44.1285885], [17.9183275, 44.1273582], [17.9193948, 44.1266147], [17.9203442, 44.126035], [17.9228801, 44.1253972], [17.9241465, 44.1247624], [17.9222766, 44.1220369], [17.9207067, 44.1212247], [17.9201593, 44.120732], [17.9197974, 44.1171553], [17.9206233, 44.1152012], [17.9213977, 44.115055], [17.9208503, 44.1142338], [17.9201114, 44.1126912], [17.9201602, 44.1113918], [17.9202149, 44.1105957], [17.9200524, 44.1095606], [17.9196667, 44.1084976], [17.922682, 44.1088077], [17.9256787, 44.1089019], [17.9313171, 44.1081609], [17.9326762, 44.1076687], [17.9330741, 44.1069423], [17.9342165, 44.10634], [17.9354228, 44.1062853], [17.9365753, 44.1059499], [17.9360529, 44.1054123], [17.9345864, 44.1044064], [17.9361978, 44.1043733], [17.9365442, 44.1045324], [17.9369063, 44.1047413], [17.9371825, 44.1047963], [17.9373868, 44.1047431], [17.9374414, 44.1045952], [17.9398972, 44.1037255], [17.9402286, 44.1036681], [17.9405273, 44.1036597], [17.9407738, 44.1035704], [17.9412139, 44.103269], [17.9414873, 44.1030918], [17.9418912, 44.1030452], [17.9427209, 44.1030899], [17.9441342, 44.103338], [17.9452312, 44.103437], [17.9460051, 44.1033736], [17.9473237, 44.1030033], [17.9481975, 44.1028705], [17.9489684, 44.102898], [17.9516499, 44.1031232], [17.9534001, 44.1032111], [17.9571934, 44.1027619], [17.9581202, 44.1010643], [17.958103, 44.0999566], [17.958429, 44.0990215], [17.9587693, 44.0968124], [17.9591454, 44.0963736], [17.9597798, 44.0958336], [17.9602687, 44.0949472], [17.9608777, 44.0940239], [17.9613896, 44.0934853], [17.9616799, 44.0920941], [17.962365, 44.0909865], [17.964223, 44.0908447], [17.9688088, 44.091945], [17.9665401, 44.0931159], [17.965845, 44.0928309], [17.9647614, 44.0930396], [17.9633734, 44.0937012], [17.9623116, 44.094967], [17.9616479, 44.0969977], [17.9621055, 44.0987124], [17.9622044, 44.1004057], [17.9626495, 44.1019548], [17.9620464, 44.1033673], [17.9622306, 44.1042523], [17.9625951, 44.1049122], [17.9632383, 44.1052848], [17.9651589, 44.1059852], [17.966742, 44.1065584], [17.9678593, 44.1067521], [17.9685414, 44.1065505], [17.9691813, 44.1063746], [17.9691127, 44.1066086], [17.9682372, 44.1071216], [17.9691175, 44.1081215], [17.9689278, 44.1085305], [17.9683604, 44.108767], [17.967466, 44.1088701], [17.9668445, 44.1093474], [17.9668374, 44.1098831], [17.9677777, 44.1110997], [17.9678903, 44.112084], [17.9675222, 44.113093], [17.9630611, 44.1156508], [17.9615212, 44.1160539], [17.9599514, 44.1167789], [17.9587844, 44.1171775], [17.9571977, 44.1180569], [17.9564545, 44.1188598], [17.9559804, 44.1197378], [17.9559466, 44.1210007], [17.9558802, 44.1224093], [17.9559195, 44.1230865], [17.9555011, 44.1235635], [17.9565884, 44.1263234], [17.9564098, 44.1270144], [17.9587101, 44.1281214], [17.9585388, 44.1288713], [17.958641, 44.1294087], [17.9596578, 44.1310672], [17.9601064, 44.1319823], [17.9598525, 44.1326758], [17.9600971, 44.1339236], [17.9598136, 44.1352262], [17.9605643, 44.136293], [17.9609104, 44.1372611], [17.9603292, 44.1377255], [17.9735874, 44.1416296], [17.9736275, 44.1420714], [17.974188, 44.1423266], [17.9744243, 44.1429303], [17.9748449, 44.1428866], [17.9758942, 44.142986], [17.9766918, 44.1431102], [17.9783414, 44.1432486], [17.9807259, 44.1437679], [17.9832403, 44.1458425], [17.9869778, 44.1498939], [18.000856, 44.1532007], [18.0011534, 44.154505], [18.0023121, 44.1543631], [18.0037421, 44.1529547], [18.0077598, 44.1542962], [18.0143459, 44.1518394], [18.0164983, 44.1526846], [18.0186269, 44.1530864], [18.0216245, 44.1533874], [18.0267722, 44.1536353], [18.0307569, 44.154733], [18.0341976, 44.1565157], [18.0385322, 44.1582663], [18.0416675, 44.1576236], [18.0443549, 44.1556956], [18.052417, 44.1540889], [18.0564481, 44.1534462], [18.0622707, 44.1547316], [18.0658539, 44.1550529], [18.0680933, 44.1560169], [18.0676454, 44.1595516], [18.0649581, 44.1614795], [18.0627186, 44.1627647], [18.0618228, 44.1653351], [18.0613831, 44.1676268], [18.0607316, 44.1691479], [18.0591608, 44.170111], [18.0571889, 44.1719391], [18.0573755, 44.1725132], [18.0601696, 44.173084], [18.06107, 44.1731067], [18.0653851, 44.1737695], [18.0679664, 44.1750904], [18.0691887, 44.1761332], [18.0668272, 44.1826809], [18.0685663, 44.1869351], [18.072008, 44.1897963], [18.0751489, 44.1920572], [18.0749792, 44.1946932], [18.0753752, 44.1978002], [18.0751387, 44.2004768], [18.0747938, 44.203243], [18.0743639, 44.2061248], [18.0743639, 44.2099775], [18.0762096, 44.2128439], [18.0770512, 44.2141509], [18.0815302, 44.221213], [18.0826775, 44.223949], [18.0842176, 44.2269905], [18.0855612, 44.229558], [18.0873528, 44.2318046], [18.0869049, 44.2359765], [18.086457, 44.2385437], [18.086457, 44.2446403], [18.0873528, 44.2465654], [18.0886965, 44.2494529], [18.0900402, 44.2523403], [18.0922797, 44.2565108], [18.0936234, 44.2597186], [18.094967, 44.2626055], [18.0978394, 44.2712884], [18.0971688, 44.2727038], [18.0954149, 44.2757552], [18.0922743, 44.2765463], [18.087433, 44.2782322], [18.085231, 44.2803463], [18.0830558, 44.2813026], [18.0792499, 44.2841616], [18.076694, 44.287655], [18.0758577, 44.290222], [18.075714, 44.2915251], [18.0754514, 44.2942855], [18.0733168, 44.3023745], [18.072421, 44.3068619], [18.0715252, 44.310067], [18.0688379, 44.3145538], [18.0679421, 44.3183994], [18.0594321, 44.3177585], [18.0545052, 44.3193608], [18.0536094, 44.3225652], [18.0518178, 44.3244877], [18.0504741, 44.3260898], [18.0486826, 44.3283327], [18.0459952, 44.3299346], [18.0410683, 44.3321773], [18.0347978, 44.33442], [18.0240483, 44.3347403], [18.0195694, 44.3331385], [18.0164341, 44.3315366], [18.0128509, 44.3299346], [18.0101636, 44.3331385], [18.0056846, 44.3337792], [18.0029973, 44.3347403], [17.9989662, 44.3395456], [17.9994141, 44.3417879], [18.0012057, 44.3449911], [17.9980704, 44.3453114], [17.9917999, 44.3465927], [17.9886646, 44.3456317], [17.9846335, 44.3433896], [17.9823941, 44.3433896], [17.9761235, 44.346913], [17.974332, 44.349155], [17.9694051, 44.3494753], [17.9676135, 44.3501159], [17.9626867, 44.3520375], [17.9622388, 44.3565211], [17.9617909, 44.3622853], [17.9635825, 44.3638864], [17.9617909, 44.3654874], [17.9550725, 44.3683691], [17.9492498, 44.3709305], [17.9425314, 44.3734918], [17.9380524, 44.3766932], [17.9331256, 44.3782939], [17.9299903, 44.3792542], [17.9232719, 44.3795744], [17.918345, 44.3814951], [17.914314, 44.3814951], [17.9089392, 44.3827755], [17.9090851, 44.3863231], [17.9083905, 44.3872415], [17.9066642, 44.3875612], [17.9058401, 44.387591], [17.9056362, 44.3884704], [17.9046366, 44.3883523], [17.903109, 44.3876425], [17.9019848, 44.3878531], [17.8993857, 44.3883664], [17.8974877, 44.3882884], [17.8971293, 44.3883992], [17.8970199, 44.3884314], [17.8969255, 44.3884376], [17.8964276, 44.3883455], [17.8963676, 44.3884115], [17.8962603, 44.3885756], [17.8960285, 44.3886783], [17.8958247, 44.3888454], [17.8957281, 44.3889528], [17.8956595, 44.389126], [17.895608, 44.3894665], [17.895108, 44.3902025], [17.8950393, 44.3902899], [17.8949256, 44.3902086], [17.8947926, 44.3901442], [17.8946703, 44.3901028], [17.8945823, 44.3900905], [17.8944428, 44.3901197], [17.894342, 44.3901687], [17.8942046, 44.3903037], [17.8941746, 44.3904171], [17.894063, 44.3905199], [17.8939879, 44.3906195], [17.8939836, 44.3906855], [17.8940416, 44.3907805], [17.894136, 44.390825], [17.8942647, 44.3908802], [17.8943291, 44.3909124], [17.8943312, 44.3909676], [17.8943012, 44.3910151], [17.8941295, 44.391124], [17.8940181, 44.3912128], [17.8938356, 44.3914015], [17.8936339, 44.3915825], [17.893533, 44.3917297], [17.8934279, 44.3919229], [17.8933656, 44.3920869], [17.8933208, 44.3922786], [17.8933258, 44.3924213], [17.8933603, 44.3925287], [17.893417, 44.3926221], [17.8935821, 44.3927207], [17.89373, 44.392763], [17.8939173, 44.39277], [17.8949175, 44.400229], [17.8948135, 44.4003057], [17.8947094, 44.4004126], [17.8946108, 44.4006359], [17.894566, 44.4009215], [17.8943236, 44.4015276], [17.8941028, 44.4019119], [17.8937743, 44.4021951], [17.8936101, 44.4023691], [17.8934686, 44.4024905], [17.8934742, 44.4027494], [17.8935875, 44.4032146], [17.8936384, 44.4034938], [17.8936554, 44.4039469], [17.8928853, 44.4048086], [17.8926078, 44.4049906], [17.8924493, 44.4051161], [17.8923926, 44.405286], [17.8921718, 44.4054761], [17.8920869, 44.4055934], [17.8920869, 44.4058523], [17.8921605, 44.4060425], [17.8922567, 44.4062205], [17.8922624, 44.4064147], [17.8921718, 44.4065562], [17.891917, 44.4066533], [17.8916678, 44.40671], [17.8914187, 44.4068718], [17.8911185, 44.4073006], [17.8909373, 44.4076485], [17.8910846, 44.4080975], [17.8911129, 44.4083686], [17.8910506, 44.4086639], [17.890926, 44.4088297], [17.8909656, 44.4090158], [17.8909656, 44.4091897], [17.8909203, 44.4093475], [17.8907108, 44.4095498], [17.8899917, 44.4097925], [17.889448, 44.4100999], [17.8891592, 44.4104114], [17.8889327, 44.4106703], [17.8887912, 44.4110384], [17.888508, 44.4117382], [17.8880097, 44.4125472], [17.887585, 44.4134047], [17.8874774, 44.4135301], [17.8871773, 44.4136636], [17.8870697, 44.4136878], [17.8868375, 44.4136393], [17.8865997, 44.4136676], [17.8865091, 44.4138173], [17.8865091, 44.4139548], [17.8865827, 44.4140478], [17.886662, 44.4141045], [17.8863279, 44.4145049], [17.8864072, 44.41478], [17.887132, 44.4150227], [17.8869395, 44.4154797], [17.887047, 44.4155485], [17.8874774, 44.4156213], [17.887636, 44.4158114], [17.8878625, 44.4163251], [17.8879078, 44.4168468], [17.8877945, 44.4170733], [17.8877549, 44.4172756], [17.8878964, 44.4175425], [17.8881003, 44.4176396], [17.8883495, 44.4177488], [17.8886609, 44.4178216], [17.8888534, 44.417769], [17.8889667, 44.4176072], [17.8891819, 44.4175385], [17.8896802, 44.4170855], [17.8905353, 44.4174859], [17.8910109, 44.4177164], [17.891345, 44.417947], [17.891345, 44.4181613], [17.8912495, 44.4189248], [17.8912421, 44.4196772], [17.8911375, 44.4200401], [17.8912346, 44.420307], [17.8918697, 44.4207553], [17.8921462, 44.4210701], [17.8922284, 44.4213957], [17.8926319, 44.4216518], [17.8935434, 44.4220681], [17.8940665, 44.4224096], [17.8943504, 44.422543], [17.8944027, 44.4226337], [17.8943579, 44.4227618], [17.8938872, 44.4228365], [17.893267, 44.4229593], [17.892602, 44.4229699], [17.8920715, 44.4230873], [17.8916082, 44.4231033], [17.8914065, 44.4230393], [17.891003, 44.423146], [17.8905845, 44.4233435], [17.890465, 44.4235463], [17.8904874, 44.4237864], [17.8907116, 44.4240692], [17.8912047, 44.4242293], [17.8915613, 44.4243128], [17.8918932, 44.4243786], [17.8917427, 44.4247096], [17.8918473, 44.4250778], [17.8921238, 44.4253286], [17.8921462, 44.4256434], [17.8920416, 44.4259903], [17.8922508, 44.4263851], [17.8922134, 44.4265933], [17.8918996, 44.4270895], [17.891653, 44.4275431], [17.891526, 44.4277405], [17.8915111, 44.4281034], [17.8917502, 44.4284769], [17.8919071, 44.4293253], [17.8922508, 44.4297255], [17.8928336, 44.4303231], [17.8934388, 44.4309153], [17.8938423, 44.4314863], [17.8942085, 44.4320999], [17.8944251, 44.4326814], [17.8944401, 44.433295], [17.8944326, 44.4338019], [17.8947016, 44.4342394], [17.8953367, 44.4350077], [17.8957552, 44.4355039], [17.8959345, 44.4362668], [17.8962931, 44.4369764], [17.8960989, 44.437766], [17.8959195, 44.4383635], [17.8955684, 44.4387797], [17.8952769, 44.4395372], [17.8953143, 44.4404228], [17.8953816, 44.4413137], [17.895543, 44.4419719], [17.8935583, 44.4411448], [17.8867194, 44.4396492], [17.8802708, 44.4373983], [17.8742124, 44.4356826], [17.8686879, 44.4344215], [17.86265, 44.4333217], [17.8553491, 44.4322878], [17.8517346, 44.4317452], [17.8361573, 44.4281594], [17.8278104, 44.4276469], [17.8259306, 44.4274], [17.8238693, 44.4265063], [17.8232192, 44.4262214], [17.8225389, 44.4257316], [17.820571, 44.4247319], [17.8178589, 44.4229718], [17.8102601, 44.4208993], [17.8052593, 44.4197918], [17.7980097, 44.4187137], [17.7910477, 44.4175255], [17.7871251, 44.4161393], [17.7829766, 44.4138436], [17.7782429, 44.4104328], [17.7743614, 44.4080708], [17.7628709, 44.4001185], [17.7600984, 44.3981889], [17.7518425, 44.394968], [17.7446751, 44.3912112], [17.7370916, 44.3879798]]]}}]}