{"type": "FeatureCollection", "features": [{"type": "Feature", "properties": {"name": "Općina Žepče, Zeničko-dobojski kanton, Federacija Bosne i Hercegovine, 72230, Bosna i Hercegovina / Босна и Херцеговина", "source": "OpenStreetMap relation 2528294", "licence": "ODbL 1.0"}, "geometry": {"type": "Polygon", "coordinates": [[[17.8863279, 44.4145049], [17.886662, 44.4141045], [17.8865827, 44.4140478], [17.8865091, 44.4139548], [17.8865091, 44.4138173], [17.8865997, 44.4136676], [17.8868375, 44.4136393], [17.8870697, 44.4136878], [17.8871773, 44.4136636], [17.8874774, 44.4135301], [17.887585, 44.4134047], [17.8880097, 44.4125472], [17.888508, 44.4117382], [17.8887912, 44.4110384], [17.8889327, 44.4106703], [17.8891592, 44.4104114], [17.889448, 44.4100999], [17.8899917, 44.4097925], [17.8907108, 44.4095498], [17.8909203, 44.4093475], [17.8909656, 44.4091897], [17.8909656, 44.4090158], [17.890926, 44.4088297], [17.8910506, 44.4086639], [17.8911129, 44.4083686], [17.8910846, 44.4080975], [17.8909373, 44.4076485], [17.8911185, 44.4073006], [17.8914187, 44.4068718], [17.8916678, 44.40671], [17.891917, 44.4066533], [17.8921718, 44.4065562], [17.8922624, 44.4064147], [17.8922567, 44.4062205], [17.8921605, 44.4060425], [17.8920869, 44.4058523], [17.8920869, 44.4055934], [17.8921718, 44.4054761], [17.8923926, 44.405286], [17.8924493, 44.4051161], [17.8926078, 44.4049906], [17.8928853, 44.4048086], [17.8936554, 44.4039469], [17.8936384, 44.4034938], [17.8935875, 44.4032146], [17.8934742, 44.4027494], [17.8934686, 44.4024905], [17.8936101, 44.4023691], [17.8937743, 44.4021951], [17.8941028, 44.4019119], [17.8943236, 44.4015276], [17.894566, 44.4009215], [17.8946108, 44.4006359], [17.8947094, 44.4004126], [17.8948135, 44.4003057], [17.8949175, 44.400229], [17.8939173, 44.39277], [17.89373, 44.392763], [17.8935821, 44.3927207], [17.893417, 44.3926221], [17.8933603, 44.3925287], [17.8933258, 44.3924213], [17.8933208, 44.3922786], [17.8933656, 44.3920869], [17.8934279, 44.3919229], [17.893533, 44.3917297], [17.8936339, 44.3915825], [17.8938356, 44.3914015], [17.8940181, 44.3912128], [17.8941295, 44.391124], [17.8943012, 44.3910151], [17.8943312, 44.3909676], [17.8943291, 44.3909124], [17.8942647, 44.3908802], [17.894136, 44.390825], [17.8940416, 44.3907805], [17.8939836, 44.3906855], [17.8939879, 44.3906195], [17.894063, 44.3905199], [17.8941746, 44.3904171], [17.8942046, 44.3903037], [17.894342, 44.3901687], [17.8944428, 44.3901197], [17.8945823, 44.3900905], [17.8946703, 44.3901028], [17.8947926, 44.3901442], [17.8949256, 44.3902086], [17.8950393, 44.3902899], [17.895108, 44.3902025], [17.895608, 44.3894665], [17.8956595, 44.389126], [17.8957281, 44.3889528], [17.8958247, 44.3888454], [17.8960285, 44.3886783], [17.8962603, 44.3885756], [17.8963676, 44.3884115], [17.8964276, 44.3883455], [17.8969255, 44.3884376], [17.8970199, 44.3884314], [17.8971293, 44.3883992], [17.8974877, 44.3882884], [17.8993857, 44.3883664], [17.9019848, 44.3878531], [17.903109, 44.3876425], [17.9046366, 44.3883523], [17.9056362, 44.3884704], [17.9058401, 44.387591], [17.9066642, 44.3875612], [17.9083905, 44.3872415], [17.9090851, 44.3863231], [17.9089392, 44.3827755], [17.914314, 44.3814951], [17.918345, 44.3814951], [17.9232719, 44.3795744], [17.9299903, 44.3792542], [17.9331256, 44.3782939], [17.9380524, 44.3766932], [17.9425314, 44.3734918], [17.9492498, 44.3709305], [17.9550725, 44.3683691], [17.9617909, 44.3654874], [17.9635825, 44.3638864], [17.9617909, 44.3622853], [17.9622388, 44.3565211], [17.9626867, 44.3520375], [17.9676135, 44.3501159], [17.9694051, 44.3494753], [17.974332, 44.349155], [17.9761235, 44.346913], [17.9823941, 44.3433896], [17.9846335, 44.3433896], [17.9886646, 44.3456317], [17.9917999, 44.3465927], [17.9980704, 44.3453114], [18.0012057, 44.3449911], [17.9994141, 44.3417879], [17.9989662, 44.3395456], [18.0029973, 44.3347403], [18.0056846, 44.3337792], [18.0101636, 44.3331385], [18.0128509, 44.3299346], [18.0164341, 44.3315366], [18.0195694, 44.3331385], [18.0240483, 44.3347403], [18.0347978, 44.33442], [18.0410683, 44.3321773], [18.0459952, 44.3299346], [18.0486826, 44.3283327], [18.0504741, 44.3260898], [18.0518178, 44.3244877], [18.0536094, 44.3225652], [18.0545052, 44.3193608], [18.0594321, 44.3177585], [18.0679421, 44.3183994], [18.072421, 44.3222447], [18.072421, 44.3241673], [18.0733168, 44.3305754], [18.072421, 44.3350607], [18.0688379, 44.3382642], [18.0643589, 44.3433896], [18.0616715, 44.3459521], [18.0598799, 44.3485144], [18.0652547, 44.3523578], [18.0697336, 44.3549199], [18.0733168, 44.3574819], [18.0733168, 44.3594033], [18.0706294, 44.3632459], [18.072421, 44.3658076], [18.0769, 44.3709305], [18.0777958, 44.3722111], [18.0813789, 44.3766932], [18.0858579, 44.3798945], [18.0948158, 44.3818152], [18.1010863, 44.3830956], [18.1055653, 44.384376], [18.1118358, 44.3862965], [18.1172105, 44.3888571], [18.1216895, 44.3907775], [18.1270642, 44.3933379], [18.1270642, 44.3971784], [18.1243769, 44.3978184], [18.1246131, 44.3988308], [18.1237721, 44.4004449], [18.1226349, 44.4014375], [18.1225008, 44.4016406], [18.1223613, 44.4017556], [18.122195, 44.4019281], [18.1220877, 44.4020431], [18.1218463, 44.4022385], [18.1217229, 44.4022999], [18.1214333, 44.4024033], [18.1213099, 44.40248], [18.1214064, 44.4027253], [18.1212348, 44.4030242], [18.1212133, 44.4031124], [18.121267, 44.4031775], [18.1215191, 44.4032848], [18.1216532, 44.4033538], [18.1217551, 44.4034688], [18.1217337, 44.4035952], [18.1216532, 44.4038099], [18.1219697, 44.403967], [18.1221521, 44.4040781], [18.1225598, 44.4044116], [18.1228495, 44.4046683], [18.1230372, 44.4049251], [18.1230265, 44.4050592], [18.1230104, 44.4052624], [18.1230694, 44.4053965], [18.1233001, 44.4055881], [18.1235468, 44.4057376], [18.1237131, 44.4058909], [18.1237882, 44.4061323], [18.1237292, 44.4063316], [18.1236327, 44.4064542], [18.1235307, 44.4065194], [18.1232786, 44.4066535], [18.1231981, 44.4070367], [18.1232357, 44.4071287], [18.1234181, 44.407236], [18.1236327, 44.4073012], [18.1238204, 44.4073663], [18.1240994, 44.4074468], [18.1246895, 44.4077955], [18.1248665, 44.407991], [18.1250006, 44.4082247], [18.125022, 44.408401], [18.1249469, 44.4085734], [18.1247967, 44.4087191], [18.1239545, 44.4091521], [18.1237829, 44.4092479], [18.1236058, 44.4093169], [18.1233483, 44.4093897], [18.123064, 44.4094165], [18.1227153, 44.4093207], [18.1225383, 44.4093322], [18.1222594, 44.4093437], [18.1219858, 44.4093897], [18.1217498, 44.4095276], [18.1216747, 44.4096541], [18.1217068, 44.4099798], [18.1217658, 44.4102941], [18.1216532, 44.4105125], [18.1215298, 44.4106466], [18.1212616, 44.4107807], [18.1210202, 44.410957], [18.1208914, 44.4112866], [18.1207573, 44.4115586], [18.1207037, 44.4116774], [18.1206393, 44.4119801], [18.1203818, 44.4124093], [18.1201941, 44.4125856], [18.1199822, 44.4126871], [18.1197569, 44.4127504], [18.119604, 44.4127676], [18.119486, 44.4128002], [18.1193411, 44.4128921], [18.1191668, 44.4130454], [18.1189093, 44.4132657], [18.1185955, 44.4134094], [18.1184238, 44.4134765], [18.118692, 44.4139976], [18.1187671, 44.4141145], [18.1188583, 44.4141873], [18.1195369, 44.4145264], [18.1197381, 44.4146624], [18.1198776, 44.4147716], [18.11995, 44.4148521], [18.1200412, 44.4148713], [18.1201646, 44.4148464], [18.1203228, 44.4147812], [18.1204811, 44.4147161], [18.1206554, 44.4147238], [18.121165, 44.4150609], [18.1214869, 44.4153713], [18.1210417, 44.4156127], [18.1202209, 44.4159767], [18.1196362, 44.4162641], [18.1198025, 44.4165936], [18.1199849, 44.416904], [18.1202155, 44.4172182], [18.1208754, 44.4170573], [18.1215459, 44.4169845], [18.1218839, 44.4172105], [18.1224471, 44.4177699], [18.1233698, 44.417222], [18.1241101, 44.4169653], [18.1245178, 44.41695], [18.1247914, 44.4169691], [18.1265294, 44.41736], [18.1276238, 44.4177431], [18.1285143, 44.4182106], [18.1293297, 44.4190305], [18.1302565, 44.4201727], [18.1310169, 44.4212362], [18.1315514, 44.4227417], [18.1314442, 44.4239986], [18.1304819, 44.4249789], [18.1293307, 44.4254594], [18.1285527, 44.4257738], [18.1270979, 44.4266855], [18.126449, 44.4272753], [18.12594, 44.4278092], [18.1257838, 44.4285548], [18.1257447, 44.4291796], [18.1259501, 44.4298898], [18.1261298, 44.4305047], [18.1241691, 44.430815], [18.1237399, 44.4309912], [18.1225383, 44.4311367], [18.1214654, 44.4313053], [18.1210148, 44.4313053], [18.1203174, 44.4311827], [18.118794, 44.4309835], [18.1184614, 44.4311099], [18.1179357, 44.4314049], [18.117485, 44.4316769], [18.1171846, 44.4318569], [18.1166589, 44.43224], [18.1164443, 44.4325885], [18.1162566, 44.4326537], [18.1160635, 44.4327188], [18.1159508, 44.4328567], [18.1156182, 44.4330865], [18.1153876, 44.4329563], [18.1151462, 44.4328988], [18.1150335, 44.4329716], [18.1148726, 44.4333049], [18.1148618, 44.433642], [18.1148297, 44.43432], [18.1148189, 44.4349941], [18.114835, 44.4357066], [18.1150013, 44.4364228], [18.1150603, 44.4366488], [18.1148618, 44.4366986], [18.114599, 44.436691], [18.114261, 44.4367293], [18.1139606, 44.4368557], [18.1136334, 44.4371008], [18.1135368, 44.437346], [18.113451, 44.4376562], [18.1131399, 44.4377864], [18.112877, 44.4378362], [18.1127536, 44.4379167], [18.1126088, 44.438066], [18.1124103, 44.4382576], [18.1119382, 44.4383878], [18.111434, 44.438495], [18.1110853, 44.4385372], [18.1109244, 44.4386827], [18.1107151, 44.4388512], [18.1107044, 44.4391768], [18.1107634, 44.4394526], [18.1107849, 44.4397781], [18.1106454, 44.4400845], [18.1104201, 44.4405556], [18.1096852, 44.4421298], [18.1086123, 44.443363], [18.1081939, 44.4437], [18.1077003, 44.4438073], [18.107003, 44.4439413], [18.1066972, 44.4442056], [18.1064933, 44.4445311], [18.1063002, 44.4448758], [18.1064719, 44.4449026], [18.1066382, 44.444895], [18.1067026, 44.4449907], [18.1069279, 44.4453469], [18.107475, 44.4455192], [18.1078505, 44.4456456], [18.1085801, 44.4458218], [18.1089771, 44.4458332], [18.1090683, 44.4463541], [18.1093955, 44.4463617], [18.1095618, 44.4467485], [18.1104147, 44.4468022], [18.1107098, 44.4468175], [18.1106132, 44.4477979], [18.1111711, 44.4480659], [18.1114018, 44.4482804], [18.1115735, 44.448357], [18.1122118, 44.4483914], [18.1128985, 44.4481349], [18.1134993, 44.447817], [18.1140035, 44.4476102], [18.114143, 44.4477021], [18.1143039, 44.4480161], [18.1147224, 44.4487667], [18.1149208, 44.4491956], [18.1149316, 44.449345], [18.1151462, 44.4498007], [18.1153929, 44.4498773], [18.1156397, 44.4499462], [18.1161386, 44.4501377], [18.1163102, 44.4503751], [18.1164336, 44.4505857], [18.1165731, 44.4507657], [18.1168252, 44.4508615], [18.1172436, 44.4509457], [18.1175548, 44.4509917], [18.1178927, 44.4510797], [18.1182629, 44.4512329], [18.1186008, 44.4512827], [18.1190944, 44.4513861], [18.1194431, 44.4515469], [18.1195718, 44.4517192], [18.1197113, 44.4518341], [18.1199527, 44.4518609], [18.1211221, 44.4521673], [18.121857, 44.4523128], [18.122254, 44.4523587], [18.1233054, 44.4523702], [18.1235868, 44.4523449], [18.1239867, 44.4531054], [18.1242902, 44.453541], [18.1246948, 44.453833], [18.1249757, 44.4542185], [18.1250167, 44.4545337], [18.1254751, 44.455056], [18.1257969, 44.4552091], [18.1265134, 44.4555753], [18.1268299, 44.4559428], [18.1268781, 44.4562262], [18.1268889, 44.456701], [18.1268781, 44.4570111], [18.1267869, 44.4572562], [18.1265938, 44.4574783], [18.1263792, 44.4576314], [18.1263578, 44.4578267], [18.1263417, 44.4582211], [18.1262934, 44.4587954], [18.1266636, 44.4588069], [18.1271839, 44.458872], [18.1273448, 44.4588452], [18.1273985, 44.4587533], [18.1273341, 44.4586155], [18.1273556, 44.4585006], [18.1274307, 44.458424], [18.1281871, 44.4581866], [18.1286269, 44.4580565], [18.1294477, 44.4578918], [18.1309283, 44.4576085], [18.1314433, 44.4575089], [18.1322908, 44.4573634], [18.1329131, 44.4574706], [18.1333852, 44.4574706], [18.1348658, 44.4573558], [18.1369471, 44.4572026], [18.1371724, 44.4572179], [18.1381702, 44.4577004], [18.1392431, 44.4582211], [18.139919, 44.4588031], [18.1402409, 44.4591477], [18.1405949, 44.4595918], [18.1409275, 44.4599977], [18.1413674, 44.4604878], [18.1417966, 44.4610161], [18.1421935, 44.4612841], [18.1427514, 44.4615522], [18.1431377, 44.4617972], [18.1435346, 44.4622337], [18.1436956, 44.4624557], [18.1437278, 44.4629764], [18.1439496, 44.4633351], [18.1440174, 44.4639489], [18.144232, 44.4642934], [18.1443715, 44.4646457], [18.1445539, 44.4649137], [18.1447899, 44.4652582], [18.1448114, 44.4655262], [18.1447685, 44.4659473], [18.1446826, 44.4662995], [18.144629, 44.4665063], [18.1445324, 44.4670269], [18.1446934, 44.4673485], [18.144865, 44.4676854], [18.1448543, 44.4679993], [18.1446504, 44.4683439], [18.1444144, 44.4686272], [18.1438029, 44.4690789], [18.1434166, 44.4695919], [18.1432879, 44.4699517], [18.1433737, 44.4701661], [18.1432879, 44.4703958], [18.142848, 44.4705948], [18.1423437, 44.4706867], [18.1417537, 44.4708858], [18.1416678, 44.4710848], [18.1416893, 44.4712303], [18.1420863, 44.471904], [18.142215, 44.4720725], [18.1423545, 44.4725165], [18.1422043, 44.4730218], [18.1417429, 44.4735654], [18.1412601, 44.4738793], [18.1413996, 44.4740017], [18.1410134, 44.4742238], [18.140713, 44.4739175], [18.1400156, 44.4735577], [18.1394255, 44.4736726], [18.1392968, 44.4739558], [18.1391251, 44.4741242], [18.1392753, 44.4746984], [18.1393397, 44.4754257], [18.1393182, 44.475663], [18.1393182, 44.4758391], [18.1395113, 44.476153], [18.1397903, 44.4762678], [18.1399405, 44.4763214], [18.1407702, 44.4768968], [18.1390974, 44.4778401], [18.1376789, 44.4789991], [18.1372905, 44.4797777], [18.1371928, 44.4806524], [18.1375814, 44.4830796], [18.1382239, 44.4845083], [18.1391242, 44.4856251], [18.1403911, 44.48664], [18.1423371, 44.4874151], [18.1462621, 44.4879616], [18.1486925, 44.4879699], [18.1502089, 44.4877818], [18.1514257, 44.487746], [18.1543486, 44.487387], [18.1570639, 44.4876059], [18.1585993, 44.4880344], [18.1615592, 44.490086], [18.1665, 44.4930535], [18.1681506, 44.4949385], [18.1695231, 44.4968871], [18.1709506, 44.4983845], [18.1727141, 44.5006007], [18.1739933, 44.5028651], [18.1743738, 44.5050761], [18.1754853, 44.5069491], [18.1773327, 44.5083864], [18.1782103, 44.5091234], [18.1788173, 44.5100046], [18.1798303, 44.5115476], [18.1804309, 44.5123177], [18.1803967, 44.5134374], [18.1800234, 44.5139365], [18.1783404, 44.5153927], [18.1748975, 44.5173687], [18.1728821, 44.5180872], [18.1701975, 44.5185762], [18.1698548, 44.5171793], [18.170144, 44.5170982], [18.1700188, 44.5169309], [18.1698847, 44.51682], [18.1695092, 44.5169233], [18.1695467, 44.5170724], [18.1689888, 44.5172178], [18.1674439, 44.5177533], [18.1661296, 44.5181664], [18.1660813, 44.5180861], [18.1658399, 44.5181741], [18.1655824, 44.5181741], [18.1652077, 44.5181522], [18.1650216, 44.517997], [18.1648345, 44.5177249], [18.1646424, 44.5172916], [18.1647613, 44.5172704], [18.1646597, 44.5169156], [18.165105, 44.5167856], [18.1652015, 44.5168544], [18.1654483, 44.5167779], [18.1658024, 44.516644], [18.1660563, 44.5170027], [18.1665854, 44.5168922], [18.1663012, 44.5165293], [18.1666177, 44.5165102], [18.1668431, 44.5164719], [18.1670952, 44.5162998], [18.1671756, 44.5162156], [18.1671756, 44.5161009], [18.1665748, 44.5160282], [18.1660867, 44.5158752], [18.1659096, 44.5155271], [18.1651747, 44.514808], [18.1648207, 44.514655], [18.1644559, 44.5146129], [18.1637692, 44.5146435], [18.1630343, 44.5146397], [18.1625837, 44.5145287], [18.1635117, 44.5125434], [18.1637692, 44.5122374], [18.1640267, 44.511962], [18.1653785, 44.511503], [18.1653785, 44.508565], [18.1650352, 44.5075244], [18.1643485, 44.5055656], [18.1618594, 44.5044026], [18.1603145, 44.504525], [18.1587695, 44.504525], [18.1566238, 44.5042801], [18.1552505, 44.5039128], [18.1532631, 44.503354], [18.1536197, 44.5012193], [18.151474, 44.4991838], [18.149811, 44.4985677], [18.1491727, 44.4981966], [18.1488937, 44.4980512], [18.1485343, 44.49799], [18.1482285, 44.498032], [18.1478476, 44.4980627], [18.1474668, 44.4980282], [18.1472039, 44.4978599], [18.1468874, 44.4976112], [18.1464881, 44.4975049], [18.14619, 44.497615], [18.1459862, 44.4977221], [18.145659, 44.497879], [18.1444251, 44.4980627], [18.1441301, 44.4981162], [18.1433952, 44.4983037], [18.1431645, 44.4983152], [18.1429392, 44.4981354], [18.1426549, 44.4977145], [18.142553, 44.4976035], [18.1423813, 44.4974466], [18.1420755, 44.4972783], [18.1415284, 44.4970028], [18.1413245, 44.4968344], [18.1412172, 44.4967349], [18.1410026, 44.4965819], [18.1407988, 44.4964135], [18.1401819, 44.4963446], [18.1404179, 44.4954263], [18.1401658, 44.4954454], [18.1398386, 44.4954569], [18.1398815, 44.4952273], [18.1397635, 44.4947528], [18.1396079, 44.4946533], [18.138991, 44.494462], [18.1386477, 44.4944352], [18.1384331, 44.4944735], [18.1378913, 44.4947796], [18.1374407, 44.4949594], [18.1371725, 44.4951125], [18.136872, 44.4952235], [18.136239, 44.4951852], [18.1359172, 44.4951737], [18.1357187, 44.4952464], [18.1353593, 44.4954722], [18.135016, 44.4954722], [18.1347692, 44.4954875], [18.1342971, 44.4956176], [18.1342435, 44.495786], [18.134104, 44.4958855], [18.1334925, 44.4958702], [18.1333208, 44.4958166], [18.1327414, 44.4956865], [18.1325591, 44.4955564], [18.1324303, 44.495411], [18.1321299, 44.4950513], [18.131336, 44.4947299], [18.1311321, 44.4946457], [18.1306815, 44.494485], [18.1304026, 44.4943855], [18.1301236, 44.4942554], [18.1298876, 44.4942018], [18.1297159, 44.4942554], [18.1292653, 44.4943855], [18.1289005, 44.494462], [18.1283212, 44.4943778], [18.1279349, 44.4942095], [18.127656, 44.4939569], [18.1274843, 44.4937732], [18.1271946, 44.4937885], [18.1266153, 44.4939186], [18.1260252, 44.4941253], [18.1257248, 44.4941635], [18.1257033, 44.4943702], [18.1258643, 44.4946763], [18.1259501, 44.4951278], [18.1257784, 44.4956023], [18.1259501, 44.4959773], [18.1260896, 44.496138], [18.1262505, 44.4965206], [18.1263149, 44.4969109], [18.1264543, 44.4972706], [18.1267548, 44.4976226], [18.127023, 44.4977833], [18.1276023, 44.4980206], [18.1277096, 44.4980856], [18.1279188, 44.4982348], [18.128128, 44.4984836], [18.1284982, 44.4987514], [18.1290239, 44.4990498], [18.1291419, 44.4991608], [18.1292814, 44.4993253], [18.1296515, 44.4994439], [18.1298661, 44.4993674], [18.1300324, 44.4991225], [18.1301665, 44.4988662], [18.1303489, 44.4985869], [18.1306225, 44.4984376], [18.1309926, 44.4984759], [18.1312233, 44.4985639], [18.1313252, 44.4987897], [18.1314164, 44.4990039], [18.1316525, 44.4993215], [18.1325912, 44.4997921], [18.1327736, 44.4999337], [18.1329077, 44.5001327], [18.1329668, 44.500324], [18.1329453, 44.5005535], [18.1328165, 44.5008481], [18.1329131, 44.5012652], [18.1301772, 44.5015024], [18.1300056, 44.5015866], [18.1297052, 44.5018621], [18.1298768, 44.5029486], [18.1304079, 44.5040888], [18.1301987, 44.5044981], [18.1303149, 44.5045556], [18.1304455, 44.5046167], [18.1304723, 44.5047736], [18.1305206, 44.5048999], [18.1304938, 44.5051256], [18.1302845, 44.5056076], [18.1301558, 44.5057186], [18.1299037, 44.5058487], [18.1295335, 44.5059749], [18.1290722, 44.5060476], [18.128112, 44.5060208], [18.12801, 44.5059099], [18.1279135, 44.5056038], [18.1279349, 44.5052557], [18.1242496, 44.5055847], [18.1240118, 44.5055336], [18.1236756, 44.5055503], [18.1232518, 44.5055507], [18.1225651, 44.505776], [18.1222594, 44.5058869], [18.1218034, 44.506017], [18.1203067, 44.5056344], [18.1194913, 44.5054355], [18.1168198, 44.5043413], [18.116101, 44.5043489], [18.1160474, 44.5045249], [18.1159401, 44.5048386], [18.1158328, 44.5050529], [18.1154466, 44.5052365], [18.115071, 44.5053896], [18.1147921, 44.505489], [18.115114, 44.5057339], [18.1154466, 44.5059022], [18.1159615, 44.5060323], [18.1169057, 44.5062848], [18.1172115, 44.5065105], [18.117485, 44.5067554], [18.117823, 44.5069696], [18.1181073, 44.5070499], [18.1187832, 44.5071838], [18.1199044, 44.5073675], [18.1202155, 44.5074555], [18.1203175, 44.5075626], [18.1205052, 44.5077654], [18.1210631, 44.5084693], [18.1210899, 44.5086299], [18.1211007, 44.5088977], [18.1211489, 44.5093224], [18.1211704, 44.5094945], [18.121224, 44.509923], [18.1210899, 44.5103744], [18.1210792, 44.5105427], [18.1209987, 44.5111854], [18.1211328, 44.5112772], [18.1212562, 44.5115144], [18.1214923, 44.5116942], [18.1216371, 44.5117477], [18.1218946, 44.5118778], [18.1220019, 44.512027], [18.1220233, 44.5122183], [18.1220663, 44.5124669], [18.1221574, 44.5126008], [18.1222647, 44.5127653], [18.1223881, 44.5129336], [18.1226671, 44.5131057], [18.1231338, 44.513515], [18.1230694, 44.5135992], [18.1237542, 44.5139863], [18.1226875, 44.5148965], [18.1211357, 44.5168381], [18.1193062, 44.5201828], [18.1187723, 44.5211291], [18.1171954, 44.5208515], [18.1160366, 44.5207826], [18.1154787, 44.5205837], [18.1149638, 44.5204155], [18.1146204, 44.5204002], [18.1143844, 44.5202319], [18.1144273, 44.5198111], [18.114438, 44.5194363], [18.1143737, 44.5191226], [18.1144702, 44.5183041], [18.1143737, 44.5179599], [18.1139767, 44.5176233], [18.1130755, 44.5167205], [18.1121528, 44.516361], [18.1115198, 44.5161544], [18.1105971, 44.5158102], [18.1103718, 44.5158943], [18.1100821, 44.5160856], [18.1097281, 44.5161544], [18.1090844, 44.5162998], [18.108505, 44.5163227], [18.1080758, 44.5163227], [18.1076252, 44.5163151], [18.106724, 44.5164604], [18.106209, 44.5166211], [18.1060266, 44.5168276], [18.1056726, 44.5170954], [18.1051898, 44.517455], [18.1039184, 44.5182353], [18.1034249, 44.5185374], [18.1030708, 44.5188702], [18.1028724, 44.5192297], [18.1026685, 44.5193866], [18.101719, 44.5199106], [18.1012791, 44.5203007], [18.1010055, 44.5204652], [18.1007159, 44.5205952], [18.1005979, 44.5205225], [18.1003886, 44.520381], [18.0997878, 44.5201554], [18.0999863, 44.5198111], [18.1000829, 44.5196658], [18.1002331, 44.519486], [18.1001955, 44.5193827], [18.1000775, 44.5193598], [18.0997717, 44.5192871], [18.0995572, 44.5191915], [18.0990583, 44.5190155], [18.09879, 44.5187937], [18.0985862, 44.5186292], [18.0983823, 44.5185298], [18.0981034, 44.5184992], [18.0978298, 44.5186751], [18.0977333, 44.518809], [18.0976582, 44.5189161], [18.0975562, 44.5190614], [18.0973524, 44.519203], [18.0972826, 44.5190538], [18.0972236, 44.5189352], [18.0971914, 44.5188358], [18.0972719, 44.5187478], [18.0973202, 44.518568], [18.0973685, 44.51835], [18.097288, 44.5182047], [18.097229, 44.5180937], [18.0971217, 44.5181052], [18.0970198, 44.5182047], [18.0967623, 44.5183921], [18.096273, 44.5186738], [18.0959737, 44.5188052], [18.0958611, 44.5187899], [18.0957216, 44.5186101], [18.095566, 44.5182008], [18.0954212, 44.5180325], [18.0952978, 44.5178336], [18.0953032, 44.5175774], [18.095507, 44.5169156], [18.0956089, 44.5167894], [18.0956948, 44.5165561], [18.0955821, 44.5163342], [18.0953836, 44.5161659], [18.0951315, 44.515967], [18.0946702, 44.5155539], [18.0945414, 44.5153894], [18.0943161, 44.515202], [18.0940747, 44.514938], [18.0939889, 44.5147085], [18.0938655, 44.5144293], [18.093785, 44.5142074], [18.0937153, 44.5140008], [18.0937582, 44.5136528], [18.093946, 44.5131555], [18.094241, 44.5128074], [18.0945414, 44.5125013], [18.0948472, 44.512245], [18.0953085, 44.5120652], [18.0959576, 44.5118319], [18.096022, 44.5117898], [18.0961025, 44.511698], [18.0962473, 44.5113422], [18.0963117, 44.5110553], [18.0963707, 44.5106231], [18.0963385, 44.5105236], [18.0962741, 44.5104088], [18.0960327, 44.5100798], [18.0958503, 44.510011], [18.095668, 44.5099], [18.0955982, 44.5098618], [18.0953675, 44.5097049], [18.0951315, 44.5095213], [18.0951369, 44.5093186], [18.0951047, 44.5091961], [18.0950081, 44.5091579], [18.0947453, 44.5090814], [18.0945897, 44.508936], [18.0941606, 44.5090163], [18.0937153, 44.5089805], [18.0934203, 44.5088863], [18.0932915, 44.5087332], [18.0931091, 44.5085955], [18.0929965, 44.5086108], [18.0928409, 44.5086912], [18.0927229, 44.5087983], [18.0926156, 44.5087485], [18.0924708, 44.5086873], [18.0922937, 44.5087294], [18.0921811, 44.5088442], [18.0920416, 44.5088251], [18.0919558, 44.5086873], [18.0918109, 44.5085764], [18.0913925, 44.5086261], [18.091312, 44.5087218], [18.0911457, 44.5089169], [18.090899, 44.509001], [18.09062, 44.509024], [18.0903625, 44.5089551], [18.0902123, 44.5087638], [18.0899978, 44.5086491], [18.0896008, 44.5086032], [18.0890751, 44.508542], [18.0891395, 44.5082589], [18.0889463, 44.5075932], [18.089869, 44.5074249], [18.0899441, 44.5072642], [18.0900729, 44.5071571], [18.0903196, 44.5071035], [18.0907273, 44.5069964], [18.0905986, 44.506851], [18.0896222, 44.5061853], [18.0892467, 44.5057875], [18.0887854, 44.5053972], [18.0871975, 44.5042036], [18.0865967, 44.5038745], [18.0857491, 44.5033006], [18.085556, 44.503117], [18.0848157, 44.5024972], [18.0840111, 44.5020151], [18.0831796, 44.5014871], [18.0830187, 44.5014259], [18.0827075, 44.5013723], [18.082332, 44.5014029], [18.0820316, 44.5013914], [18.0818438, 44.5014068], [18.0816293, 44.5014833], [18.081345, 44.5015674], [18.0811143, 44.501556], [18.0804384, 44.5012499], [18.080079, 44.5009897], [18.0798912, 44.5008673], [18.0798536, 44.5007907], [18.0798751, 44.5007257], [18.0798805, 44.5006109], [18.0798751, 44.5005421], [18.0798054, 44.5004847], [18.0797034, 44.5003967], [18.0798, 44.500366], [18.0797088, 44.5002627], [18.0796375, 44.5001675], [18.079275, 44.5002822], [18.0784267, 44.5005229], [18.078078, 44.5007027], [18.0777776, 44.5010624], [18.0777293, 44.5013379], [18.0776435, 44.5017281], [18.0775523, 44.5022255], [18.0775577, 44.502524], [18.0777454, 44.5030405], [18.0780083, 44.5036717], [18.0780888, 44.5040046], [18.0785984, 44.5049419], [18.0787861, 44.5050835], [18.0788398, 44.5051141], [18.0790114, 44.5051524], [18.079316, 44.5051658], [18.0794084, 44.5052939], [18.0795532, 44.5054661], [18.0796927, 44.5056459], [18.0800146, 44.5058525], [18.0802238, 44.5060017], [18.080551, 44.5061853], [18.0808032, 44.5062733], [18.0809319, 44.5063843], [18.0810499, 44.5066291], [18.0811948, 44.5071188], [18.0814708, 44.5079253], [18.0815488, 44.5085573], [18.0815595, 44.5086835], [18.0815273, 44.5088136], [18.0813771, 44.5089934], [18.0811948, 44.5091349], [18.0809694, 44.5092765], [18.0806529, 44.5096935], [18.08061, 44.5098733], [18.0806261, 44.5100339], [18.08061, 44.5104127], [18.0805135, 44.5104471], [18.0802023, 44.510405], [18.0800146, 44.5103935], [18.0797464, 44.5103935], [18.0794406, 44.5103973], [18.0792367, 44.5106728], [18.0790865, 44.5108067], [18.0789202, 44.5109253], [18.0785716, 44.5111127], [18.0781907, 44.511281], [18.0779761, 44.5113728], [18.0778742, 44.5114493], [18.0778313, 44.5115947], [18.0777669, 44.5118166], [18.0775952, 44.5120614], [18.0772734, 44.5124822], [18.0770481, 44.5128456], [18.0770266, 44.5130139], [18.0770588, 44.5130598], [18.0771339, 44.5131478], [18.077327, 44.5133123], [18.0778152, 44.5135189], [18.0788612, 44.5137752], [18.0790839, 44.5138478], [18.0792582, 44.513909], [18.079336, 44.5139645], [18.0793789, 44.5140391], [18.0793735, 44.5142131], [18.0793199, 44.5144006], [18.0791455, 44.5146588], [18.0790758, 44.514697], [18.0789202, 44.5148768], [18.0789739, 44.5149839], [18.0789846, 44.5150222], [18.0790704, 44.5151369], [18.0792636, 44.5152555], [18.0795479, 44.515332], [18.0800904, 44.5154778], [18.0802667, 44.5156189], [18.0804813, 44.5158408], [18.0806529, 44.5159326], [18.0808246, 44.5159517], [18.0811304, 44.5159326], [18.0813611, 44.5159058], [18.0815756, 44.515879], [18.0817258, 44.5159096], [18.0819511, 44.5161391], [18.0821764, 44.5165293], [18.0823642, 44.5169615], [18.0824768, 44.5172675], [18.0826861, 44.517432], [18.0818224, 44.5175238], [18.0816185, 44.5176386], [18.0811894, 44.5177571], [18.0810285, 44.5178872], [18.0808139, 44.5181741], [18.08083, 44.5182238], [18.0809426, 44.5183462], [18.0810553, 44.5186445], [18.0810982, 44.5191877], [18.0810231, 44.5194172], [18.0807441, 44.5196199], [18.0801755, 44.5199641], [18.0804223, 44.5204193], [18.0802882, 44.520534], [18.080036, 44.5206755], [18.0798805, 44.5209356], [18.0796122, 44.5209739], [18.0792099, 44.5209586], [18.0780512, 44.5207367], [18.0778044, 44.5206679], [18.0772519, 44.5204575], [18.0763131, 44.5198914], [18.0756909, 44.5194248], [18.0755621, 44.5193942], [18.0751973, 44.5193674], [18.0746341, 44.5194057], [18.0741942, 44.519486], [18.0737543, 44.5195855], [18.0736363, 44.5196849], [18.0735344, 44.5198188], [18.0735022, 44.5199794], [18.0732769, 44.5201898], [18.0732125, 44.5202892], [18.0732125, 44.5204193], [18.0732393, 44.5206182], [18.0732554, 44.5207406], [18.0731642, 44.5208477], [18.0727243, 44.521276], [18.072601, 44.5213564], [18.0722576, 44.5216279], [18.0720591, 44.5219301], [18.071748, 44.5223125], [18.0714959, 44.5225841], [18.0710506, 44.5228327], [18.069849, 44.5227027], [18.0693447, 44.5223431], [18.0691731, 44.5221978], [18.0686259, 44.5218536], [18.0685937, 44.5213831], [18.0685991, 44.5213296], [18.0688941, 44.521146], [18.0691785, 44.5210351], [18.0696076, 44.5207826], [18.0695486, 44.5206373], [18.0694145, 44.5204193], [18.069157, 44.520163], [18.0687225, 44.5197346], [18.0682021, 44.519486], [18.0680251, 44.5194478], [18.0675584, 44.5192718], [18.067317, 44.5189888], [18.067317, 44.5188472], [18.0673546, 44.5187401], [18.0678213, 44.5186866], [18.0679125, 44.5186407], [18.0680197, 44.5184762], [18.068068, 44.5182888], [18.0679822, 44.5177189], [18.0684328, 44.5176615], [18.068701, 44.5176118], [18.0689478, 44.5176271], [18.0687815, 44.5170648], [18.0689424, 44.5170246], [18.0689505, 44.516908], [18.0689853, 44.5168009], [18.0690443, 44.5166498], [18.0690524, 44.5165656], [18.0690283, 44.5164757], [18.0690443, 44.5164184], [18.0691034, 44.5163533], [18.0692267, 44.516296], [18.0694413, 44.5161583], [18.0696183, 44.5159364], [18.0696773, 44.5157566], [18.069672, 44.5156763], [18.0696559, 44.515596], [18.069731, 44.5154583], [18.0699348, 44.5153091], [18.070128, 44.5150834], [18.0702782, 44.5149801], [18.0704927, 44.5148615], [18.0705678, 44.5147085], [18.0704176, 44.5147353], [18.0700743, 44.5148156], [18.0698168, 44.5148654], [18.0695003, 44.5148998], [18.0689317, 44.5148194], [18.0688298, 44.514303], [18.0687922, 44.514261], [18.0687118, 44.5141615], [18.0686367, 44.5140047], [18.0685669, 44.5137216], [18.0684704, 44.5136413], [18.068127, 44.5135495], [18.0678964, 44.513515], [18.0677891, 44.5134347], [18.0676871, 44.51332], [18.0674726, 44.5133085], [18.0670541, 44.5134538], [18.0665284, 44.5136107], [18.0662119, 44.5137293], [18.0658847, 44.5138325], [18.0651444, 44.5141845], [18.0648708, 44.5143107], [18.0645651, 44.5144561], [18.0642325, 44.5146703], [18.0639964, 44.5147735], [18.0633795, 44.514785], [18.0631006, 44.5147927], [18.0625105, 44.5148845], [18.0622476, 44.5149304], [18.0617595, 44.5150528], [18.0613196, 44.5151522], [18.0610919, 44.5148249], [18.0610192, 44.5145593], [18.0607456, 44.5144025], [18.0606866, 44.5142151], [18.0605954, 44.5140965], [18.0604505, 44.5139358], [18.0602145, 44.5137675], [18.0599034, 44.5135877], [18.0595815, 44.5134997], [18.0592114, 44.5134347], [18.0589861, 44.5133238], [18.0588627, 44.5131057], [18.0587393, 44.5128571], [18.0585086, 44.5126008], [18.0582726, 44.5123636], [18.0585086, 44.5117133], [18.0586964, 44.5114647], [18.0588627, 44.5112619], [18.0586481, 44.5111777], [18.0583638, 44.511281], [18.0577952, 44.5113499], [18.0570012, 44.5114034], [18.0568349, 44.511392], [18.0566418, 44.5113269], [18.0560356, 44.5111089], [18.0556548, 44.5110018], [18.0553007, 44.5108602], [18.054834, 44.5108335], [18.0544853, 44.5109635], [18.0539972, 44.5111739], [18.0534822, 44.511721], [18.0534178, 44.5117707], [18.0530691, 44.5115985], [18.0527312, 44.5114647], [18.0526721, 44.5113728], [18.0526829, 44.5112772], [18.0527794, 44.5111777], [18.0532515, 44.5108641], [18.0533051, 44.5107493], [18.0532952, 44.5104608], [18.0533051, 44.5100951], [18.0531281, 44.5098656], [18.0528706, 44.5097929], [18.0526453, 44.5098197], [18.0523771, 44.5098809], [18.0521572, 44.510141], [18.0515778, 44.5106996], [18.051433, 44.5107761], [18.0512613, 44.5107646], [18.0507624, 44.510428], [18.0505156, 44.5102826], [18.0499953, 44.5099918], [18.0496895, 44.5097853], [18.0495393, 44.5096858], [18.0492604, 44.509571], [18.0489385, 44.5094601], [18.0486005, 44.5093109], [18.0480652, 44.5090764], [18.0476618, 44.5090393], [18.0474311, 44.5090278], [18.0472165, 44.5089934], [18.0469751, 44.5089092], [18.0469215, 44.5090355], [18.0468839, 44.5091502], [18.0467981, 44.5092267], [18.0465674, 44.5093377], [18.046385, 44.5093989], [18.0461651, 44.5093912], [18.045972, 44.5093606], [18.0457789, 44.5093453], [18.0454946, 44.5093721], [18.0452746, 44.509353], [18.0451298, 44.5093377], [18.0450332, 44.5093989], [18.0448937, 44.509506], [18.0445665, 44.5096973], [18.0443841, 44.5097738], [18.0441588, 44.5098924], [18.0436921, 44.5100913], [18.0435634, 44.5101372], [18.0434293, 44.5102099], [18.0433166, 44.5103055], [18.0432844, 44.5103744], [18.0433112, 44.5104968], [18.0435097, 44.510646], [18.0436277, 44.5107378], [18.0438101, 44.5108488], [18.0437618, 44.5109903], [18.0435902, 44.511063], [18.043499, 44.511128], [18.0433541, 44.5112122], [18.0432039, 44.5113499], [18.042925, 44.5115718], [18.0426621, 44.511633], [18.0417341, 44.5114187], [18.0410474, 44.5112083], [18.0406612, 44.5110439], [18.0393738, 44.5101908], [18.039076, 44.5101066], [18.0388293, 44.5101257], [18.0386522, 44.5101315], [18.0383518, 44.5101162], [18.0382124, 44.5100435], [18.0380192, 44.5099306], [18.0381963, 44.5096189], [18.0384886, 44.5091387], [18.038435, 44.5091617], [18.0383599, 44.5091961], [18.0381399, 44.5093453], [18.0377859, 44.509529], [18.0372924, 44.5096935], [18.0367666, 44.5099306], [18.0363536, 44.5100607], [18.0360585, 44.5100798], [18.0358869, 44.5100607], [18.0358654, 44.5099842], [18.035785, 44.5097929], [18.035624, 44.5094218], [18.0356348, 44.509242], [18.0356133, 44.5091311], [18.0355328, 44.5090622], [18.035388, 44.5091081], [18.0352539, 44.5091694], [18.0350447, 44.5092191], [18.0349159, 44.5091541], [18.0346423, 44.5087371], [18.0343366, 44.5083583], [18.0339718, 44.5080102], [18.034122, 44.5078686], [18.0342615, 44.5077194], [18.0344921, 44.5075894], [18.0346155, 44.5074823], [18.0348945, 44.50718], [18.0348891, 44.5070882], [18.0348301, 44.5069543], [18.034814, 44.5069007], [18.0348891, 44.5067515], [18.0348891, 44.5064493], [18.0349803, 44.5061853], [18.0350769, 44.5060093], [18.035329, 44.505776], [18.0355328, 44.5055311], [18.0355972, 44.5053628], [18.0355811, 44.5051944], [18.0355221, 44.505007], [18.0354845, 44.504831], [18.0357367, 44.5044637], [18.0358815, 44.5042533], [18.0356723, 44.504238], [18.0353719, 44.504238], [18.0347604, 44.5040964], [18.0341166, 44.5038898], [18.0339986, 44.5042609], [18.0327111, 44.503997], [18.0328305, 44.5039185], [18.0331081, 44.5038018], [18.0332342, 44.5037052], [18.0333012, 44.5035646], [18.0333924, 44.5033274], [18.033442, 44.5031246], [18.0333698, 44.5031046], [18.0328882, 44.5029946], [18.0327004, 44.5033695], [18.0322391, 44.5041768], [18.031944, 44.5045517], [18.0316216, 44.5048568], [18.0313861, 44.5050797], [18.0313106, 44.5050421], [18.0312446, 44.5050161], [18.0305815, 44.5047545], [18.0299749, 44.5045811], [18.0298769, 44.5045531], [18.0296097, 44.5044767], [18.0292565, 44.5043757], [18.0279368, 44.5040467], [18.0281634, 44.503939], [18.0282265, 44.503909], [18.0284089, 44.503733], [18.0284389, 44.5036711], [18.0284572, 44.5036335], [18.0284895, 44.503525], [18.0285484, 44.5033274], [18.0285822, 44.5032918], [18.028661, 44.5032088], [18.0288756, 44.5030902], [18.0290902, 44.5029257], [18.0301309, 44.5020801], [18.0303132, 44.5018927], [18.0304301, 44.5017489], [18.0308275, 44.5012598], [18.0309496, 44.5011096], [18.031075, 44.5009553], [18.0320191, 44.5012384], [18.0320728, 44.5011925], [18.0320757, 44.5010031], [18.0320889, 44.5001556], [18.0320889, 44.4999566], [18.032062, 44.4995319], [18.0318367, 44.4990307], [18.0318475, 44.4988203], [18.0318421, 44.4983152], [18.0318206, 44.498032], [18.0316383, 44.4980933], [18.0309784, 44.4982693], [18.0308497, 44.4982961], [18.0306297, 44.4983267], [18.0303776, 44.4984415], [18.0301255, 44.4986098], [18.029868, 44.4987897], [18.0297285, 44.4988815], [18.0295193, 44.4989006], [18.0293745, 44.4988585], [18.0290741, 44.498805], [18.0286503, 44.4987552], [18.0285215, 44.4987705], [18.0283177, 44.4987935], [18.0280602, 44.4988356], [18.0278671, 44.4988662], [18.0276954, 44.4988509], [18.0274755, 44.4987667], [18.027336, 44.4986978], [18.0271375, 44.4985945], [18.0268693, 44.4984836], [18.0265796, 44.4983841], [18.0261183, 44.4983037], [18.0259681, 44.498231], [18.025775, 44.4981621], [18.0253994, 44.4981277], [18.0251527, 44.4980856], [18.0248952, 44.4979785], [18.0246645, 44.4978599], [18.0243534, 44.4979249], [18.0237472, 44.4980397], [18.0236667, 44.4980512], [18.0232644, 44.4980129], [18.0230498, 44.497967], [18.0227762, 44.4979173], [18.0223739, 44.4978981], [18.0221486, 44.4979555], [18.0219072, 44.498055], [18.0216819, 44.4980665], [18.021419, 44.4980971], [18.0212474, 44.4983037], [18.0210918, 44.4985103], [18.0210006, 44.4986328], [18.0208075, 44.4987055], [18.0205822, 44.4987284], [18.0205715, 44.4989044], [18.0204695, 44.4990498], [18.020255, 44.4991952], [18.0199492, 44.4993942], [18.01974, 44.4995779], [18.0196569, 44.4995884], [18.019166, 44.4994612], [18.0181642, 44.499092], [18.0178692, 44.4989293], [18.0177337, 44.4988432], [18.0176961, 44.4989006], [18.0174011, 44.4994439], [18.0173206, 44.4999566], [18.0161834, 44.4998457], [18.0161941, 44.5001403], [18.0161619, 44.500366], [18.0160761, 44.500653], [18.0159366, 44.5008596], [18.0157006, 44.5011236], [18.0155021, 44.5015981], [18.0154377, 44.5017664], [18.0153626, 44.502126], [18.0153304, 44.50226], [18.0152124, 44.502478], [18.0149174, 44.5027267], [18.0144131, 44.5031285], [18.0143058, 44.5031629], [18.0139571, 44.5031132], [18.013925, 44.5031667], [18.0137104, 44.5033274], [18.0131578, 44.5035302], [18.0132222, 44.5036297], [18.0133188, 44.5039702], [18.0133885, 44.5041615], [18.013925, 44.5043298], [18.01422, 44.5044216], [18.0143058, 44.504502], [18.0143219, 44.5046474], [18.0144614, 44.5047353], [18.0144292, 44.5048846], [18.0142468, 44.5050835], [18.0141127, 44.5051638], [18.0138928, 44.5051103], [18.0135387, 44.5049802], [18.0133778, 44.5053092], [18.0133992, 44.5056115], [18.0138981, 44.5059367], [18.0139424, 44.5060005], [18.0139732, 44.5060667], [18.0135977, 44.5070614], [18.0135548, 44.5072221], [18.0136567, 44.5074899], [18.0134314, 44.5080676], [18.0131149, 44.5086338], [18.0129701, 44.5085649], [18.0128199, 44.5084922], [18.0127072, 44.5083468], [18.01238, 44.507949], [18.0122942, 44.5078763], [18.0120903, 44.5078227], [18.0118382, 44.5077883], [18.0115235, 44.5076161], [18.0112741, 44.507624], [18.0105419, 44.507788], [18.0099612, 44.5079259], [18.0097299, 44.5079748], [18.0094863, 44.5079839], [18.0091166, 44.5078918], [18.0082882, 44.5075282], [18.0078869, 44.5074147], [18.0076529, 44.5073307], [18.0076539, 44.5073943], [18.0076861, 44.507796], [18.0077612, 44.5083048], [18.0080134, 44.5089436], [18.0080348, 44.509747], [18.0079919, 44.5103859], [18.0078632, 44.5104127], [18.0077505, 44.5104394], [18.0075842, 44.5103897], [18.0074903, 44.5102003], [18.0073562, 44.5101315], [18.0071872, 44.5101257], [18.0070719, 44.5101946], [18.0069405, 44.5102998], [18.0067286, 44.510514], [18.006683, 44.510581], [18.0065113, 44.5106288], [18.0063933, 44.5106058], [18.0060629, 44.5105457], [18.0059427, 44.5105695], [18.0056798, 44.5106996], [18.005425, 44.5108507], [18.0053499, 44.5108794], [18.0048618, 44.5109903], [18.0044433, 44.5110859], [18.0040303, 44.5111548], [18.0037352, 44.5112026], [18.0034563, 44.5111758], [18.0033678, 44.5111644], [18.0031827, 44.5110094], [18.0031157, 44.510975], [18.0029199, 44.5109884], [18.0027348, 44.5109903], [18.0026194, 44.510952], [18.0025068, 44.5108545], [18.0024156, 44.5107512], [18.0023512, 44.510667], [18.0023351, 44.5106307], [18.0022627, 44.5105829], [18.0021393, 44.510514], [18.0021018, 44.5104165], [18.0020669, 44.5102941], [18.0020642, 44.5101315], [18.0020347, 44.5100664], [18.0019516, 44.5100052], [18.0019382, 44.5099421], [18.0019543, 44.5098541], [18.0019408, 44.5097413], [18.0018952, 44.5096112], [18.0017906, 44.5094333], [18.001745, 44.5093606], [18.0017102, 44.509221], [18.0017102, 44.5091005], [18.001678, 44.5090125], [18.0015331, 44.5088442], [18.0014151, 44.5087638], [18.0012703, 44.508695], [18.001045, 44.5085955], [18.000648, 44.5083354], [18.0004388, 44.5080982], [18.0003583, 44.5079987], [18.0003959, 44.507838], [18.0003583, 44.5077615], [18.0001172, 44.5076126], [17.9988992, 44.507379], [17.9980838, 44.50718], [17.9963999, 44.5065758], [17.9959488, 44.5062695], [17.9955733, 44.5059634], [17.9947793, 44.5054737], [17.993685, 44.5048463], [17.9928696, 44.504479], [17.9923546, 44.5042571], [17.9917967, 44.5041117], [17.9920649, 44.5036067], [17.9920105, 44.5031817], [17.9917729, 44.5031964], [17.9924335, 44.5025071], [17.9914749, 44.5027344], [17.9913453, 44.5028564], [17.9909727, 44.5029517], [17.9906693, 44.5022422], [17.9916948, 44.5018039], [17.9877627, 44.5005535], [17.9873979, 44.5003852], [17.9869258, 44.4999949], [17.9865718, 44.499574], [17.9855955, 44.4988777], [17.985456, 44.4986098], [17.9848015, 44.4980435], [17.9836965, 44.4974925], [17.9817116, 44.4962145], [17.9824841, 44.4949977], [17.982527, 44.494638], [17.982012, 44.4941712], [17.9813146, 44.4923191], [17.9806241, 44.4910409], [17.9759667, 44.4860663], [17.9725842, 44.4843864], [17.9710491, 44.4835418], [17.9700604, 44.4831334], [17.9688245, 44.4830684], [17.9679789, 44.4830498], [17.9671853, 44.4830777], [17.9666129, 44.4823351], [17.9659884, 44.4815462], [17.9643102, 44.4800425], [17.9638439, 44.4795096], [17.9633585, 44.4775145], [17.9622844, 44.4737853], [17.9624836, 44.4728292], [17.9629898, 44.4718734], [17.9639876, 44.4717356], [17.9653394, 44.4714676], [17.9661441, 44.4710236], [17.966584, 44.4706944], [17.9675603, 44.4701508], [17.9683006, 44.4698369], [17.9690094, 44.4677159], [17.968615, 44.4672304], [17.9681713, 44.4666746], [17.9677375, 44.4663298], [17.9669685, 44.4662172], [17.9662981, 44.4659358], [17.9645234, 44.4652181], [17.9633797, 44.4645426], [17.9624431, 44.4639022], [17.9613773, 44.4631633], [17.9600758, 44.4621906], [17.958827, 44.4628309], [17.9574966, 44.4633669], [17.9563379, 44.4638034], [17.9550505, 44.4640331], [17.9545569, 44.4639029], [17.9540205, 44.4635354], [17.9526579, 44.4628003], [17.951349, 44.4626472], [17.9500937, 44.4627161], [17.9489028, 44.463007], [17.9462309, 44.463478], [17.9470097, 44.4642319], [17.9446842, 44.4655211], [17.9438828, 44.4656454], [17.9428655, 44.4649147], [17.9419433, 44.4660412], [17.9401292, 44.4657451], [17.936152, 44.4630689], [17.9322397, 44.4608996], [17.9217453, 44.4557178], [17.9202461, 44.4550142], [17.9153378, 44.4522142], [17.9098133, 44.4493261], [17.9041314, 44.4460898], [17.8984153, 44.4432269], [17.895543, 44.4419719], [17.8953816, 44.4413137], [17.8953143, 44.4404228], [17.8952769, 44.4395372], [17.8955684, 44.4387797], [17.8959195, 44.4383635], [17.8960989, 44.437766], [17.8962931, 44.4369764], [17.8959345, 44.4362668], [17.8957552, 44.4355039], [17.8953367, 44.4350077], [17.8947016, 44.4342394], [17.8944326, 44.4338019], [17.8944401, 44.433295], [17.8944251, 44.4326814], [17.8942085, 44.4320999], [17.8938423, 44.4314863], [17.8934388, 44.4309153], [17.8928336, 44.4303231], [17.8922508, 44.4297255], [17.8919071, 44.4293253], [17.8917502, 44.4284769], [17.8915111, 44.4281034], [17.891526, 44.4277405], [17.891653, 44.4275431], [17.8918996, 44.4270895], [17.8922134, 44.4265933], [17.8922508, 44.4263851], [17.8920416, 44.4259903], [17.8921462, 44.4256434], [17.8921238, 44.4253286], [17.8918473, 44.4250778], [17.8917427, 44.4247096], [17.8918932, 44.4243786], [17.8915613, 44.4243128], [17.8912047, 44.4242293], [17.8907116, 44.4240692], [17.8904874, 44.4237864], [17.890465, 44.4235463], [17.8905845, 44.4233435], [17.891003, 44.423146], [17.8914065, 44.4230393], [17.8916082, 44.4231033], [17.8920715, 44.4230873], [17.892602, 44.4229699], [17.893267, 44.4229593], [17.8938872, 44.4228365], [17.8943579, 44.4227618], [17.8944027, 44.4226337], [17.8943504, 44.422543], [17.8940665, 44.4224096], [17.8935434, 44.4220681], [17.8926319, 44.4216518], [17.8922284, 44.4213957], [17.8921462, 44.4210701], [17.8918697, 44.4207553], [17.8912346, 44.420307], [17.8911375, 44.4200401], [17.8912421, 44.4196772], [17.8912495, 44.4189248], [17.891345, 44.4181613], [17.891345, 44.417947], [17.8910109, 44.4177164], [17.8905353, 44.4174859], [17.8896802, 44.4170855], [17.8891819, 44.4175385], [17.8889667, 44.4176072], [17.8888534, 44.417769], [17.8886609, 44.4178216], [17.8883495, 44.4177488], [17.8881003, 44.4176396], [17.8878964, 44.4175425], [17.8877549, 44.4172756], [17.8877945, 44.4170733], [17.8879078, 44.4168468], [17.8878625, 44.4163251], [17.887636, 44.4158114], [17.8874774, 44.4156213], [17.887047, 44.4155485], [17.8869395, 44.4154797], [17.887132, 44.4150227], [17.8864072, 44.41478], [17.8863279, 44.4145049]]]}}]}