{"type": "FeatureCollection", "features": [{"type": "Feature", "properties": {"name": "Grad Živinice, Tuzlanski kanton, Federacija Bosne i Hercegovine, Bosna i Hercegovina / Босна и Херцеговина", "source": "OpenStreetMap relation 2528295", "licence": "ODbL 1.0"}, "geometry": {"type": "Polygon", "coordinates": [[[18.5077391, 44.4597089], [18.508187, 44.4571513], [18.5113223, 44.4549134], [18.5140097, 44.4529951], [18.5095307, 44.4517163], [18.5171333, 44.4485035], [18.5189249, 44.446585], [18.5251498, 44.4463441], [18.5268565, 44.4463866], [18.5286226, 44.4475807], [18.5313724, 44.450278], [18.5357491, 44.4508668], [18.5389607, 44.4506238], [18.5356583, 44.4457063], [18.5351538, 44.4431259], [18.5377221, 44.4416322], [18.5390942, 44.4399401], [18.5396159, 44.4361106], [18.5409457, 44.4326091], [18.5484294, 44.4323945], [18.5530187, 44.4313479], [18.5574693, 44.4296616], [18.5632013, 44.427854], [18.5680628, 44.4260887], [18.5686413, 44.4206792], [18.5670283, 44.4182273], [18.5654124, 44.4156255], [18.5660927, 44.4127238], [18.5666937, 44.4077948], [18.5662885, 44.4026772], [18.5659539, 44.3976422], [18.5642786, 44.392382], [18.5566984, 44.3904493], [18.5522819, 44.3870582], [18.5506746, 44.3846536], [18.550399, 44.3834704], [18.5496371, 44.3801985], [18.551338, 44.376191], [18.5549409, 44.3720716], [18.5573023, 44.3690785], [18.5593262, 44.3682882], [18.5625465, 44.3667843], [18.5625661, 44.3645611], [18.5625066, 44.3633452], [18.5663874, 44.36358], [18.5658022, 44.3554284], [18.5626089, 44.3533125], [18.5645704, 44.3516401], [18.566206, 44.3497651], [18.5669174, 44.347519], [18.5670053, 44.3458972], [18.5676913, 44.3447111], [18.5680004, 44.3429797], [18.568009, 44.341457], [18.5693585, 44.3362547], [18.5735369, 44.3339695], [18.5800739, 44.3327975], [18.5846777, 44.3315181], [18.5878667, 44.3311105], [18.5917108, 44.3282427], [18.5911523, 44.3247776], [18.5905882, 44.3223887], [18.5944239, 44.3227162], [18.5995796, 44.3226436], [18.6026273, 44.3208175], [18.6069077, 44.3207765], [18.6084468, 44.3210151], [18.6099049, 44.3219139], [18.6107435, 44.3230296], [18.6129829, 44.3265542], [18.617014, 44.328797], [18.6223887, 44.3310398], [18.6264198, 44.3320009], [18.6313466, 44.3329621], [18.6376172, 44.3329621], [18.6398566, 44.3342435], [18.640886, 44.3359002], [18.6416482, 44.3371268], [18.6447835, 44.3403302], [18.6479188, 44.3435335], [18.6506061, 44.3464163], [18.6541893, 44.3496192], [18.6591161, 44.3521814], [18.6662825, 44.3550638], [18.6707614, 44.3550638], [18.6743446, 44.3534625], [18.6765841, 44.352822], [18.6824067, 44.3518612], [18.6873335, 44.35058], [18.6904688, 44.3489786], [18.6949478, 44.346096], [18.6971872, 44.3448147], [18.7012183, 44.3444944], [18.7034578, 44.3470569], [18.7052494, 44.3480178], [18.7070409, 44.3502598], [18.7074888, 44.3525017], [18.7079367, 44.3534625], [18.7101762, 44.355384], [18.7128636, 44.3544233], [18.7168946, 44.3521814], [18.7222694, 44.3496192], [18.7294357, 44.3457757], [18.7316752, 44.3444944], [18.7352583, 44.3406506], [18.7370499, 44.3428928], [18.7392894, 44.3435335], [18.7433204, 44.3457757], [18.7469036, 44.3480178], [18.7500389, 44.35058], [18.7513826, 44.354103], [18.7513826, 44.3573055], [18.7522784, 44.3605079], [18.7531741, 44.3624292], [18.7545178, 44.3643504], [18.7563094, 44.3665918], [18.7589968, 44.3665918], [18.7648194, 44.3633898], [18.766611, 44.365311], [18.7706421, 44.3681928], [18.7724336, 44.3691533], [18.7742252, 44.3675524], [18.7769126, 44.3659514], [18.7791521, 44.3649908], [18.7831831, 44.3643504], [18.7854226, 44.3633898], [18.7876621, 44.3640302], [18.7916931, 44.3672322], [18.7952763, 44.3685129], [18.7979637, 44.370434], [18.7993074, 44.3713945], [18.8019947, 44.3729953], [18.8055779, 44.3739558], [18.8073695, 44.3749162], [18.8143544, 44.3745319], [18.8176672, 44.376785], [18.8192682, 44.3782179], [18.8134442, 44.3807725], [18.8126268, 44.3822109], [18.8114679, 44.3840218], [18.8114882, 44.386681], [18.8122415, 44.389875], [18.8122368, 44.3935992], [18.8129275, 44.3953617], [18.8156884, 44.3961417], [18.8152468, 44.400049], [18.8176914, 44.4021044], [18.8223802, 44.404416], [18.825315, 44.4070507], [18.8262217, 44.4095993], [18.8267745, 44.4120604], [18.8263087, 44.4142752], [18.8237661, 44.4158615], [18.8194251, 44.417243], [18.8155788, 44.4185149], [18.8146877, 44.4160048], [18.8127787, 44.4156307], [18.8108195, 44.4165842], [18.8043391, 44.4182442], [18.8023737, 44.4194712], [18.8011819, 44.4201524], [18.800391, 44.4204533], [18.800095, 44.4210998], [18.8002313, 44.4220628], [18.8002986, 44.4229173], [18.800192, 44.4239597], [18.8009078, 44.4250323], [18.8019147, 44.4261239], [18.8022953, 44.4272188], [18.8009375, 44.4281895], [18.7986684, 44.4283104], [18.7939905, 44.4280856], [18.7909978, 44.4281761], [18.7866551, 44.4284591], [18.784021, 44.4284703], [18.7832144, 44.4275968], [18.7841776, 44.4258622], [18.7845925, 44.4229464], [18.782732, 44.4219901], [18.769477, 44.4247911], [18.7669994, 44.4253863], [18.7633312, 44.4260078], [18.7596545, 44.4266252], [18.7552945, 44.4271535], [18.7517427, 44.4267], [18.7493275, 44.4273579], [18.7450242, 44.428192], [18.7415006, 44.4284755], [18.7389322, 44.4287144], [18.734989, 44.4290364], [18.7320919, 44.4290323], [18.7283272, 44.4301961], [18.7254017, 44.4309472], [18.7237917, 44.4318927], [18.7254046, 44.432834], [18.728092, 44.4347529], [18.7338008, 44.438461], [18.7259942, 44.4422964], [18.7222694, 44.4433874], [18.7231652, 44.4449862], [18.723307, 44.4450874], [18.7254046, 44.446585], [18.7306818, 44.4516845], [18.7315762, 44.4518935], [18.7331699, 44.4518935], [18.7394905, 44.4522937], [18.7414636, 44.4536192], [18.744667, 44.4560027], [18.7443092, 44.4601232], [18.743444, 44.4622155], [18.741129, 44.4635436], [18.739309, 44.4652128], [18.7421068, 44.4674321], [18.7420531, 44.4713728], [18.7432523, 44.4732967], [18.7433204, 44.4788712], [18.7442162, 44.4817474], [18.7488027, 44.4836486], [18.7514385, 44.4849061], [18.7498147, 44.4882154], [18.7487177, 44.492381], [18.7509543, 44.4945729], [18.7515496, 44.4966415], [18.7515213, 44.4983885], [18.7523009, 44.5002002], [18.7535741, 44.5027308], [18.7477232, 44.5051305], [18.7442278, 44.5057249], [18.7420478, 44.5056845], [18.7361419, 44.5083823], [18.7357176, 44.5077876], [18.7354195, 44.5074229], [18.7351075, 44.5072222], [18.7346409, 44.5071439], [18.7336205, 44.5071543], [18.7330352, 44.5073493], [18.7323952, 44.5078988], [18.7317466, 44.5080688], [18.7312562, 44.508066], [18.7305748, 44.5077936], [18.730151, 44.507815], [18.7294062, 44.5077721], [18.7288095, 44.5074047], [18.7281309, 44.507331], [18.7281469, 44.5067919], [18.7272542, 44.5069102], [18.7263136, 44.5069709], [18.7253271, 44.5071585], [18.7249586, 44.5070339], [18.7244963, 44.5069928], [18.7240522, 44.5071677], [18.7219517, 44.5055981], [18.7216831, 44.5056997], [18.7215003, 44.505887], [18.7214609, 44.506127], [18.7216189, 44.5064036], [18.7216567, 44.5066681], [18.7214991, 44.5067831], [18.7203607, 44.5066407], [18.719869, 44.5063712], [18.7196332, 44.5060863], [18.7185316, 44.5055864], [18.7158855, 44.5046253], [18.7141115, 44.5038338], [18.7135596, 44.5033592], [18.7131874, 44.5030916], [18.7128264, 44.5025838], [18.7125534, 44.5020734], [18.7122056, 44.5016368], [18.7118862, 44.5015839], [18.7114058, 44.5016801], [18.7109184, 44.5014627], [18.7106294, 44.5013944], [18.7095279, 44.5012673], [18.7091866, 44.5013007], [18.7086876, 44.5014951], [18.7084377, 44.5015522], [18.7079045, 44.501481], [18.7074497, 44.5013788], [18.7066421, 44.5012714], [18.7059782, 44.5009354], [18.7054563, 44.500604], [18.7052916, 44.5002403], [18.7051382, 44.4999979], [18.7046958, 44.4997961], [18.7042836, 44.4995839], [18.7042003, 44.4993398], [18.7039968, 44.4990956], [18.7035039, 44.4990359], [18.7028444, 44.4988797], [18.7023665, 44.4985306], [18.7021794, 44.4981833], [18.7017458, 44.4981341], [18.7016232, 44.4980702], [18.7015245, 44.4979397], [18.7016499, 44.4978038], [18.7016847, 44.4975637], [18.7016173, 44.4972503], [18.7010137, 44.4971457], [18.7007074, 44.4972209], [18.7002866, 44.4971578], [18.6998315, 44.497058], [18.6996834, 44.4967096], [18.6993979, 44.4965816], [18.6984149, 44.4961787], [18.6971676, 44.4947198], [18.6918836, 44.4922891], [18.6869255, 44.4906067], [18.6828662, 44.4891122], [18.6824183, 44.4884732], [18.6788351, 44.486556], [18.6737449, 44.4847298], [18.6716688, 44.4839997], [18.6650723, 44.4832249], [18.6597629, 44.48314], [18.6561484, 44.4836294], [18.6524093, 44.4833605], [18.6485361, 44.4841402], [18.6456867, 44.4843082], [18.6427119, 44.484148], [18.6365275, 44.4825674], [18.635443, 44.4827598], [18.6323361, 44.4830369], [18.628223, 44.4839997], [18.6250282, 44.4845295], [18.6184312, 44.4848575], [18.6176723, 44.4833302], [18.6159184, 44.4824006], [18.6133901, 44.4808667], [18.6129101, 44.4804264], [18.6112029, 44.4788866], [18.6090485, 44.4752904], [18.6072511, 44.4730733], [18.6011082, 44.46924], [18.5957052, 44.4658291], [18.5930831, 44.4657887], [18.5892306, 44.4680889], [18.5880286, 44.4710018], [18.5855481, 44.4729357], [18.5823504, 44.4734292], [18.5785066, 44.4744124], [18.5776108, 44.47633], [18.5762671, 44.4792062], [18.5744755, 44.4817628], [18.5704445, 44.4839997], [18.5632781, 44.4855974], [18.5610387, 44.4875146], [18.5583513, 44.4878341], [18.5547681, 44.4884732], [18.5489455, 44.4907098], [18.5462581, 44.4926268], [18.5440186, 44.4894317], [18.5399876, 44.4852778], [18.5373002, 44.4833605], [18.5323734, 44.4814432], [18.5257355, 44.478598], [18.5251154, 44.4783276], [18.5243113, 44.4779279], [18.5202802, 44.4744124], [18.5180407, 44.470577], [18.5153533, 44.46802], [18.512666, 44.4651432], [18.5104265, 44.4635449], [18.5077391, 44.4597089]]]}}]}