{"type": "FeatureCollection", "features": [{"type": "Feature", "properties": {"name": "Grad Zvornik, Република Српска / Republika Srpska, Bosna i Hercegovina / Босна и Херцеговина", "source": "OpenStreetMap relation 2528296", "licence": "ODbL 1.0"}, "geometry": {"type": "Polygon", "coordinates": [[[18.9617705, 44.4395551], [18.9624191, 44.439212], [18.9648077, 44.438089], [18.9664142, 44.4370453], [18.9664256, 44.435741], [18.9670069, 44.435544], [18.9680457, 44.4347988], [18.9687753, 44.4347528], [18.9695039, 44.4348182], [18.9713609, 44.4350975], [18.9723372, 44.4354729], [18.9729595, 44.435427], [18.9729985, 44.4350098], [18.9736891, 44.434523], [18.9749765, 44.4339561], [18.975332, 44.4332651], [18.9753091, 44.4323396], [18.9750945, 44.432171], [18.9751375, 44.4318569], [18.9753399, 44.4316448], [18.9753199, 44.4307], [18.9755881, 44.430225], [18.9765644, 44.4295738], [18.9774507, 44.4293024], [18.9789108, 44.4291513], [18.9802079, 44.4290171], [18.9812806, 44.4281227], [18.9818001, 44.4275051], [18.9825555, 44.4269883], [18.9826564, 44.4263395], [18.9831811, 44.4259564], [18.9849092, 44.4251365], [18.9858151, 44.4250969], [18.9862847, 44.4250763], [18.9871108, 44.4246855], [18.9880872, 44.4245859], [18.988793, 44.4236368], [18.989501, 44.4223171], [18.9909277, 44.421189], [18.9920783, 44.4211838], [18.9931511, 44.4209515], [18.9954257, 44.4194673], [18.9958763, 44.4193447], [18.9971985, 44.4190895], [18.9981587, 44.4183137], [18.9987302, 44.4185631], [18.9996743, 44.4178581], [19.0007257, 44.4178887], [19.0006399, 44.417291], [18.9999905, 44.4168751], [18.9999762, 44.4163326], [18.9998587, 44.4118595], [18.9994589, 44.4079432], [19.003129, 44.4068681], [19.0041177, 44.4073838], [19.006176, 44.4076806], [19.0081072, 44.4071287], [19.0102059, 44.4070811], [19.0135317, 44.407267], [19.0164499, 44.405033], [19.0169907, 44.4052892], [19.0179777, 44.4052815], [19.0187716, 44.4056034], [19.0187931, 44.4061706], [19.0190506, 44.4063393], [19.0191471, 44.4067378], [19.0195012, 44.4070291], [19.0201557, 44.4064159], [19.0201539, 44.4054126], [19.0226555, 44.4036336], [19.0220976, 44.4031124], [19.0223229, 44.4028441], [19.0223551, 44.4024225], [19.0217328, 44.4019473], [19.0208101, 44.4020546], [19.0197166, 44.4016012], [19.0197158, 44.4008588], [19.0200162, 44.4005522], [19.0200489, 44.3996257], [19.022795, 44.3978769], [19.0226693, 44.397468], [19.0237605, 44.3966427], [19.0240073, 44.3960984], [19.0245897, 44.3958581], [19.0245652, 44.3954851], [19.025327, 44.3949945], [19.025228, 44.3936466], [19.025563, 44.3933156], [19.0252197, 44.3926103], [19.0255365, 44.3922648], [19.0251553, 44.3917056], [19.0243292, 44.3917056], [19.0229559, 44.3922346], [19.022428, 44.3919659], [19.022884, 44.3915405], [19.0224624, 44.391215], [19.0224409, 44.391008], [19.0218186, 44.3904713], [19.0211596, 44.3910403], [19.0207565, 44.3907933], [19.0202289, 44.3907681], [19.0181073, 44.3897792], [19.0164149, 44.3888669], [19.0160894, 44.3891066], [19.0153921, 44.3886926], [19.0157783, 44.3883093], [19.0160358, 44.3878799], [19.0157738, 44.3872435], [19.0169916, 44.3862316], [19.017688, 44.3853267], [19.0176129, 44.385043], [19.0185178, 44.3843418], [19.0187502, 44.3839466], [19.0196299, 44.3831492], [19.0195119, 44.3829345], [19.0203363, 44.3815719], [19.0199983, 44.3811254], [19.0181073, 44.3796742], [19.0173536, 44.3791721], [19.017334, 44.3780116], [19.0175485, 44.3777049], [19.0176773, 44.376938], [19.0185123, 44.3761835], [19.0194368, 44.3755423], [19.0195012, 44.3748828], [19.0186, 44.374162], [19.0184068, 44.3735945], [19.0180905, 44.3733092], [19.0174687, 44.3727481], [19.0180206, 44.3719993], [19.0171253, 44.3713199], [19.0178362, 44.370925], [19.0174499, 44.3699337], [19.0184047, 44.3692897], [19.0176987, 44.3687475], [19.0173554, 44.3680266], [19.0169857, 44.3677251], [19.0182143, 44.3667071], [19.0178174, 44.3662413], [19.0180563, 44.3656603], [19.0176325, 44.3653191], [19.0156182, 44.3643719], [19.0136631, 44.3628897], [19.012506, 44.3628417], [19.0119573, 44.3632387], [19.0101886, 44.3632559], [19.009695, 44.3628263], [19.0091654, 44.3627995], [19.0082536, 44.3632078], [19.0073561, 44.3631792], [19.0065408, 44.3627496], [19.0055752, 44.3625348], [19.0046758, 44.3630985], [19.002388, 44.362368], [19.0017342, 44.3628723], [19.0013265, 44.3625195], [19.001112, 44.3619519], [18.999277, 44.3612962], [18.998816, 44.3595587], [18.9981723, 44.3589143], [18.9982818, 44.3582069], [19.0006399, 44.3563829], [19.0013661, 44.3563084], [19.0015164, 44.3556737], [19.0045471, 44.3535719], [19.0040829, 44.3529794], [19.0039808, 44.3508411], [19.003365, 44.3500308], [19.0039433, 44.3493738], [19.004665, 44.3493931], [19.0047812, 44.3483123], [19.0051889, 44.3476678], [19.0050173, 44.3473762], [19.0049314, 44.3468392], [19.0042233, 44.3462714], [19.0026569, 44.3463021], [19.0019917, 44.3461026], [19.000597, 44.3461333], [19.0005541, 44.3470847], [19.0009343, 44.347665], [18.999331, 44.3481128], [18.9988505, 44.3487641], [18.9976787, 44.3488493], [18.9968419, 44.3495091], [18.9955569, 44.3500262], [18.9925959, 44.3503697], [18.9918637, 44.3504758], [18.991456, 44.3499387], [18.9865959, 44.3481774], [18.9856842, 44.3468847], [18.9843163, 44.3462287], [18.9839458, 44.3457497], [18.9834952, 44.3445527], [18.9831948, 44.3440924], [18.9848685, 44.3433404], [18.9849386, 44.3430485], [18.984375, 44.3416677], [18.9838123, 44.3407332], [18.9827657, 44.3398261], [18.9822185, 44.3399182], [18.9804624, 44.3390145], [18.9800942, 44.3381457], [18.9795685, 44.3374474], [18.9783841, 44.3366493], [18.9763605, 44.33602], [18.9753735, 44.3356594], [18.9742241, 44.3350782], [18.9723279, 44.3329104], [18.9717381, 44.3320068], [18.9716291, 44.3286374], [18.97033, 44.3281257], [18.9711964, 44.3257753], [18.9697408, 44.3254906], [18.9694619, 44.3248612], [18.9684534, 44.3244314], [18.9676809, 44.32437], [18.9660793, 44.3227575], [18.9659151, 44.3225921], [18.9714349, 44.3215867], [18.9738648, 44.3197849], [18.9748692, 44.320041], [18.9765429, 44.3193962], [18.9769169, 44.3195777], [18.9807845, 44.3183132], [18.9819967, 44.3178489], [18.9847297, 44.3166746], [18.9861834, 44.3165596], [18.9874005, 44.3172622], [18.9888414, 44.3172447], [18.9899597, 44.3159573], [18.9940094, 44.3127601], [18.9974881, 44.3101845], [18.9984765, 44.3101518], [18.999808, 44.3101077], [19.0031148, 44.3087277], [19.0068537, 44.3081135], [19.0100721, 44.3080848], [19.0116048, 44.3084645], [19.0129351, 44.3090787], [19.0142119, 44.3093474], [19.0151024, 44.3092399], [19.0174019, 44.3079312], [19.0182572, 44.3074879], [19.0193361, 44.3067118], [19.0198231, 44.3066104], [19.0209228, 44.3066795], [19.0217704, 44.3067716], [19.0222102, 44.3068253], [19.022516, 44.3068253], [19.0237391, 44.3065144], [19.0246081, 44.3060845], [19.0252518, 44.306023], [19.0263676, 44.3046871], [19.0262174, 44.3041036], [19.0252733, 44.3033972], [19.0252518, 44.3023222], [19.0255523, 44.3018001], [19.0257025, 44.3013087], [19.0276551, 44.3000034], [19.0280607, 44.2985091], [19.0289855, 44.2980069], [19.0294361, 44.2971622], [19.0298433, 44.2966649], [19.0322685, 44.2977765], [19.0331054, 44.2979301], [19.0335989, 44.2977765], [19.034543, 44.2965786], [19.0361763, 44.2958737], [19.0376486, 44.2962884], [19.0405487, 44.296786], [19.0432747, 44.2981762], [19.0443706, 44.2985444], [19.0457114, 44.2988383], [19.0469465, 44.2992935], [19.0469885, 44.2999726], [19.046731, 44.3012473], [19.0468383, 44.3022455], [19.047216, 44.3030036], [19.0490484, 44.3044414], [19.0513804, 44.3051866], [19.0522671, 44.3056545], [19.0522456, 44.3066987], [19.0524816, 44.3075432], [19.0532807, 44.3088128], [19.0535974, 44.3094319], [19.0536833, 44.3102917], [19.0529322, 44.3108598], [19.0538978, 44.312948], [19.0551424, 44.3135928], [19.0579824, 44.3154549], [19.058125, 44.3161261], [19.0590262, 44.3164485], [19.0600133, 44.3161875], [19.0613222, 44.3144987], [19.0613727, 44.3122375], [19.0652102, 44.3078186], [19.0668049, 44.3074052], [19.0674591, 44.3069136], [19.0678239, 44.3063609], [19.067738, 44.3054702], [19.0663647, 44.3045796], [19.0644979, 44.3038732], [19.0632963, 44.3036275], [19.0615153, 44.3036275], [19.0599161, 44.3034115], [19.0592193, 44.3028597], [19.0584039, 44.3018615], [19.0586278, 44.3014759], [19.0590562, 44.3012966], [19.0608716, 44.3009248], [19.0622663, 44.3000034], [19.0626611, 44.2999281], [19.0648627, 44.3001876], [19.0662685, 44.3000037], [19.0676951, 44.2990051], [19.0692845, 44.2976761], [19.0700769, 44.2964404], [19.0704346, 44.2953787], [19.0737247, 44.295396], [19.0760273, 44.2941862], [19.0772867, 44.2939984], [19.0784025, 44.2939984], [19.0795183, 44.2944285], [19.0805483, 44.2937527], [19.0807414, 44.2923243], [19.0812114, 44.2915439], [19.0822434, 44.2914642], [19.0841544, 44.2900289], [19.0855945, 44.2873704], [19.0873503, 44.2867794], [19.088273, 44.2862111], [19.0887022, 44.2855813], [19.0893419, 44.2854645], [19.0901613, 44.2859807], [19.0916633, 44.2859499], [19.0923929, 44.2855352], [19.0940881, 44.2854277], [19.095118, 44.2849668], [19.0953541, 44.2837379], [19.0953096, 44.2832212], [19.0970921, 44.2827394], [19.0985553, 44.2807685], [19.0996134, 44.2813108], [19.1007829, 44.2825551], [19.101448, 44.2826549], [19.103744, 44.2822248], [19.10501, 44.2813569], [19.1050959, 44.2801049], [19.1053855, 44.2788221], [19.105922, 44.278849], [19.1070163, 44.2791869], [19.1069822, 44.2785759], [19.1077781, 44.2777851], [19.1085827, 44.2768326], [19.108808, 44.2764754], [19.108973, 44.2761307], [19.1090119, 44.2756112], [19.1081858, 44.2747893], [19.1072094, 44.2739058], [19.1040697, 44.2690597], [19.1027489, 44.2675219], [19.1021454, 44.267299], [19.1017055, 44.2671453], [19.1010189, 44.266669], [19.1008915, 44.2662061], [19.1014677, 44.2645097], [19.1019644, 44.2630471], [19.1019335, 44.2606368], [19.1019559, 44.2602628], [19.1036675, 44.2605744], [19.1043663, 44.2609219], [19.1050744, 44.2613675], [19.1047525, 44.2619054], [19.1048169, 44.2621359], [19.1091649, 44.2625727], [19.1127348, 44.2647943], [19.1132068, 44.2643794], [19.1144085, 44.2642411], [19.1145158, 44.264779], [19.1165972, 44.2645638], [19.1175627, 44.2652246], [19.1183138, 44.2650556], [19.1183567, 44.2644255], [19.1208672, 44.2644716], [19.1217255, 44.2649787], [19.1236426, 44.2635124], [19.1277332, 44.2638204], [19.1309965, 44.2643662], [19.136424, 44.2669609], [19.1397714, 44.2671761], [19.1444278, 44.2676831], [19.1466808, 44.2677753], [19.151036, 44.2673011], [19.1513586, 44.2670685], [19.151854, 44.2653263], [19.152341, 44.2644755], [19.1530271, 44.2637037], [19.1554432, 44.2613827], [19.1572927, 44.2599289], [19.1616853, 44.2599718], [19.1620151, 44.259975], [19.1604781, 44.2643794], [19.1606307, 44.2650441], [19.161876, 44.2680662], [19.1631, 44.2698873], [19.1651926, 44.2719326], [19.1650217, 44.2746778], [19.1660035, 44.2752348], [19.1668939, 44.2755574], [19.1688788, 44.2769325], [19.1704621, 44.2774437], [19.1706061, 44.2764946], [19.1706169, 44.2757034], [19.1704452, 44.2752041], [19.1700053, 44.2743898], [19.1690612, 44.2737215], [19.1690397, 44.2735217], [19.1704559, 44.2717625], [19.1716557, 44.2714365], [19.1747045, 44.2690967], [19.1751552, 44.2676447], [19.1756272, 44.2670224], [19.1780627, 44.2666844], [19.1811152, 44.264716], [19.1819572, 44.2649634], [19.1857338, 44.2639338], [19.186356, 44.2646868], [19.1872573, 44.2650709], [19.1882443, 44.2649787], [19.1895747, 44.2634421], [19.1904759, 44.2633653], [19.1921496, 44.2640567], [19.1939091, 44.2640414], [19.1957545, 44.263688], [19.1998097, 44.2611637], [19.2007327, 44.2617056], [19.2062044, 44.2605838], [19.2103457, 44.2627198], [19.2118263, 44.2633038], [19.2128992, 44.2617825], [19.2135429, 44.259923], [19.2142659, 44.2596869], [19.2185426, 44.2601996], [19.2205805, 44.2618097], [19.2212248, 44.2623664], [19.2228357, 44.2653628], [19.2235905, 44.2656471], [19.2239553, 44.2654243], [19.2258258, 44.2662969], [19.2255467, 44.2665382], [19.2252519, 44.2668514], [19.2249726, 44.2671665], [19.2246665, 44.2674514], [19.2240237, 44.2679117], [19.2232738, 44.2686296], [19.2227994, 44.2690213], [19.2225048, 44.2693885], [19.2220571, 44.2698241], [19.221487, 44.2707473], [19.2211618, 44.2714487], [19.2209629, 44.2720295], [19.2205576, 44.2728356], [19.2203412, 44.2735058], [19.2200598, 44.2747494], [19.2199678, 44.2751097], [19.2197514, 44.2756676], [19.2192536, 44.2767834], [19.2187179, 44.2789799], [19.2185339, 44.2795959], [19.2182634, 44.2805372], [19.2181984, 44.2814088], [19.2180415, 44.2824547], [19.2181443, 44.2831094], [19.2181065, 44.2836594], [19.2177061, 44.2860029], [19.2172461, 44.2871107], [19.2162072, 44.2885206], [19.2153469, 44.2891326], [19.2150439, 44.2893998], [19.2139563, 44.2897407], [19.2130581, 44.289915], [19.2096438, 44.2911505], [19.2082316, 44.2914294], [19.2073009, 44.291561], [19.206995, 44.2916263], [19.2052393, 44.2916134], [19.2036635, 44.2917596], [19.2020017, 44.2917707], [19.2003438, 44.291627], [19.1992385, 44.2914161], [19.1984839, 44.291207], [19.1977198, 44.2908032], [19.1968437, 44.2902548], [19.1959406, 44.2895819], [19.1949003, 44.2890356], [19.1942859, 44.2886568], [19.1935291, 44.2881532], [19.1931177, 44.2878027], [19.1921525, 44.2866094], [19.1905996, 44.2847796], [19.1895057, 44.2838291], [19.1891191, 44.2835985], [19.188783, 44.2834195], [19.1874487, 44.2827183], [19.1857137, 44.2818323], [19.183896, 44.2809511], [19.1822953, 44.2803374], [19.1811417, 44.2800619], [19.1798507, 44.2798215], [19.1770505, 44.2797241], [19.1758775, 44.2799017], [19.1745515, 44.2803846], [19.174355, 44.2804627], [19.1723555, 44.2812563], [19.1690911, 44.2826784], [19.1664828, 44.2839159], [19.1653548, 44.2845839], [19.1643, 44.2853323], [19.1637828, 44.2857709], [19.1631, 44.2863497], [19.1623897, 44.2871837], [19.1621303, 44.287486], [19.1620454, 44.2876075], [19.1615649, 44.2885205], [19.1612681, 44.2893428], [19.1610067, 44.2902576], [19.1608111, 44.2928432], [19.1606486, 44.294306], [19.1604844, 44.2950908], [19.1600528, 44.2957414], [19.1599679, 44.2959575], [19.1596639, 44.2968049], [19.1596041, 44.2972072], [19.1594831, 44.2977121], [19.159329, 44.298158], [19.1591267, 44.2987847], [19.1589833, 44.2993594], [19.1589587, 44.2997837], [19.1587629, 44.3003896], [19.1583076, 44.3009427], [19.157985, 44.3011357], [19.157791, 44.3012951], [19.1573, 44.3018567], [19.1568256, 44.3025038], [19.1564747, 44.3028665], [19.1559233, 44.3034548], [19.1551312, 44.3042283], [19.1543581, 44.3047963], [19.1539254, 44.3051031], [19.1534913, 44.3054913], [19.1531733, 44.3058891], [19.1528168, 44.3063543], [19.1519034, 44.3071236], [19.1514615, 44.3074397], [19.1503852, 44.3082537], [19.1493798, 44.3088163], [19.1475056, 44.3097965], [19.1465516, 44.3101796], [19.145796, 44.3104271], [19.1452127, 44.3105608], [19.144069, 44.3106938], [19.1417425, 44.3109664], [19.1411555, 44.3111746], [19.1405952, 44.3113627], [19.139728, 44.311687], [19.1384873, 44.3121835], [19.137621, 44.3126531], [19.1367958, 44.3131151], [19.1364248, 44.3134089], [19.1361604, 44.3136152], [19.1352438, 44.3145107], [19.1349643, 44.3148639], [19.1345187, 44.3152531], [19.1340278, 44.3155984], [19.1331303, 44.3161689], [19.1323615, 44.316861], [19.1317565, 44.3178556], [19.1315184, 44.3180879], [19.1310206, 44.3191254], [19.1305877, 44.3203719], [19.1301548, 44.3214636], [19.1299601, 44.3222068], [19.1297761, 44.3225552], [19.1297003, 44.3228494], [19.1297653, 44.3230662], [19.1301007, 44.3235772], [19.130144, 44.3239642], [19.1302306, 44.3247694], [19.1303063, 44.3252262], [19.1301981, 44.3255513], [19.1301981, 44.3257681], [19.130209, 44.3262403], [19.1300142, 44.3272622], [19.1299492, 44.3279047], [19.1299151, 44.3280686], [19.1298069, 44.3282428], [19.1297041, 44.3284092], [19.1295688, 44.3285989], [19.1295364, 44.328715], [19.1295472, 44.3288659], [19.1296771, 44.3294349], [19.1297853, 44.3297368], [19.130137, 44.330418], [19.1303372, 44.3306812], [19.1308891, 44.3313431], [19.1314194, 44.3319004], [19.1322851, 44.332361], [19.1340836, 44.333754], [19.1344853, 44.3338389], [19.1347111, 44.3339237], [19.1354151, 44.3344272], [19.1358704, 44.3348624], [19.1363525, 44.3351251], [19.1366853, 44.3354261], [19.1369225, 44.3359926], [19.1371751, 44.3365947], [19.1373051, 44.3372241], [19.1371215, 44.3381134], [19.1368307, 44.3385048], [19.1364366, 44.339011], [19.136253, 44.3391533], [19.1359622, 44.3391643], [19.1355643, 44.3393476], [19.135174, 44.3394051], [19.134757, 44.3395583], [19.1346116, 44.3397635], [19.134229, 44.3398757], [19.1336436, 44.3400509], [19.1332359, 44.3401959], [19.1330449, 44.3402407], [19.1321362, 44.3403526], [19.1318515, 44.3404268], [19.1313752, 44.3402547], [19.1309545, 44.3402761], [19.130594, 44.3403162], [19.1303339, 44.340377], [19.130006, 44.3404402], [19.1296803, 44.3404319], [19.1292946, 44.3404516], [19.1288347, 44.3404969], [19.1286724, 44.3405806], [19.1283803, 44.3406079], [19.1280843, 44.3406724], [19.1274137, 44.3406852], [19.1261642, 44.3407055], [19.1256901, 44.340724], [19.1252937, 44.3406608], [19.1248646, 44.3406617], [19.1228265, 44.3408156], [19.1216047, 44.3418462], [19.1183467, 44.3426105], [19.1173746, 44.3429179], [19.1172953, 44.3429454], [19.1160882, 44.3433878], [19.1156962, 44.3435365], [19.1153845, 44.3436601], [19.1147341, 44.3438215], [19.1141048, 44.3446045], [19.1138276, 44.3452482], [19.1134288, 44.346478], [19.112592, 44.3481036], [19.1113278, 44.3500389], [19.1101575, 44.3524547], [19.1096443, 44.3537501], [19.1095809, 44.3539124], [19.1093852, 44.3542916], [19.1092494, 44.354438], [19.108997, 44.3547103], [19.1089443, 44.3555089], [19.1089383, 44.3560806], [19.1089452, 44.3568133], [19.1093336, 44.3582485], [19.1096605, 44.3588411], [19.1102373, 44.3594527], [19.1111628, 44.3602088], [19.1121872, 44.3608629], [19.1123694, 44.3609496], [19.1127885, 44.3611491], [19.1134867, 44.3613021], [19.1143804, 44.3617146], [19.1158985, 44.3621408], [19.1168763, 44.3624377], [19.1176975, 44.3626672], [19.1184835, 44.3631399], [19.1194937, 44.3637433], [19.1198524, 44.3642285], [19.1201614, 44.3646485], [19.1201309, 44.3653437], [19.1201613, 44.366044], [19.1200109, 44.3666394], [19.1198892, 44.3671075], [19.1197433, 44.3673875], [19.1194797, 44.3676413], [19.1192365, 44.3678395], [19.1189064, 44.3680582], [19.1184755, 44.3683056], [19.1180408, 44.3684752], [19.117404, 44.3685837], [19.1165295, 44.3686033], [19.1159069, 44.3689405], [19.115178, 44.369197], [19.1142928, 44.3693756], [19.1139241, 44.3694869], [19.1124628, 44.3694693], [19.1117397, 44.3693793], [19.110941, 44.3693068], [19.1103818, 44.3689518], [19.1100333, 44.3688024], [19.1092329, 44.368168], [19.1092334, 44.3677162], [19.1089869, 44.367331], [19.1083436, 44.3669671], [19.1074143, 44.3666548], [19.1065174, 44.3668105], [19.105959, 44.3669941], [19.1057662, 44.3670575], [19.1057175, 44.3670926], [19.105273, 44.3674141], [19.1051892, 44.3674995], [19.1051304, 44.3675596], [19.1047808, 44.367916], [19.1044642, 44.3683288], [19.1041625, 44.3687607], [19.1036626, 44.3693402], [19.1035101, 44.3696853], [19.1033533, 44.3700236], [19.1027581, 44.3712512], [19.1026428, 44.372066], [19.1025923, 44.3728957], [19.1026514, 44.373722], [19.1027652, 44.3745403], [19.1032358, 44.3760021], [19.1034985, 44.3765583], [19.1035546, 44.3770072], [19.1036479, 44.377678], [19.1037444, 44.3781053], [19.1055261, 44.3804031], [19.1059555, 44.3810003], [19.1062568, 44.3814248], [19.1066092, 44.3820904], [19.1067831, 44.382471], [19.1069288, 44.3828367], [19.1070419, 44.3830991], [19.1071255, 44.3839082], [19.107037, 44.3841549], [19.1068444, 44.384609], [19.1063582, 44.3855584], [19.1063303, 44.3856447], [19.1061486, 44.386148], [19.1061949, 44.3866571], [19.1062817, 44.3871235], [19.1063976, 44.3876687], [19.1064317, 44.3879392], [19.1066501, 44.3883424], [19.1067465, 44.3887943], [19.106981, 44.3907342], [19.1069499, 44.3920469], [19.1069544, 44.3921048], [19.1069641, 44.392551], [19.1069773, 44.3929995], [19.1070712, 44.3934198], [19.1072059, 44.393818], [19.1073489, 44.3941976], [19.1077437, 44.3945509], [19.1081045, 44.395008], [19.1083032, 44.3952498], [19.1086006, 44.3956675], [19.1088937, 44.3960396], [19.1090261, 44.3961857], [19.1095135, 44.3967563], [19.109686, 44.3970042], [19.1101535, 44.3974586], [19.1107675, 44.3977608], [19.1123844, 44.398942], [19.1130191, 44.3994057], [19.1139023, 44.3999371], [19.1141832, 44.4001037], [19.1144267, 44.4002636], [19.1145261, 44.4003241], [19.1153937, 44.4008541], [19.1157586, 44.4010913], [19.116095, 44.4013425], [19.1168446, 44.4018948], [19.1174238, 44.4022954], [19.1183713, 44.4029309], [19.1190305, 44.4031224], [19.1193779, 44.4031944], [19.119652, 44.4032601], [19.1200383, 44.403345], [19.1203914, 44.4034374], [19.1209529, 44.4035968], [19.1215452, 44.4037603], [19.1221969, 44.4039499], [19.1225581, 44.4040558], [19.1230886, 44.4042207], [19.1235788, 44.4043672], [19.1239562, 44.4044833], [19.1243153, 44.404592], [19.1248671, 44.4047867], [19.1250081, 44.4048285], [19.1252971, 44.4049233], [19.1253925, 44.4049434], [19.1257369, 44.4050176], [19.1259977, 44.4050768], [19.1263464, 44.4051636], [19.1266995, 44.405244], [19.1273587, 44.4054025], [19.1276491, 44.4055021], [19.1280897, 44.4056579], [19.1290575, 44.4059986], [19.1297768, 44.4062322], [19.1299417, 44.4062941], [19.130334, 44.4064486], [19.130815, 44.4066247], [19.131804, 44.4069686], [19.1326672, 44.4073566], [19.1331791, 44.4074912], [19.1334497, 44.4075885], [19.1341419, 44.4078313], [19.1344308, 44.4079965], [19.134902, 44.4081738], [19.1352402, 44.4082707], [19.1354213, 44.4083289], [19.1364303, 44.4086513], [19.1368901, 44.408818], [19.1374256, 44.4090133], [19.1380429, 44.4092304], [19.1386733, 44.4094519], [19.1392597, 44.4096932], [19.1396273, 44.4098594], [19.1401132, 44.4100854], [19.1408332, 44.4103874], [19.1410989, 44.4105088], [19.1415485, 44.4107212], [19.1420153, 44.4109158], [19.1422946, 44.4110459], [19.142664, 44.4112219], [19.1429991, 44.4114069], [19.1435858, 44.4117175], [19.1442505, 44.4120504], [19.1452006, 44.4127525], [19.1455386, 44.4130522], [19.1455571, 44.4130703], [19.1458573, 44.4133962], [19.1458736, 44.4134154], [19.1461099, 44.4137208], [19.1461251, 44.4137404], [19.1464583, 44.4141776], [19.146472, 44.4141978], [19.1465711, 44.4143623], [19.1465834, 44.414383], [19.14669, 44.4145612], [19.1467036, 44.4145814], [19.1468502, 44.4147773], [19.1468646, 44.4147973], [19.1469645, 44.4149424], [19.1469748, 44.4149635], [19.1470055, 44.4150607], [19.1470123, 44.4150827], [19.1470668, 44.4152615], [19.1470719, 44.4152837], [19.1470955, 44.4154428], [19.1470973, 44.4154652], [19.1470989, 44.4155432], [19.1470991, 44.4155657], [19.1470986, 44.4157529], [19.1470978, 44.4157755], [19.1470945, 44.415823], [19.1470919, 44.4158454], [19.1470619, 44.4160225], [19.1470599, 44.4160449], [19.1470597, 44.4161171], [19.1470608, 44.4161395], [19.1470863, 44.4163874], [19.14709, 44.4164097], [19.147119, 44.4165351], [19.1471255, 44.4165571], [19.1471911, 44.4167393], [19.1472022, 44.4167602], [19.1472332, 44.4168038], [19.1472387, 44.4168236], [19.1472212, 44.4171063], [19.1472671, 44.4175818], [19.1473283, 44.4189372], [19.147466, 44.4195876], [19.147489, 44.4203309], [19.1474507, 44.4209539], [19.1476191, 44.4215497], [19.1475732, 44.4222492], [19.1476497, 44.42267], [19.1475196, 44.4238614], [19.1473206, 44.4251347], [19.1472059, 44.4256157], [19.1471829, 44.426419], [19.1471217, 44.4273207], [19.1471829, 44.4282934], [19.1472671, 44.4289327], [19.1475808, 44.4301458], [19.1476726, 44.430665], [19.1477645, 44.4309491], [19.1478104, 44.4312824], [19.1479787, 44.4314409], [19.1478793, 44.4316431], [19.1479787, 44.432042], [19.1480935, 44.432195], [19.1482083, 44.4329217], [19.1482925, 44.4330966], [19.1485909, 44.4344407], [19.1487746, 44.4347249], [19.1490959, 44.4359488], [19.1492107, 44.4362548], [19.1493179, 44.4366536], [19.149226, 44.4370525], [19.1490806, 44.4373967], [19.1490653, 44.4375224], [19.1487822, 44.4380633], [19.148545, 44.438637], [19.1484685, 44.439085], [19.1483154, 44.4394838], [19.1483078, 44.4396368], [19.1481853, 44.4401449], [19.147994, 44.440429], [19.1479328, 44.4407568], [19.1477933, 44.440793], [19.1474706, 44.440888], [19.1469536, 44.4415447], [19.146808, 44.4422647], [19.1463412, 44.4426034], [19.1455989, 44.4428056], [19.1454612, 44.4432426], [19.1453005, 44.4437398], [19.1451092, 44.4440785], [19.1449408, 44.4443243], [19.1446654, 44.4446084], [19.1444817, 44.445264], [19.1440685, 44.445701], [19.1440608, 44.4464276], [19.1439154, 44.4472579], [19.1438772, 44.4480282], [19.1439384, 44.4484434], [19.1440302, 44.4492136], [19.1443516, 44.4500658], [19.1448567, 44.4506448], [19.1435405, 44.450836], [19.1435099, 44.4509999], [19.1434525, 44.4511392], [19.1434066, 44.4513249], [19.1433071, 44.4514724], [19.1429895, 44.4516035], [19.1428747, 44.4517373], [19.1427447, 44.4517591], [19.1426355, 44.4517801], [19.1425466, 44.4518904], [19.1424904, 44.4519365], [19.1424386, 44.4520049], [19.1423468, 44.4521197], [19.1422894, 44.4522125], [19.1421248, 44.45239], [19.1420062, 44.4525375], [19.1416695, 44.4527205], [19.1412448, 44.452939], [19.1411607, 44.4530291], [19.140824, 44.4532422], [19.1408048, 44.4532968], [19.1403381, 44.453346], [19.1398942, 44.4534852], [19.1392974, 44.4535508], [19.139152, 44.4535617], [19.1389836, 44.4536136], [19.1387694, 44.453813], [19.1385475, 44.4539277], [19.1383638, 44.4541352], [19.1382605, 44.4541462], [19.137985, 44.454422], [19.1377937, 44.4545039], [19.1377555, 44.4545558], [19.1374417, 44.4547224], [19.1372428, 44.4548644], [19.1370094, 44.4549873], [19.1367607, 44.4553096], [19.1366038, 44.4555117], [19.1363896, 44.4559951], [19.1362671, 44.4565904], [19.1362595, 44.4569154], [19.1361983, 44.4572759], [19.1362518, 44.4575108], [19.1362901, 44.4576501], [19.1363704, 44.4579668], [19.136424, 44.4583656], [19.1364661, 44.4586823], [19.1366268, 44.4589199], [19.1370629, 44.4591657], [19.1373729, 44.4593159], [19.137656, 44.4594033], [19.1379697, 44.4595098], [19.1381878, 44.4597173], [19.138425, 44.4600423], [19.1385436, 44.4603154], [19.1385934, 44.4607059], [19.1385704, 44.4610008], [19.1385283, 44.4612657], [19.1384939, 44.461618], [19.1385475, 44.4618392], [19.1385054, 44.4620085], [19.1392553, 44.4632618], [19.1392668, 44.4633984], [19.1392974, 44.4634666], [19.1392974, 44.4635486], [19.1393509, 44.4637752], [19.1393968, 44.4640374], [19.1394504, 44.4641903], [19.1394466, 44.4646435], [19.1394848, 44.4651159], [19.139592, 44.4655173], [19.1396494, 44.4657112], [19.13968, 44.4659515], [19.1397068, 44.4662983], [19.1397909, 44.4666751], [19.1392974, 44.4673987], [19.1409655, 44.4685673], [19.1408584, 44.4689004], [19.1409464, 44.4693236], [19.140912, 44.4695775], [19.1409732, 44.4699025], [19.1408622, 44.4702519], [19.1407245, 44.470869], [19.1407092, 44.4711311], [19.1404528, 44.4719502], [19.1402386, 44.4724116], [19.1400626, 44.4727474], [19.1399899, 44.4729822], [19.1393193, 44.4739907], [19.1377105, 44.475903], [19.1373978, 44.4761979], [19.1373783, 44.4762157], [19.1370157, 44.4765365], [19.1369971, 44.4765546], [19.1366425, 44.4769431], [19.1366258, 44.4769622], [19.1362787, 44.4773755], [19.1362621, 44.4773946], [19.135766, 44.4779635], [19.1357502, 44.4779828], [19.1355501, 44.4782451], [19.1355351, 44.4782648], [19.1353411, 44.4785184], [19.1353261, 44.4785381], [19.1350794, 44.4788642], [19.1350647, 44.4788842], [19.1347984, 44.4792543], [19.134784, 44.4792744], [19.1345589, 44.4796041], [19.1345475, 44.479625], [19.13429, 44.4802506], [19.1342814, 44.4802721], [19.1342592, 44.4803261], [19.1342512, 44.4803479], [19.1342023, 44.4804963], [19.1341948, 44.4805182], [19.1340921, 44.4808157], [19.1340848, 44.4808376], [19.1339609, 44.4812147], [19.1339545, 44.4812369], [19.1338568, 44.481641], [19.1338536, 44.4816632], [19.1338455, 44.4818189], [19.1338447, 44.4818415], [19.1338343, 44.4822146], [19.1338336, 44.482237], [19.1338146, 44.4827228], [19.1338138, 44.4827453], [19.1338069, 44.4830683], [19.133806, 44.4830907], [19.1337945, 44.4832694], [19.1337929, 44.483292], [19.1337597, 44.4838146], [19.1337599, 44.483837], [19.1338174, 44.4845187], [19.1338213, 44.4845409], [19.133916, 44.4849104], [19.1339217, 44.4849325], [19.1340168, 44.4852963], [19.1340173, 44.4853185], [19.1339533, 44.4856254], [19.1339488, 44.4856477], [19.1339392, 44.4856978], [19.1339358, 44.4857201], [19.1339281, 44.4857829], [19.1339259, 44.4858053], [19.1339187, 44.4858829], [19.1339166, 44.4859053], [19.1339054, 44.4860203], [19.1339022, 44.4860426], [19.1338875, 44.4861184], [19.1338831, 44.4861406], [19.1338062, 44.4865418], [19.1338007, 44.486564], [19.1337253, 44.4868175], [19.1337197, 44.4868396], [19.1336391, 44.4872385], [19.1336362, 44.487261], [19.1336067, 44.4877321], [19.1336057, 44.4877546], [19.1335905, 44.488232], [19.1335896, 44.4882546], [19.1335805, 44.488477], [19.1335776, 44.4884994], [19.1334683, 44.4889821], [19.1334624, 44.4890042], [19.1333422, 44.4894086], [19.1333344, 44.4894303], [19.1331088, 44.4899781], [19.1330986, 44.4899993], [19.1326183, 44.490865], [19.1326054, 44.4908855], [19.1324428, 44.4911203], [19.1324279, 44.49114], [19.1315019, 44.492282], [19.1314857, 44.4923011], [19.1312402, 44.4925785], [19.1310217, 44.4928255], [19.1310044, 44.4928442], [19.1308239, 44.4930323], [19.1308057, 44.4930506], [19.1305766, 44.4932685], [19.1305568, 44.4932858], [19.1301215, 44.493643], [19.1300995, 44.4936591], [19.1292163, 44.49424], [19.1291936, 44.4942555], [19.1283537, 44.494863], [19.1283327, 44.4948795], [19.1277967, 44.4953374], [19.127778, 44.4953555], [19.127473, 44.4956871], [19.1274541, 44.495705], [19.1271425, 44.4959644], [19.127123, 44.495982], [19.1267925, 44.4963093], [19.126775, 44.4963281], [19.1265819, 44.496558], [19.1265652, 44.4965772], [19.1262123, 44.4969609], [19.1261952, 44.4969798], [19.1257458, 44.4974907], [19.1257299, 44.4975102], [19.1253498, 44.4980095], [19.1253322, 44.498028], [19.1252568, 44.4980919], [19.1252382, 44.4981099], [19.1249292, 44.4984581], [19.1249055, 44.4984702], [19.1245708, 44.4985273], [19.1245452, 44.4985384], [19.1240875, 44.4989111], [19.124067, 44.4989281], [19.1237967, 44.4991558], [19.1237775, 44.4991736], [19.1234821, 44.4994683], [19.1234678, 44.499488], [19.1232665, 44.4999038], [19.1232559, 44.499925], [19.1232149, 44.5000056], [19.1232061, 44.5000272], [19.1230498, 44.5005357], [19.1230474, 44.500558], [19.1231409, 44.5009021], [19.1230423, 44.5012629], [19.1230399, 44.5012852], [19.1229762, 44.5018208], [19.1229763, 44.5018432], [19.1230346, 44.5023427], [19.1230377, 44.5023651], [19.123179, 44.5032701], [19.1231841, 44.5032923], [19.1233518, 44.5038532], [19.1233596, 44.5038749], [19.1235458, 44.5043208], [19.1235533, 44.5043426], [19.1236517, 44.5047135], [19.1236603, 44.5047351], [19.1238267, 44.5050411], [19.1238394, 44.5050616], [19.1241449, 44.505491], [19.1241575, 44.5055117], [19.1243174, 44.5058119], [19.124329, 44.5058327], [19.1245227, 44.5061688], [19.1245308, 44.50619], [19.1246845, 44.5065302], [19.1246936, 44.5065516], [19.1248908, 44.5070305], [19.1249007, 44.5070518], [19.1251726, 44.507571], [19.1251842, 44.5075919], [19.1254008, 44.5079701], [19.1254181, 44.5079883], [19.1261102, 44.5084674], [19.1261157, 44.5084855], [19.1259113, 44.5088528], [19.1259043, 44.5088744], [19.125867, 44.5092282], [19.1258639, 44.5092506], [19.1258349, 44.5094201], [19.1258361, 44.5094423], [19.1259356, 44.5097905], [19.1259395, 44.5098127], [19.125954, 44.5100484], [19.1259577, 44.5100707], [19.1260162, 44.5102775], [19.1260278, 44.510298], [19.126184, 44.5104758], [19.1261978, 44.5104957], [19.1263434, 44.5107807], [19.1263518, 44.5108024], [19.1264366, 44.5111181], [19.1264554, 44.5111882], [19.1264633, 44.51121], [19.1265482, 44.5113993], [19.1265572, 44.5114208], [19.1267044, 44.5117978], [19.1267096, 44.5118199], [19.126731, 44.5120622], [19.1267331, 44.5120847], [19.1267699, 44.5124404], [19.1267733, 44.5124628], [19.1268521, 44.5128387], [19.1268578, 44.5128608], [19.1268876, 44.5129582], [19.1268924, 44.5129803], [19.1269089, 44.5131126], [19.1269153, 44.5131345], [19.1270927, 44.5135161], [19.1271007, 44.5135378], [19.1272119, 44.5139457], [19.1272191, 44.5139675], [19.1273593, 44.5143293], [19.1273667, 44.5143512], [19.1274581, 44.5146801], [19.1274643, 44.5147021], [19.127574, 44.5150932], [19.1275752, 44.5151154], [19.1273843, 44.5161924], [19.127385, 44.5162146], [19.1275605, 44.516939], [19.1275632, 44.5169613], [19.1275633, 44.5173361], [19.1275665, 44.5173584], [19.1276883, 44.517773], [19.1276949, 44.517795], [19.1278323, 44.5182359], [19.1278411, 44.5182575], [19.1279125, 44.5183976], [19.1279245, 44.5184185], [19.1281013, 44.5186911], [19.1281102, 44.5187124], [19.1282242, 44.5192749], [19.1282706, 44.519504], [19.1282771, 44.519526], [19.1283852, 44.5198079], [19.128394, 44.5198295], [19.128432, 44.5199166], [19.1284432, 44.5199376], [19.1287171, 44.5203639], [19.1287309, 44.5203842], [19.1289331, 44.5206671], [19.1289478, 44.520687], [19.1292015, 44.5210135], [19.1292172, 44.5210329], [19.1293328, 44.5211706], [19.1293503, 44.5211893], [19.1296648, 44.5214952], [19.1296833, 44.5215135], [19.1297748, 44.5216054], [19.1297932, 44.5216235], [19.1303055, 44.5221168], [19.1303249, 44.5221344], [19.1304739, 44.5222623], [19.1304952, 44.5222789], [19.130927, 44.5225784], [19.1309502, 44.5225935], [19.1313409, 44.5228298], [19.1313667, 44.5228425], [19.1317871, 44.5230135], [19.1318153, 44.5230233], [19.1319949, 44.5230748], [19.1320252, 44.5230793], [19.132371, 44.5230879], [19.1324024, 44.5230884], [19.1326128, 44.5230903], [19.1326441, 44.523089], [19.1327473, 44.5230794], [19.1327783, 44.5230756], [19.1330115, 44.5230411], [19.1330375, 44.5230471], [19.1331908, 44.5231659], [19.133215, 44.5231798], [19.1335296, 44.523312], [19.1335574, 44.5233225], [19.1341262, 44.5235123], [19.1341553, 44.5235207], [19.1342295, 44.5235385], [19.1342592, 44.5235457], [19.134578, 44.5236265], [19.1346072, 44.5236347], [19.1349944, 44.5237513], [19.1350242, 44.5237587], [19.1354048, 44.5238353], [19.135435, 44.5238415], [19.1359635, 44.5239527], [19.1359938, 44.5239586], [19.1364045, 44.5240304], [19.1364352, 44.5240349], [19.1371842, 44.5241275], [19.1372147, 44.5241327], [19.1377078, 44.5242431], [19.1377383, 44.5242484], [19.1381811, 44.5243056], [19.1382118, 44.5243104], [19.1387928, 44.5244202], [19.1388234, 44.5244251], [19.1393634, 44.5244958], [19.1393941, 44.5245004], [19.1398467, 44.5245781], [19.1398773, 44.5245827], [19.1399597, 44.5245933], [19.1404377, 44.5246548], [19.1404681, 44.5246604], [19.1405293, 44.5246751], [19.1405543, 44.5246872], [19.1413333, 44.5253533], [19.141354, 44.5253703], [19.1416811, 44.5256265], [19.1417017, 44.5256435], [19.1420143, 44.5259196], [19.1420365, 44.5259354], [19.1424062, 44.5261482], [19.1424283, 44.5261641], [19.1426744, 44.5263835], [19.1426941, 44.5264012], [19.14298, 44.5266586], [19.1430039, 44.5266723], [19.1433716, 44.5268003], [19.143401, 44.5268081], [19.1439956, 44.5269206], [19.1440265, 44.5269232], [19.1449447, 44.5269033], [19.1449759, 44.526901], [19.1454023, 44.5268427], [19.1454332, 44.5268385], [19.1459059, 44.5267703], [19.1459365, 44.5267652], [19.1462253, 44.5267111], [19.1462557, 44.5267056], [19.1463838, 44.5266838], [19.1464139, 44.5266775], [19.1469608, 44.52654], [19.1469893, 44.5265309], [19.1473373, 44.5263933], [19.1473668, 44.5263891], [19.1476097, 44.5264078], [19.1476378, 44.5264022], [19.1477637, 44.5263332], [19.1477873, 44.5263184], [19.1481488, 44.5260601], [19.1481694, 44.5260432], [19.1483694, 44.5258504], [19.1483875, 44.525832], [19.1485349, 44.5256743], [19.1485573, 44.5256595], [19.1488369, 44.525548], [19.1488618, 44.5255346], [19.1490444, 44.525404], [19.1490649, 44.5253869], [19.1492792, 44.5251791], [19.1492994, 44.525162], [19.1495877, 44.5249481], [19.14961, 44.5249323], [19.1500286, 44.5246487], [19.1500516, 44.5246333], [19.1501719, 44.5245534], [19.1501954, 44.5245384], [19.1503951, 44.5244145], [19.1504189, 44.5243998], [19.1507631, 44.5241865], [19.1507876, 44.5241724], [19.1509957, 44.5240604], [19.1510236, 44.5240508], [19.1511369, 44.5240304], [19.151615, 44.5239444], [19.1516434, 44.5239478], [19.1518048, 44.524023], [19.1518337, 44.5240284], [19.152024, 44.5240199], [19.1520554, 44.5240194], [19.1525149, 44.5240243], [19.1525448, 44.5240293], [19.1527911, 44.524114], [19.1528199, 44.5241229], [19.1529621, 44.5241617], [19.1529896, 44.5241723], [19.1531384, 44.5242473], [19.1532944, 44.524326], [19.1533141, 44.5243426], [19.1535448, 44.524683], [19.1535594, 44.5247029], [19.153902, 44.5251351], [19.1539176, 44.5251547], [19.1540469, 44.5253148], [19.1540665, 44.5253321], [19.1543128, 44.5254885], [19.1543362, 44.5255035], [19.1545622, 44.5256476], [19.1545891, 44.5256582], [19.1547214, 44.5256853], [19.1547513, 44.5256848], [19.1550113, 44.5256214], [19.1550417, 44.5256159], [19.1553926, 44.5255763], [19.1554134, 44.5255639], [19.1555055, 44.5253749], [19.1555246, 44.5253589], [19.1556776, 44.5252998], [19.1556987, 44.5252917], [19.1557211, 44.5252769], [19.1558176, 44.5251698], [19.1558349, 44.5251511], [19.1561186, 44.5248527], [19.1561369, 44.5248344], [19.1563493, 44.5246343], [19.1563685, 44.5246165], [19.1566045, 44.5244009], [19.1566503, 44.5243591], [19.1566704, 44.5243419], [19.1570968, 44.5240009], [19.1571226, 44.5239904], [19.1578594, 44.5238845], [19.1578904, 44.5238841], [19.1584327, 44.5239465], [19.1584631, 44.5239522], [19.1588308, 44.5240457], [19.1588599, 44.5240542], [19.1589323, 44.524078], [19.1594931, 44.5242628], [19.1595226, 44.5242705], [19.1596182, 44.5242891], [19.1596476, 44.5242969], [19.1598552, 44.5243695], [19.159885, 44.5243742], [19.1599912, 44.524372], [19.160022, 44.5243686], [19.1603406, 44.5243044], [19.1603694, 44.5242957], [19.1607266, 44.5241482], [19.1607549, 44.5241386], [19.1611145, 44.5240431], [19.1611431, 44.5240339], [19.1613483, 44.5239558], [19.1613759, 44.523945], [19.161711, 44.5238111], [19.1617397, 44.5238018], [19.1618866, 44.5237637], [19.1619116, 44.5237513], [19.1620617, 44.5236257], [19.1620861, 44.5236124], [19.1626592, 44.523423], [19.1626892, 44.5234183], [19.162946, 44.5234174], [19.1629775, 44.5234176], [19.1634914, 44.5234262], [19.1635013, 44.523416], [19.1633188, 44.5230954], [19.1633108, 44.5230738], [19.1633097, 44.5230678], [19.1631786, 44.522358], [19.1631339, 44.5221156], [19.1631455, 44.5221101], [19.1635234, 44.5222677], [19.1647224, 44.5227679], [19.1647489, 44.52278], [19.1650458, 44.522925], [19.1650717, 44.5229377], [19.165632, 44.5232119], [19.1656597, 44.5232221], [19.1657098, 44.5232352], [19.1661363, 44.5233464], [19.166165, 44.5233557], [19.1669626, 44.5236622], [19.1669911, 44.5236717], [19.167554, 44.5238335], [19.1675812, 44.5238445], [19.1678926, 44.5240108], [19.1679142, 44.5240268], [19.1682202, 44.5243453], [19.168242, 44.524361], [19.1687736, 44.5246225], [19.1687983, 44.5246364], [19.1692447, 44.5249236], [19.1692678, 44.524939], [19.1697537, 44.5252721], [19.1697735, 44.5252893], [19.169954, 44.5254926], [19.1699742, 44.5255095], [19.1702445, 44.5256815], [19.1702668, 44.5256973], [19.1705669, 44.5259321], [19.1705888, 44.5259484], [19.1706388, 44.5259834], [19.17066, 44.526], [19.1710141, 44.5263093], [19.171031, 44.5263281], [19.1712724, 44.5266736], [19.171289, 44.5266926], [19.1714722, 44.5268625], [19.1714898, 44.5268811], [19.1719394, 44.5274257], [19.1719573, 44.5274443], [19.1725264, 44.527958], [19.1725436, 44.5279767], [19.1728241, 44.5283597], [19.17284, 44.528379], [19.1730715, 44.5286337], [19.1730892, 44.5286523], [19.1738216, 44.5293823], [19.1738373, 44.5294017], [19.1741117, 44.5298306], [19.1741255, 44.5298508], [19.1745158, 44.5303912], [19.1745296, 44.5304114], [19.1745744, 44.5304823], [19.1745864, 44.5305031], [19.1748731, 44.5310503], [19.1748786, 44.5310608], [19.1755298, 44.5318086], [19.1756445, 44.5321626], [19.175527, 44.5326432], [19.1754687, 44.532912], [19.1754237, 44.5332118], [19.1754276, 44.5333305], [19.1754544, 44.5337451], [19.175485, 44.5339469], [19.175615, 44.5343151], [19.1757528, 44.5346014], [19.1760244, 44.5351687], [19.1761813, 44.5355996], [19.1763726, 44.5360087], [19.1766787, 44.5364533], [19.1770957, 44.5368814], [19.1777844, 44.537566], [19.1782053, 44.5380705], [19.1784923, 44.5383459], [19.1788672, 44.5387359], [19.1792689, 44.5391695], [19.1794866, 44.5395796], [19.1796018, 44.5398377], [19.1797625, 44.5400286], [19.1800839, 44.5402849], [19.1805086, 44.5405222], [19.1806999, 44.5405903], [19.180983, 44.540784], [19.1811935, 44.540934], [19.1813197, 44.5411085], [19.181775, 44.5413212], [19.1819969, 44.5415884], [19.1823413, 44.5418066], [19.1828846, 44.5423465], [19.1830912, 44.5424829], [19.1835235, 44.5425811], [19.1839788, 44.5428483], [19.1841472, 44.5429737], [19.1845221, 44.5431319], [19.1848741, 44.5433991], [19.1859964, 44.544099], [19.1863589, 44.5442995], [19.1872138, 44.5448124], [19.187809, 44.5452212], [19.1882748, 44.5454838], [19.1888211, 44.5458067], [19.1891239, 44.545977], [19.1892754, 44.5461544], [19.1895135, 44.5462817], [19.1896325, 44.5464214], [19.1898085, 44.5465414], [19.1899348, 44.546705], [19.1901567, 44.5467814], [19.1904895, 44.5480411], [19.1905393, 44.5481911], [19.1905852, 44.548491], [19.1908874, 44.5491672], [19.1912356, 44.5497453], [19.1914346, 44.5501188], [19.1916259, 44.5505496], [19.1918248, 44.5511113], [19.191997, 44.5516566], [19.1920468, 44.5518093], [19.1920429, 44.5518679], [19.1920142, 44.5519333], [19.1920525, 44.5519688], [19.1920066, 44.5521637], [19.1920066, 44.552191], [19.1919588, 44.5523614], [19.1918975, 44.5526545], [19.1917904, 44.5531344], [19.1917005, 44.5534411], [19.191425, 44.5546543], [19.1916967, 44.5546189], [19.1920142, 44.554638], [19.1922094, 44.5546871], [19.1919798, 44.5548697], [19.1920372, 44.5550251], [19.1911993, 44.5551424], [19.190656, 44.5557095], [19.1902236, 44.5559494], [19.1892059, 44.5564374], [19.1881269, 44.5569663], [19.1868796, 44.5576424], [19.1856591, 44.5585175], [19.1847983, 44.5592836], [19.1845381, 44.5595698], [19.1843774, 44.5597825], [19.1843047, 44.5599351], [19.1842779, 44.5600142], [19.1842129, 44.5600633], [19.1840943, 44.5600987], [19.1839336, 44.5601423], [19.1837882, 44.560205], [19.1834132, 44.5603931], [19.1829541, 44.5607502], [19.182537, 44.5611346], [19.1823113, 44.5614181], [19.1822003, 44.5617153], [19.1834575, 44.5626807], [19.1832219, 44.5627893], [19.1830612, 44.5628711], [19.1827092, 44.5629311], [19.1826557, 44.563201], [19.1824146, 44.5634654], [19.1823917, 44.5638606], [19.1820511, 44.5642395], [19.1818598, 44.5645585], [19.1818177, 44.5647411], [19.1817795, 44.5649646], [19.1817374, 44.56509], [19.1817412, 44.5654199], [19.1817489, 44.5655562], [19.1818904, 44.5659351], [19.1818943, 44.5660495], [19.1818751, 44.5661204], [19.1819134, 44.5664366], [19.1819746, 44.5668182], [19.1820473, 44.5668591], [19.1821085, 44.5671862], [19.1821353, 44.5672789], [19.1821277, 44.567636], [19.1822539, 44.5681539], [19.1822157, 44.5685055], [19.1822769, 44.5687181], [19.182296, 44.5688026], [19.1823151, 44.5690779], [19.1824682, 44.569435], [19.1825753, 44.5697975], [19.182583, 44.5699637], [19.1827322, 44.5702963], [19.1827207, 44.5703862], [19.1828546, 44.5705688], [19.1828661, 44.570667], [19.1829541, 44.5707951], [19.1829464, 44.5709014], [19.1830497, 44.5711957], [19.1831377, 44.5714356], [19.1831416, 44.5716346], [19.1832334, 44.5719289], [19.1833443, 44.5721715], [19.1834003, 44.5723624], [19.1836309, 44.5731154], [19.1824096, 44.5733879], [19.1822513, 44.5734613], [19.1820459, 44.573461], [19.1816551, 44.5735575], [19.1815037, 44.574766], [19.1808629, 44.5749779], [19.1808897, 44.5755167], [19.1817319, 44.5757995], [19.1825795, 44.5759638], [19.1826707, 44.5766057], [19.1820109, 44.5768159], [19.1817588, 44.5760402], [19.1809187, 44.5761674], [19.1807556, 44.5762236], [19.1805786, 44.5765064], [19.1799617, 44.5768235], [19.1791677, 44.5769955], [19.1790229, 44.5770987], [19.17836, 44.5775067], [19.1782343, 44.5777826], [19.1778345, 44.578202], [19.1776872, 44.5783864], [19.1776872, 44.5788067], [19.1774858, 44.5790674], [19.1773331, 44.5799682], [19.1770542, 44.5802357], [19.1771828, 44.5806091], [19.1750184, 44.5820391], [19.1746482, 44.5820086], [19.172548, 44.5825015], [19.1714752, 44.5828453], [19.171226, 44.5829071], [19.17, 44.5836286], [19.1694635, 44.5836018], [19.1681335, 44.5841201], [19.1672319, 44.5845111], [19.1661054, 44.5850384], [19.1657674, 44.5855542], [19.1657835, 44.5858025], [19.1660839, 44.5859553], [19.1663736, 44.5859973], [19.1669422, 44.5862036], [19.1670549, 44.586387], [19.1665345, 44.5864978], [19.1664755, 44.5869104], [19.1660571, 44.5871741], [19.1657728, 44.5872008], [19.1655528, 44.5874873], [19.1655153, 44.5879076], [19.1655636, 44.588068], [19.1668564, 44.5888054], [19.1676128, 44.5889314], [19.168466, 44.5893422], [19.1687769, 44.5894319], [19.1692167, 44.5895236], [19.168852, 44.5897719], [19.1681653, 44.5900584], [19.1680688, 44.5904825], [19.1682726, 44.5908568], [19.1682351, 44.5910937], [19.1687207, 44.5920277], [19.1684335, 44.5921557], [19.1685569, 44.592595], [19.1688037, 44.5928242], [19.1693509, 44.5932635], [19.1698633, 44.5938993], [19.1689485, 44.593848], [19.1684043, 44.5940806], [19.1682458, 44.5947304], [19.1679454, 44.5948603], [19.1673851, 44.5948235], [19.1660464, 44.5957618], [19.1660464, 44.5962813], [19.1656387, 44.5964876], [19.1654241, 44.5965028], [19.1653275, 44.5963195], [19.1653705, 44.5960215], [19.1653061, 44.5957618], [19.1646731, 44.5958382], [19.1640401, 44.5963195], [19.163965, 44.5968161], [19.1634607, 44.5971828], [19.1637075, 44.5976259], [19.1633427, 44.5976641], [19.162935, 44.5975571], [19.162375, 44.5971345], [19.1613793, 44.5972744], [19.1607678, 44.5976641], [19.1608965, 44.5981606], [19.1607571, 44.5986495], [19.1597056, 44.5987947], [19.1596413, 44.5985502], [19.1591048, 44.5980002], [19.1589653, 44.5977405], [19.1585469, 44.5975877], [19.1581392, 44.5978092], [19.1578238, 44.5982269], [19.1583967, 44.5987183], [19.1581392, 44.5989398], [19.1573024, 44.5992989], [19.1568088, 44.5992607], [19.1563193, 44.5990042], [19.1556287, 44.5993906], [19.1547596, 44.5994211], [19.1546094, 44.599635], [19.1546631, 44.5998566], [19.1546309, 44.6000093], [19.1543841, 44.600101], [19.1541052, 44.5999864], [19.1533327, 44.5994899], [19.1526782, 44.5995052], [19.1523886, 44.5996961], [19.1521525, 44.6000093], [19.1513693, 44.6002309], [19.1512298, 44.6009031], [19.1509509, 44.6011705], [19.1499638, 44.6012392], [19.1496834, 44.601229], [19.1493701, 44.6012177], [19.1490304, 44.6014379], [19.1489875, 44.6018504], [19.1495776, 44.602049], [19.1493952, 44.6021636], [19.1485476, 44.6022323], [19.1478073, 44.6024538], [19.1477752, 44.6023698], [19.1474686, 44.602203], [19.1465092, 44.6023393], [19.1454255, 44.6021483], [19.1449857, 44.6023087], [19.1440952, 44.6023087], [19.1439879, 44.6020337], [19.1429868, 44.601819], [19.1422391, 44.6015906], [19.1416168, 44.6020031], [19.1414022, 44.6025455], [19.1411447, 44.6025761], [19.140619, 44.6026906], [19.1405225, 44.6028205], [19.1406566, 44.6030955], [19.1403991, 44.6032292], [19.1401255, 44.6030497], [19.1399217, 44.6031108], [19.1397765, 44.6036425], [19.1395032, 44.6042795], [19.1391706, 44.6045774], [19.1389775, 44.604776], [19.1389024, 44.6047531], [19.1388059, 44.6045316], [19.138602, 44.6043712], [19.1384196, 44.6043941], [19.1382587, 44.6045621], [19.1377759, 44.6049288], [19.1371536, 44.6059218], [19.1364319, 44.6069537], [19.1356408, 44.6075494], [19.1354477, 44.6092291], [19.1352332, 44.6092368], [19.1347504, 44.6089618], [19.1344392, 44.6092139], [19.1346645, 44.6099089], [19.1345088, 44.6100353], [19.1341281, 44.6103443], [19.1336238, 44.6104359], [19.1328084, 44.6106918], [19.1322935, 44.6111615], [19.1309017, 44.6113357], [19.1289949, 44.6120785], [19.1277552, 44.6124408], [19.1272294, 44.6130442], [19.1243541, 44.6130824], [19.1233349, 44.612838], [19.1223371, 44.6128342], [19.12178, 44.6130885], [19.1208887, 44.6130938], [19.1205561, 44.6131931], [19.1203952, 44.6134528], [19.120363, 44.613659], [19.1201591, 44.6137659], [19.1195369, 44.6135674], [19.1187054, 44.6134299], [19.1175306, 44.6133077], [19.1165543, 44.6133764], [19.1155565, 44.6135253], [19.1152829, 44.6138805], [19.114843, 44.6141898], [19.1141993, 44.6144609], [19.1137648, 44.6144036], [19.1136575, 44.6138194], [19.1134858, 44.6136743], [19.1132247, 44.6134761], [19.1128313, 44.6135521], [19.1128099, 44.6136896], [19.1114581, 44.6139187], [19.1110289, 44.6134757], [19.1109645, 44.6132619], [19.1105997, 44.6128876], [19.1100097, 44.6128494], [19.1089475, 44.6128265], [19.1079819, 44.6132008], [19.1074026, 44.6129487], [19.1068038, 44.6129377], [19.106437, 44.6129716], [19.1059542, 44.6132466], [19.1048276, 44.613216], [19.1041512, 44.6127716], [19.10339, 44.6125745], [19.1029823, 44.6125974], [19.1018236, 44.6118871], [19.1013944, 44.6118489], [19.1007078, 44.6113907], [19.0995598, 44.6114441], [19.0990958, 44.6112672], [19.0969368, 44.6097799], [19.0936219, 44.607628], [19.0927577, 44.6081522], [19.0919101, 44.6080682], [19.0917492, 44.6084042], [19.091084, 44.6084119], [19.0909829, 44.6081818], [19.0892601, 44.6079001], [19.0873396, 44.6070446], [19.0877259, 44.6066627], [19.0876722, 44.6059676], [19.087327, 44.6057548], [19.0844536, 44.6058454], [19.0839922, 44.6055399], [19.0832627, 44.6055551], [19.082061, 44.6049288], [19.0816104, 44.6042719], [19.0815782, 44.6039281], [19.0812886, 44.603676], [19.0812886, 44.6034545], [19.081043, 44.6031406], [19.0797543, 44.6027479], [19.0793932, 44.6029505], [19.0788927, 44.6030579], [19.0785823, 44.6030845], [19.0784949, 44.6030584], [19.0782293, 44.6028458], [19.0779565, 44.602666], [19.0774473, 44.6023629], [19.0785022, 44.6018509], [19.0787579, 44.6016567], [19.0789394, 44.6013831], [19.078981, 44.6010998], [19.0790233, 44.6008432], [19.0790638, 44.5999132], [19.0771365, 44.5984509], [19.0767503, 44.598344], [19.0757218, 44.5973657], [19.0755165, 44.5967091], [19.0755379, 44.5961896], [19.0759134, 44.5953569], [19.0759456, 44.5940657], [19.0762798, 44.5933398], [19.0761378, 44.5926142], [19.0751517, 44.5917202], [19.0744007, 44.5903831], [19.0739759, 44.5891866], [19.0739171, 44.5890405], [19.071933, 44.5882514], [19.0702164, 44.5877242], [19.0694728, 44.5876748], [19.0674376, 44.5863947], [19.0647576, 44.5854], [19.0644601, 44.5835853], [19.0610857, 44.5832783], [19.0601689, 44.583154], [19.0593916, 44.5829518], [19.0590515, 44.5827801], [19.0578039, 44.5823612], [19.0571122, 44.5822561], [19.0565106, 44.5821816], [19.0560546, 44.5822111], [19.0544766, 44.5825725], [19.0532623, 44.5831371], [19.0525405, 44.5834629], [19.0518522, 44.5837731], [19.0515032, 44.583837], [19.0508733, 44.5840305], [19.050667, 44.5841331], [19.0504813, 44.5842885], [19.0502493, 44.5845302], [19.0498443, 44.5848488], [19.0494428, 44.5851302], [19.0494521, 44.5846935], [19.049786, 44.5833834], [19.0499134, 44.5792815], [19.0498449, 44.5775297], [19.0474257, 44.5746464], [19.0471727, 44.5735539], [19.0474099, 44.5725965], [19.0491018, 44.5697917], [19.0473467, 44.5591461], [19.0470977, 44.5579818], [19.0468407, 44.5567801], [19.043789, 44.5496704], [19.0408323, 44.5442164], [19.0364366, 44.5424584], [19.0307935, 44.540493], [19.0285713, 44.5394742], [19.0279983, 44.538751], [19.0337143, 44.5310683], [19.0323224, 44.5283802], [19.0335103, 44.5271348], [19.0352684, 44.5258316], [19.0367104, 44.5243001], [19.0374207, 44.5235458], [19.0373005, 44.5224836], [19.0371719, 44.5212859], [19.0369176, 44.5189023], [19.0367722, 44.5174674], [19.0365234, 44.5151036], [19.0361545, 44.5133496], [19.0359504, 44.5118408], [19.0358023, 44.510898], [19.0354054, 44.5083166], [19.0353607, 44.5077904], [19.035165, 44.5055159], [19.0352489, 44.5035264], [19.0350253, 44.5023582], [19.0340386, 44.5015348], [19.033555, 44.501176], [19.0324118, 44.5003925], [19.031263, 44.4994934], [19.0310422, 44.4987358], [19.0307431, 44.4981098], [19.0305139, 44.4977569], [19.0291024, 44.4957432], [19.0281408, 44.4949955], [19.0271122, 44.4944951], [19.0263799, 44.4943216], [19.0250801, 44.4943934], [19.0234813, 44.4950274], [19.0227927, 44.4952311], [19.0217427, 44.4955418], [19.0208623, 44.4955219], [19.0201998, 44.4956953], [19.0185283, 44.4958309], [19.0165214, 44.4952946], [19.0156577, 44.4945748], [19.0139387, 44.4921623], [19.0120716, 44.489622], [19.0110625, 44.4883737], [19.0093882, 44.4863059], [19.0094329, 44.4857356], [19.0097572, 44.4853826], [19.0108333, 44.484224], [19.0117501, 44.483191], [19.0123287, 44.482505], [19.0123483, 44.4816873], [19.0115293, 44.4802475], [19.0113616, 44.4794238], [19.0112582, 44.4786719], [19.01182, 44.4776428], [19.0131756, 44.4767952], [19.0137794, 44.4755228], [19.0144949, 44.4749683], [19.0159065, 44.4727165], [19.0168373, 44.4712405], [19.0176031, 44.4696687], [19.0182432, 44.4683841], [19.0185283, 44.467684], [19.0184808, 44.46689], [19.018014, 44.4661919], [19.0170749, 44.4649292], [19.0157695, 44.46384], [19.0140337, 44.4628266], [19.0110653, 44.4612745], [19.0087509, 44.4602251], [19.0065959, 44.4596785], [19.0053465, 44.4590321], [19.0019643, 44.4577174], [19.0003539, 44.4569829], [18.9991912, 44.4567614], [18.9971259, 44.4559717], [18.9959208, 44.4555563], [18.9902858, 44.4559594], [18.9886255, 44.4560112], [18.9857745, 44.4563344], [18.9844775, 44.4564382], [18.9836334, 44.4569689], [18.9826719, 44.4570247], [18.9809948, 44.4568532], [18.9782447, 44.45682], [18.975348, 44.4544237], [18.9688098, 44.4472112], [18.9647274, 44.4432365], [18.9617705, 44.4395551]]]}}]}