{"type":"FeatureCollection","features":[{"type":"Feature","properties":{"buffer_km":2.0,"note":"nearby band: within buffer_km of the municipality"},"geometry":{"type":"Polygon","coordinates":[[[18.04556,44.36367],[18.04573,44.36544],[18.04629,44.3676],[18.04722,44.3697],[18.04821,44.37131],[18.05056,44.37463],[18.05501,44.37977],[18.05992,44.38602],[18.06128,44.38746],[18.06324,44.38912],[18.06951,44.39354],[18.07197,44.39488],[18.07465,44.39599],[18.07808,44.397],[18.09298,44.40015],[18.09628,44.4011],[18.09612,44.40302],[18.09626,44.40503],[18.09516,44.40671],[18.09418,44.40881],[18.09357,44.41098],[18.09333,44.41319],[18.09341,44.41496],[18.09385,44.41715],[18.09564,44.42155],[18.09426,44.42286],[18.093,44.42434],[18.09194,44.4259],[18.09102,44.42769],[18.08975,44.42895],[18.0885,44.43046],[18.08691,44.43313],[18.08461,44.43564],[18.08277,44.43859],[18.08174,44.44112],[18.08128,44.4433],[18.0812,44.44549],[18.08159,44.44812],[18.08233,44.45025],[18.08368,44.4527],[18.08519,44.45462],[18.0874,44.45673],[18.08971,44.45845],[18.09547,44.46219],[18.0975,44.46327],[18.10015,44.46438],[18.1033,44.46604],[18.10519,44.46856],[18.1074,44.47066],[18.11002,44.47251],[18.11339,44.47423],[18.11245,44.47706],[18.11206,44.48053],[18.11216,44.48226],[18.11261,44.48512],[18.11331,44.48774],[18.1149,44.49122],[18.11645,44.4935],[18.11914,44.49654],[18.12247,44.49925],[18.12469,44.50069],[18.12714,44.50193],[18.13065,44.50334],[18.13343,44.50424],[18.13634,44.50489],[18.14204,44.5057],[18.14497,44.50593],[18.14782,44.50596],[18.15003,44.50846],[18.15145,44.51082],[18.15265,44.51238],[18.15407,44.51384],[18.15568,44.51519],[18.15794,44.51671],[18.16045,44.51802],[18.16316,44.5191],[18.16663,44.52007],[18.17088,44.52072],[18.1746,44.52085],[18.17831,44.52059],[18.18192,44.51994],[18.1848,44.51911],[18.18699,44.51827],[18.19945,44.51228],[18.20739,44.51343],[18.21427,44.51406],[18.2173,44.51414],[18.22026,44.51397],[18.22313,44.51414],[18.22697,44.51415],[18.22798,44.51608],[18.22909,44.51766],[18.23041,44.51915],[18.23192,44.52054],[18.23363,44.52183],[18.23549,44.52298],[18.23751,44.524],[18.23966,44.52487],[18.24308,44.52589],[18.24607,44.52645],[18.24913,44.52675],[18.25266,44.5268],[18.25671,44.52818],[18.2604,44.52903],[18.26275,44.53055],[18.26526,44.53182],[18.26797,44.53286],[18.27084,44.53365],[18.27382,44.53419],[18.2777,44.53455],[18.28066,44.53461],[18.28302,44.53448],[18.28801,44.5338],[18.29037,44.53324],[18.29264,44.53252],[18.29532,44.5314],[18.29732,44.53034],[18.29915,44.52914],[18.30153,44.52734],[18.30391,44.52699],[18.3062,44.52648],[18.31189,44.52473],[18.31515,44.52348],[18.31811,44.52191],[18.32112,44.51971],[18.32325,44.51756],[18.32441,44.51601],[18.32604,44.5134],[18.32883,44.50971],[18.3303,44.50701],[18.33178,44.50538],[18.33296,44.5038],[18.33391,44.50214],[18.33463,44.50042],[18.3351,44.49866],[18.33542,44.49641],[18.33686,44.49471],[18.34061,44.48927],[18.3416,44.4872],[18.34332,44.48231],[18.34469,44.48023],[18.34636,44.47706],[18.34841,44.47494],[18.34981,44.47298],[18.35104,44.47049],[18.35166,44.46833],[18.35191,44.46613],[18.35178,44.46393],[18.35127,44.46175],[18.3504,44.45964],[18.34917,44.45762],[18.34761,44.45572],[18.34573,44.45397],[18.34344,44.45232],[18.34477,44.44964],[18.34545,44.44705],[18.34561,44.44441],[18.34524,44.44186],[18.34902,44.44018],[18.35293,44.43772],[18.35636,44.43734],[18.36007,44.43711],[18.36605,44.43628],[18.36921,44.43749],[18.37209,44.43825],[18.37508,44.43876],[18.37813,44.43901],[18.38119,44.43898],[18.38424,44.43869],[18.38721,44.43813],[18.39061,44.43713],[18.39571,44.43529],[18.39842,44.43409],[18.40722,44.4288],[18.41026,44.42712],[18.41242,44.42553],[18.41429,44.42377],[18.41584,44.42185],[18.41691,44.4201],[18.41898,44.41927],[18.42247,44.41761],[18.43417,44.41313],[18.4438,44.40914],[18.4493,44.40629],[18.45166,44.40485],[18.45336,44.40356],[18.45487,44.40215],[18.45619,44.40064],[18.45728,44.39905],[18.45816,44.39739],[18.4588,44.39567],[18.4592,44.39392],[18.45936,44.3917],[18.45905,44.38905],[18.45819,44.38646],[18.45589,44.38221],[18.45442,44.38014],[18.45446,44.37754],[18.45396,44.37491],[18.45314,44.37279],[18.45171,44.37039],[18.45539,44.36937],[18.45938,44.36981],[18.46304,44.3698],[18.46666,44.36941],[18.47016,44.36865],[18.47346,44.36753],[18.47684,44.36589],[18.48037,44.36492],[18.48313,44.36383],[18.48567,44.3625],[18.49018,44.3597],[18.49221,44.35803],[18.49362,44.35658],[18.49768,44.35113],[18.49975,44.34965],[18.50367,44.34717],[18.50545,44.34579],[18.51018,44.3412],[18.51191,44.33921],[18.51614,44.33241],[18.51712,44.33032],[18.51765,44.3286],[18.51795,44.32685],[18.518,44.32508],[18.5178,44.32332],[18.51737,44.32158],[18.51671,44.31988],[18.51581,44.31823],[18.51438,44.31628],[18.51301,44.31481],[18.51102,44.31313],[18.50923,44.31192],[18.50728,44.31084],[18.5052,44.3099],[18.50299,44.30911],[18.49315,44.30642],[18.4908,44.30596],[18.48841,44.30567],[18.48377,44.30554],[18.48227,44.30426],[18.48047,44.30299],[18.4761,44.30047],[18.47305,44.29835],[18.47061,44.29702],[18.46402,44.29419],[18.46066,44.29312],[18.45831,44.29261],[18.4559,44.29227],[18.45127,44.29208],[18.44591,44.28725],[18.44379,44.28572],[18.44191,44.28464],[18.43886,44.28326],[18.43255,44.281],[18.42476,44.27731],[18.42149,44.27613],[18.41742,44.27521],[18.41319,44.27479],[18.41075,44.27479],[18.4,44.27533],[18.39488,44.27365],[18.3918,44.27285],[18.38882,44.27125],[18.38615,44.27017],[18.37938,44.26818],[18.37626,44.26752],[18.37114,44.26678],[18.36692,44.26644],[18.36449,44.26647],[18.36148,44.26676],[18.35912,44.26717],[18.35627,44.26792],[18.35409,44.26869],[18.35153,44.26986],[18.3465,44.27295],[18.34424,44.27255],[18.34182,44.27229],[18.33937,44.2722],[18.33692,44.27229],[18.3345,44.27255],[18.33212,44.27297],[18.32981,44.27356],[18.32788,44.27421],[18.32658,44.27383],[18.32356,44.27144],[18.31932,44.26885],[18.31637,44.2659],[18.31486,44.26459],[18.31,44.2611],[18.30758,44.25964],[18.30491,44.25842],[18.30142,44.25727],[18.29687,44.25454],[18.29327,44.25295],[18.28993,44.25196],[18.28128,44.2499],[18.27868,44.24943],[18.27055,44.24382],[18.26857,44.24271],[18.26644,44.24176],[18.26361,44.24079],[18.25586,44.2387],[18.25184,44.23789],[18.2477,44.23757],[18.24111,44.23757],[18.23865,44.2377],[18.23562,44.23811],[18.23211,44.23895],[18.22988,44.23971],[18.22304,44.24247],[18.21925,44.2421],[18.21564,44.24211],[18.21325,44.24232],[18.21033,44.24282],[18.20772,44.2428],[18.20526,44.24297],[18.20108,44.24359],[18.19767,44.24453],[18.19472,44.24568],[18.19225,44.24694],[18.18978,44.24858],[18.18752,44.24847],[18.18507,44.24852],[18.17548,44.2493],[18.17161,44.24909],[18.16746,44.24871],[18.1608,44.24875],[18.1523,44.24972],[18.14933,44.25032],[18.14703,44.25099],[18.14432,44.25205],[18.14011,44.2542],[18.13671,44.2565],[18.13349,44.25908],[18.1314,44.26135],[18.12992,44.26364],[18.12771,44.26523],[18.12442,44.26804],[18.12195,44.27057],[18.12082,44.27214],[18.11991,44.27378],[18.11923,44.27548],[18.11882,44.27701],[18.1094,44.27713],[18.10362,44.27776],[18.101,44.27817],[18.09913,44.27728],[18.09699,44.27646],[18.09028,44.27444],[18.08654,44.27379],[18.08116,44.27264],[18.07872,44.27235],[18.07625,44.27223],[18.07378,44.27229],[18.07133,44.27253],[18.06716,44.27335],[18.06324,44.27468],[18.06117,44.27565],[18.05924,44.27676],[18.05665,44.27867],[18.05449,44.28083],[18.05304,44.2828],[18.05176,44.2853],[18.05102,44.28791],[18.05056,44.29199],[18.0486,44.29942],[18.04747,44.30468],[18.04559,44.30784],[18.0448,44.30948],[18.04423,44.31116],[18.04322,44.31543],[18.04294,44.31719],[18.04289,44.31896],[18.04309,44.32073],[18.04353,44.32247],[18.0442,44.32417],[18.04511,44.32582],[18.04624,44.3274],[18.0475,44.32881],[18.04369,44.33318],[18.04054,44.33627],[18.03926,44.33788],[18.0372,44.34084],[18.03626,44.34247],[18.03555,44.34416],[18.03499,44.34633],[18.03481,44.34854],[18.03508,44.35118],[18.03572,44.35334],[18.03697,44.35583],[18.03839,44.35779],[18.04013,44.3596],[18.04174,44.36094],[18.04556,44.36367]],[[18.06167,44.34595],[18.06436,44.34339],[18.06884,44.33826],[18.07242,44.33506],[18.07332,44.33058],[18.07242,44.32417],[18.07242,44.32224],[18.06794,44.3184],[18.06884,44.31455],[18.07153,44.31007],[18.07242,44.30686],[18.07332,44.30237],[18.07545,44.29429],[18.07586,44.29022],[18.08105,44.29143],[18.08251,44.29155],[18.08387,44.2921],[18.08626,44.29272],[18.0871,44.29326],[18.08738,44.29463],[18.09197,44.29666],[18.09358,44.29771],[18.09607,44.29971],[18.10252,44.30015],[18.10581,44.29649],[18.10764,44.29552],[18.11164,44.29505],[18.11512,44.29519],[18.1172,44.29501],[18.12002,44.295],[18.12129,44.29529],[18.12937,44.29598],[18.1311,44.29572],[18.13781,44.2934],[18.14229,44.28955],[18.14408,44.28634],[18.14408,44.28378],[18.14348,44.28213],[18.1436,44.27961],[18.1465,44.27712],[18.14781,44.2765],[18.15159,44.27364],[18.1533,44.27008],[18.15589,44.26816],[18.15761,44.2673],[18.15925,44.26758],[18.16008,44.2671],[18.16259,44.2667],[18.16289,44.26718],[18.16375,44.26721],[18.16385,44.26782],[18.16463,44.26774],[18.16461,44.26727],[18.16615,44.26708],[18.16632,44.26668],[18.1688,44.26703],[18.17027,44.2678],[18.17164,44.26708],[18.17398,44.26743],[18.17482,44.26834],[18.17654,44.26839],[18.17804,44.26813],[18.17989,44.26702],[18.18177,44.26704],[18.18165,44.26753],[18.18186,44.26782],[18.18219,44.26801],[18.18266,44.268],[18.18285,44.26788],[18.18242,44.26754],[18.18249,44.26704],[18.18292,44.26693],[18.18297,44.26711],[18.18349,44.26709],[18.18348,44.2668],[18.18383,44.26687],[18.18415,44.26738],[18.18493,44.26792],[18.1854,44.26795],[18.18549,44.2676],[18.18612,44.26808],[18.18653,44.26809],[18.18671,44.2679],[18.18646,44.2675],[18.18714,44.26729],[18.18702,44.26646],[18.18848,44.26675],[18.1901,44.26664],[18.19015,44.26678],[18.19053,44.26686],[18.19363,44.26716],[18.19575,44.26685],[18.19633,44.26688],[18.19653,44.26653],[18.19725,44.26608],[18.19855,44.26579],[18.20104,44.26472],[18.20252,44.26423],[18.2034,44.26409],[18.20377,44.26391],[18.20687,44.26405],[18.20732,44.26158],[18.20822,44.26084],[18.20883,44.26078],[18.2103,44.26114],[18.21152,44.26114],[18.21228,44.26139],[18.21754,44.26005],[18.22291,44.26069],[18.22829,44.26069],[18.23546,44.25812],[18.24172,44.25556],[18.2471,44.25556],[18.25427,44.25748],[18.25964,44.26133],[18.2686,44.2671],[18.27397,44.2671],[18.28204,44.26903],[18.28831,44.27288],[18.29279,44.27416],[18.29637,44.27672],[18.30085,44.28121],[18.30622,44.28442],[18.3116,44.28891],[18.32951,44.29404],[18.3331,44.29404],[18.33758,44.29147],[18.33937,44.29019],[18.34385,44.2934],[18.34922,44.29404],[18.35459,44.29212],[18.35818,44.28955],[18.36624,44.28442],[18.37072,44.28506],[18.3752,44.28635],[18.37968,44.28891],[18.38505,44.29019],[18.3967,44.29404],[18.39938,44.2934],[18.41193,44.29276],[18.41999,44.2966],[18.42715,44.29917],[18.43074,44.30237],[18.43701,44.31007],[18.45224,44.31007],[18.45671,44.31199],[18.4594,44.31391],[18.46388,44.31648],[18.46657,44.31904],[18.46657,44.32289],[18.47105,44.32353],[18.48538,44.32353],[18.49295,44.32559],[18.48981,44.33072],[18.48623,44.33424],[18.48265,44.33649],[18.47727,44.34033],[18.47234,44.34706],[18.46966,44.34866],[18.46518,44.34962],[18.46115,44.35186],[18.45756,44.35026],[18.45667,44.34962],[18.45443,44.34898],[18.44905,44.3509],[18.44457,44.35314],[18.43965,44.3525],[18.43338,44.34802],[18.42845,44.34994],[18.42532,44.35154],[18.42084,44.3525],[18.4177,44.35154],[18.41277,44.35026],[18.40426,44.34898],[18.40202,44.35026],[18.40023,44.35442],[18.39889,44.3557],[18.39934,44.35731],[18.40113,44.35891],[18.40382,44.36019],[18.4074,44.36275],[18.39755,44.36883],[18.39665,44.37011],[18.40158,44.37299],[18.41277,44.38004],[18.41636,44.38004],[18.41949,44.3778],[18.42352,44.37556],[18.4268,44.37714],[18.42943,44.37865],[18.42874,44.3813],[18.42576,44.3867],[18.42775,44.3879],[18.42983,44.38769],[18.43284,44.38931],[18.43427,44.39188],[18.43069,44.3938],[18.42218,44.39732],[18.40964,44.40212],[18.40561,44.40404],[18.40247,44.40436],[18.39889,44.40532],[18.39486,44.40884],[18.39351,44.41044],[18.39341,44.41378],[18.39069,44.4147],[18.38953,44.41604],[18.3864,44.41778],[18.38391,44.41941],[18.37938,44.42104],[18.37221,44.4165],[18.36888,44.41492],[18.36037,44.41876],[18.35651,44.4193],[18.35326,44.41946],[18.35046,44.41982],[18.34702,44.41994],[18.33977,44.42196],[18.33394,44.4258],[18.33126,44.42644],[18.32632,44.42882],[18.31866,44.42976],[18.31814,44.43291],[18.31835,44.43603],[18.31832,44.4411],[18.31737,44.44307],[18.32051,44.44499],[18.3153,44.45161],[18.31491,44.45468],[18.31411,44.45669],[18.31469,44.46353],[18.31827,44.46481],[18.32185,44.46545],[18.32679,44.46578],[18.3241,44.46738],[18.32276,44.4709],[18.32141,44.47345],[18.31962,44.47601],[18.31738,44.4824],[18.3147,44.48624],[18.31156,44.48879],[18.31067,44.49263],[18.31022,44.49614],[18.30753,44.49902],[18.30619,44.50189],[18.3035,44.50541],[18.30171,44.50828],[18.29768,44.50956],[18.29275,44.5102],[18.28333,44.51419],[18.28286,44.51519],[18.28172,44.51549],[18.28134,44.51602],[18.28132,44.51646],[18.27993,44.51663],[18.27847,44.51651],[18.27686,44.51487],[18.27596,44.51438],[18.27375,44.51361],[18.27234,44.5129],[18.27147,44.51205],[18.26618,44.51152],[18.26238,44.51016],[18.25985,44.50881],[18.25098,44.50881],[18.25161,44.50835],[18.25415,44.50519],[18.25668,44.50339],[18.25541,44.50022],[18.25161,44.49842],[18.24845,44.49525],[18.24464,44.49254],[18.24021,44.49209],[18.23578,44.49345],[18.23198,44.49435],[18.22691,44.49616],[18.22374,44.49616],[18.22121,44.4957],[18.21677,44.49616],[18.21171,44.49571],[18.20537,44.4948],[18.1965,44.49209],[18.19334,44.49209],[18.187,44.4948],[18.1851,44.49751],[18.17399,44.50286],[18.17271,44.5006],[18.17095,44.49839],[18.16952,44.49689],[18.16815,44.49494],[18.1665,44.49305],[18.16156,44.49009],[18.1586,44.48803],[18.15706,44.48761],[18.15435,44.48739],[18.14869,44.48797],[18.14626,44.48796],[18.14234,44.48741],[18.14039,44.48664],[18.13912,44.48562],[18.13822,44.48451],[18.13758,44.48308],[18.13719,44.48065],[18.13729,44.47978],[18.13768,44.479],[18.1391,44.47784],[18.14077,44.4769],[18.13951,44.47615],[18.13932,44.47584],[18.13912,44.47412],[18.13943,44.47367],[18.14002,44.47356],[18.14071,44.47392],[18.14101,44.47422],[18.1414,44.474],[18.14126,44.47388],[18.14174,44.47356],[18.1422,44.47302],[18.14235,44.47252],[18.14169,44.47123],[18.14175,44.47089],[18.14329,44.4704],[18.14342,44.46959],[18.1438,44.46908],[18.14441,44.46863],[18.14485,44.468],[18.14486,44.46769],[18.14453,44.46703],[18.14479,44.46526],[18.14402,44.46395],[18.14395,44.46333],[18.14353,44.46223],[18.14314,44.4618],[18.1418,44.46102],[18.14024,44.45915],[18.13924,44.45822],[18.13717,44.45722],[18.13339,44.45747],[18.13229,44.45736],[18.12819,44.45819],[18.12743,44.45842],[18.12734,44.45884],[18.12629,44.45879],[18.12638,44.45763],[18.12688,44.45701],[18.12683,44.45594],[18.12651,44.45557],[18.12548,44.45506],[18.12502,44.45453],[18.12469,44.45383],[18.12429,44.45354],[18.12359,44.45235],[18.12225,44.45236],[18.12112,44.45217],[18.11971,44.45183],[18.11909,44.45139],[18.11657,44.45077],[18.11614,44.45014],[18.11515,44.4498],[18.11472,44.44877],[18.114,44.44761],[18.11221,44.44839],[18.11157,44.44836],[18.11061,44.4478],[18.11071,44.44682],[18.10956,44.44675],[18.1094,44.44636],[18.10907,44.44635],[18.10898,44.44583],[18.10858,44.44582],[18.10693,44.44535],[18.10664,44.44489],[18.1063,44.44488],[18.107,44.44394],[18.10819,44.4437],[18.10969,44.44213],[18.11078,44.43978],[18.11071,44.43885],[18.11108,44.43854],[18.11241,44.43826],[18.11288,44.43784],[18.11345,44.43766],[18.11363,44.4371],[18.11396,44.43686],[18.11506,44.43665],[18.11482,44.43499],[18.11487,44.4333],[18.11503,44.43297],[18.11515,44.4329],[18.11562,44.43309],[18.11606,44.43272],[18.11644,44.43259],[18.11666,44.43224],[18.11718,44.43186],[18.11879,44.43098],[18.12147,44.4313],[18.12374,44.43099],[18.12417,44.43082],[18.12613,44.4305],[18.12574,44.42918],[18.12594,44.42781],[18.1271,44.42668],[18.12855,44.42577],[18.13048,44.42498],[18.13144,44.424],[18.13155,44.42274],[18.13102,44.42124],[18.12933,44.41903],[18.12851,44.41821],[18.12762,44.41774],[18.12653,44.41736],[18.12479,44.41697],[18.12411,44.41696],[18.12337,44.41722],[18.12245,44.41777],[18.12155,44.41698],[18.12022,44.41722],[18.11964,44.41626],[18.12149,44.41537],[18.12065,44.41472],[18.11995,44.41485],[18.11886,44.41419],[18.11842,44.41348],[18.11891,44.41327],[18.11949,44.4128],[18.11998,44.41269],[18.12038,44.41241],[18.12102,44.41096],[18.12153,44.41065],[18.12177,44.41029],[18.12175,44.40953],[18.12226,44.40934],[18.12306,44.40942],[18.12361,44.40932],[18.1248,44.40872],[18.12502,44.4084],[18.12469,44.4078],[18.12324,44.40713],[18.12328,44.40665],[18.12373,44.40633],[18.12371,44.40589],[18.12307,44.4054],[18.12304,44.40492],[18.12285,44.40467],[18.12165,44.40381],[18.12176,44.40347],[18.12121,44.40311],[18.12141,44.40272],[18.12131,44.40248],[18.12209,44.40204],[18.12377,44.40044],[18.12461,44.39883],[18.12438,44.39782],[18.12706,44.39718],[18.12706,44.39334],[18.11184,44.3863],[18.10109,44.3831],[18.08586,44.37989],[18.08138,44.37669],[18.0769,44.37093],[18.07242,44.36581],[18.07063,44.36325],[18.07332,44.3594],[18.07332,44.35748],[18.06973,44.35492],[18.06526,44.35236],[18.05988,44.34851],[18.06167,44.34595]]]}}]}