{"type":"FeatureCollection","features":[{"type":"Feature","properties":{"name":"Grad Zavidovići","admin_level":6,"source":"OpenStreetMap relation 2528292","licence":"ODbL 1.0"},"geometry":{"type":"Polygon","coordinates":[[[18.05988,44.348514],[18.061671,44.345952],[18.064359,44.34339],[18.068838,44.338264],[18.072421,44.335061],[18.073317,44.330575],[18.072421,44.324167],[18.072421,44.322245],[18.067942,44.318399],[18.068838,44.314554],[18.071525,44.310067],[18.072421,44.306862],[18.073317,44.302374],[18.075451,44.294286],[18.075714,44.291525],[18.075858,44.290222],[18.08105,44.291426],[18.082509,44.291549],[18.083872,44.292102],[18.086255,44.292719],[18.087097,44.293264],[18.087376,44.294627],[18.089054,44.295335],[18.091967,44.296658],[18.093581,44.297715],[18.09607,44.299712],[18.099074,44.299988],[18.102522,44.300153],[18.104728,44.297638],[18.105812,44.296494],[18.107636,44.295522],[18.111643,44.295054],[18.115125,44.295189],[18.117205,44.295011],[18.120017,44.294997],[18.121288,44.295288],[18.122719,44.295436],[18.124441,44.295495],[18.129366,44.295983],[18.131103,44.295721],[18.134906,44.294362],[18.137814,44.293399],[18.142293,44.289551],[18.144084,44.286345],[18.144084,44.28378],[18.143478,44.282129],[18.143601,44.279606],[18.146498,44.277125],[18.147807,44.276503],[18.151594,44.273641],[18.152397,44.27197],[18.153298,44.27008],[18.154882,44.268879],[18.155894,44.26816],[18.157611,44.267299],[18.159253,44.267577],[18.160079,44.267099],[18.162589,44.2667],[18.162889,44.267176],[18.163748,44.267207],[18.163855,44.267821],[18.164628,44.267745],[18.164606,44.267268],[18.166151,44.267084],[18.166323,44.266684],[18.168801,44.26703],[18.170271,44.267804],[18.171644,44.267084],[18.173978,44.267427],[18.17482,44.268341],[18.176537,44.26839],[18.178039,44.268129],[18.179112,44.267576],[18.179895,44.267015],[18.181772,44.267038],[18.181643,44.267284],[18.181654,44.26753],[18.181858,44.267821],[18.182191,44.268006],[18.182663,44.267998],[18.182845,44.267875],[18.182802,44.26776],[18.182641,44.267668],[18.18248,44.267637],[18.182416,44.267541],[18.182432,44.267395],[18.182421,44.267153],[18.182486,44.267045],[18.1827,44.266996],[18.18292,44.266934],[18.182969,44.267111],[18.183242,44.267149],[18.183489,44.267091],[18.183553,44.266999],[18.183559,44.266911],[18.183441,44.266849],[18.183484,44.266796],[18.18366,44.266807],[18.183832,44.266865],[18.183854,44.267065],[18.184154,44.267384],[18.184497,44.267656],[18.184932,44.267917],[18.185157,44.267952],[18.185404,44.267952],[18.185425,44.267829],[18.185463,44.267629],[18.185495,44.267602],[18.185656,44.267668],[18.185801,44.267887],[18.186122,44.26808],[18.186305,44.268108],[18.18653,44.268087],[18.186691,44.267987],[18.186713,44.267898],[18.186643,44.267802],[18.186461,44.267503],[18.18674,44.267453],[18.187137,44.267291],[18.187019,44.266461],[18.188478,44.266746],[18.189197,44.266761],[18.189956,44.266655],[18.190098,44.266638],[18.190151,44.266776],[18.190527,44.266857],[18.191932,44.266965],[18.192775,44.267053],[18.193628,44.267164],[18.194986,44.266961],[18.195751,44.266851],[18.196331,44.26688],[18.19653,44.266531],[18.197254,44.266085],[18.197823,44.265993],[18.198552,44.265785],[18.20104,44.264719],[18.202522,44.264234],[18.203402,44.264088],[18.203766,44.263911],[18.205118,44.263903],[18.206867,44.264049],[18.207317,44.261583],[18.207539,44.2615],[18.207818,44.261211],[18.207953,44.260953],[18.208222,44.260839],[18.20883,44.260776],[18.209335,44.26093],[18.209707,44.260979],[18.209989,44.261097],[18.210303,44.261145],[18.210998,44.261091],[18.211523,44.261137],[18.21206,44.261298],[18.212138,44.261378],[18.212284,44.261385],[18.217539,44.260048],[18.222914,44.260689],[18.228289,44.260689],[18.235455,44.258123],[18.241725,44.255557],[18.2471,44.255557],[18.254266,44.257481],[18.256954,44.259406],[18.259641,44.261331],[18.268599,44.267104],[18.273974,44.267104],[18.282036,44.269029],[18.288307,44.272877],[18.292786,44.27416],[18.296369,44.276725],[18.300848,44.281215],[18.306222,44.284421],[18.311597,44.28891],[18.329513,44.29404],[18.333096,44.29404],[18.337575,44.291475],[18.339367,44.290193],[18.343846,44.293399],[18.34922,44.29404],[18.354595,44.292116],[18.358178,44.289551],[18.36624,44.284421],[18.370719,44.285063],[18.375198,44.286345],[18.379677,44.28891],[18.385052,44.290193],[18.396697,44.29404],[18.399385,44.293399],[18.411926,44.292757],[18.414613,44.29404],[18.419988,44.296604],[18.427154,44.299169],[18.430737,44.302374],[18.437008,44.310067],[18.452236,44.310067],[18.456715,44.31199],[18.459402,44.313913],[18.463881,44.316477],[18.466569,44.31904],[18.466569,44.322886],[18.471048,44.323526],[18.48538,44.323526],[18.492947,44.325593],[18.489812,44.330719],[18.487572,44.332962],[18.486229,44.334243],[18.482645,44.336486],[18.477271,44.34033],[18.472344,44.347057],[18.469656,44.348658],[18.465177,44.349619],[18.461146,44.351861],[18.457563,44.35026],[18.456667,44.349619],[18.454428,44.348979],[18.449053,44.3509],[18.444574,44.353142],[18.439647,44.352502],[18.433377,44.348018],[18.42845,44.349939],[18.425315,44.351541],[18.420836,44.352502],[18.417701,44.351541],[18.412774,44.35026],[18.404264,44.348979],[18.402024,44.35026],[18.400233,44.354423],[18.398889,44.355704],[18.399337,44.357306],[18.401128,44.358907],[18.403816,44.360188],[18.407399,44.362749],[18.403368,44.365311],[18.397545,44.368833],[18.396649,44.370114],[18.401576,44.372995],[18.411878,44.379398],[18.412774,44.380038],[18.416357,44.380038],[18.419492,44.377797],[18.423523,44.375557],[18.426797,44.377145],[18.429427,44.378651],[18.42874,44.381299],[18.427138,44.384161],[18.425757,44.386702],[18.42775,44.387898],[18.429831,44.387691],[18.432838,44.389306],[18.434273,44.391881],[18.43069,44.393802],[18.426388,44.395595],[18.425315,44.396042],[18.422179,44.397322],[18.417253,44.399242],[18.409638,44.402122],[18.405607,44.404042],[18.402472,44.404362],[18.398889,44.405322],[18.394858,44.408842],[18.393514,44.410442],[18.393413,44.413781],[18.390689,44.414699],[18.389534,44.416039],[18.386395,44.417776],[18.383907,44.419414],[18.379377,44.421038],[18.376356,44.419176],[18.372214,44.416499],[18.36888,44.414921],[18.36037,44.41876],[18.356507,44.419301],[18.353261,44.419457],[18.350462,44.419823],[18.347017,44.419945],[18.339767,44.421959],[18.333944,44.425797],[18.331257,44.426437],[18.326324,44.428822],[18.318665,44.429761],[18.318143,44.432907],[18.318347,44.436032],[18.318313,44.438356],[18.318319,44.441104],[18.317372,44.443068],[18.320507,44.444986],[18.317009,44.449503],[18.315303,44.451612],[18.314911,44.454679],[18.314112,44.456687],[18.314237,44.458415],[18.314685,44.463529],[18.318268,44.464808],[18.321851,44.465448],[18.326789,44.465783],[18.324102,44.467381],[18.322758,44.470897],[18.321415,44.473454],[18.319623,44.47601],[18.317384,44.482402],[18.314696,44.486236],[18.311561,44.488793],[18.310665,44.492627],[18.310217,44.496141],[18.30753,44.499017],[18.306186,44.501892],[18.303499,44.505406],[18.301707,44.50828],[18.297676,44.509558],[18.292749,44.510197],[18.289614,44.511474],[18.283327,44.514194],[18.283049,44.514918],[18.282857,44.515186],[18.28258,44.515301],[18.282266,44.515299],[18.281723,44.515491],[18.281341,44.51602],[18.281316,44.516456],[18.279928,44.516627],[18.278465,44.516509],[18.278114,44.516211],[18.277469,44.515532],[18.276857,44.51487],[18.275962,44.514377],[18.274954,44.514062],[18.274445,44.51378],[18.273754,44.51361],[18.273018,44.513239],[18.272338,44.5129],[18.271466,44.512051],[18.270889,44.512055],[18.266181,44.511517],[18.26238,44.510162],[18.259846,44.508806],[18.250979,44.508806],[18.251612,44.508355],[18.254146,44.505192],[18.256679,44.503386],[18.255412,44.500223],[18.251612,44.498416],[18.248445,44.495253],[18.244644,44.492542],[18.24021,44.49209],[18.235777,44.493446],[18.231976,44.49435],[18.226909,44.496157],[18.223741,44.496157],[18.221208,44.495705],[18.216774,44.496157],[18.211707,44.495705],[18.205372,44.494801],[18.204106,44.49435],[18.196504,44.49209],[18.193337,44.49209],[18.187003,44.494801],[18.185103,44.497512],[18.173993,44.502865],[18.172714,44.500601],[18.170951,44.498385],[18.169523,44.496887],[18.168151,44.494939],[18.1665,44.493054],[18.161559,44.490086],[18.158599,44.488034],[18.157064,44.487606],[18.154349,44.487387],[18.151426,44.487746],[18.150209,44.487782],[18.148692,44.48797],[18.146262,44.487962],[18.142337,44.487415],[18.140391,44.48664],[18.139124,44.485625],[18.138224,44.484508],[18.137581,44.48308],[18.137193,44.480652],[18.13729,44.479778],[18.137679,44.478999],[18.139097,44.47784],[18.14077,44.476897],[18.139941,44.476321],[18.13979,44.476268],[18.139511,44.476153],[18.139318,44.475839],[18.139318,44.475663],[18.13934,44.475426],[18.139275,44.474698],[18.139125,44.474124],[18.139297,44.473956],[18.139426,44.473673],[18.140016,44.473558],[18.140713,44.473917],[18.141013,44.474224],[18.1414,44.474002],[18.14126,44.473879],[18.141743,44.473565],[18.142204,44.473022],[18.142354,44.472516],[18.142215,44.472073],[18.142086,44.471904],[18.141689,44.47123],[18.141668,44.471085],[18.141754,44.470886],[18.142344,44.470687],[18.142848,44.470595],[18.143288,44.470396],[18.143374,44.470166],[18.143288,44.469952],[18.143417,44.469592],[18.143803,44.469079],[18.144414,44.468627],[18.14465,44.468344],[18.144854,44.467999],[18.144865,44.467685],[18.144693,44.467348],[18.144532,44.467027],[18.144629,44.466506],[18.144683,44.466299],[18.144769,44.465947],[18.144811,44.465526],[18.14479,44.465258],[18.144554,44.464914],[18.144371,44.464646],[18.144232,44.464293],[18.144017,44.463949],[18.14395,44.463335],[18.143728,44.462976],[18.143696,44.462456],[18.143535,44.462234],[18.143138,44.461797],[18.142751,44.461552],[18.142194,44.461284],[18.141797,44.461016],[18.141367,44.460488],[18.140928,44.459998],[18.140595,44.459592],[18.140241,44.459148],[18.139919,44.458803],[18.139243,44.458221],[18.13817,44.4577],[18.137172,44.457218],[18.136947,44.457203],[18.134866,44.457356],[18.133385,44.457471],[18.132913,44.457471],[18.132291,44.457363],[18.131443,44.457509],[18.130928,44.457608],[18.129448,44.457892],[18.128627,44.458056],[18.128187,44.458187],[18.127431,44.458424],[18.127356,44.458501],[18.127334,44.458616],[18.127399,44.458753],[18.127345,44.458845],[18.127184,44.458872],[18.126664,44.458807],[18.126293,44.458795],[18.126342,44.458221],[18.126358,44.457827],[18.126379,44.457631],[18.126594,44.457478],[18.126787,44.457256],[18.126878,44.457011],[18.126889,44.456701],[18.126878,44.456226],[18.12683,44.455943],[18.126513,44.455575],[18.125797,44.455209],[18.125475,44.455056],[18.125017,44.454534],[18.124976,44.454219],[18.124695,44.453833],[18.12429,44.453541],[18.123987,44.453105],[18.123587,44.452345],[18.123305,44.45237],[18.122254,44.452359],[18.121857,44.452313],[18.121122,44.452167],[18.119953,44.451861],[18.119711,44.451834],[18.119572,44.451719],[18.119443,44.451547],[18.119094,44.451386],[18.118601,44.451283],[18.118263,44.451233],[18.117893,44.45108],[18.117555,44.450992],[18.117244,44.450946],[18.116825,44.450862],[18.116573,44.450766],[18.116434,44.450586],[18.11631,44.450375],[18.116139,44.450138],[18.11564,44.449946],[18.115393,44.449877],[18.115146,44.449801],[18.114932,44.449345],[18.114921,44.449196],[18.114722,44.448767],[18.114304,44.448016],[18.114143,44.447702],[18.114003,44.44761],[18.113499,44.447817],[18.112899,44.448135],[18.112212,44.448391],[18.111573,44.448357],[18.111402,44.44828],[18.111171,44.448066],[18.110613,44.447798],[18.11071,44.446818],[18.110415,44.446802],[18.109562,44.446748],[18.109396,44.446362],[18.109068,44.446354],[18.108977,44.445833],[18.10858,44.445822],[18.107851,44.445646],[18.107475,44.445519],[18.106928,44.445347],[18.106703,44.444991],[18.106638,44.444895],[18.106472,44.444903],[18.1063,44.444876],[18.106493,44.444531],[18.106697,44.444206],[18.107003,44.443941],[18.1077,44.443807],[18.108194,44.4437],[18.108612,44.443363],[18.109685,44.44213],[18.11042,44.440556],[18.110645,44.440084],[18.110785,44.439778],[18.110763,44.439453],[18.110704,44.439177],[18.110715,44.438851],[18.110924,44.438683],[18.111085,44.438537],[18.111434,44.438495],[18.111938,44.438388],[18.11241,44.438258],[18.112609,44.438066],[18.112754,44.437917],[18.112877,44.437836],[18.11314,44.437786],[18.113451,44.437656],[18.113537,44.437346],[18.113633,44.437101],[18.113961,44.436856],[18.114261,44.436729],[18.114599,44.436691],[18.114862,44.436699],[18.11506,44.436649],[18.115001,44.436423],[18.114835,44.435707],[18.114819,44.434994],[18.11483,44.43432],[18.114862,44.433642],[18.114873,44.433305],[18.115033,44.432972],[18.115146,44.432899],[18.115388,44.432956],[18.115618,44.433087],[18.115951,44.432857],[18.116063,44.432719],[18.116257,44.432654],[18.116444,44.432589],[18.116659,44.43224],[18.117185,44.431857],[18.117485,44.431677],[18.117936,44.431405],[18.118461,44.43111],[18.118794,44.430984],[18.120317,44.431183],[18.121015,44.431305],[18.121465,44.431305],[18.122538,44.431137],[18.12374,44.430991],[18.124169,44.430815],[18.12613,44.430505],[18.12595,44.42989],[18.125745,44.42918],[18.125784,44.428555],[18.12594,44.427809],[18.126449,44.427275],[18.127098,44.426685],[18.128553,44.425774],[18.129331,44.425459],[18.130482,44.424979],[18.131444,44.423999],[18.131551,44.422742],[18.131017,44.421236],[18.130257,44.420173],[18.12933,44.41903],[18.128514,44.418211],[18.127624,44.417743],[18.126529,44.41736],[18.124791,44.416969],[18.124518,44.41695],[18.12411,44.416965],[18.12337,44.417222],[18.122447,44.41777],[18.121884,44.417211],[18.121546,44.416984],[18.120875,44.417057],[18.120216,44.417218],[18.119985,44.416904],[18.119802,44.416594],[18.119636,44.416264],[18.120221,44.415977],[18.121042,44.415613],[18.121487,44.415371],[18.121165,44.415061],[18.120655,44.414724],[18.120481,44.414716],[18.120323,44.414781],[18.120165,44.414846],[18.120041,44.414871],[18.11995,44.414852],[18.119878,44.414772],[18.119738,44.414662],[18.119537,44.414526],[18.118858,44.414187],[18.118767,44.414114],[18.118692,44.413998],[18.118424,44.413477],[18.118596,44.413409],[18.118909,44.413266],[18.119167,44.413045],[18.119341,44.412892],[18.119486,44.4128],[18.119604,44.412768],[18.119757,44.41275],[18.119982,44.412687],[18.120194,44.412586],[18.120382,44.412409],[18.120639,44.41198],[18.120704,44.411677],[18.120757,44.411559],[18.120891,44.411287],[18.12102,44.410957],[18.121262,44.410781],[18.12153,44.410647],[18.121653,44.410513],[18.121766,44.410294],[18.121707,44.40998],[18.121675,44.409654],[18.12175,44.409528],[18.121986,44.40939],[18.122259,44.409344],[18.122538,44.409332],[18.122715,44.409321],[18.123064,44.409416],[18.123348,44.40939],[18.123606,44.409317],[18.123783,44.409248],[18.123954,44.409152],[18.124797,44.408719],[18.124947,44.408573],[18.125022,44.408401],[18.125001,44.408225],[18.124866,44.407991],[18.124689,44.407795],[18.124099,44.407447],[18.12382,44.407366],[18.123633,44.407301],[18.123418,44.407236],[18.123236,44.407129],[18.123198,44.407037],[18.123279,44.406653],[18.123531,44.406519],[18.123633,44.406454],[18.123729,44.406332],[18.123788,44.406132],[18.123713,44.405891],[18.123547,44.405738],[18.1233,44.405588],[18.123069,44.405397],[18.12301,44.405262],[18.123027,44.405059],[18.123037,44.404925],[18.12285,44.404668],[18.12256,44.404412],[18.122152,44.404078],[18.12197,44.403967],[18.121653,44.40381],[18.121734,44.403595],[18.121755,44.403469],[18.121653,44.403354],[18.121519,44.403285],[18.121267,44.403177],[18.121213,44.403112],[18.121235,44.403024],[18.121406,44.402725],[18.12131,44.40248],[18.121433,44.402403],[18.121723,44.4023],[18.121846,44.402239],[18.122088,44.402043],[18.122195,44.401928],[18.122361,44.401756],[18.122501,44.401641],[18.122635,44.401438],[18.123772,44.400445],[18.124613,44.398831],[18.124377,44.397818],[18.127064,44.397178],[18.127064,44.393338],[18.121689,44.390777],[18.11721,44.388857],[18.111836,44.386297],[18.105565,44.384376],[18.101086,44.383096],[18.094816,44.381815],[18.085858,44.379894],[18.081379,44.376693],[18.077796,44.372211],[18.0769,44.370931],[18.072421,44.365808],[18.070629,44.363246],[18.073317,44.359403],[18.073317,44.357482],[18.069734,44.35492],[18.065255,44.352358],[18.05988,44.348514]]]}}]}